[{"zip":"20001","fips":"11001","name":"District of Columbia","state_id":"DC"},{"zip":"20002","fips":"11001","name":"District of Columbia","state_id":"DC"},{"zip":"20003","fips":"11001","name":"District of Columbia","state_id":"DC"},{"zip":"20004","fips":"11001","name":"District of Columbia","state_id":"DC"},{"zip":"20005","fips":"11001","name":"District of Columbia","state_id":"DC"},{"zip":"20006","fips":"11001","name":"District of Columbia","state_id":"DC"},{"zip":"20007","fips":"11001","name":"District of Columbia","state_id":"DC"},{"zip":"20008","fips":"11001","name":"District of Columbia","state_id":"DC"},{"zip":"20009","fips":"11001","name":"District of Columbia","state_id":"DC"},{"zip":"20010","fips":"11001","name":"District of Columbia","state_id":"DC"},{"zip":"20011","fips":"11001","name":"District of Columbia","state_id":"DC"},{"zip":"20012","fips":"11001","name":"District of Columbia","state_id":"DC"},{"zip":"20013","fips":"11001","name":"District of Columbia","state_id":"DC"},{"zip":"20015","fips":"11001","name":"District of Columbia","state_id":"DC"},{"zip":"20016","fips":"11001","name":"District of Columbia","state_id":"DC"},{"zip":"20017","fips":"11001","name":"District of Columbia","state_id":"DC"},{"zip":"20018","fips":"11001","name":"District of Columbia","state_id":"DC"},{"zip":"20019","fips":"11001","name":"District of Columbia","state_id":"DC"},{"zip":"20020","fips":"11001","name":"District of Columbia","state_id":"DC"},{"zip":"20024","fips":"11001","name":"District of Columbia","state_id":"DC"},{"zip":"20026","fips":"11001","name":"District of Columbia","state_id":"DC"},{"zip":"20027","fips":"11001","name":"District of Columbia","state_id":"DC"},{"zip":"20029","fips":"11001","name":"District of Columbia","state_id":"DC"},{"zip":"20030","fips":"11001","name":"District of Columbia","state_id":"DC"},{"zip":"20032","fips":"11001","name":"District of Columbia","state_id":"DC"},{"zip":"20033","fips":"11001","name":"District of Columbia","state_id":"DC"},{"zip":"20035","fips":"11001","name":"District of Columbia","state_id":"DC"},{"zip":"20036","fips":"11001","name":"District of Columbia","state_id":"DC"},{"zip":"20037","fips":"11001","name":"District of Columbia","state_id":"DC"},{"zip":"20038","fips":"11001","name":"District of Columbia","state_id":"DC"},{"zip":"20039","fips":"11001","name":"District of Columbia","state_id":"DC"},{"zip":"20040","fips":"11001","name":"District of Columbia","state_id":"DC"},{"zip":"20041","fips":"51059","name":"Fairfax County","state_id":"VA"},{"zip":"20042","fips":"11001","name":"District of Columbia","state_id":"DC"},{"zip":"20043","fips":"11001","name":"District of Columbia","state_id":"DC"},{"zip":"20044","fips":"11001","name":"District of Columbia","state_id":"DC"},{"zip":"20045","fips":"11001","name":"District of Columbia","state_id":"DC"},{"zip":"20047","fips":"11001","name":"District of Columbia","state_id":"DC"},{"zip":"20049","fips":"11001","name":"District of Columbia","state_id":"DC"},{"zip":"20052","fips":"11001","name":"District of Columbia","state_id":"DC"},{"zip":"20053","fips":"11001","name":"District of Columbia","state_id":"DC"},{"zip":"20055","fips":"11001","name":"District of Columbia","state_id":"DC"},{"zip":"20056","fips":"11001","name":"District of Columbia","state_id":"DC"},{"zip":"20057","fips":"11001","name":"District of Columbia","state_id":"DC"},{"zip":"20058","fips":"24031","name":"Montgomery County","state_id":"MD"},{"zip":"20059","fips":"11001","name":"District of Columbia","state_id":"DC"},{"zip":"20060","fips":"11001","name":"District of Columbia","state_id":"DC"},{"zip":"20062","fips":"11001","name":"District of Columbia","state_id":"DC"},{"zip":"20063","fips":"11001","name":"District of Columbia","state_id":"DC"},{"zip":"20064","fips":"11001","name":"District of Columbia","state_id":"DC"},{"zip":"20065","fips":"11001","name":"District of Columbia","state_id":"DC"},{"zip":"20066","fips":"11001","name":"District of Columbia","state_id":"DC"},{"zip":"20069","fips":"51059","name":"Fairfax County","state_id":"VA"},{"zip":"20070","fips":"51059","name":"Fairfax County","state_id":"VA"},{"zip":"20071","fips":"11001","name":"District of Columbia","state_id":"DC"},{"zip":"20073","fips":"11001","name":"District of Columbia","state_id":"DC"},{"zip":"20076","fips":"11001","name":"District of Columbia","state_id":"DC"},{"zip":"20090","fips":"11001","name":"District of Columbia","state_id":"DC"},{"zip":"20091","fips":"11001","name":"District of Columbia","state_id":"DC"}]
