[{"zip":"20101","fips":"51107","name":"Loudoun County","state_id":"VA"},{"zip":"20103","fips":"51107","name":"Loudoun County","state_id":"VA"},{"zip":"20104","fips":"51107","name":"Loudoun County","state_id":"VA"},{"zip":"20105","fips":"51107","name":"Loudoun County","state_id":"VA"},{"zip":"20106","fips":"51157","name":"Rappahannock County","state_id":"VA"},{"zip":"20106","fips":"51047","name":"Culpeper County","state_id":"VA"},{"zip":"20106","fips":"51061","name":"Fauquier County","state_id":"VA"},{"zip":"20108","fips":"51683","name":"Manassas city","state_id":"VA"},{"zip":"20109","fips":"51153","name":"Prince William County","state_id":"VA"},{"zip":"20110","fips":"51685","name":"Manassas Park city","state_id":"VA"},{"zip":"20110","fips":"51683","name":"Manassas city","state_id":"VA"},{"zip":"20110","fips":"51153","name":"Prince William County","state_id":"VA"},{"zip":"20111","fips":"51685","name":"Manassas Park city","state_id":"VA"},{"zip":"20111","fips":"51153","name":"Prince William County","state_id":"VA"},{"zip":"20112","fips":"51153","name":"Prince William County","state_id":"VA"},{"zip":"20113","fips":"51685","name":"Manassas Park city","state_id":"VA"},{"zip":"20115","fips":"51061","name":"Fauquier County","state_id":"VA"},{"zip":"20117","fips":"51061","name":"Fauquier County","state_id":"VA"},{"zip":"20117","fips":"51107","name":"Loudoun County","state_id":"VA"},{"zip":"20119","fips":"51061","name":"Fauquier County","state_id":"VA"},{"zip":"20119","fips":"51153","name":"Prince William County","state_id":"VA"},{"zip":"20120","fips":"51059","name":"Fairfax County","state_id":"VA"},{"zip":"20120","fips":"51107","name":"Loudoun County","state_id":"VA"},{"zip":"20121","fips":"51059","name":"Fairfax County","state_id":"VA"},{"zip":"20122","fips":"51059","name":"Fairfax County","state_id":"VA"},{"zip":"20124","fips":"51059","name":"Fairfax County","state_id":"VA"},{"zip":"20128","fips":"51061","name":"Fauquier County","state_id":"VA"},{"zip":"20129","fips":"51107","name":"Loudoun County","state_id":"VA"},{"zip":"20130","fips":"51043","name":"Clarke County","state_id":"VA"},{"zip":"20130","fips":"51107","name":"Loudoun County","state_id":"VA"},{"zip":"20130","fips":"51061","name":"Fauquier County","state_id":"VA"},{"zip":"20131","fips":"51107","name":"Loudoun County","state_id":"VA"},{"zip":"20132","fips":"51107","name":"Loudoun County","state_id":"VA"},{"zip":"20135","fips":"51107","name":"Loudoun County","state_id":"VA"},{"zip":"20135","fips":"51043","name":"Clarke County","state_id":"VA"},{"zip":"20136","fips":"51153","name":"Prince William County","state_id":"VA"},{"zip":"20137","fips":"51061","name":"Fauquier County","state_id":"VA"},{"zip":"20137","fips":"51153","name":"Prince William County","state_id":"VA"},{"zip":"20138","fips":"51061","name":"Fauquier County","state_id":"VA"},{"zip":"20139","fips":"51061","name":"Fauquier County","state_id":"VA"},{"zip":"20140","fips":"51061","name":"Fauquier County","state_id":"VA"},{"zip":"20141","fips":"51107","name":"Loudoun County","state_id":"VA"},{"zip":"20143","fips":"51153","name":"Prince William County","state_id":"VA"},{"zip":"20144","fips":"51061","name":"Fauquier County","state_id":"VA"},{"zip":"20146","fips":"51107","name":"Loudoun County","state_id":"VA"},{"zip":"20147","fips":"51107","name":"Loudoun County","state_id":"VA"},{"zip":"20148","fips":"51107","name":"Loudoun County","state_id":"VA"},{"zip":"20149","fips":"51107","name":"Loudoun County","state_id":"VA"},{"zip":"20151","fips":"51107","name":"Loudoun County","state_id":"VA"},{"zip":"20151","fips":"51059","name":"Fairfax County","state_id":"VA"},{"zip":"20152","fips":"51107","name":"Loudoun County","state_id":"VA"},{"zip":"20152","fips":"51059","name":"Fairfax County","state_id":"VA"},{"zip":"20153","fips":"51059","name":"Fairfax County","state_id":"VA"},{"zip":"20155","fips":"51153","name":"Prince William County","state_id":"VA"},{"zip":"20156","fips":"51153","name":"Prince William County","state_id":"VA"},{"zip":"20158","fips":"51107","name":"Loudoun County","state_id":"VA"},{"zip":"20159","fips":"51107","name":"Loudoun County","state_id":"VA"},{"zip":"20160","fips":"51107","name":"Loudoun County","state_id":"VA"},{"zip":"20164","fips":"51107","name":"Loudoun County","state_id":"VA"},{"zip":"20164","fips":"51059","name":"Fairfax County","state_id":"VA"},{"zip":"20165","fips":"51059","name":"Fairfax County","state_id":"VA"},{"zip":"20165","fips":"51107","name":"Loudoun County","state_id":"VA"},{"zip":"20166","fips":"51107","name":"Loudoun County","state_id":"VA"},{"zip":"20167","fips":"51107","name":"Loudoun County","state_id":"VA"},{"zip":"20168","fips":"51153","name":"Prince William County","state_id":"VA"},{"zip":"20169","fips":"51061","name":"Fauquier County","state_id":"VA"},{"zip":"20169","fips":"51153","name":"Prince William County","state_id":"VA"},{"zip":"20170","fips":"51059","name":"Fairfax County","state_id":"VA"},{"zip":"20171","fips":"51059","name":"Fairfax County","state_id":"VA"},{"zip":"20172","fips":"51059","name":"Fairfax County","state_id":"VA"},{"zip":"20175","fips":"51107","name":"Loudoun County","state_id":"VA"},{"zip":"20176","fips":"51107","name":"Loudoun County","state_id":"VA"},{"zip":"20177","fips":"51107","name":"Loudoun County","state_id":"VA"},{"zip":"20178","fips":"51107","name":"Loudoun County","state_id":"VA"},{"zip":"20180","fips":"51107","name":"Loudoun County","state_id":"VA"},{"zip":"20181","fips":"51153","name":"Prince William County","state_id":"VA"},{"zip":"20181","fips":"51061","name":"Fauquier County","state_id":"VA"},{"zip":"20182","fips":"51153","name":"Prince William County","state_id":"VA"},{"zip":"20184","fips":"51107","name":"Loudoun County","state_id":"VA"},{"zip":"20184","fips":"51061","name":"Fauquier County","state_id":"VA"},{"zip":"20186","fips":"51061","name":"Fauquier County","state_id":"VA"},{"zip":"20186","fips":"51047","name":"Culpeper County","state_id":"VA"},{"zip":"20187","fips":"51061","name":"Fauquier County","state_id":"VA"},{"zip":"20188","fips":"51061","name":"Fauquier County","state_id":"VA"},{"zip":"20189","fips":"51107","name":"Loudoun County","state_id":"VA"},{"zip":"20190","fips":"51059","name":"Fairfax County","state_id":"VA"},{"zip":"20191","fips":"51059","name":"Fairfax County","state_id":"VA"},{"zip":"20192","fips":"51059","name":"Fairfax County","state_id":"VA"},{"zip":"20194","fips":"51059","name":"Fairfax County","state_id":"VA"},{"zip":"20195","fips":"51059","name":"Fairfax County","state_id":"VA"},{"zip":"20197","fips":"51107","name":"Loudoun County","state_id":"VA"},{"zip":"20198","fips":"51061","name":"Fauquier County","state_id":"VA"}]
