[{"zip":"20201","fips":"11001","name":"District of Columbia","state_id":"DC"},{"zip":"20202","fips":"11001","name":"District of Columbia","state_id":"DC"},{"zip":"20203","fips":"11001","name":"District of Columbia","state_id":"DC"},{"zip":"20204","fips":"11001","name":"District of Columbia","state_id":"DC"},{"zip":"20206","fips":"51059","name":"Fairfax County","state_id":"VA"},{"zip":"20207","fips":"24031","name":"Montgomery County","state_id":"MD"},{"zip":"20208","fips":"11001","name":"District of Columbia","state_id":"DC"},{"zip":"20210","fips":"11001","name":"District of Columbia","state_id":"DC"},{"zip":"20211","fips":"11001","name":"District of Columbia","state_id":"DC"},{"zip":"20212","fips":"11001","name":"District of Columbia","state_id":"DC"},{"zip":"20213","fips":"11001","name":"District of Columbia","state_id":"DC"},{"zip":"20215","fips":"11001","name":"District of Columbia","state_id":"DC"},{"zip":"20216","fips":"11001","name":"District of Columbia","state_id":"DC"},{"zip":"20217","fips":"11001","name":"District of Columbia","state_id":"DC"},{"zip":"20218","fips":"11001","name":"District of Columbia","state_id":"DC"},{"zip":"20219","fips":"11001","name":"District of Columbia","state_id":"DC"},{"zip":"20220","fips":"11001","name":"District of Columbia","state_id":"DC"},{"zip":"20221","fips":"11001","name":"District of Columbia","state_id":"DC"},{"zip":"20222","fips":"11001","name":"District of Columbia","state_id":"DC"},{"zip":"20223","fips":"11001","name":"District of Columbia","state_id":"DC"},{"zip":"20224","fips":"11001","name":"District of Columbia","state_id":"DC"},{"zip":"20226","fips":"11001","name":"District of Columbia","state_id":"DC"},{"zip":"20227","fips":"11001","name":"District of Columbia","state_id":"DC"},{"zip":"20228","fips":"11001","name":"District of Columbia","state_id":"DC"},{"zip":"20229","fips":"11001","name":"District of Columbia","state_id":"DC"},{"zip":"20230","fips":"11001","name":"District of Columbia","state_id":"DC"},{"zip":"20233","fips":"24033","name":"Prince George's County","state_id":"MD"},{"zip":"20235","fips":"11001","name":"District of Columbia","state_id":"DC"},{"zip":"20237","fips":"11001","name":"District of Columbia","state_id":"DC"},{"zip":"20239","fips":"11001","name":"District of Columbia","state_id":"DC"},{"zip":"20240","fips":"11001","name":"District of Columbia","state_id":"DC"},{"zip":"20241","fips":"11001","name":"District of Columbia","state_id":"DC"},{"zip":"20242","fips":"11001","name":"District of Columbia","state_id":"DC"},{"zip":"20244","fips":"11001","name":"District of Columbia","state_id":"DC"},{"zip":"20245","fips":"11001","name":"District of Columbia","state_id":"DC"},{"zip":"20250","fips":"11001","name":"District of Columbia","state_id":"DC"},{"zip":"20254","fips":"11001","name":"District of Columbia","state_id":"DC"},{"zip":"20260","fips":"11001","name":"District of Columbia","state_id":"DC"},{"zip":"20268","fips":"11001","name":"District of Columbia","state_id":"DC"},{"zip":"20270","fips":"11001","name":"District of Columbia","state_id":"DC"},{"zip":"20289","fips":"11001","name":"District of Columbia","state_id":"DC"}]
