[{"zip":"20301","fips":"51013","name":"Arlington County","state_id":"VA"},{"zip":"20303","fips":"11001","name":"District of Columbia","state_id":"DC"},{"zip":"20306","fips":"11001","name":"District of Columbia","state_id":"DC"},{"zip":"20310","fips":"51013","name":"Arlington County","state_id":"VA"},{"zip":"20318","fips":"11001","name":"District of Columbia","state_id":"DC"},{"zip":"20319","fips":"11001","name":"District of Columbia","state_id":"DC"},{"zip":"20330","fips":"51013","name":"Arlington County","state_id":"VA"},{"zip":"20340","fips":"11001","name":"District of Columbia","state_id":"DC"},{"zip":"20350","fips":"51013","name":"Arlington County","state_id":"VA"},{"zip":"20370","fips":"11001","name":"District of Columbia","state_id":"DC"},{"zip":"20372","fips":"11001","name":"District of Columbia","state_id":"DC"},{"zip":"20373","fips":"11001","name":"District of Columbia","state_id":"DC"},{"zip":"20374","fips":"11001","name":"District of Columbia","state_id":"DC"},{"zip":"20375","fips":"11001","name":"District of Columbia","state_id":"DC"},{"zip":"20376","fips":"11001","name":"District of Columbia","state_id":"DC"},{"zip":"20380","fips":"11001","name":"District of Columbia","state_id":"DC"},{"zip":"20388","fips":"11001","name":"District of Columbia","state_id":"DC"},{"zip":"20389","fips":"24033","name":"Prince George's County","state_id":"MD"},{"zip":"20390","fips":"11001","name":"District of Columbia","state_id":"DC"},{"zip":"20391","fips":"11001","name":"District of Columbia","state_id":"DC"},{"zip":"20392","fips":"11001","name":"District of Columbia","state_id":"DC"},{"zip":"20395","fips":"24033","name":"Prince George's County","state_id":"MD"},{"zip":"20398","fips":"11001","name":"District of Columbia","state_id":"DC"}]
