[{"zip":"20401","fips":"11001","name":"District of Columbia","state_id":"DC"},{"zip":"20402","fips":"11001","name":"District of Columbia","state_id":"DC"},{"zip":"20403","fips":"11001","name":"District of Columbia","state_id":"DC"},{"zip":"20404","fips":"11001","name":"District of Columbia","state_id":"DC"},{"zip":"20405","fips":"11001","name":"District of Columbia","state_id":"DC"},{"zip":"20406","fips":"51013","name":"Arlington County","state_id":"VA"},{"zip":"20407","fips":"11001","name":"District of Columbia","state_id":"DC"},{"zip":"20408","fips":"11001","name":"District of Columbia","state_id":"DC"},{"zip":"20410","fips":"11001","name":"District of Columbia","state_id":"DC"},{"zip":"20411","fips":"11001","name":"District of Columbia","state_id":"DC"},{"zip":"20412","fips":"11001","name":"District of Columbia","state_id":"DC"},{"zip":"20413","fips":"11001","name":"District of Columbia","state_id":"DC"},{"zip":"20414","fips":"11001","name":"District of Columbia","state_id":"DC"},{"zip":"20415","fips":"11001","name":"District of Columbia","state_id":"DC"},{"zip":"20416","fips":"11001","name":"District of Columbia","state_id":"DC"},{"zip":"20417","fips":"11001","name":"District of Columbia","state_id":"DC"},{"zip":"20418","fips":"11001","name":"District of Columbia","state_id":"DC"},{"zip":"20419","fips":"11001","name":"District of Columbia","state_id":"DC"},{"zip":"20420","fips":"11001","name":"District of Columbia","state_id":"DC"},{"zip":"20421","fips":"11001","name":"District of Columbia","state_id":"DC"},{"zip":"20422","fips":"11001","name":"District of Columbia","state_id":"DC"},{"zip":"20423","fips":"11001","name":"District of Columbia","state_id":"DC"},{"zip":"20424","fips":"11001","name":"District of Columbia","state_id":"DC"},{"zip":"20425","fips":"11001","name":"District of Columbia","state_id":"DC"},{"zip":"20426","fips":"11001","name":"District of Columbia","state_id":"DC"},{"zip":"20427","fips":"11001","name":"District of Columbia","state_id":"DC"},{"zip":"20428","fips":"11001","name":"District of Columbia","state_id":"DC"},{"zip":"20429","fips":"11001","name":"District of Columbia","state_id":"DC"},{"zip":"20431","fips":"11001","name":"District of Columbia","state_id":"DC"},{"zip":"20433","fips":"11001","name":"District of Columbia","state_id":"DC"},{"zip":"20434","fips":"11001","name":"District of Columbia","state_id":"DC"},{"zip":"20435","fips":"11001","name":"District of Columbia","state_id":"DC"},{"zip":"20436","fips":"11001","name":"District of Columbia","state_id":"DC"},{"zip":"20437","fips":"11001","name":"District of Columbia","state_id":"DC"},{"zip":"20439","fips":"11001","name":"District of Columbia","state_id":"DC"},{"zip":"20440","fips":"11001","name":"District of Columbia","state_id":"DC"},{"zip":"20441","fips":"11001","name":"District of Columbia","state_id":"DC"},{"zip":"20442","fips":"11001","name":"District of Columbia","state_id":"DC"},{"zip":"20444","fips":"11001","name":"District of Columbia","state_id":"DC"},{"zip":"20447","fips":"11001","name":"District of Columbia","state_id":"DC"},{"zip":"20451","fips":"11001","name":"District of Columbia","state_id":"DC"},{"zip":"20456","fips":"11001","name":"District of Columbia","state_id":"DC"},{"zip":"20460","fips":"11001","name":"District of Columbia","state_id":"DC"},{"zip":"20463","fips":"11001","name":"District of Columbia","state_id":"DC"},{"zip":"20472","fips":"11001","name":"District of Columbia","state_id":"DC"}]
