[{"zip":"20500","fips":"11001","name":"District of Columbia","state_id":"DC"},{"zip":"20503","fips":"11001","name":"District of Columbia","state_id":"DC"},{"zip":"20504","fips":"11001","name":"District of Columbia","state_id":"DC"},{"zip":"20505","fips":"11001","name":"District of Columbia","state_id":"DC"},{"zip":"20506","fips":"11001","name":"District of Columbia","state_id":"DC"},{"zip":"20507","fips":"11001","name":"District of Columbia","state_id":"DC"},{"zip":"20508","fips":"11001","name":"District of Columbia","state_id":"DC"},{"zip":"20509","fips":"11001","name":"District of Columbia","state_id":"DC"},{"zip":"20510","fips":"11001","name":"District of Columbia","state_id":"DC"},{"zip":"20515","fips":"11001","name":"District of Columbia","state_id":"DC"},{"zip":"20520","fips":"11001","name":"District of Columbia","state_id":"DC"},{"zip":"20521","fips":"11001","name":"District of Columbia","state_id":"DC"},{"zip":"20522","fips":"11001","name":"District of Columbia","state_id":"DC"},{"zip":"20523","fips":"11001","name":"District of Columbia","state_id":"DC"},{"zip":"20524","fips":"11001","name":"District of Columbia","state_id":"DC"},{"zip":"20525","fips":"11001","name":"District of Columbia","state_id":"DC"},{"zip":"20526","fips":"11001","name":"District of Columbia","state_id":"DC"},{"zip":"20527","fips":"11001","name":"District of Columbia","state_id":"DC"},{"zip":"20528","fips":"11001","name":"District of Columbia","state_id":"DC"},{"zip":"20529","fips":"11001","name":"District of Columbia","state_id":"DC"},{"zip":"20530","fips":"11001","name":"District of Columbia","state_id":"DC"},{"zip":"20531","fips":"11001","name":"District of Columbia","state_id":"DC"},{"zip":"20533","fips":"11001","name":"District of Columbia","state_id":"DC"},{"zip":"20534","fips":"11001","name":"District of Columbia","state_id":"DC"},{"zip":"20535","fips":"11001","name":"District of Columbia","state_id":"DC"},{"zip":"20536","fips":"11001","name":"District of Columbia","state_id":"DC"},{"zip":"20538","fips":"11001","name":"District of Columbia","state_id":"DC"},{"zip":"20539","fips":"11001","name":"District of Columbia","state_id":"DC"},{"zip":"20540","fips":"11001","name":"District of Columbia","state_id":"DC"},{"zip":"20541","fips":"11001","name":"District of Columbia","state_id":"DC"},{"zip":"20542","fips":"11001","name":"District of Columbia","state_id":"DC"},{"zip":"20543","fips":"11001","name":"District of Columbia","state_id":"DC"},{"zip":"20544","fips":"11001","name":"District of Columbia","state_id":"DC"},{"zip":"20546","fips":"11001","name":"District of Columbia","state_id":"DC"},{"zip":"20547","fips":"11001","name":"District of Columbia","state_id":"DC"},{"zip":"20548","fips":"11001","name":"District of Columbia","state_id":"DC"},{"zip":"20549","fips":"11001","name":"District of Columbia","state_id":"DC"},{"zip":"20551","fips":"11001","name":"District of Columbia","state_id":"DC"},{"zip":"20552","fips":"11001","name":"District of Columbia","state_id":"DC"},{"zip":"20553","fips":"11001","name":"District of Columbia","state_id":"DC"},{"zip":"20554","fips":"11001","name":"District of Columbia","state_id":"DC"},{"zip":"20555","fips":"11001","name":"District of Columbia","state_id":"DC"},{"zip":"20557","fips":"11001","name":"District of Columbia","state_id":"DC"},{"zip":"20559","fips":"11001","name":"District of Columbia","state_id":"DC"},{"zip":"20560","fips":"11001","name":"District of Columbia","state_id":"DC"},{"zip":"20565","fips":"11001","name":"District of Columbia","state_id":"DC"},{"zip":"20566","fips":"11001","name":"District of Columbia","state_id":"DC"},{"zip":"20570","fips":"11001","name":"District of Columbia","state_id":"DC"},{"zip":"20571","fips":"11001","name":"District of Columbia","state_id":"DC"},{"zip":"20572","fips":"11001","name":"District of Columbia","state_id":"DC"},{"zip":"20573","fips":"11001","name":"District of Columbia","state_id":"DC"},{"zip":"20575","fips":"11001","name":"District of Columbia","state_id":"DC"},{"zip":"20576","fips":"11001","name":"District of Columbia","state_id":"DC"},{"zip":"20577","fips":"11001","name":"District of Columbia","state_id":"DC"},{"zip":"20579","fips":"11001","name":"District of Columbia","state_id":"DC"},{"zip":"20580","fips":"11001","name":"District of Columbia","state_id":"DC"},{"zip":"20581","fips":"11001","name":"District of Columbia","state_id":"DC"},{"zip":"20585","fips":"11001","name":"District of Columbia","state_id":"DC"},{"zip":"20586","fips":"11001","name":"District of Columbia","state_id":"DC"},{"zip":"20588","fips":"24033","name":"Prince George's County","state_id":"MD"},{"zip":"20590","fips":"11001","name":"District of Columbia","state_id":"DC"},{"zip":"20591","fips":"11001","name":"District of Columbia","state_id":"DC"},{"zip":"20593","fips":"11001","name":"District of Columbia","state_id":"DC"},{"zip":"20594","fips":"11001","name":"District of Columbia","state_id":"DC"},{"zip":"20597","fips":"11001","name":"District of Columbia","state_id":"DC"},{"zip":"20598","fips":"51107","name":"Loudoun County","state_id":"VA"},{"zip":"20598","fips":"51013","name":"Arlington County","state_id":"VA"},{"zip":"20598","fips":"51059","name":"Fairfax County","state_id":"VA"},{"zip":"20598","fips":"51510","name":"Alexandria city","state_id":"VA"},{"zip":"20599","fips":"24033","name":"Prince George's County","state_id":"MD"}]
