[{"zip":"20601","fips":"24017","name":"Charles County","state_id":"MD"},{"zip":"20601","fips":"24033","name":"Prince George's County","state_id":"MD"},{"zip":"20602","fips":"24017","name":"Charles County","state_id":"MD"},{"zip":"20603","fips":"24017","name":"Charles County","state_id":"MD"},{"zip":"20604","fips":"24017","name":"Charles County","state_id":"MD"},{"zip":"20606","fips":"24037","name":"St. Mary's County","state_id":"MD"},{"zip":"20607","fips":"24033","name":"Prince George's County","state_id":"MD"},{"zip":"20607","fips":"24017","name":"Charles County","state_id":"MD"},{"zip":"20608","fips":"24033","name":"Prince George's County","state_id":"MD"},{"zip":"20609","fips":"24037","name":"St. Mary's County","state_id":"MD"},{"zip":"20610","fips":"24009","name":"Calvert County","state_id":"MD"},{"zip":"20611","fips":"24017","name":"Charles County","state_id":"MD"},{"zip":"20612","fips":"24017","name":"Charles County","state_id":"MD"},{"zip":"20613","fips":"24017","name":"Charles County","state_id":"MD"},{"zip":"20613","fips":"24033","name":"Prince George's County","state_id":"MD"},{"zip":"20615","fips":"24009","name":"Calvert County","state_id":"MD"},{"zip":"20616","fips":"24017","name":"Charles County","state_id":"MD"},{"zip":"20616","fips":"24033","name":"Prince George's County","state_id":"MD"},{"zip":"20617","fips":"24017","name":"Charles County","state_id":"MD"},{"zip":"20618","fips":"24037","name":"St. Mary's County","state_id":"MD"},{"zip":"20619","fips":"24037","name":"St. Mary's County","state_id":"MD"},{"zip":"20620","fips":"24037","name":"St. Mary's County","state_id":"MD"},{"zip":"20621","fips":"24037","name":"St. Mary's County","state_id":"MD"},{"zip":"20622","fips":"24037","name":"St. Mary's County","state_id":"MD"},{"zip":"20622","fips":"24017","name":"Charles County","state_id":"MD"},{"zip":"20623","fips":"24033","name":"Prince George's County","state_id":"MD"},{"zip":"20624","fips":"24037","name":"St. Mary's County","state_id":"MD"},{"zip":"20625","fips":"24017","name":"Charles County","state_id":"MD"},{"zip":"20626","fips":"24037","name":"St. Mary's County","state_id":"MD"},{"zip":"20627","fips":"24037","name":"St. Mary's County","state_id":"MD"},{"zip":"20628","fips":"24037","name":"St. Mary's County","state_id":"MD"},{"zip":"20629","fips":"24009","name":"Calvert County","state_id":"MD"},{"zip":"20630","fips":"24037","name":"St. Mary's County","state_id":"MD"},{"zip":"20632","fips":"24017","name":"Charles County","state_id":"MD"},{"zip":"20634","fips":"24037","name":"St. Mary's County","state_id":"MD"},{"zip":"20635","fips":"24037","name":"St. Mary's County","state_id":"MD"},{"zip":"20636","fips":"24037","name":"St. Mary's County","state_id":"MD"},{"zip":"20637","fips":"24017","name":"Charles County","state_id":"MD"},{"zip":"20639","fips":"24009","name":"Calvert County","state_id":"MD"},{"zip":"20640","fips":"24017","name":"Charles County","state_id":"MD"},{"zip":"20643","fips":"24017","name":"Charles County","state_id":"MD"},{"zip":"20645","fips":"24017","name":"Charles County","state_id":"MD"},{"zip":"20646","fips":"24017","name":"Charles County","state_id":"MD"},{"zip":"20650","fips":"24037","name":"St. Mary's County","state_id":"MD"},{"zip":"20653","fips":"24037","name":"St. Mary's County","state_id":"MD"},{"zip":"20656","fips":"24037","name":"St. Mary's County","state_id":"MD"},{"zip":"20657","fips":"24009","name":"Calvert County","state_id":"MD"},{"zip":"20658","fips":"24017","name":"Charles County","state_id":"MD"},{"zip":"20659","fips":"24037","name":"St. Mary's County","state_id":"MD"},{"zip":"20659","fips":"24017","name":"Charles County","state_id":"MD"},{"zip":"20660","fips":"24037","name":"St. Mary's County","state_id":"MD"},{"zip":"20661","fips":"24017","name":"Charles County","state_id":"MD"},{"zip":"20662","fips":"24017","name":"Charles County","state_id":"MD"},{"zip":"20664","fips":"24017","name":"Charles County","state_id":"MD"},{"zip":"20667","fips":"24037","name":"St. Mary's County","state_id":"MD"},{"zip":"20670","fips":"24037","name":"St. Mary's County","state_id":"MD"},{"zip":"20674","fips":"24037","name":"St. Mary's County","state_id":"MD"},{"zip":"20675","fips":"24017","name":"Charles County","state_id":"MD"},{"zip":"20676","fips":"24009","name":"Calvert County","state_id":"MD"},{"zip":"20677","fips":"24017","name":"Charles County","state_id":"MD"},{"zip":"20678","fips":"24009","name":"Calvert County","state_id":"MD"},{"zip":"20680","fips":"24037","name":"St. Mary's County","state_id":"MD"},{"zip":"20684","fips":"24037","name":"St. Mary's County","state_id":"MD"},{"zip":"20685","fips":"24009","name":"Calvert County","state_id":"MD"},{"zip":"20686","fips":"24037","name":"St. Mary's County","state_id":"MD"},{"zip":"20687","fips":"24037","name":"St. Mary's County","state_id":"MD"},{"zip":"20688","fips":"24009","name":"Calvert County","state_id":"MD"},{"zip":"20689","fips":"24009","name":"Calvert County","state_id":"MD"},{"zip":"20690","fips":"24037","name":"St. Mary's County","state_id":"MD"},{"zip":"20692","fips":"24037","name":"St. Mary's County","state_id":"MD"},{"zip":"20693","fips":"24017","name":"Charles County","state_id":"MD"},{"zip":"20695","fips":"24017","name":"Charles County","state_id":"MD"}]
