[{"zip":"20701","fips":"24027","name":"Howard County","state_id":"MD"},{"zip":"20701","fips":"24003","name":"Anne Arundel County","state_id":"MD"},{"zip":"20703","fips":"24033","name":"Prince George's County","state_id":"MD"},{"zip":"20704","fips":"24033","name":"Prince George's County","state_id":"MD"},{"zip":"20705","fips":"24033","name":"Prince George's County","state_id":"MD"},{"zip":"20706","fips":"24033","name":"Prince George's County","state_id":"MD"},{"zip":"20707","fips":"24031","name":"Montgomery County","state_id":"MD"},{"zip":"20707","fips":"24033","name":"Prince George's County","state_id":"MD"},{"zip":"20708","fips":"24033","name":"Prince George's County","state_id":"MD"},{"zip":"20709","fips":"24033","name":"Prince George's County","state_id":"MD"},{"zip":"20710","fips":"24033","name":"Prince George's County","state_id":"MD"},{"zip":"20711","fips":"24003","name":"Anne Arundel County","state_id":"MD"},{"zip":"20712","fips":"24033","name":"Prince George's County","state_id":"MD"},{"zip":"20714","fips":"24003","name":"Anne Arundel County","state_id":"MD"},{"zip":"20714","fips":"24009","name":"Calvert County","state_id":"MD"},{"zip":"20715","fips":"24033","name":"Prince George's County","state_id":"MD"},{"zip":"20716","fips":"24033","name":"Prince George's County","state_id":"MD"},{"zip":"20717","fips":"24033","name":"Prince George's County","state_id":"MD"},{"zip":"20718","fips":"24033","name":"Prince George's County","state_id":"MD"},{"zip":"20720","fips":"24033","name":"Prince George's County","state_id":"MD"},{"zip":"20721","fips":"24033","name":"Prince George's County","state_id":"MD"},{"zip":"20722","fips":"24033","name":"Prince George's County","state_id":"MD"},{"zip":"20723","fips":"24027","name":"Howard County","state_id":"MD"},{"zip":"20724","fips":"24033","name":"Prince George's County","state_id":"MD"},{"zip":"20724","fips":"24003","name":"Anne Arundel County","state_id":"MD"},{"zip":"20725","fips":"24033","name":"Prince George's County","state_id":"MD"},{"zip":"20726","fips":"24033","name":"Prince George's County","state_id":"MD"},{"zip":"20731","fips":"24033","name":"Prince George's County","state_id":"MD"},{"zip":"20732","fips":"24009","name":"Calvert County","state_id":"MD"},{"zip":"20733","fips":"24003","name":"Anne Arundel County","state_id":"MD"},{"zip":"20735","fips":"24033","name":"Prince George's County","state_id":"MD"},{"zip":"20736","fips":"24009","name":"Calvert County","state_id":"MD"},{"zip":"20736","fips":"24003","name":"Anne Arundel County","state_id":"MD"},{"zip":"20737","fips":"24033","name":"Prince George's County","state_id":"MD"},{"zip":"20738","fips":"24033","name":"Prince George's County","state_id":"MD"},{"zip":"20740","fips":"24033","name":"Prince George's County","state_id":"MD"},{"zip":"20741","fips":"24033","name":"Prince George's County","state_id":"MD"},{"zip":"20742","fips":"24033","name":"Prince George's County","state_id":"MD"},{"zip":"20743","fips":"24033","name":"Prince George's County","state_id":"MD"},{"zip":"20744","fips":"24033","name":"Prince George's County","state_id":"MD"},{"zip":"20745","fips":"24033","name":"Prince George's County","state_id":"MD"},{"zip":"20746","fips":"24033","name":"Prince George's County","state_id":"MD"},{"zip":"20747","fips":"24033","name":"Prince George's County","state_id":"MD"},{"zip":"20748","fips":"24033","name":"Prince George's County","state_id":"MD"},{"zip":"20749","fips":"24033","name":"Prince George's County","state_id":"MD"},{"zip":"20750","fips":"24033","name":"Prince George's County","state_id":"MD"},{"zip":"20751","fips":"24003","name":"Anne Arundel County","state_id":"MD"},{"zip":"20752","fips":"24033","name":"Prince George's County","state_id":"MD"},{"zip":"20753","fips":"24033","name":"Prince George's County","state_id":"MD"},{"zip":"20754","fips":"24003","name":"Anne Arundel County","state_id":"MD"},{"zip":"20754","fips":"24009","name":"Calvert County","state_id":"MD"},{"zip":"20755","fips":"24003","name":"Anne Arundel County","state_id":"MD"},{"zip":"20757","fips":"24033","name":"Prince George's County","state_id":"MD"},{"zip":"20758","fips":"24009","name":"Calvert County","state_id":"MD"},{"zip":"20758","fips":"24003","name":"Anne Arundel County","state_id":"MD"},{"zip":"20759","fips":"24027","name":"Howard County","state_id":"MD"},{"zip":"20762","fips":"24033","name":"Prince George's County","state_id":"MD"},{"zip":"20763","fips":"24027","name":"Howard County","state_id":"MD"},{"zip":"20764","fips":"24003","name":"Anne Arundel County","state_id":"MD"},{"zip":"20765","fips":"24003","name":"Anne Arundel County","state_id":"MD"},{"zip":"20768","fips":"24033","name":"Prince George's County","state_id":"MD"},{"zip":"20769","fips":"24033","name":"Prince George's County","state_id":"MD"},{"zip":"20770","fips":"24033","name":"Prince George's County","state_id":"MD"},{"zip":"20771","fips":"24033","name":"Prince George's County","state_id":"MD"},{"zip":"20772","fips":"24033","name":"Prince George's County","state_id":"MD"},{"zip":"20773","fips":"24033","name":"Prince George's County","state_id":"MD"},{"zip":"20774","fips":"24033","name":"Prince George's County","state_id":"MD"},{"zip":"20775","fips":"24033","name":"Prince George's County","state_id":"MD"},{"zip":"20776","fips":"24003","name":"Anne Arundel County","state_id":"MD"},{"zip":"20777","fips":"24031","name":"Montgomery County","state_id":"MD"},{"zip":"20777","fips":"24027","name":"Howard County","state_id":"MD"},{"zip":"20778","fips":"24003","name":"Anne Arundel County","state_id":"MD"},{"zip":"20779","fips":"24003","name":"Anne Arundel County","state_id":"MD"},{"zip":"20781","fips":"24033","name":"Prince George's County","state_id":"MD"},{"zip":"20782","fips":"24033","name":"Prince George's County","state_id":"MD"},{"zip":"20783","fips":"24031","name":"Montgomery County","state_id":"MD"},{"zip":"20783","fips":"24033","name":"Prince George's County","state_id":"MD"},{"zip":"20784","fips":"24033","name":"Prince George's County","state_id":"MD"},{"zip":"20785","fips":"24033","name":"Prince George's County","state_id":"MD"},{"zip":"20787","fips":"24031","name":"Montgomery County","state_id":"MD"},{"zip":"20790","fips":"24033","name":"Prince George's County","state_id":"MD"},{"zip":"20791","fips":"24033","name":"Prince George's County","state_id":"MD"},{"zip":"20792","fips":"24033","name":"Prince George's County","state_id":"MD"},{"zip":"20794","fips":"24003","name":"Anne Arundel County","state_id":"MD"},{"zip":"20794","fips":"24027","name":"Howard County","state_id":"MD"},{"zip":"20799","fips":"24033","name":"Prince George's County","state_id":"MD"}]
