[{"zip":"20810","fips":"24031","name":"Montgomery County","state_id":"MD"},{"zip":"20811","fips":"24031","name":"Montgomery County","state_id":"MD"},{"zip":"20812","fips":"24031","name":"Montgomery County","state_id":"MD"},{"zip":"20814","fips":"24031","name":"Montgomery County","state_id":"MD"},{"zip":"20815","fips":"24031","name":"Montgomery County","state_id":"MD"},{"zip":"20816","fips":"24031","name":"Montgomery County","state_id":"MD"},{"zip":"20817","fips":"24031","name":"Montgomery County","state_id":"MD"},{"zip":"20818","fips":"24031","name":"Montgomery County","state_id":"MD"},{"zip":"20824","fips":"24031","name":"Montgomery County","state_id":"MD"},{"zip":"20825","fips":"24031","name":"Montgomery County","state_id":"MD"},{"zip":"20827","fips":"24031","name":"Montgomery County","state_id":"MD"},{"zip":"20830","fips":"24031","name":"Montgomery County","state_id":"MD"},{"zip":"20832","fips":"24031","name":"Montgomery County","state_id":"MD"},{"zip":"20833","fips":"24031","name":"Montgomery County","state_id":"MD"},{"zip":"20833","fips":"24027","name":"Howard County","state_id":"MD"},{"zip":"20837","fips":"24031","name":"Montgomery County","state_id":"MD"},{"zip":"20838","fips":"24031","name":"Montgomery County","state_id":"MD"},{"zip":"20839","fips":"24031","name":"Montgomery County","state_id":"MD"},{"zip":"20841","fips":"24031","name":"Montgomery County","state_id":"MD"},{"zip":"20842","fips":"24021","name":"Frederick County","state_id":"MD"},{"zip":"20842","fips":"24031","name":"Montgomery County","state_id":"MD"},{"zip":"20847","fips":"24031","name":"Montgomery County","state_id":"MD"},{"zip":"20848","fips":"24031","name":"Montgomery County","state_id":"MD"},{"zip":"20849","fips":"24031","name":"Montgomery County","state_id":"MD"},{"zip":"20850","fips":"24031","name":"Montgomery County","state_id":"MD"},{"zip":"20851","fips":"24031","name":"Montgomery County","state_id":"MD"},{"zip":"20852","fips":"24031","name":"Montgomery County","state_id":"MD"},{"zip":"20853","fips":"24031","name":"Montgomery County","state_id":"MD"},{"zip":"20854","fips":"24031","name":"Montgomery County","state_id":"MD"},{"zip":"20855","fips":"24031","name":"Montgomery County","state_id":"MD"},{"zip":"20857","fips":"24031","name":"Montgomery County","state_id":"MD"},{"zip":"20859","fips":"24031","name":"Montgomery County","state_id":"MD"},{"zip":"20860","fips":"24031","name":"Montgomery County","state_id":"MD"},{"zip":"20861","fips":"24031","name":"Montgomery County","state_id":"MD"},{"zip":"20862","fips":"24031","name":"Montgomery County","state_id":"MD"},{"zip":"20866","fips":"24031","name":"Montgomery County","state_id":"MD"},{"zip":"20868","fips":"24031","name":"Montgomery County","state_id":"MD"},{"zip":"20871","fips":"24031","name":"Montgomery County","state_id":"MD"},{"zip":"20871","fips":"24021","name":"Frederick County","state_id":"MD"},{"zip":"20872","fips":"24031","name":"Montgomery County","state_id":"MD"},{"zip":"20874","fips":"24031","name":"Montgomery County","state_id":"MD"},{"zip":"20875","fips":"24031","name":"Montgomery County","state_id":"MD"},{"zip":"20876","fips":"24031","name":"Montgomery County","state_id":"MD"},{"zip":"20877","fips":"24031","name":"Montgomery County","state_id":"MD"},{"zip":"20878","fips":"24031","name":"Montgomery County","state_id":"MD"},{"zip":"20879","fips":"24031","name":"Montgomery County","state_id":"MD"},{"zip":"20880","fips":"24031","name":"Montgomery County","state_id":"MD"},{"zip":"20882","fips":"24031","name":"Montgomery County","state_id":"MD"},{"zip":"20883","fips":"24031","name":"Montgomery County","state_id":"MD"},{"zip":"20884","fips":"24031","name":"Montgomery County","state_id":"MD"},{"zip":"20885","fips":"24031","name":"Montgomery County","state_id":"MD"},{"zip":"20886","fips":"24031","name":"Montgomery County","state_id":"MD"},{"zip":"20889","fips":"24031","name":"Montgomery County","state_id":"MD"},{"zip":"20891","fips":"24031","name":"Montgomery County","state_id":"MD"},{"zip":"20892","fips":"24031","name":"Montgomery County","state_id":"MD"},{"zip":"20894","fips":"24031","name":"Montgomery County","state_id":"MD"},{"zip":"20895","fips":"24031","name":"Montgomery County","state_id":"MD"},{"zip":"20896","fips":"24031","name":"Montgomery County","state_id":"MD"},{"zip":"20898","fips":"24031","name":"Montgomery County","state_id":"MD"},{"zip":"20899","fips":"24031","name":"Montgomery County","state_id":"MD"}]
