[{"zip":"20901","fips":"24031","name":"Montgomery County","state_id":"MD"},{"zip":"20902","fips":"24031","name":"Montgomery County","state_id":"MD"},{"zip":"20903","fips":"24033","name":"Prince George's County","state_id":"MD"},{"zip":"20903","fips":"24031","name":"Montgomery County","state_id":"MD"},{"zip":"20904","fips":"24031","name":"Montgomery County","state_id":"MD"},{"zip":"20904","fips":"24033","name":"Prince George's County","state_id":"MD"},{"zip":"20905","fips":"24031","name":"Montgomery County","state_id":"MD"},{"zip":"20906","fips":"24031","name":"Montgomery County","state_id":"MD"},{"zip":"20907","fips":"24031","name":"Montgomery County","state_id":"MD"},{"zip":"20910","fips":"24031","name":"Montgomery County","state_id":"MD"},{"zip":"20911","fips":"24031","name":"Montgomery County","state_id":"MD"},{"zip":"20912","fips":"24031","name":"Montgomery County","state_id":"MD"},{"zip":"20912","fips":"24033","name":"Prince George's County","state_id":"MD"},{"zip":"20913","fips":"24031","name":"Montgomery County","state_id":"MD"},{"zip":"20914","fips":"24031","name":"Montgomery County","state_id":"MD"},{"zip":"20915","fips":"24031","name":"Montgomery County","state_id":"MD"},{"zip":"20916","fips":"24031","name":"Montgomery County","state_id":"MD"},{"zip":"20918","fips":"24031","name":"Montgomery County","state_id":"MD"},{"zip":"20993","fips":"24031","name":"Montgomery County","state_id":"MD"}]
