[{"zip":"21001","fips":"24025","name":"Harford County","state_id":"MD"},{"zip":"21005","fips":"24025","name":"Harford County","state_id":"MD"},{"zip":"21009","fips":"24025","name":"Harford County","state_id":"MD"},{"zip":"21010","fips":"24025","name":"Harford County","state_id":"MD"},{"zip":"21012","fips":"24003","name":"Anne Arundel County","state_id":"MD"},{"zip":"21013","fips":"24025","name":"Harford County","state_id":"MD"},{"zip":"21013","fips":"24005","name":"Baltimore County","state_id":"MD"},{"zip":"21014","fips":"24025","name":"Harford County","state_id":"MD"},{"zip":"21015","fips":"24025","name":"Harford County","state_id":"MD"},{"zip":"21017","fips":"24025","name":"Harford County","state_id":"MD"},{"zip":"21018","fips":"24025","name":"Harford County","state_id":"MD"},{"zip":"21020","fips":"24005","name":"Baltimore County","state_id":"MD"},{"zip":"21022","fips":"24005","name":"Baltimore County","state_id":"MD"},{"zip":"21023","fips":"24005","name":"Baltimore County","state_id":"MD"},{"zip":"21027","fips":"24005","name":"Baltimore County","state_id":"MD"},{"zip":"21028","fips":"24025","name":"Harford County","state_id":"MD"},{"zip":"21029","fips":"24027","name":"Howard County","state_id":"MD"},{"zip":"21030","fips":"24005","name":"Baltimore County","state_id":"MD"},{"zip":"21031","fips":"24005","name":"Baltimore County","state_id":"MD"},{"zip":"21032","fips":"24003","name":"Anne Arundel County","state_id":"MD"},{"zip":"21034","fips":"24025","name":"Harford County","state_id":"MD"},{"zip":"21035","fips":"24003","name":"Anne Arundel County","state_id":"MD"},{"zip":"21036","fips":"24027","name":"Howard County","state_id":"MD"},{"zip":"21037","fips":"24003","name":"Anne Arundel County","state_id":"MD"},{"zip":"21040","fips":"24025","name":"Harford County","state_id":"MD"},{"zip":"21041","fips":"24027","name":"Howard County","state_id":"MD"},{"zip":"21042","fips":"24027","name":"Howard County","state_id":"MD"},{"zip":"21043","fips":"24005","name":"Baltimore County","state_id":"MD"},{"zip":"21043","fips":"24027","name":"Howard County","state_id":"MD"},{"zip":"21044","fips":"24027","name":"Howard County","state_id":"MD"},{"zip":"21045","fips":"24027","name":"Howard County","state_id":"MD"},{"zip":"21046","fips":"24027","name":"Howard County","state_id":"MD"},{"zip":"21047","fips":"24025","name":"Harford County","state_id":"MD"},{"zip":"21048","fips":"24013","name":"Carroll County","state_id":"MD"},{"zip":"21050","fips":"24025","name":"Harford County","state_id":"MD"},{"zip":"21051","fips":"24005","name":"Baltimore County","state_id":"MD"},{"zip":"21052","fips":"24005","name":"Baltimore County","state_id":"MD"},{"zip":"21053","fips":"24005","name":"Baltimore County","state_id":"MD"},{"zip":"21054","fips":"24003","name":"Anne Arundel County","state_id":"MD"},{"zip":"21056","fips":"24003","name":"Anne Arundel County","state_id":"MD"},{"zip":"21057","fips":"24005","name":"Baltimore County","state_id":"MD"},{"zip":"21060","fips":"24003","name":"Anne Arundel County","state_id":"MD"},{"zip":"21061","fips":"24003","name":"Anne Arundel County","state_id":"MD"},{"zip":"21062","fips":"24003","name":"Anne Arundel County","state_id":"MD"},{"zip":"21065","fips":"24005","name":"Baltimore County","state_id":"MD"},{"zip":"21071","fips":"24005","name":"Baltimore County","state_id":"MD"},{"zip":"21074","fips":"24013","name":"Carroll County","state_id":"MD"},{"zip":"21074","fips":"24005","name":"Baltimore County","state_id":"MD"},{"zip":"21075","fips":"24027","name":"Howard County","state_id":"MD"},{"zip":"21076","fips":"24027","name":"Howard County","state_id":"MD"},{"zip":"21076","fips":"24003","name":"Anne Arundel County","state_id":"MD"},{"zip":"21077","fips":"24003","name":"Anne Arundel County","state_id":"MD"},{"zip":"21078","fips":"24025","name":"Harford County","state_id":"MD"},{"zip":"21082","fips":"24005","name":"Baltimore County","state_id":"MD"},{"zip":"21082","fips":"24025","name":"Harford County","state_id":"MD"},{"zip":"21084","fips":"24025","name":"Harford County","state_id":"MD"},{"zip":"21085","fips":"24025","name":"Harford County","state_id":"MD"},{"zip":"21085","fips":"24005","name":"Baltimore County","state_id":"MD"},{"zip":"21087","fips":"24025","name":"Harford County","state_id":"MD"},{"zip":"21087","fips":"24005","name":"Baltimore County","state_id":"MD"},{"zip":"21090","fips":"24003","name":"Anne Arundel County","state_id":"MD"},{"zip":"21092","fips":"24005","name":"Baltimore County","state_id":"MD"},{"zip":"21093","fips":"24005","name":"Baltimore County","state_id":"MD"},{"zip":"21094","fips":"24005","name":"Baltimore County","state_id":"MD"}]
