[{"zip":"21102","fips":"24013","name":"Carroll County","state_id":"MD"},{"zip":"21102","fips":"24005","name":"Baltimore County","state_id":"MD"},{"zip":"21104","fips":"24005","name":"Baltimore County","state_id":"MD"},{"zip":"21104","fips":"24013","name":"Carroll County","state_id":"MD"},{"zip":"21104","fips":"24027","name":"Howard County","state_id":"MD"},{"zip":"21105","fips":"24005","name":"Baltimore County","state_id":"MD"},{"zip":"21106","fips":"24003","name":"Anne Arundel County","state_id":"MD"},{"zip":"21108","fips":"24003","name":"Anne Arundel County","state_id":"MD"},{"zip":"21111","fips":"24025","name":"Harford County","state_id":"MD"},{"zip":"21111","fips":"24005","name":"Baltimore County","state_id":"MD"},{"zip":"21113","fips":"24003","name":"Anne Arundel County","state_id":"MD"},{"zip":"21114","fips":"24003","name":"Anne Arundel County","state_id":"MD"},{"zip":"21117","fips":"24005","name":"Baltimore County","state_id":"MD"},{"zip":"21120","fips":"24005","name":"Baltimore County","state_id":"MD"},{"zip":"21122","fips":"24003","name":"Anne Arundel County","state_id":"MD"},{"zip":"21123","fips":"24003","name":"Anne Arundel County","state_id":"MD"},{"zip":"21128","fips":"24005","name":"Baltimore County","state_id":"MD"},{"zip":"21130","fips":"24025","name":"Harford County","state_id":"MD"},{"zip":"21131","fips":"24005","name":"Baltimore County","state_id":"MD"},{"zip":"21132","fips":"24025","name":"Harford County","state_id":"MD"},{"zip":"21133","fips":"24005","name":"Baltimore County","state_id":"MD"},{"zip":"21136","fips":"24013","name":"Carroll County","state_id":"MD"},{"zip":"21136","fips":"24005","name":"Baltimore County","state_id":"MD"},{"zip":"21139","fips":"24005","name":"Baltimore County","state_id":"MD"},{"zip":"21140","fips":"24003","name":"Anne Arundel County","state_id":"MD"},{"zip":"21144","fips":"24003","name":"Anne Arundel County","state_id":"MD"},{"zip":"21146","fips":"24003","name":"Anne Arundel County","state_id":"MD"},{"zip":"21150","fips":"24027","name":"Howard County","state_id":"MD"},{"zip":"21152","fips":"24005","name":"Baltimore County","state_id":"MD"},{"zip":"21153","fips":"24005","name":"Baltimore County","state_id":"MD"},{"zip":"21154","fips":"24025","name":"Harford County","state_id":"MD"},{"zip":"21155","fips":"24013","name":"Carroll County","state_id":"MD"},{"zip":"21155","fips":"24005","name":"Baltimore County","state_id":"MD"},{"zip":"21156","fips":"24005","name":"Baltimore County","state_id":"MD"},{"zip":"21157","fips":"24013","name":"Carroll County","state_id":"MD"},{"zip":"21158","fips":"24013","name":"Carroll County","state_id":"MD"},{"zip":"21160","fips":"24025","name":"Harford County","state_id":"MD"},{"zip":"21161","fips":"24005","name":"Baltimore County","state_id":"MD"},{"zip":"21161","fips":"24025","name":"Harford County","state_id":"MD"},{"zip":"21162","fips":"24005","name":"Baltimore County","state_id":"MD"},{"zip":"21163","fips":"24027","name":"Howard County","state_id":"MD"},{"zip":"21163","fips":"24005","name":"Baltimore County","state_id":"MD"}]
