[{"zip":"21201","fips":"24510","name":"Baltimore city","state_id":"MD"},{"zip":"21202","fips":"24510","name":"Baltimore city","state_id":"MD"},{"zip":"21203","fips":"24510","name":"Baltimore city","state_id":"MD"},{"zip":"21204","fips":"24005","name":"Baltimore County","state_id":"MD"},{"zip":"21205","fips":"24510","name":"Baltimore city","state_id":"MD"},{"zip":"21206","fips":"24005","name":"Baltimore County","state_id":"MD"},{"zip":"21206","fips":"24510","name":"Baltimore city","state_id":"MD"},{"zip":"21207","fips":"24510","name":"Baltimore city","state_id":"MD"},{"zip":"21207","fips":"24005","name":"Baltimore County","state_id":"MD"},{"zip":"21208","fips":"24005","name":"Baltimore County","state_id":"MD"},{"zip":"21208","fips":"24510","name":"Baltimore city","state_id":"MD"},{"zip":"21209","fips":"24005","name":"Baltimore County","state_id":"MD"},{"zip":"21209","fips":"24510","name":"Baltimore city","state_id":"MD"},{"zip":"21210","fips":"24510","name":"Baltimore city","state_id":"MD"},{"zip":"21210","fips":"24005","name":"Baltimore County","state_id":"MD"},{"zip":"21211","fips":"24510","name":"Baltimore city","state_id":"MD"},{"zip":"21212","fips":"24510","name":"Baltimore city","state_id":"MD"},{"zip":"21212","fips":"24005","name":"Baltimore County","state_id":"MD"},{"zip":"21213","fips":"24510","name":"Baltimore city","state_id":"MD"},{"zip":"21214","fips":"24510","name":"Baltimore city","state_id":"MD"},{"zip":"21215","fips":"24510","name":"Baltimore city","state_id":"MD"},{"zip":"21215","fips":"24005","name":"Baltimore County","state_id":"MD"},{"zip":"21216","fips":"24510","name":"Baltimore city","state_id":"MD"},{"zip":"21217","fips":"24510","name":"Baltimore city","state_id":"MD"},{"zip":"21218","fips":"24510","name":"Baltimore city","state_id":"MD"},{"zip":"21219","fips":"24005","name":"Baltimore County","state_id":"MD"},{"zip":"21220","fips":"24005","name":"Baltimore County","state_id":"MD"},{"zip":"21221","fips":"24005","name":"Baltimore County","state_id":"MD"},{"zip":"21222","fips":"24005","name":"Baltimore County","state_id":"MD"},{"zip":"21222","fips":"24510","name":"Baltimore city","state_id":"MD"},{"zip":"21223","fips":"24510","name":"Baltimore city","state_id":"MD"},{"zip":"21224","fips":"24510","name":"Baltimore city","state_id":"MD"},{"zip":"21224","fips":"24005","name":"Baltimore County","state_id":"MD"},{"zip":"21225","fips":"24510","name":"Baltimore city","state_id":"MD"},{"zip":"21225","fips":"24003","name":"Anne Arundel County","state_id":"MD"},{"zip":"21225","fips":"24005","name":"Baltimore County","state_id":"MD"},{"zip":"21226","fips":"24003","name":"Anne Arundel County","state_id":"MD"},{"zip":"21226","fips":"24510","name":"Baltimore city","state_id":"MD"},{"zip":"21227","fips":"24005","name":"Baltimore County","state_id":"MD"},{"zip":"21227","fips":"24510","name":"Baltimore city","state_id":"MD"},{"zip":"21228","fips":"24510","name":"Baltimore city","state_id":"MD"},{"zip":"21228","fips":"24005","name":"Baltimore County","state_id":"MD"},{"zip":"21229","fips":"24510","name":"Baltimore city","state_id":"MD"},{"zip":"21229","fips":"24005","name":"Baltimore County","state_id":"MD"},{"zip":"21230","fips":"24510","name":"Baltimore city","state_id":"MD"},{"zip":"21231","fips":"24510","name":"Baltimore city","state_id":"MD"},{"zip":"21233","fips":"24510","name":"Baltimore city","state_id":"MD"},{"zip":"21234","fips":"24510","name":"Baltimore city","state_id":"MD"},{"zip":"21234","fips":"24005","name":"Baltimore County","state_id":"MD"},{"zip":"21235","fips":"24005","name":"Baltimore County","state_id":"MD"},{"zip":"21236","fips":"24005","name":"Baltimore County","state_id":"MD"},{"zip":"21236","fips":"24510","name":"Baltimore city","state_id":"MD"},{"zip":"21237","fips":"24510","name":"Baltimore city","state_id":"MD"},{"zip":"21237","fips":"24005","name":"Baltimore County","state_id":"MD"},{"zip":"21239","fips":"24005","name":"Baltimore County","state_id":"MD"},{"zip":"21239","fips":"24510","name":"Baltimore city","state_id":"MD"},{"zip":"21240","fips":"24003","name":"Anne Arundel County","state_id":"MD"},{"zip":"21241","fips":"24005","name":"Baltimore County","state_id":"MD"},{"zip":"21244","fips":"24005","name":"Baltimore County","state_id":"MD"},{"zip":"21250","fips":"24005","name":"Baltimore County","state_id":"MD"},{"zip":"21251","fips":"24510","name":"Baltimore city","state_id":"MD"},{"zip":"21252","fips":"24005","name":"Baltimore County","state_id":"MD"},{"zip":"21263","fips":"24510","name":"Baltimore city","state_id":"MD"},{"zip":"21270","fips":"24510","name":"Baltimore city","state_id":"MD"},{"zip":"21278","fips":"24510","name":"Baltimore city","state_id":"MD"},{"zip":"21281","fips":"24510","name":"Baltimore city","state_id":"MD"},{"zip":"21282","fips":"24005","name":"Baltimore County","state_id":"MD"},{"zip":"21284","fips":"24005","name":"Baltimore County","state_id":"MD"},{"zip":"21285","fips":"24005","name":"Baltimore County","state_id":"MD"},{"zip":"21286","fips":"24005","name":"Baltimore County","state_id":"MD"},{"zip":"21287","fips":"24510","name":"Baltimore city","state_id":"MD"},{"zip":"21290","fips":"24510","name":"Baltimore city","state_id":"MD"}]
