[{"zip":"21601","fips":"24041","name":"Talbot County","state_id":"MD"},{"zip":"21607","fips":"24011","name":"Caroline County","state_id":"MD"},{"zip":"21607","fips":"24035","name":"Queen Anne's County","state_id":"MD"},{"zip":"21609","fips":"24011","name":"Caroline County","state_id":"MD"},{"zip":"21610","fips":"24029","name":"Kent County","state_id":"MD"},{"zip":"21612","fips":"24041","name":"Talbot County","state_id":"MD"},{"zip":"21613","fips":"24019","name":"Dorchester County","state_id":"MD"},{"zip":"21617","fips":"24035","name":"Queen Anne's County","state_id":"MD"},{"zip":"21619","fips":"24035","name":"Queen Anne's County","state_id":"MD"},{"zip":"21620","fips":"24035","name":"Queen Anne's County","state_id":"MD"},{"zip":"21620","fips":"24029","name":"Kent County","state_id":"MD"},{"zip":"21622","fips":"24019","name":"Dorchester County","state_id":"MD"},{"zip":"21623","fips":"24035","name":"Queen Anne's County","state_id":"MD"},{"zip":"21624","fips":"24041","name":"Talbot County","state_id":"MD"},{"zip":"21625","fips":"24041","name":"Talbot County","state_id":"MD"},{"zip":"21626","fips":"24019","name":"Dorchester County","state_id":"MD"},{"zip":"21627","fips":"24019","name":"Dorchester County","state_id":"MD"},{"zip":"21628","fips":"24035","name":"Queen Anne's County","state_id":"MD"},{"zip":"21629","fips":"24011","name":"Caroline County","state_id":"MD"},{"zip":"21631","fips":"24019","name":"Dorchester County","state_id":"MD"},{"zip":"21632","fips":"24011","name":"Caroline County","state_id":"MD"},{"zip":"21632","fips":"24019","name":"Dorchester County","state_id":"MD"},{"zip":"21634","fips":"24019","name":"Dorchester County","state_id":"MD"},{"zip":"21635","fips":"24029","name":"Kent County","state_id":"MD"},{"zip":"21636","fips":"24011","name":"Caroline County","state_id":"MD"},{"zip":"21638","fips":"24035","name":"Queen Anne's County","state_id":"MD"},{"zip":"21639","fips":"24011","name":"Caroline County","state_id":"MD"},{"zip":"21640","fips":"24035","name":"Queen Anne's County","state_id":"MD"},{"zip":"21640","fips":"24011","name":"Caroline County","state_id":"MD"},{"zip":"21641","fips":"24011","name":"Caroline County","state_id":"MD"},{"zip":"21643","fips":"24011","name":"Caroline County","state_id":"MD"},{"zip":"21643","fips":"24019","name":"Dorchester County","state_id":"MD"},{"zip":"21644","fips":"24035","name":"Queen Anne's County","state_id":"MD"},{"zip":"21645","fips":"24029","name":"Kent County","state_id":"MD"},{"zip":"21647","fips":"24041","name":"Talbot County","state_id":"MD"},{"zip":"21648","fips":"24019","name":"Dorchester County","state_id":"MD"},{"zip":"21649","fips":"24011","name":"Caroline County","state_id":"MD"},{"zip":"21649","fips":"24035","name":"Queen Anne's County","state_id":"MD"},{"zip":"21650","fips":"24029","name":"Kent County","state_id":"MD"},{"zip":"21651","fips":"24029","name":"Kent County","state_id":"MD"},{"zip":"21651","fips":"24035","name":"Queen Anne's County","state_id":"MD"},{"zip":"21652","fips":"24041","name":"Talbot County","state_id":"MD"},{"zip":"21653","fips":"24041","name":"Talbot County","state_id":"MD"},{"zip":"21654","fips":"24041","name":"Talbot County","state_id":"MD"},{"zip":"21655","fips":"24019","name":"Dorchester County","state_id":"MD"},{"zip":"21655","fips":"24011","name":"Caroline County","state_id":"MD"},{"zip":"21656","fips":"24035","name":"Queen Anne's County","state_id":"MD"},{"zip":"21657","fips":"24041","name":"Talbot County","state_id":"MD"},{"zip":"21657","fips":"24035","name":"Queen Anne's County","state_id":"MD"},{"zip":"21657","fips":"24011","name":"Caroline County","state_id":"MD"},{"zip":"21658","fips":"24035","name":"Queen Anne's County","state_id":"MD"},{"zip":"21659","fips":"24019","name":"Dorchester County","state_id":"MD"},{"zip":"21660","fips":"24011","name":"Caroline County","state_id":"MD"},{"zip":"21661","fips":"24029","name":"Kent County","state_id":"MD"},{"zip":"21662","fips":"24041","name":"Talbot County","state_id":"MD"},{"zip":"21663","fips":"24041","name":"Talbot County","state_id":"MD"},{"zip":"21664","fips":"24019","name":"Dorchester County","state_id":"MD"},{"zip":"21665","fips":"24041","name":"Talbot County","state_id":"MD"},{"zip":"21666","fips":"24035","name":"Queen Anne's County","state_id":"MD"},{"zip":"21667","fips":"24029","name":"Kent County","state_id":"MD"},{"zip":"21668","fips":"24035","name":"Queen Anne's County","state_id":"MD"},{"zip":"21669","fips":"24019","name":"Dorchester County","state_id":"MD"},{"zip":"21670","fips":"24035","name":"Queen Anne's County","state_id":"MD"},{"zip":"21671","fips":"24041","name":"Talbot County","state_id":"MD"},{"zip":"21672","fips":"24019","name":"Dorchester County","state_id":"MD"},{"zip":"21673","fips":"24041","name":"Talbot County","state_id":"MD"},{"zip":"21675","fips":"24019","name":"Dorchester County","state_id":"MD"},{"zip":"21676","fips":"24041","name":"Talbot County","state_id":"MD"},{"zip":"21677","fips":"24019","name":"Dorchester County","state_id":"MD"},{"zip":"21678","fips":"24029","name":"Kent County","state_id":"MD"},{"zip":"21679","fips":"24041","name":"Talbot County","state_id":"MD"},{"zip":"21679","fips":"24035","name":"Queen Anne's County","state_id":"MD"},{"zip":"21690","fips":"24029","name":"Kent County","state_id":"MD"}]
