[{"zip":"21701","fips":"24021","name":"Frederick County","state_id":"MD"},{"zip":"21702","fips":"24021","name":"Frederick County","state_id":"MD"},{"zip":"21703","fips":"24021","name":"Frederick County","state_id":"MD"},{"zip":"21704","fips":"24021","name":"Frederick County","state_id":"MD"},{"zip":"21705","fips":"24021","name":"Frederick County","state_id":"MD"},{"zip":"21710","fips":"24021","name":"Frederick County","state_id":"MD"},{"zip":"21711","fips":"24043","name":"Washington County","state_id":"MD"},{"zip":"21713","fips":"24043","name":"Washington County","state_id":"MD"},{"zip":"21713","fips":"24021","name":"Frederick County","state_id":"MD"},{"zip":"21714","fips":"24021","name":"Frederick County","state_id":"MD"},{"zip":"21715","fips":"24043","name":"Washington County","state_id":"MD"},{"zip":"21716","fips":"24021","name":"Frederick County","state_id":"MD"},{"zip":"21717","fips":"24021","name":"Frederick County","state_id":"MD"},{"zip":"21718","fips":"24021","name":"Frederick County","state_id":"MD"},{"zip":"21719","fips":"24021","name":"Frederick County","state_id":"MD"},{"zip":"21719","fips":"24043","name":"Washington County","state_id":"MD"},{"zip":"21720","fips":"24043","name":"Washington County","state_id":"MD"},{"zip":"21721","fips":"24043","name":"Washington County","state_id":"MD"},{"zip":"21722","fips":"24043","name":"Washington County","state_id":"MD"},{"zip":"21723","fips":"24027","name":"Howard County","state_id":"MD"},{"zip":"21727","fips":"24021","name":"Frederick County","state_id":"MD"},{"zip":"21733","fips":"24043","name":"Washington County","state_id":"MD"},{"zip":"21734","fips":"24043","name":"Washington County","state_id":"MD"},{"zip":"21737","fips":"24027","name":"Howard County","state_id":"MD"},{"zip":"21738","fips":"24027","name":"Howard County","state_id":"MD"},{"zip":"21740","fips":"24043","name":"Washington County","state_id":"MD"},{"zip":"21741","fips":"24043","name":"Washington County","state_id":"MD"},{"zip":"21742","fips":"24043","name":"Washington County","state_id":"MD"},{"zip":"21746","fips":"24043","name":"Washington County","state_id":"MD"},{"zip":"21750","fips":"24043","name":"Washington County","state_id":"MD"},{"zip":"21750","fips":"24001","name":"Allegany County","state_id":"MD"},{"zip":"21754","fips":"24021","name":"Frederick County","state_id":"MD"},{"zip":"21755","fips":"24021","name":"Frederick County","state_id":"MD"},{"zip":"21755","fips":"24043","name":"Washington County","state_id":"MD"},{"zip":"21756","fips":"24043","name":"Washington County","state_id":"MD"},{"zip":"21757","fips":"24013","name":"Carroll County","state_id":"MD"},{"zip":"21757","fips":"24021","name":"Frederick County","state_id":"MD"},{"zip":"21758","fips":"24043","name":"Washington County","state_id":"MD"},{"zip":"21758","fips":"24021","name":"Frederick County","state_id":"MD"},{"zip":"21759","fips":"24021","name":"Frederick County","state_id":"MD"},{"zip":"21762","fips":"24021","name":"Frederick County","state_id":"MD"},{"zip":"21765","fips":"24027","name":"Howard County","state_id":"MD"},{"zip":"21766","fips":"24001","name":"Allegany County","state_id":"MD"},{"zip":"21767","fips":"24043","name":"Washington County","state_id":"MD"},{"zip":"21769","fips":"24021","name":"Frederick County","state_id":"MD"},{"zip":"21769","fips":"24043","name":"Washington County","state_id":"MD"},{"zip":"21770","fips":"24031","name":"Montgomery County","state_id":"MD"},{"zip":"21770","fips":"24021","name":"Frederick County","state_id":"MD"},{"zip":"21771","fips":"24027","name":"Howard County","state_id":"MD"},{"zip":"21771","fips":"24013","name":"Carroll County","state_id":"MD"},{"zip":"21771","fips":"24031","name":"Montgomery County","state_id":"MD"},{"zip":"21771","fips":"24021","name":"Frederick County","state_id":"MD"},{"zip":"21773","fips":"24021","name":"Frederick County","state_id":"MD"},{"zip":"21774","fips":"24021","name":"Frederick County","state_id":"MD"},{"zip":"21775","fips":"24021","name":"Frederick County","state_id":"MD"},{"zip":"21776","fips":"24021","name":"Frederick County","state_id":"MD"},{"zip":"21776","fips":"24013","name":"Carroll County","state_id":"MD"},{"zip":"21777","fips":"24021","name":"Frederick County","state_id":"MD"},{"zip":"21778","fips":"24021","name":"Frederick County","state_id":"MD"},{"zip":"21779","fips":"24043","name":"Washington County","state_id":"MD"},{"zip":"21780","fips":"24043","name":"Washington County","state_id":"MD"},{"zip":"21780","fips":"24021","name":"Frederick County","state_id":"MD"},{"zip":"21781","fips":"24043","name":"Washington County","state_id":"MD"},{"zip":"21782","fips":"24043","name":"Washington County","state_id":"MD"},{"zip":"21783","fips":"24021","name":"Frederick County","state_id":"MD"},{"zip":"21783","fips":"24043","name":"Washington County","state_id":"MD"},{"zip":"21784","fips":"24013","name":"Carroll County","state_id":"MD"},{"zip":"21784","fips":"24027","name":"Howard County","state_id":"MD"},{"zip":"21787","fips":"24021","name":"Frederick County","state_id":"MD"},{"zip":"21787","fips":"24013","name":"Carroll County","state_id":"MD"},{"zip":"21788","fips":"24021","name":"Frederick County","state_id":"MD"},{"zip":"21790","fips":"24021","name":"Frederick County","state_id":"MD"},{"zip":"21791","fips":"24013","name":"Carroll County","state_id":"MD"},{"zip":"21791","fips":"24021","name":"Frederick County","state_id":"MD"},{"zip":"21792","fips":"24047","name":"Worcester County","state_id":"MD"},{"zip":"21793","fips":"24021","name":"Frederick County","state_id":"MD"},{"zip":"21794","fips":"24027","name":"Howard County","state_id":"MD"},{"zip":"21795","fips":"24043","name":"Washington County","state_id":"MD"},{"zip":"21797","fips":"24027","name":"Howard County","state_id":"MD"},{"zip":"21797","fips":"24031","name":"Montgomery County","state_id":"MD"},{"zip":"21797","fips":"24013","name":"Carroll County","state_id":"MD"},{"zip":"21798","fips":"24021","name":"Frederick County","state_id":"MD"}]
