[{"zip":"21801","fips":"24045","name":"Wicomico County","state_id":"MD"},{"zip":"21802","fips":"24045","name":"Wicomico County","state_id":"MD"},{"zip":"21803","fips":"24045","name":"Wicomico County","state_id":"MD"},{"zip":"21804","fips":"24045","name":"Wicomico County","state_id":"MD"},{"zip":"21804","fips":"24047","name":"Worcester County","state_id":"MD"},{"zip":"21810","fips":"24045","name":"Wicomico County","state_id":"MD"},{"zip":"21811","fips":"24047","name":"Worcester County","state_id":"MD"},{"zip":"21813","fips":"24047","name":"Worcester County","state_id":"MD"},{"zip":"21814","fips":"24045","name":"Wicomico County","state_id":"MD"},{"zip":"21817","fips":"24039","name":"Somerset County","state_id":"MD"},{"zip":"21821","fips":"24039","name":"Somerset County","state_id":"MD"},{"zip":"21822","fips":"24039","name":"Somerset County","state_id":"MD"},{"zip":"21822","fips":"24047","name":"Worcester County","state_id":"MD"},{"zip":"21822","fips":"24045","name":"Wicomico County","state_id":"MD"},{"zip":"21824","fips":"24039","name":"Somerset County","state_id":"MD"},{"zip":"21826","fips":"24045","name":"Wicomico County","state_id":"MD"},{"zip":"21829","fips":"24047","name":"Worcester County","state_id":"MD"},{"zip":"21830","fips":"24045","name":"Wicomico County","state_id":"MD"},{"zip":"21835","fips":"24019","name":"Dorchester County","state_id":"MD"},{"zip":"21836","fips":"24039","name":"Somerset County","state_id":"MD"},{"zip":"21837","fips":"24045","name":"Wicomico County","state_id":"MD"},{"zip":"21838","fips":"24039","name":"Somerset County","state_id":"MD"},{"zip":"21840","fips":"24045","name":"Wicomico County","state_id":"MD"},{"zip":"21841","fips":"24047","name":"Worcester County","state_id":"MD"},{"zip":"21842","fips":"24047","name":"Worcester County","state_id":"MD"},{"zip":"21843","fips":"24047","name":"Worcester County","state_id":"MD"},{"zip":"21849","fips":"24045","name":"Wicomico County","state_id":"MD"},{"zip":"21850","fips":"24045","name":"Wicomico County","state_id":"MD"},{"zip":"21851","fips":"24047","name":"Worcester County","state_id":"MD"},{"zip":"21851","fips":"24039","name":"Somerset County","state_id":"MD"},{"zip":"21852","fips":"24045","name":"Wicomico County","state_id":"MD"},{"zip":"21853","fips":"24039","name":"Somerset County","state_id":"MD"},{"zip":"21856","fips":"24045","name":"Wicomico County","state_id":"MD"},{"zip":"21857","fips":"24039","name":"Somerset County","state_id":"MD"},{"zip":"21861","fips":"24045","name":"Wicomico County","state_id":"MD"},{"zip":"21862","fips":"24047","name":"Worcester County","state_id":"MD"},{"zip":"21863","fips":"24047","name":"Worcester County","state_id":"MD"},{"zip":"21864","fips":"24047","name":"Worcester County","state_id":"MD"},{"zip":"21865","fips":"24045","name":"Wicomico County","state_id":"MD"},{"zip":"21866","fips":"24039","name":"Somerset County","state_id":"MD"},{"zip":"21867","fips":"24039","name":"Somerset County","state_id":"MD"},{"zip":"21869","fips":"24019","name":"Dorchester County","state_id":"MD"},{"zip":"21871","fips":"24039","name":"Somerset County","state_id":"MD"},{"zip":"21872","fips":"24047","name":"Worcester County","state_id":"MD"},{"zip":"21874","fips":"24045","name":"Wicomico County","state_id":"MD"},{"zip":"21875","fips":"24045","name":"Wicomico County","state_id":"MD"},{"zip":"21890","fips":"24039","name":"Somerset County","state_id":"MD"}]
