[{"zip":"21901","fips":"24015","name":"Cecil County","state_id":"MD"},{"zip":"21902","fips":"24015","name":"Cecil County","state_id":"MD"},{"zip":"21903","fips":"24015","name":"Cecil County","state_id":"MD"},{"zip":"21904","fips":"24015","name":"Cecil County","state_id":"MD"},{"zip":"21911","fips":"24015","name":"Cecil County","state_id":"MD"},{"zip":"21912","fips":"24015","name":"Cecil County","state_id":"MD"},{"zip":"21913","fips":"24015","name":"Cecil County","state_id":"MD"},{"zip":"21914","fips":"24015","name":"Cecil County","state_id":"MD"},{"zip":"21915","fips":"24015","name":"Cecil County","state_id":"MD"},{"zip":"21916","fips":"24015","name":"Cecil County","state_id":"MD"},{"zip":"21917","fips":"24015","name":"Cecil County","state_id":"MD"},{"zip":"21918","fips":"24015","name":"Cecil County","state_id":"MD"},{"zip":"21919","fips":"24015","name":"Cecil County","state_id":"MD"},{"zip":"21920","fips":"24015","name":"Cecil County","state_id":"MD"},{"zip":"21921","fips":"24015","name":"Cecil County","state_id":"MD"},{"zip":"21922","fips":"24015","name":"Cecil County","state_id":"MD"},{"zip":"21930","fips":"24015","name":"Cecil County","state_id":"MD"},{"zip":"21930","fips":"24029","name":"Kent County","state_id":"MD"}]
