[{"zip":"22003","fips":"51059","name":"Fairfax County","state_id":"VA"},{"zip":"22009","fips":"51059","name":"Fairfax County","state_id":"VA"},{"zip":"22015","fips":"51059","name":"Fairfax County","state_id":"VA"},{"zip":"22025","fips":"51153","name":"Prince William County","state_id":"VA"},{"zip":"22026","fips":"51153","name":"Prince William County","state_id":"VA"},{"zip":"22027","fips":"51059","name":"Fairfax County","state_id":"VA"},{"zip":"22030","fips":"51600","name":"Fairfax city","state_id":"VA"},{"zip":"22030","fips":"51059","name":"Fairfax County","state_id":"VA"},{"zip":"22031","fips":"51600","name":"Fairfax city","state_id":"VA"},{"zip":"22031","fips":"51059","name":"Fairfax County","state_id":"VA"},{"zip":"22032","fips":"51600","name":"Fairfax city","state_id":"VA"},{"zip":"22032","fips":"51059","name":"Fairfax County","state_id":"VA"},{"zip":"22033","fips":"51059","name":"Fairfax County","state_id":"VA"},{"zip":"22035","fips":"51059","name":"Fairfax County","state_id":"VA"},{"zip":"22037","fips":"51059","name":"Fairfax County","state_id":"VA"},{"zip":"22038","fips":"51600","name":"Fairfax city","state_id":"VA"},{"zip":"22039","fips":"51059","name":"Fairfax County","state_id":"VA"},{"zip":"22040","fips":"51610","name":"Falls Church city","state_id":"VA"},{"zip":"22041","fips":"51059","name":"Fairfax County","state_id":"VA"},{"zip":"22042","fips":"51059","name":"Fairfax County","state_id":"VA"},{"zip":"22042","fips":"51610","name":"Falls Church city","state_id":"VA"},{"zip":"22043","fips":"51059","name":"Fairfax County","state_id":"VA"},{"zip":"22044","fips":"51059","name":"Fairfax County","state_id":"VA"},{"zip":"22044","fips":"51610","name":"Falls Church city","state_id":"VA"},{"zip":"22046","fips":"51059","name":"Fairfax County","state_id":"VA"},{"zip":"22046","fips":"51013","name":"Arlington County","state_id":"VA"},{"zip":"22046","fips":"51610","name":"Falls Church city","state_id":"VA"},{"zip":"22060","fips":"51059","name":"Fairfax County","state_id":"VA"},{"zip":"22066","fips":"51107","name":"Loudoun County","state_id":"VA"},{"zip":"22066","fips":"51059","name":"Fairfax County","state_id":"VA"},{"zip":"22067","fips":"51059","name":"Fairfax County","state_id":"VA"},{"zip":"22079","fips":"51059","name":"Fairfax County","state_id":"VA"},{"zip":"22081","fips":"51059","name":"Fairfax County","state_id":"VA"},{"zip":"22082","fips":"51059","name":"Fairfax County","state_id":"VA"}]
