[{"zip":"22101","fips":"51013","name":"Arlington County","state_id":"VA"},{"zip":"22101","fips":"51059","name":"Fairfax County","state_id":"VA"},{"zip":"22102","fips":"51059","name":"Fairfax County","state_id":"VA"},{"zip":"22103","fips":"51059","name":"Fairfax County","state_id":"VA"},{"zip":"22106","fips":"51059","name":"Fairfax County","state_id":"VA"},{"zip":"22107","fips":"51059","name":"Fairfax County","state_id":"VA"},{"zip":"22108","fips":"51059","name":"Fairfax County","state_id":"VA"},{"zip":"22109","fips":"51059","name":"Fairfax County","state_id":"VA"},{"zip":"22116","fips":"51059","name":"Fairfax County","state_id":"VA"},{"zip":"22121","fips":"51059","name":"Fairfax County","state_id":"VA"},{"zip":"22122","fips":"51059","name":"Fairfax County","state_id":"VA"},{"zip":"22124","fips":"51059","name":"Fairfax County","state_id":"VA"},{"zip":"22125","fips":"51153","name":"Prince William County","state_id":"VA"},{"zip":"22134","fips":"51153","name":"Prince William County","state_id":"VA"},{"zip":"22134","fips":"51179","name":"Stafford County","state_id":"VA"},{"zip":"22135","fips":"51179","name":"Stafford County","state_id":"VA"},{"zip":"22150","fips":"51059","name":"Fairfax County","state_id":"VA"},{"zip":"22151","fips":"51059","name":"Fairfax County","state_id":"VA"},{"zip":"22152","fips":"51059","name":"Fairfax County","state_id":"VA"},{"zip":"22153","fips":"51059","name":"Fairfax County","state_id":"VA"},{"zip":"22158","fips":"51059","name":"Fairfax County","state_id":"VA"},{"zip":"22160","fips":"51059","name":"Fairfax County","state_id":"VA"},{"zip":"22172","fips":"51153","name":"Prince William County","state_id":"VA"},{"zip":"22180","fips":"51059","name":"Fairfax County","state_id":"VA"},{"zip":"22181","fips":"51059","name":"Fairfax County","state_id":"VA"},{"zip":"22182","fips":"51059","name":"Fairfax County","state_id":"VA"},{"zip":"22183","fips":"51059","name":"Fairfax County","state_id":"VA"},{"zip":"22185","fips":"51059","name":"Fairfax County","state_id":"VA"},{"zip":"22191","fips":"51153","name":"Prince William County","state_id":"VA"},{"zip":"22192","fips":"51153","name":"Prince William County","state_id":"VA"},{"zip":"22193","fips":"51153","name":"Prince William County","state_id":"VA"},{"zip":"22194","fips":"51153","name":"Prince William County","state_id":"VA"},{"zip":"22195","fips":"51153","name":"Prince William County","state_id":"VA"},{"zip":"22199","fips":"51059","name":"Fairfax County","state_id":"VA"}]
