[{"zip":"22201","fips":"51013","name":"Arlington County","state_id":"VA"},{"zip":"22202","fips":"51013","name":"Arlington County","state_id":"VA"},{"zip":"22203","fips":"51013","name":"Arlington County","state_id":"VA"},{"zip":"22204","fips":"51059","name":"Fairfax County","state_id":"VA"},{"zip":"22204","fips":"51013","name":"Arlington County","state_id":"VA"},{"zip":"22205","fips":"51610","name":"Falls Church city","state_id":"VA"},{"zip":"22205","fips":"51013","name":"Arlington County","state_id":"VA"},{"zip":"22206","fips":"51059","name":"Fairfax County","state_id":"VA"},{"zip":"22206","fips":"51013","name":"Arlington County","state_id":"VA"},{"zip":"22206","fips":"51510","name":"Alexandria city","state_id":"VA"},{"zip":"22207","fips":"51059","name":"Fairfax County","state_id":"VA"},{"zip":"22207","fips":"51013","name":"Arlington County","state_id":"VA"},{"zip":"22209","fips":"51013","name":"Arlington County","state_id":"VA"},{"zip":"22210","fips":"51013","name":"Arlington County","state_id":"VA"},{"zip":"22211","fips":"51013","name":"Arlington County","state_id":"VA"},{"zip":"22212","fips":"51013","name":"Arlington County","state_id":"VA"},{"zip":"22213","fips":"51013","name":"Arlington County","state_id":"VA"},{"zip":"22213","fips":"51059","name":"Fairfax County","state_id":"VA"},{"zip":"22213","fips":"51610","name":"Falls Church city","state_id":"VA"},{"zip":"22214","fips":"51013","name":"Arlington County","state_id":"VA"},{"zip":"22215","fips":"51013","name":"Arlington County","state_id":"VA"},{"zip":"22216","fips":"51013","name":"Arlington County","state_id":"VA"},{"zip":"22217","fips":"51013","name":"Arlington County","state_id":"VA"},{"zip":"22219","fips":"51013","name":"Arlington County","state_id":"VA"},{"zip":"22225","fips":"51013","name":"Arlington County","state_id":"VA"},{"zip":"22226","fips":"51013","name":"Arlington County","state_id":"VA"},{"zip":"22227","fips":"51013","name":"Arlington County","state_id":"VA"},{"zip":"22230","fips":"51013","name":"Arlington County","state_id":"VA"},{"zip":"22240","fips":"51013","name":"Arlington County","state_id":"VA"},{"zip":"22241","fips":"51013","name":"Arlington County","state_id":"VA"},{"zip":"22242","fips":"51013","name":"Arlington County","state_id":"VA"},{"zip":"22243","fips":"51013","name":"Arlington County","state_id":"VA"},{"zip":"22244","fips":"51013","name":"Arlington County","state_id":"VA"},{"zip":"22245","fips":"51013","name":"Arlington County","state_id":"VA"}]
