[{"zip":"22301","fips":"51510","name":"Alexandria city","state_id":"VA"},{"zip":"22302","fips":"51510","name":"Alexandria city","state_id":"VA"},{"zip":"22302","fips":"51013","name":"Arlington County","state_id":"VA"},{"zip":"22302","fips":"51059","name":"Fairfax County","state_id":"VA"},{"zip":"22303","fips":"51059","name":"Fairfax County","state_id":"VA"},{"zip":"22304","fips":"51510","name":"Alexandria city","state_id":"VA"},{"zip":"22304","fips":"51059","name":"Fairfax County","state_id":"VA"},{"zip":"22305","fips":"51510","name":"Alexandria city","state_id":"VA"},{"zip":"22306","fips":"51059","name":"Fairfax County","state_id":"VA"},{"zip":"22307","fips":"51059","name":"Fairfax County","state_id":"VA"},{"zip":"22308","fips":"51059","name":"Fairfax County","state_id":"VA"},{"zip":"22309","fips":"51059","name":"Fairfax County","state_id":"VA"},{"zip":"22310","fips":"51059","name":"Fairfax County","state_id":"VA"},{"zip":"22311","fips":"51510","name":"Alexandria city","state_id":"VA"},{"zip":"22311","fips":"51059","name":"Fairfax County","state_id":"VA"},{"zip":"22312","fips":"51059","name":"Fairfax County","state_id":"VA"},{"zip":"22312","fips":"51510","name":"Alexandria city","state_id":"VA"},{"zip":"22313","fips":"51510","name":"Alexandria city","state_id":"VA"},{"zip":"22314","fips":"51510","name":"Alexandria city","state_id":"VA"},{"zip":"22315","fips":"51059","name":"Fairfax County","state_id":"VA"},{"zip":"22320","fips":"51510","name":"Alexandria city","state_id":"VA"},{"zip":"22332","fips":"51510","name":"Alexandria city","state_id":"VA"},{"zip":"22333","fips":"51510","name":"Alexandria city","state_id":"VA"},{"zip":"22350","fips":"51510","name":"Alexandria city","state_id":"VA"}]
