[{"zip":"22401","fips":"51177","name":"Spotsylvania County","state_id":"VA"},{"zip":"22401","fips":"51630","name":"Fredericksburg city","state_id":"VA"},{"zip":"22402","fips":"51630","name":"Fredericksburg city","state_id":"VA"},{"zip":"22403","fips":"51179","name":"Stafford County","state_id":"VA"},{"zip":"22404","fips":"51177","name":"Spotsylvania County","state_id":"VA"},{"zip":"22404","fips":"51630","name":"Fredericksburg city","state_id":"VA"},{"zip":"22405","fips":"51179","name":"Stafford County","state_id":"VA"},{"zip":"22406","fips":"51061","name":"Fauquier County","state_id":"VA"},{"zip":"22406","fips":"51179","name":"Stafford County","state_id":"VA"},{"zip":"22407","fips":"51630","name":"Fredericksburg city","state_id":"VA"},{"zip":"22407","fips":"51047","name":"Culpeper County","state_id":"VA"},{"zip":"22407","fips":"51177","name":"Spotsylvania County","state_id":"VA"},{"zip":"22408","fips":"51630","name":"Fredericksburg city","state_id":"VA"},{"zip":"22408","fips":"51033","name":"Caroline County","state_id":"VA"},{"zip":"22408","fips":"51177","name":"Spotsylvania County","state_id":"VA"},{"zip":"22412","fips":"51179","name":"Stafford County","state_id":"VA"},{"zip":"22427","fips":"51033","name":"Caroline County","state_id":"VA"},{"zip":"22428","fips":"51033","name":"Caroline County","state_id":"VA"},{"zip":"22430","fips":"51179","name":"Stafford County","state_id":"VA"},{"zip":"22432","fips":"51133","name":"Northumberland County","state_id":"VA"},{"zip":"22433","fips":"51137","name":"Orange County","state_id":"VA"},{"zip":"22435","fips":"51193","name":"Westmoreland County","state_id":"VA"},{"zip":"22435","fips":"51159","name":"Richmond County","state_id":"VA"},{"zip":"22435","fips":"51133","name":"Northumberland County","state_id":"VA"},{"zip":"22436","fips":"51033","name":"Caroline County","state_id":"VA"},{"zip":"22436","fips":"51057","name":"Essex County","state_id":"VA"},{"zip":"22437","fips":"51057","name":"Essex County","state_id":"VA"},{"zip":"22437","fips":"51097","name":"King and Queen County","state_id":"VA"},{"zip":"22438","fips":"51057","name":"Essex County","state_id":"VA"},{"zip":"22438","fips":"51033","name":"Caroline County","state_id":"VA"},{"zip":"22442","fips":"51193","name":"Westmoreland County","state_id":"VA"},{"zip":"22443","fips":"51193","name":"Westmoreland County","state_id":"VA"},{"zip":"22443","fips":"51099","name":"King George County","state_id":"VA"},{"zip":"22446","fips":"51033","name":"Caroline County","state_id":"VA"},{"zip":"22448","fips":"51099","name":"King George County","state_id":"VA"},{"zip":"22451","fips":"51099","name":"King George County","state_id":"VA"},{"zip":"22454","fips":"51057","name":"Essex County","state_id":"VA"},{"zip":"22460","fips":"51133","name":"Northumberland County","state_id":"VA"},{"zip":"22460","fips":"51159","name":"Richmond County","state_id":"VA"},{"zip":"22463","fips":"51179","name":"Stafford County","state_id":"VA"},{"zip":"22469","fips":"51193","name":"Westmoreland County","state_id":"VA"},{"zip":"22471","fips":"51179","name":"Stafford County","state_id":"VA"},{"zip":"22472","fips":"51159","name":"Richmond County","state_id":"VA"},{"zip":"22473","fips":"51133","name":"Northumberland County","state_id":"VA"},{"zip":"22473","fips":"51159","name":"Richmond County","state_id":"VA"},{"zip":"22473","fips":"51103","name":"Lancaster County","state_id":"VA"},{"zip":"22476","fips":"51057","name":"Essex County","state_id":"VA"},{"zip":"22480","fips":"51103","name":"Lancaster County","state_id":"VA"},{"zip":"22481","fips":"51099","name":"King George County","state_id":"VA"},{"zip":"22482","fips":"51103","name":"Lancaster County","state_id":"VA"},{"zip":"22482","fips":"51133","name":"Northumberland County","state_id":"VA"},{"zip":"22485","fips":"51193","name":"Westmoreland County","state_id":"VA"},{"zip":"22485","fips":"51099","name":"King George County","state_id":"VA"},{"zip":"22488","fips":"51193","name":"Westmoreland County","state_id":"VA"}]
