[{"zip":"22501","fips":"51033","name":"Caroline County","state_id":"VA"},{"zip":"22503","fips":"51159","name":"Richmond County","state_id":"VA"},{"zip":"22503","fips":"51103","name":"Lancaster County","state_id":"VA"},{"zip":"22503","fips":"51133","name":"Northumberland County","state_id":"VA"},{"zip":"22504","fips":"51119","name":"Middlesex County","state_id":"VA"},{"zip":"22504","fips":"51057","name":"Essex County","state_id":"VA"},{"zip":"22507","fips":"51103","name":"Lancaster County","state_id":"VA"},{"zip":"22508","fips":"51137","name":"Orange County","state_id":"VA"},{"zip":"22508","fips":"51177","name":"Spotsylvania County","state_id":"VA"},{"zip":"22509","fips":"51057","name":"Essex County","state_id":"VA"},{"zip":"22511","fips":"51133","name":"Northumberland County","state_id":"VA"},{"zip":"22513","fips":"51103","name":"Lancaster County","state_id":"VA"},{"zip":"22514","fips":"51097","name":"King and Queen County","state_id":"VA"},{"zip":"22514","fips":"51033","name":"Caroline County","state_id":"VA"},{"zip":"22517","fips":"51103","name":"Lancaster County","state_id":"VA"},{"zip":"22520","fips":"51193","name":"Westmoreland County","state_id":"VA"},{"zip":"22520","fips":"51159","name":"Richmond County","state_id":"VA"},{"zip":"22523","fips":"51103","name":"Lancaster County","state_id":"VA"},{"zip":"22524","fips":"51193","name":"Westmoreland County","state_id":"VA"},{"zip":"22526","fips":"51099","name":"King George County","state_id":"VA"},{"zip":"22528","fips":"51103","name":"Lancaster County","state_id":"VA"},{"zip":"22529","fips":"51193","name":"Westmoreland County","state_id":"VA"},{"zip":"22530","fips":"51133","name":"Northumberland County","state_id":"VA"},{"zip":"22534","fips":"51177","name":"Spotsylvania County","state_id":"VA"},{"zip":"22535","fips":"51033","name":"Caroline County","state_id":"VA"},{"zip":"22538","fips":"51033","name":"Caroline County","state_id":"VA"},{"zip":"22539","fips":"51133","name":"Northumberland County","state_id":"VA"},{"zip":"22542","fips":"51137","name":"Orange County","state_id":"VA"},{"zip":"22544","fips":"51099","name":"King George County","state_id":"VA"},{"zip":"22545","fips":"51179","name":"Stafford County","state_id":"VA"},{"zip":"22546","fips":"51033","name":"Caroline County","state_id":"VA"},{"zip":"22546","fips":"51085","name":"Hanover County","state_id":"VA"},{"zip":"22546","fips":"51177","name":"Spotsylvania County","state_id":"VA"},{"zip":"22547","fips":"51099","name":"King George County","state_id":"VA"},{"zip":"22548","fips":"51159","name":"Richmond County","state_id":"VA"},{"zip":"22551","fips":"51137","name":"Orange County","state_id":"VA"},{"zip":"22551","fips":"51177","name":"Spotsylvania County","state_id":"VA"},{"zip":"22552","fips":"51033","name":"Caroline County","state_id":"VA"},{"zip":"22553","fips":"51177","name":"Spotsylvania County","state_id":"VA"},{"zip":"22554","fips":"51179","name":"Stafford County","state_id":"VA"},{"zip":"22555","fips":"51179","name":"Stafford County","state_id":"VA"},{"zip":"22556","fips":"51061","name":"Fauquier County","state_id":"VA"},{"zip":"22556","fips":"51179","name":"Stafford County","state_id":"VA"},{"zip":"22558","fips":"51193","name":"Westmoreland County","state_id":"VA"},{"zip":"22560","fips":"51097","name":"King and Queen County","state_id":"VA"},{"zip":"22560","fips":"51057","name":"Essex County","state_id":"VA"},{"zip":"22560","fips":"51033","name":"Caroline County","state_id":"VA"},{"zip":"22565","fips":"51177","name":"Spotsylvania County","state_id":"VA"},{"zip":"22567","fips":"51177","name":"Spotsylvania County","state_id":"VA"},{"zip":"22567","fips":"51137","name":"Orange County","state_id":"VA"},{"zip":"22572","fips":"51193","name":"Westmoreland County","state_id":"VA"},{"zip":"22572","fips":"51159","name":"Richmond County","state_id":"VA"},{"zip":"22576","fips":"51103","name":"Lancaster County","state_id":"VA"},{"zip":"22577","fips":"51193","name":"Westmoreland County","state_id":"VA"},{"zip":"22578","fips":"51103","name":"Lancaster County","state_id":"VA"},{"zip":"22579","fips":"51133","name":"Northumberland County","state_id":"VA"},{"zip":"22580","fips":"51177","name":"Spotsylvania County","state_id":"VA"},{"zip":"22580","fips":"51033","name":"Caroline County","state_id":"VA"},{"zip":"22581","fips":"51193","name":"Westmoreland County","state_id":"VA"}]
