[{"zip":"22601","fips":"51840","name":"Winchester city","state_id":"VA"},{"zip":"22601","fips":"51069","name":"Frederick County","state_id":"VA"},{"zip":"22602","fips":"51840","name":"Winchester city","state_id":"VA"},{"zip":"22602","fips":"51069","name":"Frederick County","state_id":"VA"},{"zip":"22603","fips":"51069","name":"Frederick County","state_id":"VA"},{"zip":"22604","fips":"51840","name":"Winchester city","state_id":"VA"},{"zip":"22610","fips":"51187","name":"Warren County","state_id":"VA"},{"zip":"22611","fips":"51043","name":"Clarke County","state_id":"VA"},{"zip":"22620","fips":"51043","name":"Clarke County","state_id":"VA"},{"zip":"22622","fips":"51069","name":"Frederick County","state_id":"VA"},{"zip":"22623","fips":"51157","name":"Rappahannock County","state_id":"VA"},{"zip":"22623","fips":"51187","name":"Warren County","state_id":"VA"},{"zip":"22624","fips":"51069","name":"Frederick County","state_id":"VA"},{"zip":"22625","fips":"51069","name":"Frederick County","state_id":"VA"},{"zip":"22626","fips":"51171","name":"Shenandoah County","state_id":"VA"},{"zip":"22627","fips":"51157","name":"Rappahannock County","state_id":"VA"},{"zip":"22630","fips":"51187","name":"Warren County","state_id":"VA"},{"zip":"22630","fips":"51157","name":"Rappahannock County","state_id":"VA"},{"zip":"22630","fips":"51069","name":"Frederick County","state_id":"VA"},{"zip":"22630","fips":"51043","name":"Clarke County","state_id":"VA"},{"zip":"22637","fips":"51069","name":"Frederick County","state_id":"VA"},{"zip":"22639","fips":"51061","name":"Fauquier County","state_id":"VA"},{"zip":"22640","fips":"51157","name":"Rappahannock County","state_id":"VA"},{"zip":"22641","fips":"51171","name":"Shenandoah County","state_id":"VA"},{"zip":"22642","fips":"51187","name":"Warren County","state_id":"VA"},{"zip":"22642","fips":"51043","name":"Clarke County","state_id":"VA"},{"zip":"22642","fips":"51061","name":"Fauquier County","state_id":"VA"},{"zip":"22643","fips":"51061","name":"Fauquier County","state_id":"VA"},{"zip":"22644","fips":"51171","name":"Shenandoah County","state_id":"VA"},{"zip":"22645","fips":"51069","name":"Frederick County","state_id":"VA"},{"zip":"22645","fips":"51187","name":"Warren County","state_id":"VA"},{"zip":"22645","fips":"51171","name":"Shenandoah County","state_id":"VA"},{"zip":"22646","fips":"51043","name":"Clarke County","state_id":"VA"},{"zip":"22649","fips":"51187","name":"Warren County","state_id":"VA"},{"zip":"22650","fips":"51139","name":"Page County","state_id":"VA"},{"zip":"22652","fips":"51171","name":"Shenandoah County","state_id":"VA"},{"zip":"22654","fips":"51171","name":"Shenandoah County","state_id":"VA"},{"zip":"22654","fips":"51069","name":"Frederick County","state_id":"VA"},{"zip":"22655","fips":"51187","name":"Warren County","state_id":"VA"},{"zip":"22655","fips":"51069","name":"Frederick County","state_id":"VA"},{"zip":"22656","fips":"51069","name":"Frederick County","state_id":"VA"},{"zip":"22657","fips":"51171","name":"Shenandoah County","state_id":"VA"},{"zip":"22657","fips":"51187","name":"Warren County","state_id":"VA"},{"zip":"22660","fips":"51171","name":"Shenandoah County","state_id":"VA"},{"zip":"22663","fips":"51043","name":"Clarke County","state_id":"VA"},{"zip":"22663","fips":"51069","name":"Frederick County","state_id":"VA"},{"zip":"22663","fips":"51187","name":"Warren County","state_id":"VA"},{"zip":"22664","fips":"51171","name":"Shenandoah County","state_id":"VA"}]
