[{"zip":"22801","fips":"51165","name":"Rockingham County","state_id":"VA"},{"zip":"22801","fips":"51660","name":"Harrisonburg city","state_id":"VA"},{"zip":"22802","fips":"51165","name":"Rockingham County","state_id":"VA"},{"zip":"22802","fips":"51660","name":"Harrisonburg city","state_id":"VA"},{"zip":"22803","fips":"51660","name":"Harrisonburg city","state_id":"VA"},{"zip":"22807","fips":"51660","name":"Harrisonburg city","state_id":"VA"},{"zip":"22810","fips":"51171","name":"Shenandoah County","state_id":"VA"},{"zip":"22811","fips":"51165","name":"Rockingham County","state_id":"VA"},{"zip":"22812","fips":"51165","name":"Rockingham County","state_id":"VA"},{"zip":"22812","fips":"51015","name":"Augusta County","state_id":"VA"},{"zip":"22815","fips":"51171","name":"Shenandoah County","state_id":"VA"},{"zip":"22815","fips":"51165","name":"Rockingham County","state_id":"VA"},{"zip":"22820","fips":"51165","name":"Rockingham County","state_id":"VA"},{"zip":"22821","fips":"51165","name":"Rockingham County","state_id":"VA"},{"zip":"22824","fips":"51171","name":"Shenandoah County","state_id":"VA"},{"zip":"22827","fips":"51139","name":"Page County","state_id":"VA"},{"zip":"22827","fips":"51165","name":"Rockingham County","state_id":"VA"},{"zip":"22830","fips":"51165","name":"Rockingham County","state_id":"VA"},{"zip":"22831","fips":"51165","name":"Rockingham County","state_id":"VA"},{"zip":"22832","fips":"51165","name":"Rockingham County","state_id":"VA"},{"zip":"22833","fips":"51165","name":"Rockingham County","state_id":"VA"},{"zip":"22834","fips":"51165","name":"Rockingham County","state_id":"VA"},{"zip":"22835","fips":"51139","name":"Page County","state_id":"VA"},{"zip":"22835","fips":"51171","name":"Shenandoah County","state_id":"VA"},{"zip":"22840","fips":"51165","name":"Rockingham County","state_id":"VA"},{"zip":"22841","fips":"51165","name":"Rockingham County","state_id":"VA"},{"zip":"22841","fips":"51015","name":"Augusta County","state_id":"VA"},{"zip":"22842","fips":"51171","name":"Shenandoah County","state_id":"VA"},{"zip":"22843","fips":"51015","name":"Augusta County","state_id":"VA"},{"zip":"22844","fips":"51171","name":"Shenandoah County","state_id":"VA"},{"zip":"22844","fips":"51165","name":"Rockingham County","state_id":"VA"},{"zip":"22845","fips":"51171","name":"Shenandoah County","state_id":"VA"},{"zip":"22846","fips":"51165","name":"Rockingham County","state_id":"VA"},{"zip":"22847","fips":"51171","name":"Shenandoah County","state_id":"VA"},{"zip":"22848","fips":"51165","name":"Rockingham County","state_id":"VA"},{"zip":"22849","fips":"51165","name":"Rockingham County","state_id":"VA"},{"zip":"22849","fips":"51139","name":"Page County","state_id":"VA"},{"zip":"22850","fips":"51165","name":"Rockingham County","state_id":"VA"},{"zip":"22851","fips":"51139","name":"Page County","state_id":"VA"},{"zip":"22853","fips":"51165","name":"Rockingham County","state_id":"VA"},{"zip":"22853","fips":"51171","name":"Shenandoah County","state_id":"VA"}]
