[{"zip":"22901","fips":"51003","name":"Albemarle County","state_id":"VA"},{"zip":"22901","fips":"51540","name":"Charlottesville city","state_id":"VA"},{"zip":"22902","fips":"51003","name":"Albemarle County","state_id":"VA"},{"zip":"22902","fips":"51065","name":"Fluvanna County","state_id":"VA"},{"zip":"22902","fips":"51540","name":"Charlottesville city","state_id":"VA"},{"zip":"22903","fips":"51540","name":"Charlottesville city","state_id":"VA"},{"zip":"22903","fips":"51003","name":"Albemarle County","state_id":"VA"},{"zip":"22904","fips":"51003","name":"Albemarle County","state_id":"VA"},{"zip":"22904","fips":"51540","name":"Charlottesville city","state_id":"VA"},{"zip":"22905","fips":"51540","name":"Charlottesville city","state_id":"VA"},{"zip":"22906","fips":"51540","name":"Charlottesville city","state_id":"VA"},{"zip":"22908","fips":"51540","name":"Charlottesville city","state_id":"VA"},{"zip":"22908","fips":"51003","name":"Albemarle County","state_id":"VA"},{"zip":"22909","fips":"51003","name":"Albemarle County","state_id":"VA"},{"zip":"22911","fips":"51003","name":"Albemarle County","state_id":"VA"},{"zip":"22920","fips":"51015","name":"Augusta County","state_id":"VA"},{"zip":"22920","fips":"51125","name":"Nelson County","state_id":"VA"},{"zip":"22920","fips":"51003","name":"Albemarle County","state_id":"VA"},{"zip":"22922","fips":"51125","name":"Nelson County","state_id":"VA"},{"zip":"22922","fips":"51009","name":"Amherst County","state_id":"VA"},{"zip":"22923","fips":"51003","name":"Albemarle County","state_id":"VA"},{"zip":"22923","fips":"51079","name":"Greene County","state_id":"VA"},{"zip":"22923","fips":"51137","name":"Orange County","state_id":"VA"},{"zip":"22924","fips":"51003","name":"Albemarle County","state_id":"VA"},{"zip":"22931","fips":"51003","name":"Albemarle County","state_id":"VA"},{"zip":"22932","fips":"51003","name":"Albemarle County","state_id":"VA"},{"zip":"22935","fips":"51079","name":"Greene County","state_id":"VA"},{"zip":"22935","fips":"51003","name":"Albemarle County","state_id":"VA"},{"zip":"22936","fips":"51079","name":"Greene County","state_id":"VA"},{"zip":"22936","fips":"51003","name":"Albemarle County","state_id":"VA"},{"zip":"22937","fips":"51003","name":"Albemarle County","state_id":"VA"},{"zip":"22937","fips":"51125","name":"Nelson County","state_id":"VA"},{"zip":"22938","fips":"51003","name":"Albemarle County","state_id":"VA"},{"zip":"22938","fips":"51125","name":"Nelson County","state_id":"VA"},{"zip":"22939","fips":"51015","name":"Augusta County","state_id":"VA"},{"zip":"22940","fips":"51079","name":"Greene County","state_id":"VA"},{"zip":"22940","fips":"51003","name":"Albemarle County","state_id":"VA"},{"zip":"22942","fips":"51003","name":"Albemarle County","state_id":"VA"},{"zip":"22942","fips":"51109","name":"Louisa County","state_id":"VA"},{"zip":"22942","fips":"51137","name":"Orange County","state_id":"VA"},{"zip":"22943","fips":"51003","name":"Albemarle County","state_id":"VA"},{"zip":"22945","fips":"51003","name":"Albemarle County","state_id":"VA"},{"zip":"22946","fips":"51003","name":"Albemarle County","state_id":"VA"},{"zip":"22947","fips":"51065","name":"Fluvanna County","state_id":"VA"},{"zip":"22947","fips":"51109","name":"Louisa County","state_id":"VA"},{"zip":"22947","fips":"51003","name":"Albemarle County","state_id":"VA"},{"zip":"22948","fips":"51113","name":"Madison County","state_id":"VA"},{"zip":"22949","fips":"51125","name":"Nelson County","state_id":"VA"},{"zip":"22952","fips":"51820","name":"Waynesboro city","state_id":"VA"},{"zip":"22952","fips":"51015","name":"Augusta County","state_id":"VA"},{"zip":"22952","fips":"51125","name":"Nelson County","state_id":"VA"},{"zip":"22957","fips":"51137","name":"Orange County","state_id":"VA"},{"zip":"22958","fips":"51125","name":"Nelson County","state_id":"VA"},{"zip":"22959","fips":"51003","name":"Albemarle County","state_id":"VA"},{"zip":"22960","fips":"51113","name":"Madison County","state_id":"VA"},{"zip":"22960","fips":"51137","name":"Orange County","state_id":"VA"},{"zip":"22960","fips":"51177","name":"Spotsylvania County","state_id":"VA"},{"zip":"22963","fips":"51065","name":"Fluvanna County","state_id":"VA"},{"zip":"22964","fips":"51125","name":"Nelson County","state_id":"VA"},{"zip":"22965","fips":"51079","name":"Greene County","state_id":"VA"},{"zip":"22967","fips":"51125","name":"Nelson County","state_id":"VA"},{"zip":"22967","fips":"51009","name":"Amherst County","state_id":"VA"},{"zip":"22967","fips":"51015","name":"Augusta County","state_id":"VA"},{"zip":"22968","fips":"51003","name":"Albemarle County","state_id":"VA"},{"zip":"22968","fips":"51137","name":"Orange County","state_id":"VA"},{"zip":"22968","fips":"51079","name":"Greene County","state_id":"VA"},{"zip":"22969","fips":"51003","name":"Albemarle County","state_id":"VA"},{"zip":"22969","fips":"51125","name":"Nelson County","state_id":"VA"},{"zip":"22971","fips":"51125","name":"Nelson County","state_id":"VA"},{"zip":"22972","fips":"51113","name":"Madison County","state_id":"VA"},{"zip":"22972","fips":"51137","name":"Orange County","state_id":"VA"},{"zip":"22973","fips":"51079","name":"Greene County","state_id":"VA"},{"zip":"22973","fips":"51113","name":"Madison County","state_id":"VA"},{"zip":"22974","fips":"51003","name":"Albemarle County","state_id":"VA"},{"zip":"22974","fips":"51109","name":"Louisa County","state_id":"VA"},{"zip":"22974","fips":"51065","name":"Fluvanna County","state_id":"VA"},{"zip":"22976","fips":"51125","name":"Nelson County","state_id":"VA"},{"zip":"22980","fips":"51015","name":"Augusta County","state_id":"VA"},{"zip":"22980","fips":"51820","name":"Waynesboro city","state_id":"VA"},{"zip":"22987","fips":"51003","name":"Albemarle County","state_id":"VA"},{"zip":"22989","fips":"51113","name":"Madison County","state_id":"VA"}]
