[{"zip":"23001","fips":"51073","name":"Gloucester County","state_id":"VA"},{"zip":"23002","fips":"51135","name":"Nottoway County","state_id":"VA"},{"zip":"23002","fips":"51007","name":"Amelia County","state_id":"VA"},{"zip":"23003","fips":"51073","name":"Gloucester County","state_id":"VA"},{"zip":"23004","fips":"51029","name":"Buckingham County","state_id":"VA"},{"zip":"23005","fips":"51085","name":"Hanover County","state_id":"VA"},{"zip":"23009","fips":"51101","name":"King William County","state_id":"VA"},{"zip":"23011","fips":"51127","name":"New Kent County","state_id":"VA"},{"zip":"23015","fips":"51177","name":"Spotsylvania County","state_id":"VA"},{"zip":"23015","fips":"51033","name":"Caroline County","state_id":"VA"},{"zip":"23015","fips":"51085","name":"Hanover County","state_id":"VA"},{"zip":"23015","fips":"51109","name":"Louisa County","state_id":"VA"},{"zip":"23018","fips":"51073","name":"Gloucester County","state_id":"VA"},{"zip":"23021","fips":"51115","name":"Mathews County","state_id":"VA"},{"zip":"23022","fips":"51065","name":"Fluvanna County","state_id":"VA"},{"zip":"23023","fips":"51097","name":"King and Queen County","state_id":"VA"},{"zip":"23023","fips":"51057","name":"Essex County","state_id":"VA"},{"zip":"23024","fips":"51085","name":"Hanover County","state_id":"VA"},{"zip":"23024","fips":"51177","name":"Spotsylvania County","state_id":"VA"},{"zip":"23024","fips":"51109","name":"Louisa County","state_id":"VA"},{"zip":"23025","fips":"51115","name":"Mathews County","state_id":"VA"},{"zip":"23027","fips":"51049","name":"Cumberland County","state_id":"VA"},{"zip":"23030","fips":"51036","name":"Charles City County","state_id":"VA"},{"zip":"23030","fips":"51087","name":"Henrico County","state_id":"VA"},{"zip":"23031","fips":"51119","name":"Middlesex County","state_id":"VA"},{"zip":"23032","fips":"51119","name":"Middlesex County","state_id":"VA"},{"zip":"23035","fips":"51115","name":"Mathews County","state_id":"VA"},{"zip":"23038","fips":"51075","name":"Goochland County","state_id":"VA"},{"zip":"23038","fips":"51065","name":"Fluvanna County","state_id":"VA"},{"zip":"23038","fips":"51049","name":"Cumberland County","state_id":"VA"},{"zip":"23039","fips":"51075","name":"Goochland County","state_id":"VA"},{"zip":"23040","fips":"51049","name":"Cumberland County","state_id":"VA"},{"zip":"23040","fips":"51029","name":"Buckingham County","state_id":"VA"},{"zip":"23043","fips":"51119","name":"Middlesex County","state_id":"VA"},{"zip":"23045","fips":"51115","name":"Mathews County","state_id":"VA"},{"zip":"23047","fips":"51085","name":"Hanover County","state_id":"VA"},{"zip":"23047","fips":"51033","name":"Caroline County","state_id":"VA"},{"zip":"23050","fips":"51073","name":"Gloucester County","state_id":"VA"},{"zip":"23050","fips":"51115","name":"Mathews County","state_id":"VA"},{"zip":"23055","fips":"51065","name":"Fluvanna County","state_id":"VA"},{"zip":"23056","fips":"51115","name":"Mathews County","state_id":"VA"},{"zip":"23058","fips":"51087","name":"Henrico County","state_id":"VA"},{"zip":"23059","fips":"51085","name":"Hanover County","state_id":"VA"},{"zip":"23059","fips":"51075","name":"Goochland County","state_id":"VA"},{"zip":"23059","fips":"51087","name":"Henrico County","state_id":"VA"},{"zip":"23060","fips":"51087","name":"Henrico County","state_id":"VA"},{"zip":"23061","fips":"51073","name":"Gloucester County","state_id":"VA"},{"zip":"23062","fips":"51073","name":"Gloucester County","state_id":"VA"},{"zip":"23063","fips":"51075","name":"Goochland County","state_id":"VA"},{"zip":"23064","fips":"51115","name":"Mathews County","state_id":"VA"},{"zip":"23065","fips":"51109","name":"Louisa County","state_id":"VA"},{"zip":"23065","fips":"51075","name":"Goochland County","state_id":"VA"},{"zip":"23066","fips":"51115","name":"Mathews County","state_id":"VA"},{"zip":"23067","fips":"51075","name":"Goochland County","state_id":"VA"},{"zip":"23068","fips":"51115","name":"Mathews County","state_id":"VA"},{"zip":"23069","fips":"51033","name":"Caroline County","state_id":"VA"},{"zip":"23069","fips":"51085","name":"Hanover County","state_id":"VA"},{"zip":"23069","fips":"51101","name":"King William County","state_id":"VA"},{"zip":"23070","fips":"51119","name":"Middlesex County","state_id":"VA"},{"zip":"23071","fips":"51119","name":"Middlesex County","state_id":"VA"},{"zip":"23072","fips":"51073","name":"Gloucester County","state_id":"VA"},{"zip":"23075","fips":"51087","name":"Henrico County","state_id":"VA"},{"zip":"23076","fips":"51115","name":"Mathews County","state_id":"VA"},{"zip":"23079","fips":"51119","name":"Middlesex County","state_id":"VA"},{"zip":"23081","fips":"51095","name":"James City County","state_id":"VA"},{"zip":"23083","fips":"51007","name":"Amelia County","state_id":"VA"},{"zip":"23083","fips":"51135","name":"Nottoway County","state_id":"VA"},{"zip":"23084","fips":"51109","name":"Louisa County","state_id":"VA"},{"zip":"23084","fips":"51075","name":"Goochland County","state_id":"VA"},{"zip":"23084","fips":"51065","name":"Fluvanna County","state_id":"VA"},{"zip":"23085","fips":"51097","name":"King and Queen County","state_id":"VA"},{"zip":"23086","fips":"51101","name":"King William County","state_id":"VA"},{"zip":"23089","fips":"51127","name":"New Kent County","state_id":"VA"},{"zip":"23089","fips":"51095","name":"James City County","state_id":"VA"},{"zip":"23090","fips":"51199","name":"York County","state_id":"VA"},{"zip":"23091","fips":"51097","name":"King and Queen County","state_id":"VA"},{"zip":"23092","fips":"51119","name":"Middlesex County","state_id":"VA"},{"zip":"23093","fips":"51065","name":"Fluvanna County","state_id":"VA"},{"zip":"23093","fips":"51109","name":"Louisa County","state_id":"VA"},{"zip":"23093","fips":"51075","name":"Goochland County","state_id":"VA"}]
