[{"zip":"23102","fips":"51075","name":"Goochland County","state_id":"VA"},{"zip":"23102","fips":"51109","name":"Louisa County","state_id":"VA"},{"zip":"23102","fips":"51085","name":"Hanover County","state_id":"VA"},{"zip":"23103","fips":"51075","name":"Goochland County","state_id":"VA"},{"zip":"23105","fips":"51007","name":"Amelia County","state_id":"VA"},{"zip":"23106","fips":"51101","name":"King William County","state_id":"VA"},{"zip":"23108","fips":"51097","name":"King and Queen County","state_id":"VA"},{"zip":"23109","fips":"51115","name":"Mathews County","state_id":"VA"},{"zip":"23110","fips":"51097","name":"King and Queen County","state_id":"VA"},{"zip":"23111","fips":"51085","name":"Hanover County","state_id":"VA"},{"zip":"23111","fips":"51127","name":"New Kent County","state_id":"VA"},{"zip":"23112","fips":"51145","name":"Powhatan County","state_id":"VA"},{"zip":"23112","fips":"51041","name":"Chesterfield County","state_id":"VA"},{"zip":"23113","fips":"51760","name":"Richmond city","state_id":"VA"},{"zip":"23113","fips":"51145","name":"Powhatan County","state_id":"VA"},{"zip":"23113","fips":"51041","name":"Chesterfield County","state_id":"VA"},{"zip":"23114","fips":"51041","name":"Chesterfield County","state_id":"VA"},{"zip":"23115","fips":"51057","name":"Essex County","state_id":"VA"},{"zip":"23116","fips":"51087","name":"Henrico County","state_id":"VA"},{"zip":"23116","fips":"51085","name":"Hanover County","state_id":"VA"},{"zip":"23117","fips":"51109","name":"Louisa County","state_id":"VA"},{"zip":"23117","fips":"51177","name":"Spotsylvania County","state_id":"VA"},{"zip":"23117","fips":"51075","name":"Goochland County","state_id":"VA"},{"zip":"23119","fips":"51115","name":"Mathews County","state_id":"VA"},{"zip":"23120","fips":"51145","name":"Powhatan County","state_id":"VA"},{"zip":"23120","fips":"51041","name":"Chesterfield County","state_id":"VA"},{"zip":"23123","fips":"51049","name":"Cumberland County","state_id":"VA"},{"zip":"23123","fips":"51029","name":"Buckingham County","state_id":"VA"},{"zip":"23124","fips":"51085","name":"Hanover County","state_id":"VA"},{"zip":"23124","fips":"51127","name":"New Kent County","state_id":"VA"},{"zip":"23125","fips":"51115","name":"Mathews County","state_id":"VA"},{"zip":"23126","fips":"51097","name":"King and Queen County","state_id":"VA"},{"zip":"23127","fips":"51095","name":"James City County","state_id":"VA"},{"zip":"23128","fips":"51115","name":"Mathews County","state_id":"VA"},{"zip":"23128","fips":"51073","name":"Gloucester County","state_id":"VA"},{"zip":"23129","fips":"51075","name":"Goochland County","state_id":"VA"},{"zip":"23129","fips":"51085","name":"Hanover County","state_id":"VA"},{"zip":"23130","fips":"51115","name":"Mathews County","state_id":"VA"},{"zip":"23131","fips":"51073","name":"Gloucester County","state_id":"VA"},{"zip":"23138","fips":"51115","name":"Mathews County","state_id":"VA"},{"zip":"23139","fips":"51049","name":"Cumberland County","state_id":"VA"},{"zip":"23139","fips":"51145","name":"Powhatan County","state_id":"VA"},{"zip":"23140","fips":"51127","name":"New Kent County","state_id":"VA"},{"zip":"23140","fips":"51036","name":"Charles City County","state_id":"VA"},{"zip":"23141","fips":"51127","name":"New Kent County","state_id":"VA"},{"zip":"23146","fips":"51075","name":"Goochland County","state_id":"VA"},{"zip":"23146","fips":"51085","name":"Hanover County","state_id":"VA"},{"zip":"23147","fips":"51036","name":"Charles City County","state_id":"VA"},{"zip":"23148","fips":"51097","name":"King and Queen County","state_id":"VA"},{"zip":"23148","fips":"51057","name":"Essex County","state_id":"VA"},{"zip":"23149","fips":"51119","name":"Middlesex County","state_id":"VA"},{"zip":"23149","fips":"51097","name":"King and Queen County","state_id":"VA"},{"zip":"23149","fips":"51073","name":"Gloucester County","state_id":"VA"},{"zip":"23150","fips":"51087","name":"Henrico County","state_id":"VA"},{"zip":"23153","fips":"51075","name":"Goochland County","state_id":"VA"},{"zip":"23154","fips":"51073","name":"Gloucester County","state_id":"VA"},{"zip":"23155","fips":"51073","name":"Gloucester County","state_id":"VA"},{"zip":"23156","fips":"51097","name":"King and Queen County","state_id":"VA"},{"zip":"23160","fips":"51075","name":"Goochland County","state_id":"VA"},{"zip":"23160","fips":"51145","name":"Powhatan County","state_id":"VA"},{"zip":"23161","fips":"51097","name":"King and Queen County","state_id":"VA"},{"zip":"23162","fips":"51085","name":"Hanover County","state_id":"VA"},{"zip":"23163","fips":"51115","name":"Mathews County","state_id":"VA"},{"zip":"23168","fips":"51095","name":"James City County","state_id":"VA"},{"zip":"23169","fips":"51119","name":"Middlesex County","state_id":"VA"},{"zip":"23170","fips":"51109","name":"Louisa County","state_id":"VA"},{"zip":"23173","fips":"51087","name":"Henrico County","state_id":"VA"},{"zip":"23175","fips":"51119","name":"Middlesex County","state_id":"VA"},{"zip":"23176","fips":"51119","name":"Middlesex County","state_id":"VA"},{"zip":"23177","fips":"51101","name":"King William County","state_id":"VA"},{"zip":"23177","fips":"51097","name":"King and Queen County","state_id":"VA"},{"zip":"23178","fips":"51073","name":"Gloucester County","state_id":"VA"},{"zip":"23180","fips":"51119","name":"Middlesex County","state_id":"VA"},{"zip":"23181","fips":"51101","name":"King William County","state_id":"VA"},{"zip":"23181","fips":"51097","name":"King and Queen County","state_id":"VA"},{"zip":"23181","fips":"51127","name":"New Kent County","state_id":"VA"},{"zip":"23183","fips":"51073","name":"Gloucester County","state_id":"VA"},{"zip":"23184","fips":"51073","name":"Gloucester County","state_id":"VA"},{"zip":"23185","fips":"51830","name":"Williamsburg city","state_id":"VA"},{"zip":"23185","fips":"51199","name":"York County","state_id":"VA"},{"zip":"23185","fips":"51095","name":"James City County","state_id":"VA"},{"zip":"23185","fips":"51036","name":"Charles City County","state_id":"VA"},{"zip":"23186","fips":"51830","name":"Williamsburg city","state_id":"VA"},{"zip":"23187","fips":"51830","name":"Williamsburg city","state_id":"VA"},{"zip":"23188","fips":"51830","name":"Williamsburg city","state_id":"VA"},{"zip":"23188","fips":"51199","name":"York County","state_id":"VA"},{"zip":"23188","fips":"51095","name":"James City County","state_id":"VA"},{"zip":"23190","fips":"51073","name":"Gloucester County","state_id":"VA"},{"zip":"23192","fips":"51109","name":"Louisa County","state_id":"VA"},{"zip":"23192","fips":"51085","name":"Hanover County","state_id":"VA"}]
