[{"zip":"23218","fips":"51760","name":"Richmond city","state_id":"VA"},{"zip":"23219","fips":"51760","name":"Richmond city","state_id":"VA"},{"zip":"23220","fips":"51760","name":"Richmond city","state_id":"VA"},{"zip":"23221","fips":"51760","name":"Richmond city","state_id":"VA"},{"zip":"23222","fips":"51087","name":"Henrico County","state_id":"VA"},{"zip":"23222","fips":"51760","name":"Richmond city","state_id":"VA"},{"zip":"23223","fips":"51087","name":"Henrico County","state_id":"VA"},{"zip":"23223","fips":"51760","name":"Richmond city","state_id":"VA"},{"zip":"23224","fips":"51041","name":"Chesterfield County","state_id":"VA"},{"zip":"23224","fips":"51760","name":"Richmond city","state_id":"VA"},{"zip":"23225","fips":"51760","name":"Richmond city","state_id":"VA"},{"zip":"23225","fips":"51041","name":"Chesterfield County","state_id":"VA"},{"zip":"23226","fips":"51760","name":"Richmond city","state_id":"VA"},{"zip":"23226","fips":"51087","name":"Henrico County","state_id":"VA"},{"zip":"23227","fips":"51087","name":"Henrico County","state_id":"VA"},{"zip":"23227","fips":"51760","name":"Richmond city","state_id":"VA"},{"zip":"23228","fips":"51760","name":"Richmond city","state_id":"VA"},{"zip":"23228","fips":"51087","name":"Henrico County","state_id":"VA"},{"zip":"23229","fips":"51760","name":"Richmond city","state_id":"VA"},{"zip":"23229","fips":"51087","name":"Henrico County","state_id":"VA"},{"zip":"23230","fips":"51087","name":"Henrico County","state_id":"VA"},{"zip":"23230","fips":"51760","name":"Richmond city","state_id":"VA"},{"zip":"23231","fips":"51760","name":"Richmond city","state_id":"VA"},{"zip":"23231","fips":"51087","name":"Henrico County","state_id":"VA"},{"zip":"23231","fips":"51036","name":"Charles City County","state_id":"VA"},{"zip":"23232","fips":"51760","name":"Richmond city","state_id":"VA"},{"zip":"23233","fips":"51087","name":"Henrico County","state_id":"VA"},{"zip":"23233","fips":"51075","name":"Goochland County","state_id":"VA"},{"zip":"23234","fips":"51760","name":"Richmond city","state_id":"VA"},{"zip":"23234","fips":"51041","name":"Chesterfield County","state_id":"VA"},{"zip":"23235","fips":"51760","name":"Richmond city","state_id":"VA"},{"zip":"23235","fips":"51041","name":"Chesterfield County","state_id":"VA"},{"zip":"23236","fips":"51041","name":"Chesterfield County","state_id":"VA"},{"zip":"23237","fips":"51041","name":"Chesterfield County","state_id":"VA"},{"zip":"23238","fips":"51087","name":"Henrico County","state_id":"VA"},{"zip":"23238","fips":"51075","name":"Goochland County","state_id":"VA"},{"zip":"23241","fips":"51760","name":"Richmond city","state_id":"VA"},{"zip":"23242","fips":"51087","name":"Henrico County","state_id":"VA"},{"zip":"23249","fips":"51760","name":"Richmond city","state_id":"VA"},{"zip":"23250","fips":"51087","name":"Henrico County","state_id":"VA"},{"zip":"23255","fips":"51087","name":"Henrico County","state_id":"VA"},{"zip":"23260","fips":"51760","name":"Richmond city","state_id":"VA"},{"zip":"23261","fips":"51760","name":"Richmond city","state_id":"VA"},{"zip":"23269","fips":"51760","name":"Richmond city","state_id":"VA"},{"zip":"23273","fips":"51087","name":"Henrico County","state_id":"VA"},{"zip":"23284","fips":"51760","name":"Richmond city","state_id":"VA"},{"zip":"23286","fips":"51760","name":"Richmond city","state_id":"VA"},{"zip":"23293","fips":"51760","name":"Richmond city","state_id":"VA"},{"zip":"23294","fips":"51087","name":"Henrico County","state_id":"VA"},{"zip":"23297","fips":"51041","name":"Chesterfield County","state_id":"VA"},{"zip":"23298","fips":"51760","name":"Richmond city","state_id":"VA"}]
