[{"zip":"23301","fips":"51001","name":"Accomack County","state_id":"VA"},{"zip":"23302","fips":"51001","name":"Accomack County","state_id":"VA"},{"zip":"23303","fips":"51001","name":"Accomack County","state_id":"VA"},{"zip":"23304","fips":"51093","name":"Isle of Wight County","state_id":"VA"},{"zip":"23306","fips":"51001","name":"Accomack County","state_id":"VA"},{"zip":"23307","fips":"51131","name":"Northampton County","state_id":"VA"},{"zip":"23308","fips":"51001","name":"Accomack County","state_id":"VA"},{"zip":"23310","fips":"51131","name":"Northampton County","state_id":"VA"},{"zip":"23313","fips":"51131","name":"Northampton County","state_id":"VA"},{"zip":"23314","fips":"51093","name":"Isle of Wight County","state_id":"VA"},{"zip":"23315","fips":"51093","name":"Isle of Wight County","state_id":"VA"},{"zip":"23316","fips":"51131","name":"Northampton County","state_id":"VA"},{"zip":"23320","fips":"51810","name":"Virginia Beach city","state_id":"VA"},{"zip":"23320","fips":"51550","name":"Chesapeake city","state_id":"VA"},{"zip":"23321","fips":"51550","name":"Chesapeake city","state_id":"VA"},{"zip":"23321","fips":"51740","name":"Portsmouth city","state_id":"VA"},{"zip":"23321","fips":"51800","name":"Suffolk city","state_id":"VA"},{"zip":"23322","fips":"51550","name":"Chesapeake city","state_id":"VA"},{"zip":"23322","fips":"51810","name":"Virginia Beach city","state_id":"VA"},{"zip":"23323","fips":"51740","name":"Portsmouth city","state_id":"VA"},{"zip":"23323","fips":"51550","name":"Chesapeake city","state_id":"VA"},{"zip":"23324","fips":"51550","name":"Chesapeake city","state_id":"VA"},{"zip":"23325","fips":"51810","name":"Virginia Beach city","state_id":"VA"},{"zip":"23325","fips":"51550","name":"Chesapeake city","state_id":"VA"},{"zip":"23326","fips":"51550","name":"Chesapeake city","state_id":"VA"},{"zip":"23327","fips":"51550","name":"Chesapeake city","state_id":"VA"},{"zip":"23328","fips":"51550","name":"Chesapeake city","state_id":"VA"},{"zip":"23336","fips":"51001","name":"Accomack County","state_id":"VA"},{"zip":"23337","fips":"51001","name":"Accomack County","state_id":"VA"},{"zip":"23341","fips":"51001","name":"Accomack County","state_id":"VA"},{"zip":"23347","fips":"51131","name":"Northampton County","state_id":"VA"},{"zip":"23350","fips":"51131","name":"Northampton County","state_id":"VA"},{"zip":"23350","fips":"51001","name":"Accomack County","state_id":"VA"},{"zip":"23354","fips":"51131","name":"Northampton County","state_id":"VA"},{"zip":"23356","fips":"51001","name":"Accomack County","state_id":"VA"},{"zip":"23357","fips":"51001","name":"Accomack County","state_id":"VA"},{"zip":"23358","fips":"51001","name":"Accomack County","state_id":"VA"},{"zip":"23359","fips":"51001","name":"Accomack County","state_id":"VA"},{"zip":"23389","fips":"51001","name":"Accomack County","state_id":"VA"},{"zip":"23395","fips":"51001","name":"Accomack County","state_id":"VA"},{"zip":"23397","fips":"51093","name":"Isle of Wight County","state_id":"VA"},{"zip":"23398","fips":"51131","name":"Northampton County","state_id":"VA"}]
