[{"zip":"23401","fips":"51001","name":"Accomack County","state_id":"VA"},{"zip":"23404","fips":"51001","name":"Accomack County","state_id":"VA"},{"zip":"23405","fips":"51131","name":"Northampton County","state_id":"VA"},{"zip":"23407","fips":"51001","name":"Accomack County","state_id":"VA"},{"zip":"23408","fips":"51131","name":"Northampton County","state_id":"VA"},{"zip":"23409","fips":"51001","name":"Accomack County","state_id":"VA"},{"zip":"23410","fips":"51001","name":"Accomack County","state_id":"VA"},{"zip":"23413","fips":"51131","name":"Northampton County","state_id":"VA"},{"zip":"23414","fips":"51001","name":"Accomack County","state_id":"VA"},{"zip":"23415","fips":"51001","name":"Accomack County","state_id":"VA"},{"zip":"23416","fips":"51001","name":"Accomack County","state_id":"VA"},{"zip":"23417","fips":"51001","name":"Accomack County","state_id":"VA"},{"zip":"23418","fips":"51001","name":"Accomack County","state_id":"VA"},{"zip":"23420","fips":"51001","name":"Accomack County","state_id":"VA"},{"zip":"23421","fips":"51001","name":"Accomack County","state_id":"VA"},{"zip":"23422","fips":"51001","name":"Accomack County","state_id":"VA"},{"zip":"23423","fips":"51001","name":"Accomack County","state_id":"VA"},{"zip":"23424","fips":"51093","name":"Isle of Wight County","state_id":"VA"},{"zip":"23426","fips":"51001","name":"Accomack County","state_id":"VA"},{"zip":"23427","fips":"51001","name":"Accomack County","state_id":"VA"},{"zip":"23429","fips":"51131","name":"Northampton County","state_id":"VA"},{"zip":"23430","fips":"51181","name":"Surry County","state_id":"VA"},{"zip":"23430","fips":"51093","name":"Isle of Wight County","state_id":"VA"},{"zip":"23430","fips":"51800","name":"Suffolk city","state_id":"VA"},{"zip":"23431","fips":"51093","name":"Isle of Wight County","state_id":"VA"},{"zip":"23432","fips":"51800","name":"Suffolk city","state_id":"VA"},{"zip":"23432","fips":"51093","name":"Isle of Wight County","state_id":"VA"},{"zip":"23433","fips":"51800","name":"Suffolk city","state_id":"VA"},{"zip":"23434","fips":"51800","name":"Suffolk city","state_id":"VA"},{"zip":"23435","fips":"51550","name":"Chesapeake city","state_id":"VA"},{"zip":"23435","fips":"51800","name":"Suffolk city","state_id":"VA"},{"zip":"23436","fips":"51800","name":"Suffolk city","state_id":"VA"},{"zip":"23437","fips":"51800","name":"Suffolk city","state_id":"VA"},{"zip":"23438","fips":"51800","name":"Suffolk city","state_id":"VA"},{"zip":"23439","fips":"51800","name":"Suffolk city","state_id":"VA"},{"zip":"23440","fips":"51001","name":"Accomack County","state_id":"VA"},{"zip":"23441","fips":"51001","name":"Accomack County","state_id":"VA"},{"zip":"23442","fips":"51001","name":"Accomack County","state_id":"VA"},{"zip":"23443","fips":"51131","name":"Northampton County","state_id":"VA"},{"zip":"23450","fips":"51810","name":"Virginia Beach city","state_id":"VA"},{"zip":"23451","fips":"51810","name":"Virginia Beach city","state_id":"VA"},{"zip":"23452","fips":"51810","name":"Virginia Beach city","state_id":"VA"},{"zip":"23453","fips":"51810","name":"Virginia Beach city","state_id":"VA"},{"zip":"23454","fips":"51810","name":"Virginia Beach city","state_id":"VA"},{"zip":"23455","fips":"51810","name":"Virginia Beach city","state_id":"VA"},{"zip":"23456","fips":"51810","name":"Virginia Beach city","state_id":"VA"},{"zip":"23457","fips":"51810","name":"Virginia Beach city","state_id":"VA"},{"zip":"23459","fips":"51810","name":"Virginia Beach city","state_id":"VA"},{"zip":"23460","fips":"51810","name":"Virginia Beach city","state_id":"VA"},{"zip":"23461","fips":"51810","name":"Virginia Beach city","state_id":"VA"},{"zip":"23462","fips":"51710","name":"Norfolk city","state_id":"VA"},{"zip":"23462","fips":"51810","name":"Virginia Beach city","state_id":"VA"},{"zip":"23463","fips":"51810","name":"Virginia Beach city","state_id":"VA"},{"zip":"23464","fips":"51810","name":"Virginia Beach city","state_id":"VA"},{"zip":"23464","fips":"51550","name":"Chesapeake city","state_id":"VA"},{"zip":"23466","fips":"51810","name":"Virginia Beach city","state_id":"VA"},{"zip":"23467","fips":"51810","name":"Virginia Beach city","state_id":"VA"},{"zip":"23471","fips":"51810","name":"Virginia Beach city","state_id":"VA"},{"zip":"23479","fips":"51810","name":"Virginia Beach city","state_id":"VA"},{"zip":"23480","fips":"51001","name":"Accomack County","state_id":"VA"},{"zip":"23486","fips":"51131","name":"Northampton County","state_id":"VA"},{"zip":"23487","fips":"51093","name":"Isle of Wight County","state_id":"VA"},{"zip":"23487","fips":"51800","name":"Suffolk city","state_id":"VA"},{"zip":"23488","fips":"51001","name":"Accomack County","state_id":"VA"}]
