[{"zip":"23501","fips":"51710","name":"Norfolk city","state_id":"VA"},{"zip":"23502","fips":"51710","name":"Norfolk city","state_id":"VA"},{"zip":"23502","fips":"51810","name":"Virginia Beach city","state_id":"VA"},{"zip":"23503","fips":"51710","name":"Norfolk city","state_id":"VA"},{"zip":"23504","fips":"51710","name":"Norfolk city","state_id":"VA"},{"zip":"23505","fips":"51710","name":"Norfolk city","state_id":"VA"},{"zip":"23507","fips":"51710","name":"Norfolk city","state_id":"VA"},{"zip":"23508","fips":"51710","name":"Norfolk city","state_id":"VA"},{"zip":"23509","fips":"51710","name":"Norfolk city","state_id":"VA"},{"zip":"23510","fips":"51710","name":"Norfolk city","state_id":"VA"},{"zip":"23511","fips":"51710","name":"Norfolk city","state_id":"VA"},{"zip":"23513","fips":"51710","name":"Norfolk city","state_id":"VA"},{"zip":"23514","fips":"51710","name":"Norfolk city","state_id":"VA"},{"zip":"23515","fips":"51710","name":"Norfolk city","state_id":"VA"},{"zip":"23517","fips":"51710","name":"Norfolk city","state_id":"VA"},{"zip":"23518","fips":"51710","name":"Norfolk city","state_id":"VA"},{"zip":"23523","fips":"51550","name":"Chesapeake city","state_id":"VA"},{"zip":"23523","fips":"51710","name":"Norfolk city","state_id":"VA"},{"zip":"23529","fips":"51710","name":"Norfolk city","state_id":"VA"},{"zip":"23541","fips":"51710","name":"Norfolk city","state_id":"VA"},{"zip":"23551","fips":"51710","name":"Norfolk city","state_id":"VA"}]
