[{"zip":"23601","fips":"51700","name":"Newport News city","state_id":"VA"},{"zip":"23602","fips":"51700","name":"Newport News city","state_id":"VA"},{"zip":"23602","fips":"51199","name":"York County","state_id":"VA"},{"zip":"23603","fips":"51199","name":"York County","state_id":"VA"},{"zip":"23603","fips":"51700","name":"Newport News city","state_id":"VA"},{"zip":"23604","fips":"51700","name":"Newport News city","state_id":"VA"},{"zip":"23605","fips":"51700","name":"Newport News city","state_id":"VA"},{"zip":"23605","fips":"51650","name":"Hampton city","state_id":"VA"},{"zip":"23606","fips":"51700","name":"Newport News city","state_id":"VA"},{"zip":"23607","fips":"51650","name":"Hampton city","state_id":"VA"},{"zip":"23607","fips":"51700","name":"Newport News city","state_id":"VA"},{"zip":"23608","fips":"51700","name":"Newport News city","state_id":"VA"},{"zip":"23609","fips":"51700","name":"Newport News city","state_id":"VA"},{"zip":"23612","fips":"51700","name":"Newport News city","state_id":"VA"},{"zip":"23628","fips":"51700","name":"Newport News city","state_id":"VA"},{"zip":"23630","fips":"51700","name":"Newport News city","state_id":"VA"},{"zip":"23630","fips":"51650","name":"Hampton city","state_id":"VA"},{"zip":"23651","fips":"51650","name":"Hampton city","state_id":"VA"},{"zip":"23661","fips":"51650","name":"Hampton city","state_id":"VA"},{"zip":"23662","fips":"51735","name":"Poquoson city","state_id":"VA"},{"zip":"23662","fips":"51199","name":"York County","state_id":"VA"},{"zip":"23663","fips":"51650","name":"Hampton city","state_id":"VA"},{"zip":"23664","fips":"51650","name":"Hampton city","state_id":"VA"},{"zip":"23665","fips":"51650","name":"Hampton city","state_id":"VA"},{"zip":"23665","fips":"51199","name":"York County","state_id":"VA"},{"zip":"23666","fips":"51650","name":"Hampton city","state_id":"VA"},{"zip":"23666","fips":"51700","name":"Newport News city","state_id":"VA"},{"zip":"23667","fips":"51650","name":"Hampton city","state_id":"VA"},{"zip":"23668","fips":"51650","name":"Hampton city","state_id":"VA"},{"zip":"23669","fips":"51650","name":"Hampton city","state_id":"VA"},{"zip":"23670","fips":"51650","name":"Hampton city","state_id":"VA"},{"zip":"23670","fips":"51700","name":"Newport News city","state_id":"VA"},{"zip":"23681","fips":"51650","name":"Hampton city","state_id":"VA"},{"zip":"23690","fips":"51199","name":"York County","state_id":"VA"},{"zip":"23690","fips":"51700","name":"Newport News city","state_id":"VA"},{"zip":"23691","fips":"51199","name":"York County","state_id":"VA"},{"zip":"23691","fips":"51700","name":"Newport News city","state_id":"VA"},{"zip":"23692","fips":"51199","name":"York County","state_id":"VA"},{"zip":"23693","fips":"51199","name":"York County","state_id":"VA"},{"zip":"23694","fips":"51199","name":"York County","state_id":"VA"},{"zip":"23696","fips":"51199","name":"York County","state_id":"VA"}]
