[{"zip":"23801","fips":"51730","name":"Petersburg city","state_id":"VA"},{"zip":"23801","fips":"51149","name":"Prince George County","state_id":"VA"},{"zip":"23803","fips":"51730","name":"Petersburg city","state_id":"VA"},{"zip":"23803","fips":"51041","name":"Chesterfield County","state_id":"VA"},{"zip":"23803","fips":"51053","name":"Dinwiddie County","state_id":"VA"},{"zip":"23803","fips":"51149","name":"Prince George County","state_id":"VA"},{"zip":"23804","fips":"51730","name":"Petersburg city","state_id":"VA"},{"zip":"23805","fips":"51730","name":"Petersburg city","state_id":"VA"},{"zip":"23805","fips":"51053","name":"Dinwiddie County","state_id":"VA"},{"zip":"23805","fips":"51149","name":"Prince George County","state_id":"VA"},{"zip":"23821","fips":"51025","name":"Brunswick County","state_id":"VA"},{"zip":"23824","fips":"51053","name":"Dinwiddie County","state_id":"VA"},{"zip":"23824","fips":"51025","name":"Brunswick County","state_id":"VA"},{"zip":"23824","fips":"51007","name":"Amelia County","state_id":"VA"},{"zip":"23824","fips":"51111","name":"Lunenburg County","state_id":"VA"},{"zip":"23824","fips":"51135","name":"Nottoway County","state_id":"VA"},{"zip":"23827","fips":"51175","name":"Southampton County","state_id":"VA"},{"zip":"23828","fips":"51175","name":"Southampton County","state_id":"VA"},{"zip":"23829","fips":"51183","name":"Sussex County","state_id":"VA"},{"zip":"23829","fips":"51175","name":"Southampton County","state_id":"VA"},{"zip":"23830","fips":"51149","name":"Prince George County","state_id":"VA"},{"zip":"23830","fips":"51053","name":"Dinwiddie County","state_id":"VA"},{"zip":"23830","fips":"51183","name":"Sussex County","state_id":"VA"},{"zip":"23831","fips":"51041","name":"Chesterfield County","state_id":"VA"},{"zip":"23832","fips":"51041","name":"Chesterfield County","state_id":"VA"},{"zip":"23833","fips":"51007","name":"Amelia County","state_id":"VA"},{"zip":"23833","fips":"51053","name":"Dinwiddie County","state_id":"VA"},{"zip":"23834","fips":"51570","name":"Colonial Heights city","state_id":"VA"},{"zip":"23834","fips":"51041","name":"Chesterfield County","state_id":"VA"},{"zip":"23836","fips":"51041","name":"Chesterfield County","state_id":"VA"},{"zip":"23837","fips":"51183","name":"Sussex County","state_id":"VA"},{"zip":"23837","fips":"51175","name":"Southampton County","state_id":"VA"},{"zip":"23838","fips":"51041","name":"Chesterfield County","state_id":"VA"},{"zip":"23839","fips":"51181","name":"Surry County","state_id":"VA"},{"zip":"23840","fips":"51053","name":"Dinwiddie County","state_id":"VA"},{"zip":"23841","fips":"51053","name":"Dinwiddie County","state_id":"VA"},{"zip":"23842","fips":"51149","name":"Prince George County","state_id":"VA"},{"zip":"23842","fips":"51181","name":"Surry County","state_id":"VA"},{"zip":"23842","fips":"51183","name":"Sussex County","state_id":"VA"},{"zip":"23843","fips":"51025","name":"Brunswick County","state_id":"VA"},{"zip":"23844","fips":"51175","name":"Southampton County","state_id":"VA"},{"zip":"23845","fips":"51025","name":"Brunswick County","state_id":"VA"},{"zip":"23845","fips":"51117","name":"Mecklenburg County","state_id":"VA"},{"zip":"23846","fips":"51181","name":"Surry County","state_id":"VA"},{"zip":"23847","fips":"51081","name":"Greensville County","state_id":"VA"},{"zip":"23847","fips":"51025","name":"Brunswick County","state_id":"VA"},{"zip":"23847","fips":"51183","name":"Sussex County","state_id":"VA"},{"zip":"23847","fips":"51175","name":"Southampton County","state_id":"VA"},{"zip":"23847","fips":"51595","name":"Emporia city","state_id":"VA"},{"zip":"23850","fips":"51053","name":"Dinwiddie County","state_id":"VA"},{"zip":"23850","fips":"51007","name":"Amelia County","state_id":"VA"},{"zip":"23851","fips":"51620","name":"Franklin city","state_id":"VA"},{"zip":"23851","fips":"51175","name":"Southampton County","state_id":"VA"},{"zip":"23851","fips":"51093","name":"Isle of Wight County","state_id":"VA"},{"zip":"23856","fips":"51081","name":"Greensville County","state_id":"VA"},{"zip":"23856","fips":"51025","name":"Brunswick County","state_id":"VA"},{"zip":"23857","fips":"51025","name":"Brunswick County","state_id":"VA"},{"zip":"23860","fips":"51149","name":"Prince George County","state_id":"VA"},{"zip":"23860","fips":"51670","name":"Hopewell city","state_id":"VA"},{"zip":"23866","fips":"51175","name":"Southampton County","state_id":"VA"},{"zip":"23866","fips":"51093","name":"Isle of Wight County","state_id":"VA"},{"zip":"23866","fips":"51181","name":"Surry County","state_id":"VA"},{"zip":"23867","fips":"51183","name":"Sussex County","state_id":"VA"},{"zip":"23867","fips":"51175","name":"Southampton County","state_id":"VA"},{"zip":"23867","fips":"51081","name":"Greensville County","state_id":"VA"},{"zip":"23868","fips":"51025","name":"Brunswick County","state_id":"VA"},{"zip":"23870","fips":"51081","name":"Greensville County","state_id":"VA"},{"zip":"23872","fips":"51053","name":"Dinwiddie County","state_id":"VA"},{"zip":"23873","fips":"51025","name":"Brunswick County","state_id":"VA"},{"zip":"23874","fips":"51175","name":"Southampton County","state_id":"VA"},{"zip":"23875","fips":"51730","name":"Petersburg city","state_id":"VA"},{"zip":"23875","fips":"51149","name":"Prince George County","state_id":"VA"},{"zip":"23876","fips":"51025","name":"Brunswick County","state_id":"VA"},{"zip":"23878","fips":"51175","name":"Southampton County","state_id":"VA"},{"zip":"23878","fips":"51183","name":"Sussex County","state_id":"VA"},{"zip":"23879","fips":"51081","name":"Greensville County","state_id":"VA"},{"zip":"23881","fips":"51149","name":"Prince George County","state_id":"VA"},{"zip":"23881","fips":"51181","name":"Surry County","state_id":"VA"},{"zip":"23882","fips":"51183","name":"Sussex County","state_id":"VA"},{"zip":"23882","fips":"51053","name":"Dinwiddie County","state_id":"VA"},{"zip":"23883","fips":"51181","name":"Surry County","state_id":"VA"},{"zip":"23884","fips":"51183","name":"Sussex County","state_id":"VA"},{"zip":"23885","fips":"51053","name":"Dinwiddie County","state_id":"VA"},{"zip":"23887","fips":"51025","name":"Brunswick County","state_id":"VA"},{"zip":"23887","fips":"51081","name":"Greensville County","state_id":"VA"},{"zip":"23888","fips":"51175","name":"Southampton County","state_id":"VA"},{"zip":"23888","fips":"51181","name":"Surry County","state_id":"VA"},{"zip":"23888","fips":"51183","name":"Sussex County","state_id":"VA"},{"zip":"23889","fips":"51025","name":"Brunswick County","state_id":"VA"},{"zip":"23890","fips":"51181","name":"Surry County","state_id":"VA"},{"zip":"23890","fips":"51183","name":"Sussex County","state_id":"VA"},{"zip":"23891","fips":"51183","name":"Sussex County","state_id":"VA"},{"zip":"23893","fips":"51025","name":"Brunswick County","state_id":"VA"},{"zip":"23894","fips":"51053","name":"Dinwiddie County","state_id":"VA"},{"zip":"23894","fips":"51135","name":"Nottoway County","state_id":"VA"},{"zip":"23897","fips":"51183","name":"Sussex County","state_id":"VA"},{"zip":"23898","fips":"51175","name":"Southampton County","state_id":"VA"},{"zip":"23898","fips":"51093","name":"Isle of Wight County","state_id":"VA"},{"zip":"23899","fips":"51181","name":"Surry County","state_id":"VA"}]
