[{"zip":"23901","fips":"51147","name":"Prince Edward County","state_id":"VA"},{"zip":"23901","fips":"51029","name":"Buckingham County","state_id":"VA"},{"zip":"23901","fips":"51049","name":"Cumberland County","state_id":"VA"},{"zip":"23909","fips":"51147","name":"Prince Edward County","state_id":"VA"},{"zip":"23915","fips":"51117","name":"Mecklenburg County","state_id":"VA"},{"zip":"23917","fips":"51117","name":"Mecklenburg County","state_id":"VA"},{"zip":"23919","fips":"51025","name":"Brunswick County","state_id":"VA"},{"zip":"23919","fips":"51117","name":"Mecklenburg County","state_id":"VA"},{"zip":"23920","fips":"51117","name":"Mecklenburg County","state_id":"VA"},{"zip":"23920","fips":"51111","name":"Lunenburg County","state_id":"VA"},{"zip":"23920","fips":"51025","name":"Brunswick County","state_id":"VA"},{"zip":"23921","fips":"51029","name":"Buckingham County","state_id":"VA"},{"zip":"23922","fips":"51135","name":"Nottoway County","state_id":"VA"},{"zip":"23922","fips":"51147","name":"Prince Edward County","state_id":"VA"},{"zip":"23922","fips":"51007","name":"Amelia County","state_id":"VA"},{"zip":"23923","fips":"51147","name":"Prince Edward County","state_id":"VA"},{"zip":"23923","fips":"51037","name":"Charlotte County","state_id":"VA"},{"zip":"23923","fips":"51111","name":"Lunenburg County","state_id":"VA"},{"zip":"23924","fips":"51037","name":"Charlotte County","state_id":"VA"},{"zip":"23924","fips":"51111","name":"Lunenburg County","state_id":"VA"},{"zip":"23924","fips":"51117","name":"Mecklenburg County","state_id":"VA"},{"zip":"23927","fips":"51117","name":"Mecklenburg County","state_id":"VA"},{"zip":"23927","fips":"51037","name":"Charlotte County","state_id":"VA"},{"zip":"23930","fips":"51135","name":"Nottoway County","state_id":"VA"},{"zip":"23934","fips":"51147","name":"Prince Edward County","state_id":"VA"},{"zip":"23934","fips":"51037","name":"Charlotte County","state_id":"VA"},{"zip":"23936","fips":"51029","name":"Buckingham County","state_id":"VA"},{"zip":"23936","fips":"51049","name":"Cumberland County","state_id":"VA"},{"zip":"23937","fips":"51111","name":"Lunenburg County","state_id":"VA"},{"zip":"23937","fips":"51037","name":"Charlotte County","state_id":"VA"},{"zip":"23938","fips":"51025","name":"Brunswick County","state_id":"VA"},{"zip":"23938","fips":"51111","name":"Lunenburg County","state_id":"VA"},{"zip":"23939","fips":"51011","name":"Appomattox County","state_id":"VA"},{"zip":"23941","fips":"51117","name":"Mecklenburg County","state_id":"VA"},{"zip":"23942","fips":"51111","name":"Lunenburg County","state_id":"VA"},{"zip":"23942","fips":"51147","name":"Prince Edward County","state_id":"VA"},{"zip":"23943","fips":"51147","name":"Prince Edward County","state_id":"VA"},{"zip":"23944","fips":"51111","name":"Lunenburg County","state_id":"VA"},{"zip":"23947","fips":"51111","name":"Lunenburg County","state_id":"VA"},{"zip":"23947","fips":"51037","name":"Charlotte County","state_id":"VA"},{"zip":"23947","fips":"51147","name":"Prince Edward County","state_id":"VA"},{"zip":"23950","fips":"51025","name":"Brunswick County","state_id":"VA"},{"zip":"23950","fips":"51117","name":"Mecklenburg County","state_id":"VA"},{"zip":"23952","fips":"51111","name":"Lunenburg County","state_id":"VA"},{"zip":"23954","fips":"51111","name":"Lunenburg County","state_id":"VA"},{"zip":"23954","fips":"51147","name":"Prince Edward County","state_id":"VA"},{"zip":"23955","fips":"51135","name":"Nottoway County","state_id":"VA"},{"zip":"23958","fips":"51037","name":"Charlotte County","state_id":"VA"},{"zip":"23958","fips":"51147","name":"Prince Edward County","state_id":"VA"},{"zip":"23958","fips":"51011","name":"Appomattox County","state_id":"VA"},{"zip":"23959","fips":"51037","name":"Charlotte County","state_id":"VA"},{"zip":"23960","fips":"51011","name":"Appomattox County","state_id":"VA"},{"zip":"23960","fips":"51147","name":"Prince Edward County","state_id":"VA"},{"zip":"23962","fips":"51037","name":"Charlotte County","state_id":"VA"},{"zip":"23962","fips":"51083","name":"Halifax County","state_id":"VA"},{"zip":"23963","fips":"51011","name":"Appomattox County","state_id":"VA"},{"zip":"23963","fips":"51037","name":"Charlotte County","state_id":"VA"},{"zip":"23963","fips":"51031","name":"Campbell County","state_id":"VA"},{"zip":"23964","fips":"51117","name":"Mecklenburg County","state_id":"VA"},{"zip":"23964","fips":"51037","name":"Charlotte County","state_id":"VA"},{"zip":"23966","fips":"51007","name":"Amelia County","state_id":"VA"},{"zip":"23966","fips":"51135","name":"Nottoway County","state_id":"VA"},{"zip":"23966","fips":"51147","name":"Prince Edward County","state_id":"VA"},{"zip":"23967","fips":"51037","name":"Charlotte County","state_id":"VA"},{"zip":"23968","fips":"51117","name":"Mecklenburg County","state_id":"VA"},{"zip":"23970","fips":"51117","name":"Mecklenburg County","state_id":"VA"},{"zip":"23970","fips":"51111","name":"Lunenburg County","state_id":"VA"},{"zip":"23974","fips":"51111","name":"Lunenburg County","state_id":"VA"},{"zip":"23976","fips":"51037","name":"Charlotte County","state_id":"VA"}]
