[{"zip":"24001","fips":"51770","name":"Roanoke city","state_id":"VA"},{"zip":"24002","fips":"51770","name":"Roanoke city","state_id":"VA"},{"zip":"24003","fips":"51770","name":"Roanoke city","state_id":"VA"},{"zip":"24004","fips":"51770","name":"Roanoke city","state_id":"VA"},{"zip":"24005","fips":"51770","name":"Roanoke city","state_id":"VA"},{"zip":"24006","fips":"51770","name":"Roanoke city","state_id":"VA"},{"zip":"24007","fips":"51770","name":"Roanoke city","state_id":"VA"},{"zip":"24008","fips":"51770","name":"Roanoke city","state_id":"VA"},{"zip":"24009","fips":"51770","name":"Roanoke city","state_id":"VA"},{"zip":"24010","fips":"51770","name":"Roanoke city","state_id":"VA"},{"zip":"24011","fips":"51770","name":"Roanoke city","state_id":"VA"},{"zip":"24012","fips":"51023","name":"Botetourt County","state_id":"VA"},{"zip":"24012","fips":"51770","name":"Roanoke city","state_id":"VA"},{"zip":"24012","fips":"51161","name":"Roanoke County","state_id":"VA"},{"zip":"24013","fips":"51770","name":"Roanoke city","state_id":"VA"},{"zip":"24014","fips":"51161","name":"Roanoke County","state_id":"VA"},{"zip":"24014","fips":"51067","name":"Franklin County","state_id":"VA"},{"zip":"24014","fips":"51770","name":"Roanoke city","state_id":"VA"},{"zip":"24015","fips":"51161","name":"Roanoke County","state_id":"VA"},{"zip":"24015","fips":"51770","name":"Roanoke city","state_id":"VA"},{"zip":"24016","fips":"51770","name":"Roanoke city","state_id":"VA"},{"zip":"24017","fips":"51775","name":"Salem city","state_id":"VA"},{"zip":"24017","fips":"51770","name":"Roanoke city","state_id":"VA"},{"zip":"24018","fips":"51775","name":"Salem city","state_id":"VA"},{"zip":"24018","fips":"51161","name":"Roanoke County","state_id":"VA"},{"zip":"24018","fips":"51770","name":"Roanoke city","state_id":"VA"},{"zip":"24019","fips":"51023","name":"Botetourt County","state_id":"VA"},{"zip":"24019","fips":"51161","name":"Roanoke County","state_id":"VA"},{"zip":"24019","fips":"51770","name":"Roanoke city","state_id":"VA"},{"zip":"24020","fips":"51161","name":"Roanoke County","state_id":"VA"},{"zip":"24022","fips":"51770","name":"Roanoke city","state_id":"VA"},{"zip":"24023","fips":"51770","name":"Roanoke city","state_id":"VA"},{"zip":"24024","fips":"51770","name":"Roanoke city","state_id":"VA"},{"zip":"24025","fips":"51770","name":"Roanoke city","state_id":"VA"},{"zip":"24026","fips":"51770","name":"Roanoke city","state_id":"VA"},{"zip":"24027","fips":"51770","name":"Roanoke city","state_id":"VA"},{"zip":"24028","fips":"51770","name":"Roanoke city","state_id":"VA"},{"zip":"24029","fips":"51770","name":"Roanoke city","state_id":"VA"},{"zip":"24030","fips":"51770","name":"Roanoke city","state_id":"VA"},{"zip":"24031","fips":"51770","name":"Roanoke city","state_id":"VA"},{"zip":"24032","fips":"51770","name":"Roanoke city","state_id":"VA"},{"zip":"24033","fips":"51770","name":"Roanoke city","state_id":"VA"},{"zip":"24034","fips":"51770","name":"Roanoke city","state_id":"VA"},{"zip":"24035","fips":"51770","name":"Roanoke city","state_id":"VA"},{"zip":"24036","fips":"51770","name":"Roanoke city","state_id":"VA"},{"zip":"24037","fips":"51770","name":"Roanoke city","state_id":"VA"},{"zip":"24038","fips":"51770","name":"Roanoke city","state_id":"VA"},{"zip":"24053","fips":"51141","name":"Patrick County","state_id":"VA"},{"zip":"24053","fips":"51035","name":"Carroll County","state_id":"VA"},{"zip":"24054","fips":"51143","name":"Pittsylvania County","state_id":"VA"},{"zip":"24054","fips":"51089","name":"Henry County","state_id":"VA"},{"zip":"24055","fips":"51067","name":"Franklin County","state_id":"VA"},{"zip":"24055","fips":"51089","name":"Henry County","state_id":"VA"},{"zip":"24055","fips":"51141","name":"Patrick County","state_id":"VA"},{"zip":"24058","fips":"51155","name":"Pulaski County","state_id":"VA"},{"zip":"24059","fips":"51121","name":"Montgomery County","state_id":"VA"},{"zip":"24059","fips":"51067","name":"Franklin County","state_id":"VA"},{"zip":"24059","fips":"51161","name":"Roanoke County","state_id":"VA"},{"zip":"24059","fips":"51063","name":"Floyd County","state_id":"VA"},{"zip":"24060","fips":"51121","name":"Montgomery County","state_id":"VA"},{"zip":"24061","fips":"51121","name":"Montgomery County","state_id":"VA"},{"zip":"24062","fips":"51121","name":"Montgomery County","state_id":"VA"},{"zip":"24063","fips":"51121","name":"Montgomery County","state_id":"VA"},{"zip":"24064","fips":"51023","name":"Botetourt County","state_id":"VA"},{"zip":"24064","fips":"51019","name":"Bedford County","state_id":"VA"},{"zip":"24065","fips":"51161","name":"Roanoke County","state_id":"VA"},{"zip":"24065","fips":"51067","name":"Franklin County","state_id":"VA"},{"zip":"24066","fips":"51023","name":"Botetourt County","state_id":"VA"},{"zip":"24066","fips":"51163","name":"Rockbridge County","state_id":"VA"},{"zip":"24067","fips":"51067","name":"Franklin County","state_id":"VA"},{"zip":"24068","fips":"51121","name":"Montgomery County","state_id":"VA"},{"zip":"24069","fips":"51143","name":"Pittsylvania County","state_id":"VA"},{"zip":"24070","fips":"51045","name":"Craig County","state_id":"VA"},{"zip":"24070","fips":"51161","name":"Roanoke County","state_id":"VA"},{"zip":"24070","fips":"51121","name":"Montgomery County","state_id":"VA"},{"zip":"24072","fips":"51063","name":"Floyd County","state_id":"VA"},{"zip":"24073","fips":"51121","name":"Montgomery County","state_id":"VA"},{"zip":"24076","fips":"51141","name":"Patrick County","state_id":"VA"},{"zip":"24077","fips":"51023","name":"Botetourt County","state_id":"VA"},{"zip":"24078","fips":"51089","name":"Henry County","state_id":"VA"},{"zip":"24079","fips":"51067","name":"Franklin County","state_id":"VA"},{"zip":"24079","fips":"51063","name":"Floyd County","state_id":"VA"},{"zip":"24079","fips":"51161","name":"Roanoke County","state_id":"VA"},{"zip":"24082","fips":"51141","name":"Patrick County","state_id":"VA"},{"zip":"24083","fips":"51023","name":"Botetourt County","state_id":"VA"},{"zip":"24084","fips":"51155","name":"Pulaski County","state_id":"VA"},{"zip":"24084","fips":"51021","name":"Bland County","state_id":"VA"},{"zip":"24085","fips":"51005","name":"Alleghany County","state_id":"VA"},{"zip":"24085","fips":"51023","name":"Botetourt County","state_id":"VA"},{"zip":"24086","fips":"51071","name":"Giles County","state_id":"VA"},{"zip":"24087","fips":"51121","name":"Montgomery County","state_id":"VA"},{"zip":"24087","fips":"51161","name":"Roanoke County","state_id":"VA"},{"zip":"24088","fips":"51141","name":"Patrick County","state_id":"VA"},{"zip":"24088","fips":"51067","name":"Franklin County","state_id":"VA"},{"zip":"24089","fips":"51089","name":"Henry County","state_id":"VA"},{"zip":"24090","fips":"51023","name":"Botetourt County","state_id":"VA"},{"zip":"24091","fips":"51141","name":"Patrick County","state_id":"VA"},{"zip":"24091","fips":"51067","name":"Franklin County","state_id":"VA"},{"zip":"24091","fips":"51063","name":"Floyd County","state_id":"VA"},{"zip":"24092","fips":"51067","name":"Franklin County","state_id":"VA"},{"zip":"24093","fips":"51071","name":"Giles County","state_id":"VA"},{"zip":"24095","fips":"51019","name":"Bedford County","state_id":"VA"}]
