[{"zip":"24101","fips":"51019","name":"Bedford County","state_id":"VA"},{"zip":"24101","fips":"51067","name":"Franklin County","state_id":"VA"},{"zip":"24101","fips":"51161","name":"Roanoke County","state_id":"VA"},{"zip":"24102","fips":"51089","name":"Henry County","state_id":"VA"},{"zip":"24102","fips":"51067","name":"Franklin County","state_id":"VA"},{"zip":"24104","fips":"51019","name":"Bedford County","state_id":"VA"},{"zip":"24105","fips":"51035","name":"Carroll County","state_id":"VA"},{"zip":"24105","fips":"51063","name":"Floyd County","state_id":"VA"},{"zip":"24111","fips":"51121","name":"Montgomery County","state_id":"VA"},{"zip":"24112","fips":"51089","name":"Henry County","state_id":"VA"},{"zip":"24112","fips":"51690","name":"Martinsville city","state_id":"VA"},{"zip":"24112","fips":"51067","name":"Franklin County","state_id":"VA"},{"zip":"24120","fips":"51035","name":"Carroll County","state_id":"VA"},{"zip":"24120","fips":"51141","name":"Patrick County","state_id":"VA"},{"zip":"24120","fips":"51063","name":"Floyd County","state_id":"VA"},{"zip":"24121","fips":"51019","name":"Bedford County","state_id":"VA"},{"zip":"24121","fips":"51067","name":"Franklin County","state_id":"VA"},{"zip":"24122","fips":"51019","name":"Bedford County","state_id":"VA"},{"zip":"24124","fips":"51071","name":"Giles County","state_id":"VA"},{"zip":"24124","fips":"51021","name":"Bland County","state_id":"VA"},{"zip":"24126","fips":"51155","name":"Pulaski County","state_id":"VA"},{"zip":"24127","fips":"51045","name":"Craig County","state_id":"VA"},{"zip":"24128","fips":"51071","name":"Giles County","state_id":"VA"},{"zip":"24128","fips":"51045","name":"Craig County","state_id":"VA"},{"zip":"24128","fips":"51121","name":"Montgomery County","state_id":"VA"},{"zip":"24129","fips":"51750","name":"Radford city","state_id":"VA"},{"zip":"24130","fips":"51023","name":"Botetourt County","state_id":"VA"},{"zip":"24131","fips":"51045","name":"Craig County","state_id":"VA"},{"zip":"24132","fips":"51750","name":"Radford city","state_id":"VA"},{"zip":"24133","fips":"51089","name":"Henry County","state_id":"VA"},{"zip":"24133","fips":"51141","name":"Patrick County","state_id":"VA"},{"zip":"24134","fips":"51021","name":"Bland County","state_id":"VA"},{"zip":"24134","fips":"51071","name":"Giles County","state_id":"VA"},{"zip":"24136","fips":"51071","name":"Giles County","state_id":"VA"},{"zip":"24137","fips":"51067","name":"Franklin County","state_id":"VA"},{"zip":"24137","fips":"51143","name":"Pittsylvania County","state_id":"VA"},{"zip":"24138","fips":"51063","name":"Floyd County","state_id":"VA"},{"zip":"24138","fips":"51121","name":"Montgomery County","state_id":"VA"},{"zip":"24139","fips":"51019","name":"Bedford County","state_id":"VA"},{"zip":"24139","fips":"51143","name":"Pittsylvania County","state_id":"VA"},{"zip":"24141","fips":"51750","name":"Radford city","state_id":"VA"},{"zip":"24141","fips":"51121","name":"Montgomery County","state_id":"VA"},{"zip":"24141","fips":"51155","name":"Pulaski County","state_id":"VA"},{"zip":"24141","fips":"51063","name":"Floyd County","state_id":"VA"},{"zip":"24142","fips":"51750","name":"Radford city","state_id":"VA"},{"zip":"24146","fips":"51067","name":"Franklin County","state_id":"VA"},{"zip":"24147","fips":"51071","name":"Giles County","state_id":"VA"},{"zip":"24148","fips":"51089","name":"Henry County","state_id":"VA"},{"zip":"24149","fips":"51121","name":"Montgomery County","state_id":"VA"},{"zip":"24149","fips":"51063","name":"Floyd County","state_id":"VA"},{"zip":"24150","fips":"51071","name":"Giles County","state_id":"VA"},{"zip":"24151","fips":"51067","name":"Franklin County","state_id":"VA"},{"zip":"24153","fips":"51161","name":"Roanoke County","state_id":"VA"},{"zip":"24153","fips":"51770","name":"Roanoke city","state_id":"VA"},{"zip":"24153","fips":"51775","name":"Salem city","state_id":"VA"},{"zip":"24155","fips":"51023","name":"Botetourt County","state_id":"VA"},{"zip":"24161","fips":"51143","name":"Pittsylvania County","state_id":"VA"},{"zip":"24162","fips":"51063","name":"Floyd County","state_id":"VA"},{"zip":"24162","fips":"51121","name":"Montgomery County","state_id":"VA"},{"zip":"24165","fips":"51089","name":"Henry County","state_id":"VA"},{"zip":"24165","fips":"51141","name":"Patrick County","state_id":"VA"},{"zip":"24167","fips":"51071","name":"Giles County","state_id":"VA"},{"zip":"24168","fips":"51089","name":"Henry County","state_id":"VA"},{"zip":"24171","fips":"51141","name":"Patrick County","state_id":"VA"},{"zip":"24174","fips":"51019","name":"Bedford County","state_id":"VA"},{"zip":"24175","fips":"51161","name":"Roanoke County","state_id":"VA"},{"zip":"24175","fips":"51023","name":"Botetourt County","state_id":"VA"},{"zip":"24176","fips":"51067","name":"Franklin County","state_id":"VA"},{"zip":"24177","fips":"51141","name":"Patrick County","state_id":"VA"},{"zip":"24179","fips":"51019","name":"Bedford County","state_id":"VA"},{"zip":"24179","fips":"51161","name":"Roanoke County","state_id":"VA"},{"zip":"24179","fips":"51770","name":"Roanoke city","state_id":"VA"},{"zip":"24184","fips":"51067","name":"Franklin County","state_id":"VA"},{"zip":"24185","fips":"51141","name":"Patrick County","state_id":"VA"}]
