[{"zip":"24201","fips":"51520","name":"Bristol city","state_id":"VA"},{"zip":"24202","fips":"51169","name":"Scott County","state_id":"VA"},{"zip":"24202","fips":"51520","name":"Bristol city","state_id":"VA"},{"zip":"24202","fips":"51191","name":"Washington County","state_id":"VA"},{"zip":"24203","fips":"51520","name":"Bristol city","state_id":"VA"},{"zip":"24209","fips":"51520","name":"Bristol city","state_id":"VA"},{"zip":"24210","fips":"51191","name":"Washington County","state_id":"VA"},{"zip":"24211","fips":"51191","name":"Washington County","state_id":"VA"},{"zip":"24212","fips":"51191","name":"Washington County","state_id":"VA"},{"zip":"24215","fips":"51195","name":"Wise County","state_id":"VA"},{"zip":"24216","fips":"51195","name":"Wise County","state_id":"VA"},{"zip":"24217","fips":"51051","name":"Dickenson County","state_id":"VA"},{"zip":"24217","fips":"51027","name":"Buchanan County","state_id":"VA"},{"zip":"24218","fips":"51105","name":"Lee County","state_id":"VA"},{"zip":"24219","fips":"51195","name":"Wise County","state_id":"VA"},{"zip":"24219","fips":"51105","name":"Lee County","state_id":"VA"},{"zip":"24220","fips":"51051","name":"Dickenson County","state_id":"VA"},{"zip":"24221","fips":"51169","name":"Scott County","state_id":"VA"},{"zip":"24221","fips":"51105","name":"Lee County","state_id":"VA"},{"zip":"24224","fips":"51167","name":"Russell County","state_id":"VA"},{"zip":"24225","fips":"51051","name":"Dickenson County","state_id":"VA"},{"zip":"24225","fips":"51167","name":"Russell County","state_id":"VA"},{"zip":"24226","fips":"51051","name":"Dickenson County","state_id":"VA"},{"zip":"24228","fips":"51051","name":"Dickenson County","state_id":"VA"},{"zip":"24230","fips":"51051","name":"Dickenson County","state_id":"VA"},{"zip":"24230","fips":"51195","name":"Wise County","state_id":"VA"},{"zip":"24230","fips":"51169","name":"Scott County","state_id":"VA"},{"zip":"24236","fips":"51191","name":"Washington County","state_id":"VA"},{"zip":"24236","fips":"51173","name":"Smyth County","state_id":"VA"},{"zip":"24237","fips":"51167","name":"Russell County","state_id":"VA"},{"zip":"24237","fips":"51051","name":"Dickenson County","state_id":"VA"},{"zip":"24239","fips":"51027","name":"Buchanan County","state_id":"VA"},{"zip":"24243","fips":"51105","name":"Lee County","state_id":"VA"},{"zip":"24244","fips":"51105","name":"Lee County","state_id":"VA"},{"zip":"24244","fips":"51169","name":"Scott County","state_id":"VA"},{"zip":"24245","fips":"51169","name":"Scott County","state_id":"VA"},{"zip":"24246","fips":"51195","name":"Wise County","state_id":"VA"},{"zip":"24248","fips":"51105","name":"Lee County","state_id":"VA"},{"zip":"24250","fips":"51169","name":"Scott County","state_id":"VA"},{"zip":"24251","fips":"51169","name":"Scott County","state_id":"VA"},{"zip":"24256","fips":"51027","name":"Buchanan County","state_id":"VA"},{"zip":"24256","fips":"51051","name":"Dickenson County","state_id":"VA"},{"zip":"24258","fips":"51169","name":"Scott County","state_id":"VA"},{"zip":"24258","fips":"51191","name":"Washington County","state_id":"VA"},{"zip":"24260","fips":"51027","name":"Buchanan County","state_id":"VA"},{"zip":"24260","fips":"51167","name":"Russell County","state_id":"VA"},{"zip":"24263","fips":"51105","name":"Lee County","state_id":"VA"},{"zip":"24265","fips":"51105","name":"Lee County","state_id":"VA"},{"zip":"24266","fips":"51167","name":"Russell County","state_id":"VA"},{"zip":"24269","fips":"51051","name":"Dickenson County","state_id":"VA"},{"zip":"24270","fips":"51191","name":"Washington County","state_id":"VA"},{"zip":"24271","fips":"51167","name":"Russell County","state_id":"VA"},{"zip":"24271","fips":"51169","name":"Scott County","state_id":"VA"},{"zip":"24272","fips":"51051","name":"Dickenson County","state_id":"VA"},{"zip":"24273","fips":"51720","name":"Norton city","state_id":"VA"},{"zip":"24273","fips":"51195","name":"Wise County","state_id":"VA"},{"zip":"24277","fips":"51105","name":"Lee County","state_id":"VA"},{"zip":"24279","fips":"51195","name":"Wise County","state_id":"VA"},{"zip":"24280","fips":"51167","name":"Russell County","state_id":"VA"},{"zip":"24281","fips":"51105","name":"Lee County","state_id":"VA"},{"zip":"24282","fips":"51105","name":"Lee County","state_id":"VA"},{"zip":"24283","fips":"51195","name":"Wise County","state_id":"VA"},{"zip":"24283","fips":"51167","name":"Russell County","state_id":"VA"},{"zip":"24283","fips":"51051","name":"Dickenson County","state_id":"VA"},{"zip":"24290","fips":"51169","name":"Scott County","state_id":"VA"},{"zip":"24292","fips":"51077","name":"Grayson County","state_id":"VA"},{"zip":"24292","fips":"51191","name":"Washington County","state_id":"VA"},{"zip":"24293","fips":"51195","name":"Wise County","state_id":"VA"}]
