[{"zip":"24301","fips":"51155","name":"Pulaski County","state_id":"VA"},{"zip":"24311","fips":"51173","name":"Smyth County","state_id":"VA"},{"zip":"24312","fips":"51197","name":"Wythe County","state_id":"VA"},{"zip":"24312","fips":"51035","name":"Carroll County","state_id":"VA"},{"zip":"24313","fips":"51197","name":"Wythe County","state_id":"VA"},{"zip":"24313","fips":"51155","name":"Pulaski County","state_id":"VA"},{"zip":"24314","fips":"51185","name":"Tazewell County","state_id":"VA"},{"zip":"24314","fips":"51021","name":"Bland County","state_id":"VA"},{"zip":"24315","fips":"51021","name":"Bland County","state_id":"VA"},{"zip":"24315","fips":"51071","name":"Giles County","state_id":"VA"},{"zip":"24316","fips":"51185","name":"Tazewell County","state_id":"VA"},{"zip":"24316","fips":"51173","name":"Smyth County","state_id":"VA"},{"zip":"24317","fips":"51141","name":"Patrick County","state_id":"VA"},{"zip":"24317","fips":"51035","name":"Carroll County","state_id":"VA"},{"zip":"24318","fips":"51021","name":"Bland County","state_id":"VA"},{"zip":"24318","fips":"51173","name":"Smyth County","state_id":"VA"},{"zip":"24319","fips":"51173","name":"Smyth County","state_id":"VA"},{"zip":"24319","fips":"51191","name":"Washington County","state_id":"VA"},{"zip":"24322","fips":"51197","name":"Wythe County","state_id":"VA"},{"zip":"24323","fips":"51197","name":"Wythe County","state_id":"VA"},{"zip":"24324","fips":"51197","name":"Wythe County","state_id":"VA"},{"zip":"24324","fips":"51155","name":"Pulaski County","state_id":"VA"},{"zip":"24325","fips":"51035","name":"Carroll County","state_id":"VA"},{"zip":"24326","fips":"51077","name":"Grayson County","state_id":"VA"},{"zip":"24327","fips":"51191","name":"Washington County","state_id":"VA"},{"zip":"24328","fips":"51035","name":"Carroll County","state_id":"VA"},{"zip":"24328","fips":"51141","name":"Patrick County","state_id":"VA"},{"zip":"24330","fips":"51035","name":"Carroll County","state_id":"VA"},{"zip":"24330","fips":"51077","name":"Grayson County","state_id":"VA"},{"zip":"24333","fips":"51640","name":"Galax city","state_id":"VA"},{"zip":"24333","fips":"51077","name":"Grayson County","state_id":"VA"},{"zip":"24333","fips":"51035","name":"Carroll County","state_id":"VA"},{"zip":"24340","fips":"51191","name":"Washington County","state_id":"VA"},{"zip":"24340","fips":"51173","name":"Smyth County","state_id":"VA"},{"zip":"24343","fips":"51141","name":"Patrick County","state_id":"VA"},{"zip":"24343","fips":"51197","name":"Wythe County","state_id":"VA"},{"zip":"24343","fips":"51035","name":"Carroll County","state_id":"VA"},{"zip":"24347","fips":"51121","name":"Montgomery County","state_id":"VA"},{"zip":"24347","fips":"51155","name":"Pulaski County","state_id":"VA"},{"zip":"24347","fips":"51035","name":"Carroll County","state_id":"VA"},{"zip":"24348","fips":"51077","name":"Grayson County","state_id":"VA"},{"zip":"24350","fips":"51077","name":"Grayson County","state_id":"VA"},{"zip":"24350","fips":"51035","name":"Carroll County","state_id":"VA"},{"zip":"24350","fips":"51197","name":"Wythe County","state_id":"VA"},{"zip":"24351","fips":"51035","name":"Carroll County","state_id":"VA"},{"zip":"24352","fips":"51035","name":"Carroll County","state_id":"VA"},{"zip":"24352","fips":"51063","name":"Floyd County","state_id":"VA"},{"zip":"24354","fips":"51173","name":"Smyth County","state_id":"VA"},{"zip":"24360","fips":"51035","name":"Carroll County","state_id":"VA"},{"zip":"24360","fips":"51197","name":"Wythe County","state_id":"VA"},{"zip":"24361","fips":"51191","name":"Washington County","state_id":"VA"},{"zip":"24363","fips":"51077","name":"Grayson County","state_id":"VA"},{"zip":"24366","fips":"51021","name":"Bland County","state_id":"VA"},{"zip":"24368","fips":"51197","name":"Wythe County","state_id":"VA"},{"zip":"24368","fips":"51173","name":"Smyth County","state_id":"VA"},{"zip":"24370","fips":"51191","name":"Washington County","state_id":"VA"},{"zip":"24370","fips":"51173","name":"Smyth County","state_id":"VA"},{"zip":"24374","fips":"51173","name":"Smyth County","state_id":"VA"},{"zip":"24374","fips":"51197","name":"Wythe County","state_id":"VA"},{"zip":"24375","fips":"51173","name":"Smyth County","state_id":"VA"},{"zip":"24377","fips":"51185","name":"Tazewell County","state_id":"VA"},{"zip":"24378","fips":"51173","name":"Smyth County","state_id":"VA"},{"zip":"24378","fips":"51077","name":"Grayson County","state_id":"VA"},{"zip":"24380","fips":"51063","name":"Floyd County","state_id":"VA"},{"zip":"24380","fips":"51035","name":"Carroll County","state_id":"VA"},{"zip":"24381","fips":"51035","name":"Carroll County","state_id":"VA"},{"zip":"24382","fips":"51197","name":"Wythe County","state_id":"VA"}]
