[{"zip":"24401","fips":"51015","name":"Augusta County","state_id":"VA"},{"zip":"24401","fips":"51790","name":"Staunton city","state_id":"VA"},{"zip":"24402","fips":"51790","name":"Staunton city","state_id":"VA"},{"zip":"24411","fips":"51015","name":"Augusta County","state_id":"VA"},{"zip":"24412","fips":"51017","name":"Bath County","state_id":"VA"},{"zip":"24413","fips":"51091","name":"Highland County","state_id":"VA"},{"zip":"24415","fips":"51163","name":"Rockbridge County","state_id":"VA"},{"zip":"24416","fips":"51163","name":"Rockbridge County","state_id":"VA"},{"zip":"24416","fips":"51530","name":"Buena Vista city","state_id":"VA"},{"zip":"24421","fips":"51015","name":"Augusta County","state_id":"VA"},{"zip":"24422","fips":"51023","name":"Botetourt County","state_id":"VA"},{"zip":"24422","fips":"51005","name":"Alleghany County","state_id":"VA"},{"zip":"24422","fips":"51017","name":"Bath County","state_id":"VA"},{"zip":"24426","fips":"51045","name":"Craig County","state_id":"VA"},{"zip":"24426","fips":"51580","name":"Covington city","state_id":"VA"},{"zip":"24426","fips":"51005","name":"Alleghany County","state_id":"VA"},{"zip":"24430","fips":"51077","name":"Grayson County","state_id":"VA"},{"zip":"24430","fips":"51015","name":"Augusta County","state_id":"VA"},{"zip":"24431","fips":"51015","name":"Augusta County","state_id":"VA"},{"zip":"24432","fips":"51015","name":"Augusta County","state_id":"VA"},{"zip":"24432","fips":"51017","name":"Bath County","state_id":"VA"},{"zip":"24433","fips":"51091","name":"Highland County","state_id":"VA"},{"zip":"24435","fips":"51163","name":"Rockbridge County","state_id":"VA"},{"zip":"24437","fips":"51015","name":"Augusta County","state_id":"VA"},{"zip":"24438","fips":"51023","name":"Botetourt County","state_id":"VA"},{"zip":"24439","fips":"51015","name":"Augusta County","state_id":"VA"},{"zip":"24439","fips":"51163","name":"Rockbridge County","state_id":"VA"},{"zip":"24440","fips":"51015","name":"Augusta County","state_id":"VA"},{"zip":"24441","fips":"51165","name":"Rockingham County","state_id":"VA"},{"zip":"24441","fips":"51015","name":"Augusta County","state_id":"VA"},{"zip":"24442","fips":"51091","name":"Highland County","state_id":"VA"},{"zip":"24445","fips":"51005","name":"Alleghany County","state_id":"VA"},{"zip":"24445","fips":"51017","name":"Bath County","state_id":"VA"},{"zip":"24448","fips":"51005","name":"Alleghany County","state_id":"VA"},{"zip":"24450","fips":"51023","name":"Botetourt County","state_id":"VA"},{"zip":"24450","fips":"51678","name":"Lexington city","state_id":"VA"},{"zip":"24450","fips":"51163","name":"Rockbridge County","state_id":"VA"},{"zip":"24457","fips":"51005","name":"Alleghany County","state_id":"VA"},{"zip":"24458","fips":"51091","name":"Highland County","state_id":"VA"},{"zip":"24459","fips":"51015","name":"Augusta County","state_id":"VA"},{"zip":"24459","fips":"51163","name":"Rockbridge County","state_id":"VA"},{"zip":"24460","fips":"51017","name":"Bath County","state_id":"VA"},{"zip":"24463","fips":"51015","name":"Augusta County","state_id":"VA"},{"zip":"24464","fips":"51125","name":"Nelson County","state_id":"VA"},{"zip":"24465","fips":"51091","name":"Highland County","state_id":"VA"},{"zip":"24467","fips":"51015","name":"Augusta County","state_id":"VA"},{"zip":"24469","fips":"51015","name":"Augusta County","state_id":"VA"},{"zip":"24471","fips":"51165","name":"Rockingham County","state_id":"VA"},{"zip":"24472","fips":"51015","name":"Augusta County","state_id":"VA"},{"zip":"24472","fips":"51163","name":"Rockbridge County","state_id":"VA"},{"zip":"24473","fips":"51163","name":"Rockbridge County","state_id":"VA"},{"zip":"24474","fips":"51005","name":"Alleghany County","state_id":"VA"},{"zip":"24476","fips":"51163","name":"Rockbridge County","state_id":"VA"},{"zip":"24476","fips":"51015","name":"Augusta County","state_id":"VA"},{"zip":"24477","fips":"51015","name":"Augusta County","state_id":"VA"},{"zip":"24479","fips":"51015","name":"Augusta County","state_id":"VA"},{"zip":"24482","fips":"51015","name":"Augusta County","state_id":"VA"},{"zip":"24482","fips":"51790","name":"Staunton city","state_id":"VA"},{"zip":"24483","fips":"51015","name":"Augusta County","state_id":"VA"},{"zip":"24483","fips":"51163","name":"Rockbridge County","state_id":"VA"},{"zip":"24483","fips":"51125","name":"Nelson County","state_id":"VA"},{"zip":"24483","fips":"51009","name":"Amherst County","state_id":"VA"},{"zip":"24484","fips":"51091","name":"Highland County","state_id":"VA"},{"zip":"24484","fips":"51017","name":"Bath County","state_id":"VA"},{"zip":"24485","fips":"51015","name":"Augusta County","state_id":"VA"},{"zip":"24486","fips":"51015","name":"Augusta County","state_id":"VA"},{"zip":"24486","fips":"51165","name":"Rockingham County","state_id":"VA"},{"zip":"24487","fips":"51091","name":"Highland County","state_id":"VA"},{"zip":"24487","fips":"51017","name":"Bath County","state_id":"VA"}]
