[{"zip":"24501","fips":"51031","name":"Campbell County","state_id":"VA"},{"zip":"24501","fips":"51019","name":"Bedford County","state_id":"VA"},{"zip":"24501","fips":"51680","name":"Lynchburg city","state_id":"VA"},{"zip":"24502","fips":"51680","name":"Lynchburg city","state_id":"VA"},{"zip":"24502","fips":"51031","name":"Campbell County","state_id":"VA"},{"zip":"24502","fips":"51019","name":"Bedford County","state_id":"VA"},{"zip":"24503","fips":"51680","name":"Lynchburg city","state_id":"VA"},{"zip":"24503","fips":"51019","name":"Bedford County","state_id":"VA"},{"zip":"24504","fips":"51011","name":"Appomattox County","state_id":"VA"},{"zip":"24504","fips":"51680","name":"Lynchburg city","state_id":"VA"},{"zip":"24504","fips":"51031","name":"Campbell County","state_id":"VA"},{"zip":"24506","fips":"51680","name":"Lynchburg city","state_id":"VA"},{"zip":"24513","fips":"51680","name":"Lynchburg city","state_id":"VA"},{"zip":"24514","fips":"51680","name":"Lynchburg city","state_id":"VA"},{"zip":"24515","fips":"51680","name":"Lynchburg city","state_id":"VA"},{"zip":"24517","fips":"51031","name":"Campbell County","state_id":"VA"},{"zip":"24520","fips":"51083","name":"Halifax County","state_id":"VA"},{"zip":"24521","fips":"51009","name":"Amherst County","state_id":"VA"},{"zip":"24521","fips":"51125","name":"Nelson County","state_id":"VA"},{"zip":"24522","fips":"51011","name":"Appomattox County","state_id":"VA"},{"zip":"24522","fips":"51037","name":"Charlotte County","state_id":"VA"},{"zip":"24522","fips":"51029","name":"Buckingham County","state_id":"VA"},{"zip":"24522","fips":"51031","name":"Campbell County","state_id":"VA"},{"zip":"24523","fips":"51019","name":"Bedford County","state_id":"VA"},{"zip":"24526","fips":"51019","name":"Bedford County","state_id":"VA"},{"zip":"24526","fips":"51009","name":"Amherst County","state_id":"VA"},{"zip":"24527","fips":"51143","name":"Pittsylvania County","state_id":"VA"},{"zip":"24528","fips":"51031","name":"Campbell County","state_id":"VA"},{"zip":"24528","fips":"51037","name":"Charlotte County","state_id":"VA"},{"zip":"24529","fips":"51083","name":"Halifax County","state_id":"VA"},{"zip":"24529","fips":"51117","name":"Mecklenburg County","state_id":"VA"},{"zip":"24530","fips":"51143","name":"Pittsylvania County","state_id":"VA"},{"zip":"24530","fips":"51089","name":"Henry County","state_id":"VA"},{"zip":"24531","fips":"51143","name":"Pittsylvania County","state_id":"VA"},{"zip":"24533","fips":"51009","name":"Amherst County","state_id":"VA"},{"zip":"24534","fips":"51083","name":"Halifax County","state_id":"VA"},{"zip":"24535","fips":"51083","name":"Halifax County","state_id":"VA"},{"zip":"24536","fips":"51019","name":"Bedford County","state_id":"VA"},{"zip":"24538","fips":"51031","name":"Campbell County","state_id":"VA"},{"zip":"24538","fips":"51011","name":"Appomattox County","state_id":"VA"},{"zip":"24539","fips":"51083","name":"Halifax County","state_id":"VA"},{"zip":"24540","fips":"51590","name":"Danville city","state_id":"VA"},{"zip":"24540","fips":"51143","name":"Pittsylvania County","state_id":"VA"},{"zip":"24541","fips":"51143","name":"Pittsylvania County","state_id":"VA"},{"zip":"24541","fips":"51590","name":"Danville city","state_id":"VA"},{"zip":"24549","fips":"51143","name":"Pittsylvania County","state_id":"VA"},{"zip":"24550","fips":"51031","name":"Campbell County","state_id":"VA"},{"zip":"24550","fips":"51019","name":"Bedford County","state_id":"VA"},{"zip":"24551","fips":"51680","name":"Lynchburg city","state_id":"VA"},{"zip":"24551","fips":"51019","name":"Bedford County","state_id":"VA"},{"zip":"24551","fips":"51031","name":"Campbell County","state_id":"VA"},{"zip":"24553","fips":"51125","name":"Nelson County","state_id":"VA"},{"zip":"24553","fips":"51029","name":"Buckingham County","state_id":"VA"},{"zip":"24553","fips":"51011","name":"Appomattox County","state_id":"VA"},{"zip":"24553","fips":"51009","name":"Amherst County","state_id":"VA"},{"zip":"24554","fips":"51031","name":"Campbell County","state_id":"VA"},{"zip":"24555","fips":"51163","name":"Rockbridge County","state_id":"VA"},{"zip":"24556","fips":"51019","name":"Bedford County","state_id":"VA"},{"zip":"24557","fips":"51143","name":"Pittsylvania County","state_id":"VA"},{"zip":"24557","fips":"51083","name":"Halifax County","state_id":"VA"},{"zip":"24558","fips":"51083","name":"Halifax County","state_id":"VA"},{"zip":"24562","fips":"51003","name":"Albemarle County","state_id":"VA"},{"zip":"24562","fips":"51029","name":"Buckingham County","state_id":"VA"},{"zip":"24562","fips":"51125","name":"Nelson County","state_id":"VA"},{"zip":"24563","fips":"51143","name":"Pittsylvania County","state_id":"VA"},{"zip":"24565","fips":"51143","name":"Pittsylvania County","state_id":"VA"},{"zip":"24565","fips":"51083","name":"Halifax County","state_id":"VA"},{"zip":"24566","fips":"51143","name":"Pittsylvania County","state_id":"VA"},{"zip":"24569","fips":"51143","name":"Pittsylvania County","state_id":"VA"},{"zip":"24569","fips":"51031","name":"Campbell County","state_id":"VA"},{"zip":"24569","fips":"51083","name":"Halifax County","state_id":"VA"},{"zip":"24570","fips":"51019","name":"Bedford County","state_id":"VA"},{"zip":"24571","fips":"51031","name":"Campbell County","state_id":"VA"},{"zip":"24571","fips":"51019","name":"Bedford County","state_id":"VA"},{"zip":"24572","fips":"51009","name":"Amherst County","state_id":"VA"},{"zip":"24574","fips":"51009","name":"Amherst County","state_id":"VA"},{"zip":"24576","fips":"51031","name":"Campbell County","state_id":"VA"},{"zip":"24577","fips":"51083","name":"Halifax County","state_id":"VA"},{"zip":"24577","fips":"51143","name":"Pittsylvania County","state_id":"VA"},{"zip":"24578","fips":"51163","name":"Rockbridge County","state_id":"VA"},{"zip":"24579","fips":"51163","name":"Rockbridge County","state_id":"VA"},{"zip":"24579","fips":"51023","name":"Botetourt County","state_id":"VA"},{"zip":"24580","fips":"51117","name":"Mecklenburg County","state_id":"VA"},{"zip":"24581","fips":"51125","name":"Nelson County","state_id":"VA"},{"zip":"24586","fips":"51143","name":"Pittsylvania County","state_id":"VA"},{"zip":"24588","fips":"51031","name":"Campbell County","state_id":"VA"},{"zip":"24589","fips":"51083","name":"Halifax County","state_id":"VA"},{"zip":"24590","fips":"51065","name":"Fluvanna County","state_id":"VA"},{"zip":"24590","fips":"51003","name":"Albemarle County","state_id":"VA"},{"zip":"24590","fips":"51029","name":"Buckingham County","state_id":"VA"},{"zip":"24592","fips":"51143","name":"Pittsylvania County","state_id":"VA"},{"zip":"24592","fips":"51083","name":"Halifax County","state_id":"VA"},{"zip":"24593","fips":"51031","name":"Campbell County","state_id":"VA"},{"zip":"24593","fips":"51011","name":"Appomattox County","state_id":"VA"},{"zip":"24594","fips":"51143","name":"Pittsylvania County","state_id":"VA"},{"zip":"24594","fips":"51083","name":"Halifax County","state_id":"VA"},{"zip":"24595","fips":"51009","name":"Amherst County","state_id":"VA"},{"zip":"24597","fips":"51083","name":"Halifax County","state_id":"VA"},{"zip":"24597","fips":"51143","name":"Pittsylvania County","state_id":"VA"},{"zip":"24598","fips":"51117","name":"Mecklenburg County","state_id":"VA"},{"zip":"24598","fips":"51083","name":"Halifax County","state_id":"VA"},{"zip":"24599","fips":"51029","name":"Buckingham County","state_id":"VA"},{"zip":"24599","fips":"51125","name":"Nelson County","state_id":"VA"}]
