[{"zip":"24601","fips":"51185","name":"Tazewell County","state_id":"VA"},{"zip":"24602","fips":"51185","name":"Tazewell County","state_id":"VA"},{"zip":"24603","fips":"51027","name":"Buchanan County","state_id":"VA"},{"zip":"24604","fips":"51185","name":"Tazewell County","state_id":"VA"},{"zip":"24605","fips":"51185","name":"Tazewell County","state_id":"VA"},{"zip":"24606","fips":"51185","name":"Tazewell County","state_id":"VA"},{"zip":"24607","fips":"51051","name":"Dickenson County","state_id":"VA"},{"zip":"24608","fips":"51185","name":"Tazewell County","state_id":"VA"},{"zip":"24609","fips":"51185","name":"Tazewell County","state_id":"VA"},{"zip":"24609","fips":"51167","name":"Russell County","state_id":"VA"},{"zip":"24612","fips":"51185","name":"Tazewell County","state_id":"VA"},{"zip":"24613","fips":"51185","name":"Tazewell County","state_id":"VA"},{"zip":"24614","fips":"51027","name":"Buchanan County","state_id":"VA"},{"zip":"24619","fips":"51185","name":"Tazewell County","state_id":"VA"},{"zip":"24620","fips":"51027","name":"Buchanan County","state_id":"VA"},{"zip":"24622","fips":"51027","name":"Buchanan County","state_id":"VA"},{"zip":"24622","fips":"51185","name":"Tazewell County","state_id":"VA"},{"zip":"24624","fips":"51027","name":"Buchanan County","state_id":"VA"},{"zip":"24627","fips":"51027","name":"Buchanan County","state_id":"VA"},{"zip":"24628","fips":"51027","name":"Buchanan County","state_id":"VA"},{"zip":"24630","fips":"51185","name":"Tazewell County","state_id":"VA"},{"zip":"24631","fips":"51027","name":"Buchanan County","state_id":"VA"},{"zip":"24634","fips":"51027","name":"Buchanan County","state_id":"VA"},{"zip":"24635","fips":"51185","name":"Tazewell County","state_id":"VA"},{"zip":"24637","fips":"51185","name":"Tazewell County","state_id":"VA"},{"zip":"24639","fips":"51185","name":"Tazewell County","state_id":"VA"},{"zip":"24639","fips":"51027","name":"Buchanan County","state_id":"VA"},{"zip":"24639","fips":"51167","name":"Russell County","state_id":"VA"},{"zip":"24640","fips":"51185","name":"Tazewell County","state_id":"VA"},{"zip":"24641","fips":"51185","name":"Tazewell County","state_id":"VA"},{"zip":"24646","fips":"51027","name":"Buchanan County","state_id":"VA"},{"zip":"24646","fips":"51167","name":"Russell County","state_id":"VA"},{"zip":"24647","fips":"51185","name":"Tazewell County","state_id":"VA"},{"zip":"24649","fips":"51027","name":"Buchanan County","state_id":"VA"},{"zip":"24649","fips":"51167","name":"Russell County","state_id":"VA"},{"zip":"24651","fips":"51185","name":"Tazewell County","state_id":"VA"},{"zip":"24656","fips":"51051","name":"Dickenson County","state_id":"VA"},{"zip":"24656","fips":"51027","name":"Buchanan County","state_id":"VA"},{"zip":"24657","fips":"51027","name":"Buchanan County","state_id":"VA"},{"zip":"24658","fips":"51027","name":"Buchanan County","state_id":"VA"}]
