[{"zip":"24801","fips":"54047","name":"McDowell County","state_id":"WV"},{"zip":"24808","fips":"54047","name":"McDowell County","state_id":"WV"},{"zip":"24811","fips":"54047","name":"McDowell County","state_id":"WV"},{"zip":"24813","fips":"54047","name":"McDowell County","state_id":"WV"},{"zip":"24815","fips":"54047","name":"McDowell County","state_id":"WV"},{"zip":"24816","fips":"54047","name":"McDowell County","state_id":"WV"},{"zip":"24817","fips":"54047","name":"McDowell County","state_id":"WV"},{"zip":"24818","fips":"54109","name":"Wyoming County","state_id":"WV"},{"zip":"24822","fips":"54109","name":"Wyoming County","state_id":"WV"},{"zip":"24823","fips":"54109","name":"Wyoming County","state_id":"WV"},{"zip":"24826","fips":"54047","name":"McDowell County","state_id":"WV"},{"zip":"24827","fips":"54109","name":"Wyoming County","state_id":"WV"},{"zip":"24828","fips":"54047","name":"McDowell County","state_id":"WV"},{"zip":"24828","fips":"54109","name":"Wyoming County","state_id":"WV"},{"zip":"24829","fips":"54047","name":"McDowell County","state_id":"WV"},{"zip":"24830","fips":"54047","name":"McDowell County","state_id":"WV"},{"zip":"24831","fips":"54047","name":"McDowell County","state_id":"WV"},{"zip":"24834","fips":"54109","name":"Wyoming County","state_id":"WV"},{"zip":"24836","fips":"54047","name":"McDowell County","state_id":"WV"},{"zip":"24839","fips":"54109","name":"Wyoming County","state_id":"WV"},{"zip":"24843","fips":"54047","name":"McDowell County","state_id":"WV"},{"zip":"24844","fips":"54109","name":"Wyoming County","state_id":"WV"},{"zip":"24844","fips":"54047","name":"McDowell County","state_id":"WV"},{"zip":"24845","fips":"54109","name":"Wyoming County","state_id":"WV"},{"zip":"24846","fips":"54047","name":"McDowell County","state_id":"WV"},{"zip":"24847","fips":"54109","name":"Wyoming County","state_id":"WV"},{"zip":"24848","fips":"54047","name":"McDowell County","state_id":"WV"},{"zip":"24849","fips":"54109","name":"Wyoming County","state_id":"WV"},{"zip":"24850","fips":"54047","name":"McDowell County","state_id":"WV"},{"zip":"24851","fips":"54059","name":"Mingo County","state_id":"WV"},{"zip":"24853","fips":"54047","name":"McDowell County","state_id":"WV"},{"zip":"24854","fips":"54109","name":"Wyoming County","state_id":"WV"},{"zip":"24855","fips":"54047","name":"McDowell County","state_id":"WV"},{"zip":"24857","fips":"54109","name":"Wyoming County","state_id":"WV"},{"zip":"24860","fips":"54109","name":"Wyoming County","state_id":"WV"},{"zip":"24861","fips":"54047","name":"McDowell County","state_id":"WV"},{"zip":"24862","fips":"54047","name":"McDowell County","state_id":"WV"},{"zip":"24866","fips":"54047","name":"McDowell County","state_id":"WV"},{"zip":"24867","fips":"54109","name":"Wyoming County","state_id":"WV"},{"zip":"24868","fips":"54047","name":"McDowell County","state_id":"WV"},{"zip":"24869","fips":"54109","name":"Wyoming County","state_id":"WV"},{"zip":"24870","fips":"54109","name":"Wyoming County","state_id":"WV"},{"zip":"24871","fips":"54047","name":"McDowell County","state_id":"WV"},{"zip":"24872","fips":"54109","name":"Wyoming County","state_id":"WV"},{"zip":"24872","fips":"54047","name":"McDowell County","state_id":"WV"},{"zip":"24873","fips":"54047","name":"McDowell County","state_id":"WV"},{"zip":"24874","fips":"54109","name":"Wyoming County","state_id":"WV"},{"zip":"24878","fips":"54047","name":"McDowell County","state_id":"WV"},{"zip":"24879","fips":"54047","name":"McDowell County","state_id":"WV"},{"zip":"24880","fips":"54109","name":"Wyoming County","state_id":"WV"},{"zip":"24881","fips":"54047","name":"McDowell County","state_id":"WV"},{"zip":"24882","fips":"54109","name":"Wyoming County","state_id":"WV"},{"zip":"24884","fips":"54047","name":"McDowell County","state_id":"WV"},{"zip":"24887","fips":"54047","name":"McDowell County","state_id":"WV"},{"zip":"24888","fips":"54047","name":"McDowell County","state_id":"WV"},{"zip":"24892","fips":"54047","name":"McDowell County","state_id":"WV"},{"zip":"24894","fips":"54047","name":"McDowell County","state_id":"WV"},{"zip":"24895","fips":"54047","name":"McDowell County","state_id":"WV"},{"zip":"24898","fips":"54109","name":"Wyoming County","state_id":"WV"}]
