[{"zip":"24901","fips":"54025","name":"Greenbrier County","state_id":"WV"},{"zip":"24910","fips":"54063","name":"Monroe County","state_id":"WV"},{"zip":"24910","fips":"54025","name":"Greenbrier County","state_id":"WV"},{"zip":"24910","fips":"54089","name":"Summers County","state_id":"WV"},{"zip":"24915","fips":"54075","name":"Pocahontas County","state_id":"WV"},{"zip":"24916","fips":"54025","name":"Greenbrier County","state_id":"WV"},{"zip":"24918","fips":"54089","name":"Summers County","state_id":"WV"},{"zip":"24918","fips":"54063","name":"Monroe County","state_id":"WV"},{"zip":"24920","fips":"54075","name":"Pocahontas County","state_id":"WV"},{"zip":"24924","fips":"54075","name":"Pocahontas County","state_id":"WV"},{"zip":"24925","fips":"54025","name":"Greenbrier County","state_id":"WV"},{"zip":"24927","fips":"54075","name":"Pocahontas County","state_id":"WV"},{"zip":"24931","fips":"54025","name":"Greenbrier County","state_id":"WV"},{"zip":"24934","fips":"54075","name":"Pocahontas County","state_id":"WV"},{"zip":"24935","fips":"54089","name":"Summers County","state_id":"WV"},{"zip":"24935","fips":"54063","name":"Monroe County","state_id":"WV"},{"zip":"24938","fips":"54025","name":"Greenbrier County","state_id":"WV"},{"zip":"24941","fips":"54063","name":"Monroe County","state_id":"WV"},{"zip":"24943","fips":"54025","name":"Greenbrier County","state_id":"WV"},{"zip":"24944","fips":"54075","name":"Pocahontas County","state_id":"WV"},{"zip":"24945","fips":"54063","name":"Monroe County","state_id":"WV"},{"zip":"24946","fips":"54075","name":"Pocahontas County","state_id":"WV"},{"zip":"24951","fips":"54063","name":"Monroe County","state_id":"WV"},{"zip":"24954","fips":"54075","name":"Pocahontas County","state_id":"WV"},{"zip":"24954","fips":"54025","name":"Greenbrier County","state_id":"WV"},{"zip":"24957","fips":"54025","name":"Greenbrier County","state_id":"WV"},{"zip":"24962","fips":"54089","name":"Summers County","state_id":"WV"},{"zip":"24963","fips":"54063","name":"Monroe County","state_id":"WV"},{"zip":"24963","fips":"54089","name":"Summers County","state_id":"WV"},{"zip":"24966","fips":"54025","name":"Greenbrier County","state_id":"WV"},{"zip":"24970","fips":"54025","name":"Greenbrier County","state_id":"WV"},{"zip":"24970","fips":"54063","name":"Monroe County","state_id":"WV"},{"zip":"24974","fips":"54063","name":"Monroe County","state_id":"WV"},{"zip":"24976","fips":"54025","name":"Greenbrier County","state_id":"WV"},{"zip":"24976","fips":"54063","name":"Monroe County","state_id":"WV"},{"zip":"24977","fips":"54025","name":"Greenbrier County","state_id":"WV"},{"zip":"24981","fips":"54089","name":"Summers County","state_id":"WV"},{"zip":"24981","fips":"54063","name":"Monroe County","state_id":"WV"},{"zip":"24983","fips":"54063","name":"Monroe County","state_id":"WV"},{"zip":"24984","fips":"54063","name":"Monroe County","state_id":"WV"},{"zip":"24985","fips":"54063","name":"Monroe County","state_id":"WV"},{"zip":"24985","fips":"54089","name":"Summers County","state_id":"WV"},{"zip":"24986","fips":"54075","name":"Pocahontas County","state_id":"WV"},{"zip":"24986","fips":"54025","name":"Greenbrier County","state_id":"WV"},{"zip":"24991","fips":"54025","name":"Greenbrier County","state_id":"WV"},{"zip":"24993","fips":"54063","name":"Monroe County","state_id":"WV"}]
