[{"zip":"25002","fips":"54019","name":"Fayette County","state_id":"WV"},{"zip":"25003","fips":"54069","name":"Ohio County","state_id":"WV"},{"zip":"25003","fips":"54043","name":"Lincoln County","state_id":"WV"},{"zip":"25003","fips":"54039","name":"Kanawha County","state_id":"WV"},{"zip":"25005","fips":"54087","name":"Roane County","state_id":"WV"},{"zip":"25007","fips":"54081","name":"Raleigh County","state_id":"WV"},{"zip":"25008","fips":"54081","name":"Raleigh County","state_id":"WV"},{"zip":"25009","fips":"54005","name":"Boone County","state_id":"WV"},{"zip":"25011","fips":"54079","name":"Putnam County","state_id":"WV"},{"zip":"25015","fips":"54039","name":"Kanawha County","state_id":"WV"},{"zip":"25019","fips":"54015","name":"Clay County","state_id":"WV"},{"zip":"25021","fips":"54005","name":"Boone County","state_id":"WV"},{"zip":"25022","fips":"54045","name":"Logan County","state_id":"WV"},{"zip":"25024","fips":"54005","name":"Boone County","state_id":"WV"},{"zip":"25025","fips":"54039","name":"Kanawha County","state_id":"WV"},{"zip":"25026","fips":"54039","name":"Kanawha County","state_id":"WV"},{"zip":"25028","fips":"54005","name":"Boone County","state_id":"WV"},{"zip":"25030","fips":"54015","name":"Clay County","state_id":"WV"},{"zip":"25031","fips":"54019","name":"Fayette County","state_id":"WV"},{"zip":"25033","fips":"54079","name":"Putnam County","state_id":"WV"},{"zip":"25035","fips":"54039","name":"Kanawha County","state_id":"WV"},{"zip":"25036","fips":"54019","name":"Fayette County","state_id":"WV"},{"zip":"25039","fips":"54039","name":"Kanawha County","state_id":"WV"},{"zip":"25040","fips":"54019","name":"Fayette County","state_id":"WV"},{"zip":"25043","fips":"54067","name":"Nicholas County","state_id":"WV"},{"zip":"25043","fips":"54015","name":"Clay County","state_id":"WV"},{"zip":"25044","fips":"54081","name":"Raleigh County","state_id":"WV"},{"zip":"25045","fips":"54039","name":"Kanawha County","state_id":"WV"},{"zip":"25045","fips":"54015","name":"Clay County","state_id":"WV"},{"zip":"25045","fips":"54087","name":"Roane County","state_id":"WV"},{"zip":"25047","fips":"54045","name":"Logan County","state_id":"WV"},{"zip":"25048","fips":"54081","name":"Raleigh County","state_id":"WV"},{"zip":"25049","fips":"54005","name":"Boone County","state_id":"WV"},{"zip":"25051","fips":"54005","name":"Boone County","state_id":"WV"},{"zip":"25053","fips":"54005","name":"Boone County","state_id":"WV"},{"zip":"25054","fips":"54039","name":"Kanawha County","state_id":"WV"},{"zip":"25059","fips":"54067","name":"Nicholas County","state_id":"WV"},{"zip":"25059","fips":"54015","name":"Clay County","state_id":"WV"},{"zip":"25059","fips":"54019","name":"Fayette County","state_id":"WV"},{"zip":"25060","fips":"54081","name":"Raleigh County","state_id":"WV"},{"zip":"25061","fips":"54039","name":"Kanawha County","state_id":"WV"},{"zip":"25062","fips":"54081","name":"Raleigh County","state_id":"WV"},{"zip":"25063","fips":"54015","name":"Clay County","state_id":"WV"},{"zip":"25063","fips":"54007","name":"Braxton County","state_id":"WV"},{"zip":"25063","fips":"54067","name":"Nicholas County","state_id":"WV"},{"zip":"25064","fips":"54039","name":"Kanawha County","state_id":"WV"},{"zip":"25067","fips":"54039","name":"Kanawha County","state_id":"WV"},{"zip":"25070","fips":"54079","name":"Putnam County","state_id":"WV"},{"zip":"25071","fips":"54087","name":"Roane County","state_id":"WV"},{"zip":"25071","fips":"54039","name":"Kanawha County","state_id":"WV"},{"zip":"25075","fips":"54039","name":"Kanawha County","state_id":"WV"},{"zip":"25076","fips":"54045","name":"Logan County","state_id":"WV"},{"zip":"25079","fips":"54039","name":"Kanawha County","state_id":"WV"},{"zip":"25081","fips":"54005","name":"Boone County","state_id":"WV"},{"zip":"25082","fips":"54079","name":"Putnam County","state_id":"WV"},{"zip":"25082","fips":"54053","name":"Mason County","state_id":"WV"},{"zip":"25083","fips":"54039","name":"Kanawha County","state_id":"WV"},{"zip":"25083","fips":"54019","name":"Fayette County","state_id":"WV"},{"zip":"25085","fips":"54019","name":"Fayette County","state_id":"WV"},{"zip":"25086","fips":"54039","name":"Kanawha County","state_id":"WV"},{"zip":"25088","fips":"54015","name":"Clay County","state_id":"WV"},{"zip":"25090","fips":"54019","name":"Fayette County","state_id":"WV"},{"zip":"25093","fips":"54005","name":"Boone County","state_id":"WV"}]
