[{"zip":"25102","fips":"54039","name":"Kanawha County","state_id":"WV"},{"zip":"25103","fips":"54039","name":"Kanawha County","state_id":"WV"},{"zip":"25106","fips":"54053","name":"Mason County","state_id":"WV"},{"zip":"25107","fips":"54039","name":"Kanawha County","state_id":"WV"},{"zip":"25108","fips":"54005","name":"Boone County","state_id":"WV"},{"zip":"25108","fips":"54045","name":"Logan County","state_id":"WV"},{"zip":"25109","fips":"54079","name":"Putnam County","state_id":"WV"},{"zip":"25110","fips":"54039","name":"Kanawha County","state_id":"WV"},{"zip":"25111","fips":"54015","name":"Clay County","state_id":"WV"},{"zip":"25112","fips":"54039","name":"Kanawha County","state_id":"WV"},{"zip":"25113","fips":"54015","name":"Clay County","state_id":"WV"},{"zip":"25114","fips":"54005","name":"Boone County","state_id":"WV"},{"zip":"25115","fips":"54019","name":"Fayette County","state_id":"WV"},{"zip":"25118","fips":"54019","name":"Fayette County","state_id":"WV"},{"zip":"25119","fips":"54019","name":"Fayette County","state_id":"WV"},{"zip":"25121","fips":"54045","name":"Logan County","state_id":"WV"},{"zip":"25123","fips":"54079","name":"Putnam County","state_id":"WV"},{"zip":"25123","fips":"54053","name":"Mason County","state_id":"WV"},{"zip":"25124","fips":"54039","name":"Kanawha County","state_id":"WV"},{"zip":"25124","fips":"54035","name":"Jackson County","state_id":"WV"},{"zip":"25124","fips":"54079","name":"Putnam County","state_id":"WV"},{"zip":"25125","fips":"54015","name":"Clay County","state_id":"WV"},{"zip":"25125","fips":"54067","name":"Nicholas County","state_id":"WV"},{"zip":"25126","fips":"54039","name":"Kanawha County","state_id":"WV"},{"zip":"25130","fips":"54005","name":"Boone County","state_id":"WV"},{"zip":"25132","fips":"54039","name":"Kanawha County","state_id":"WV"},{"zip":"25133","fips":"54015","name":"Clay County","state_id":"WV"},{"zip":"25134","fips":"54039","name":"Kanawha County","state_id":"WV"},{"zip":"25136","fips":"54039","name":"Kanawha County","state_id":"WV"},{"zip":"25136","fips":"54019","name":"Fayette County","state_id":"WV"},{"zip":"25139","fips":"54019","name":"Fayette County","state_id":"WV"},{"zip":"25140","fips":"54081","name":"Raleigh County","state_id":"WV"},{"zip":"25141","fips":"54013","name":"Calhoun County","state_id":"WV"},{"zip":"25141","fips":"54015","name":"Clay County","state_id":"WV"},{"zip":"25142","fips":"54005","name":"Boone County","state_id":"WV"},{"zip":"25143","fips":"54079","name":"Putnam County","state_id":"WV"},{"zip":"25143","fips":"54039","name":"Kanawha County","state_id":"WV"},{"zip":"25148","fips":"54005","name":"Boone County","state_id":"WV"},{"zip":"25149","fips":"54005","name":"Boone County","state_id":"WV"},{"zip":"25154","fips":"54005","name":"Boone County","state_id":"WV"},{"zip":"25156","fips":"54039","name":"Kanawha County","state_id":"WV"},{"zip":"25159","fips":"54079","name":"Putnam County","state_id":"WV"},{"zip":"25159","fips":"54039","name":"Kanawha County","state_id":"WV"},{"zip":"25160","fips":"54039","name":"Kanawha County","state_id":"WV"},{"zip":"25161","fips":"54019","name":"Fayette County","state_id":"WV"},{"zip":"25162","fips":"54039","name":"Kanawha County","state_id":"WV"},{"zip":"25164","fips":"54087","name":"Roane County","state_id":"WV"},{"zip":"25164","fips":"54015","name":"Clay County","state_id":"WV"},{"zip":"25165","fips":"54005","name":"Boone County","state_id":"WV"},{"zip":"25168","fips":"54079","name":"Putnam County","state_id":"WV"},{"zip":"25169","fips":"54005","name":"Boone County","state_id":"WV"},{"zip":"25173","fips":"54019","name":"Fayette County","state_id":"WV"},{"zip":"25174","fips":"54081","name":"Raleigh County","state_id":"WV"},{"zip":"25177","fips":"54039","name":"Kanawha County","state_id":"WV"},{"zip":"25177","fips":"54079","name":"Putnam County","state_id":"WV"},{"zip":"25180","fips":"54081","name":"Raleigh County","state_id":"WV"},{"zip":"25181","fips":"54005","name":"Boone County","state_id":"WV"},{"zip":"25183","fips":"54045","name":"Logan County","state_id":"WV"},{"zip":"25185","fips":"54019","name":"Fayette County","state_id":"WV"},{"zip":"25186","fips":"54019","name":"Fayette County","state_id":"WV"},{"zip":"25187","fips":"54053","name":"Mason County","state_id":"WV"},{"zip":"25193","fips":"54005","name":"Boone County","state_id":"WV"}]
