[{"zip":"25201","fips":"54039","name":"Kanawha County","state_id":"WV"},{"zip":"25202","fips":"54039","name":"Kanawha County","state_id":"WV"},{"zip":"25202","fips":"54043","name":"Lincoln County","state_id":"WV"},{"zip":"25203","fips":"54005","name":"Boone County","state_id":"WV"},{"zip":"25204","fips":"54005","name":"Boone County","state_id":"WV"},{"zip":"25205","fips":"54005","name":"Boone County","state_id":"WV"},{"zip":"25206","fips":"54005","name":"Boone County","state_id":"WV"},{"zip":"25208","fips":"54005","name":"Boone County","state_id":"WV"},{"zip":"25209","fips":"54005","name":"Boone County","state_id":"WV"},{"zip":"25209","fips":"54081","name":"Raleigh County","state_id":"WV"},{"zip":"25211","fips":"54015","name":"Clay County","state_id":"WV"},{"zip":"25213","fips":"54079","name":"Putnam County","state_id":"WV"},{"zip":"25214","fips":"54039","name":"Kanawha County","state_id":"WV"},{"zip":"25231","fips":"54035","name":"Jackson County","state_id":"WV"},{"zip":"25234","fips":"54013","name":"Calhoun County","state_id":"WV"},{"zip":"25235","fips":"54015","name":"Clay County","state_id":"WV"},{"zip":"25235","fips":"54013","name":"Calhoun County","state_id":"WV"},{"zip":"25239","fips":"54035","name":"Jackson County","state_id":"WV"},{"zip":"25239","fips":"54053","name":"Mason County","state_id":"WV"},{"zip":"25241","fips":"54053","name":"Mason County","state_id":"WV"},{"zip":"25241","fips":"54035","name":"Jackson County","state_id":"WV"},{"zip":"25243","fips":"54087","name":"Roane County","state_id":"WV"},{"zip":"25243","fips":"54035","name":"Jackson County","state_id":"WV"},{"zip":"25244","fips":"54087","name":"Roane County","state_id":"WV"},{"zip":"25244","fips":"54035","name":"Jackson County","state_id":"WV"},{"zip":"25245","fips":"54035","name":"Jackson County","state_id":"WV"},{"zip":"25245","fips":"54079","name":"Putnam County","state_id":"WV"},{"zip":"25247","fips":"54053","name":"Mason County","state_id":"WV"},{"zip":"25248","fips":"54039","name":"Kanawha County","state_id":"WV"},{"zip":"25248","fips":"54079","name":"Putnam County","state_id":"WV"},{"zip":"25248","fips":"54035","name":"Jackson County","state_id":"WV"},{"zip":"25251","fips":"54087","name":"Roane County","state_id":"WV"},{"zip":"25252","fips":"54087","name":"Roane County","state_id":"WV"},{"zip":"25252","fips":"54035","name":"Jackson County","state_id":"WV"},{"zip":"25252","fips":"54105","name":"Wirt County","state_id":"WV"},{"zip":"25253","fips":"54053","name":"Mason County","state_id":"WV"},{"zip":"25259","fips":"54013","name":"Calhoun County","state_id":"WV"},{"zip":"25259","fips":"54087","name":"Roane County","state_id":"WV"},{"zip":"25260","fips":"54053","name":"Mason County","state_id":"WV"},{"zip":"25261","fips":"54013","name":"Calhoun County","state_id":"WV"},{"zip":"25262","fips":"54035","name":"Jackson County","state_id":"WV"},{"zip":"25264","fips":"54035","name":"Jackson County","state_id":"WV"},{"zip":"25264","fips":"54053","name":"Mason County","state_id":"WV"},{"zip":"25265","fips":"54053","name":"Mason County","state_id":"WV"},{"zip":"25266","fips":"54087","name":"Roane County","state_id":"WV"},{"zip":"25266","fips":"54013","name":"Calhoun County","state_id":"WV"},{"zip":"25267","fips":"54021","name":"Gilmer County","state_id":"WV"},{"zip":"25268","fips":"54013","name":"Calhoun County","state_id":"WV"},{"zip":"25270","fips":"54105","name":"Wirt County","state_id":"WV"},{"zip":"25270","fips":"54087","name":"Roane County","state_id":"WV"},{"zip":"25271","fips":"54035","name":"Jackson County","state_id":"WV"},{"zip":"25275","fips":"54035","name":"Jackson County","state_id":"WV"},{"zip":"25275","fips":"54105","name":"Wirt County","state_id":"WV"},{"zip":"25276","fips":"54087","name":"Roane County","state_id":"WV"},{"zip":"25276","fips":"54013","name":"Calhoun County","state_id":"WV"},{"zip":"25285","fips":"54015","name":"Clay County","state_id":"WV"},{"zip":"25286","fips":"54039","name":"Kanawha County","state_id":"WV"},{"zip":"25286","fips":"54087","name":"Roane County","state_id":"WV"},{"zip":"25287","fips":"54053","name":"Mason County","state_id":"WV"}]
