[{"zip":"25301","fips":"54039","name":"Kanawha County","state_id":"WV"},{"zip":"25302","fips":"54039","name":"Kanawha County","state_id":"WV"},{"zip":"25303","fips":"54039","name":"Kanawha County","state_id":"WV"},{"zip":"25304","fips":"54039","name":"Kanawha County","state_id":"WV"},{"zip":"25305","fips":"54039","name":"Kanawha County","state_id":"WV"},{"zip":"25306","fips":"54039","name":"Kanawha County","state_id":"WV"},{"zip":"25309","fips":"54039","name":"Kanawha County","state_id":"WV"},{"zip":"25311","fips":"54039","name":"Kanawha County","state_id":"WV"},{"zip":"25312","fips":"54079","name":"Putnam County","state_id":"WV"},{"zip":"25312","fips":"54039","name":"Kanawha County","state_id":"WV"},{"zip":"25313","fips":"54039","name":"Kanawha County","state_id":"WV"},{"zip":"25314","fips":"54039","name":"Kanawha County","state_id":"WV"},{"zip":"25315","fips":"54039","name":"Kanawha County","state_id":"WV"},{"zip":"25317","fips":"54039","name":"Kanawha County","state_id":"WV"},{"zip":"25320","fips":"54039","name":"Kanawha County","state_id":"WV"},{"zip":"25321","fips":"54039","name":"Kanawha County","state_id":"WV"},{"zip":"25322","fips":"54039","name":"Kanawha County","state_id":"WV"},{"zip":"25323","fips":"54039","name":"Kanawha County","state_id":"WV"},{"zip":"25324","fips":"54039","name":"Kanawha County","state_id":"WV"},{"zip":"25325","fips":"54039","name":"Kanawha County","state_id":"WV"},{"zip":"25326","fips":"54039","name":"Kanawha County","state_id":"WV"},{"zip":"25327","fips":"54039","name":"Kanawha County","state_id":"WV"},{"zip":"25328","fips":"54039","name":"Kanawha County","state_id":"WV"},{"zip":"25329","fips":"54039","name":"Kanawha County","state_id":"WV"},{"zip":"25330","fips":"54039","name":"Kanawha County","state_id":"WV"},{"zip":"25331","fips":"54039","name":"Kanawha County","state_id":"WV"},{"zip":"25332","fips":"54039","name":"Kanawha County","state_id":"WV"},{"zip":"25333","fips":"54039","name":"Kanawha County","state_id":"WV"},{"zip":"25334","fips":"54039","name":"Kanawha County","state_id":"WV"},{"zip":"25335","fips":"54039","name":"Kanawha County","state_id":"WV"},{"zip":"25336","fips":"54039","name":"Kanawha County","state_id":"WV"},{"zip":"25337","fips":"54039","name":"Kanawha County","state_id":"WV"},{"zip":"25338","fips":"54039","name":"Kanawha County","state_id":"WV"},{"zip":"25339","fips":"54039","name":"Kanawha County","state_id":"WV"},{"zip":"25361","fips":"54039","name":"Kanawha County","state_id":"WV"},{"zip":"25362","fips":"54039","name":"Kanawha County","state_id":"WV"},{"zip":"25364","fips":"54039","name":"Kanawha County","state_id":"WV"},{"zip":"25387","fips":"54039","name":"Kanawha County","state_id":"WV"},{"zip":"25389","fips":"54039","name":"Kanawha County","state_id":"WV"},{"zip":"25396","fips":"54039","name":"Kanawha County","state_id":"WV"}]
