[{"zip":"25401","fips":"54003","name":"Berkeley County","state_id":"WV"},{"zip":"25402","fips":"54003","name":"Berkeley County","state_id":"WV"},{"zip":"25403","fips":"54003","name":"Berkeley County","state_id":"WV"},{"zip":"25404","fips":"54003","name":"Berkeley County","state_id":"WV"},{"zip":"25404","fips":"54037","name":"Jefferson County","state_id":"WV"},{"zip":"25405","fips":"54003","name":"Berkeley County","state_id":"WV"},{"zip":"25405","fips":"54037","name":"Jefferson County","state_id":"WV"},{"zip":"25411","fips":"54003","name":"Berkeley County","state_id":"WV"},{"zip":"25411","fips":"54065","name":"Morgan County","state_id":"WV"},{"zip":"25413","fips":"54003","name":"Berkeley County","state_id":"WV"},{"zip":"25414","fips":"54037","name":"Jefferson County","state_id":"WV"},{"zip":"25419","fips":"54003","name":"Berkeley County","state_id":"WV"},{"zip":"25420","fips":"54003","name":"Berkeley County","state_id":"WV"},{"zip":"25421","fips":"54003","name":"Berkeley County","state_id":"WV"},{"zip":"25422","fips":"54027","name":"Hampshire County","state_id":"WV"},{"zip":"25422","fips":"54065","name":"Morgan County","state_id":"WV"},{"zip":"25423","fips":"54037","name":"Jefferson County","state_id":"WV"},{"zip":"25425","fips":"54037","name":"Jefferson County","state_id":"WV"},{"zip":"25427","fips":"54065","name":"Morgan County","state_id":"WV"},{"zip":"25427","fips":"54003","name":"Berkeley County","state_id":"WV"},{"zip":"25428","fips":"54003","name":"Berkeley County","state_id":"WV"},{"zip":"25430","fips":"54037","name":"Jefferson County","state_id":"WV"},{"zip":"25430","fips":"54003","name":"Berkeley County","state_id":"WV"},{"zip":"25431","fips":"54027","name":"Hampshire County","state_id":"WV"},{"zip":"25432","fips":"54037","name":"Jefferson County","state_id":"WV"},{"zip":"25434","fips":"54027","name":"Hampshire County","state_id":"WV"},{"zip":"25434","fips":"54065","name":"Morgan County","state_id":"WV"},{"zip":"25437","fips":"54027","name":"Hampshire County","state_id":"WV"},{"zip":"25438","fips":"54037","name":"Jefferson County","state_id":"WV"},{"zip":"25441","fips":"54037","name":"Jefferson County","state_id":"WV"},{"zip":"25442","fips":"54037","name":"Jefferson County","state_id":"WV"},{"zip":"25443","fips":"54003","name":"Berkeley County","state_id":"WV"},{"zip":"25443","fips":"54037","name":"Jefferson County","state_id":"WV"},{"zip":"25444","fips":"54027","name":"Hampshire County","state_id":"WV"},{"zip":"25446","fips":"54037","name":"Jefferson County","state_id":"WV"}]
