[{"zip":"25501","fips":"54043","name":"Lincoln County","state_id":"WV"},{"zip":"25502","fips":"54053","name":"Mason County","state_id":"WV"},{"zip":"25503","fips":"54053","name":"Mason County","state_id":"WV"},{"zip":"25504","fips":"54099","name":"Wayne County","state_id":"WV"},{"zip":"25504","fips":"54011","name":"Cabell County","state_id":"WV"},{"zip":"25505","fips":"54045","name":"Logan County","state_id":"WV"},{"zip":"25506","fips":"54099","name":"Wayne County","state_id":"WV"},{"zip":"25506","fips":"54043","name":"Lincoln County","state_id":"WV"},{"zip":"25506","fips":"54011","name":"Cabell County","state_id":"WV"},{"zip":"25507","fips":"54099","name":"Wayne County","state_id":"WV"},{"zip":"25508","fips":"54045","name":"Logan County","state_id":"WV"},{"zip":"25508","fips":"54005","name":"Boone County","state_id":"WV"},{"zip":"25510","fips":"54011","name":"Cabell County","state_id":"WV"},{"zip":"25510","fips":"54043","name":"Lincoln County","state_id":"WV"},{"zip":"25510","fips":"54079","name":"Putnam County","state_id":"WV"},{"zip":"25511","fips":"54099","name":"Wayne County","state_id":"WV"},{"zip":"25512","fips":"54099","name":"Wayne County","state_id":"WV"},{"zip":"25514","fips":"54099","name":"Wayne County","state_id":"WV"},{"zip":"25515","fips":"54053","name":"Mason County","state_id":"WV"},{"zip":"25517","fips":"54099","name":"Wayne County","state_id":"WV"},{"zip":"25520","fips":"54053","name":"Mason County","state_id":"WV"},{"zip":"25520","fips":"54011","name":"Cabell County","state_id":"WV"},{"zip":"25521","fips":"54043","name":"Lincoln County","state_id":"WV"},{"zip":"25523","fips":"54079","name":"Putnam County","state_id":"WV"},{"zip":"25523","fips":"54043","name":"Lincoln County","state_id":"WV"},{"zip":"25524","fips":"54043","name":"Lincoln County","state_id":"WV"},{"zip":"25524","fips":"54099","name":"Wayne County","state_id":"WV"},{"zip":"25524","fips":"54045","name":"Logan County","state_id":"WV"},{"zip":"25526","fips":"54079","name":"Putnam County","state_id":"WV"},{"zip":"25526","fips":"54043","name":"Lincoln County","state_id":"WV"},{"zip":"25526","fips":"54011","name":"Cabell County","state_id":"WV"},{"zip":"25529","fips":"54043","name":"Lincoln County","state_id":"WV"},{"zip":"25529","fips":"54005","name":"Boone County","state_id":"WV"},{"zip":"25530","fips":"54099","name":"Wayne County","state_id":"WV"},{"zip":"25534","fips":"54099","name":"Wayne County","state_id":"WV"},{"zip":"25534","fips":"54043","name":"Lincoln County","state_id":"WV"},{"zip":"25535","fips":"54099","name":"Wayne County","state_id":"WV"},{"zip":"25537","fips":"54011","name":"Cabell County","state_id":"WV"},{"zip":"25540","fips":"54043","name":"Lincoln County","state_id":"WV"},{"zip":"25541","fips":"54053","name":"Mason County","state_id":"WV"},{"zip":"25541","fips":"54079","name":"Putnam County","state_id":"WV"},{"zip":"25541","fips":"54011","name":"Cabell County","state_id":"WV"},{"zip":"25544","fips":"54043","name":"Lincoln County","state_id":"WV"},{"zip":"25545","fips":"54011","name":"Cabell County","state_id":"WV"},{"zip":"25547","fips":"54045","name":"Logan County","state_id":"WV"},{"zip":"25550","fips":"54053","name":"Mason County","state_id":"WV"},{"zip":"25555","fips":"54099","name":"Wayne County","state_id":"WV"},{"zip":"25557","fips":"54043","name":"Lincoln County","state_id":"WV"},{"zip":"25557","fips":"54099","name":"Wayne County","state_id":"WV"},{"zip":"25559","fips":"54011","name":"Cabell County","state_id":"WV"},{"zip":"25560","fips":"54079","name":"Putnam County","state_id":"WV"},{"zip":"25562","fips":"54099","name":"Wayne County","state_id":"WV"},{"zip":"25564","fips":"54043","name":"Lincoln County","state_id":"WV"},{"zip":"25565","fips":"54043","name":"Lincoln County","state_id":"WV"},{"zip":"25567","fips":"54043","name":"Lincoln County","state_id":"WV"},{"zip":"25569","fips":"54079","name":"Putnam County","state_id":"WV"},{"zip":"25570","fips":"54099","name":"Wayne County","state_id":"WV"},{"zip":"25571","fips":"54043","name":"Lincoln County","state_id":"WV"},{"zip":"25573","fips":"54043","name":"Lincoln County","state_id":"WV"}]
