[{"zip":"25601","fips":"54045","name":"Logan County","state_id":"WV"},{"zip":"25606","fips":"54045","name":"Logan County","state_id":"WV"},{"zip":"25607","fips":"54045","name":"Logan County","state_id":"WV"},{"zip":"25608","fips":"54059","name":"Mingo County","state_id":"WV"},{"zip":"25611","fips":"54045","name":"Logan County","state_id":"WV"},{"zip":"25612","fips":"54045","name":"Logan County","state_id":"WV"},{"zip":"25614","fips":"54045","name":"Logan County","state_id":"WV"},{"zip":"25617","fips":"54045","name":"Logan County","state_id":"WV"},{"zip":"25617","fips":"54109","name":"Wyoming County","state_id":"WV"},{"zip":"25621","fips":"54059","name":"Mingo County","state_id":"WV"},{"zip":"25624","fips":"54045","name":"Logan County","state_id":"WV"},{"zip":"25625","fips":"54045","name":"Logan County","state_id":"WV"},{"zip":"25628","fips":"54045","name":"Logan County","state_id":"WV"},{"zip":"25630","fips":"54045","name":"Logan County","state_id":"WV"},{"zip":"25632","fips":"54045","name":"Logan County","state_id":"WV"},{"zip":"25634","fips":"54045","name":"Logan County","state_id":"WV"},{"zip":"25635","fips":"54045","name":"Logan County","state_id":"WV"},{"zip":"25637","fips":"54045","name":"Logan County","state_id":"WV"},{"zip":"25638","fips":"54045","name":"Logan County","state_id":"WV"},{"zip":"25639","fips":"54045","name":"Logan County","state_id":"WV"},{"zip":"25644","fips":"54045","name":"Logan County","state_id":"WV"},{"zip":"25646","fips":"54045","name":"Logan County","state_id":"WV"},{"zip":"25647","fips":"54045","name":"Logan County","state_id":"WV"},{"zip":"25649","fips":"54045","name":"Logan County","state_id":"WV"},{"zip":"25650","fips":"54059","name":"Mingo County","state_id":"WV"},{"zip":"25651","fips":"54059","name":"Mingo County","state_id":"WV"},{"zip":"25652","fips":"54045","name":"Logan County","state_id":"WV"},{"zip":"25653","fips":"54045","name":"Logan County","state_id":"WV"},{"zip":"25654","fips":"54045","name":"Logan County","state_id":"WV"},{"zip":"25661","fips":"54059","name":"Mingo County","state_id":"WV"},{"zip":"25666","fips":"54059","name":"Mingo County","state_id":"WV"},{"zip":"25667","fips":"54059","name":"Mingo County","state_id":"WV"},{"zip":"25669","fips":"54099","name":"Wayne County","state_id":"WV"},{"zip":"25670","fips":"54059","name":"Mingo County","state_id":"WV"},{"zip":"25671","fips":"54059","name":"Mingo County","state_id":"WV"},{"zip":"25671","fips":"54045","name":"Logan County","state_id":"WV"},{"zip":"25671","fips":"54099","name":"Wayne County","state_id":"WV"},{"zip":"25672","fips":"54059","name":"Mingo County","state_id":"WV"},{"zip":"25674","fips":"54099","name":"Wayne County","state_id":"WV"},{"zip":"25674","fips":"54059","name":"Mingo County","state_id":"WV"},{"zip":"25676","fips":"54059","name":"Mingo County","state_id":"WV"},{"zip":"25678","fips":"54059","name":"Mingo County","state_id":"WV"},{"zip":"25685","fips":"54059","name":"Mingo County","state_id":"WV"},{"zip":"25686","fips":"54059","name":"Mingo County","state_id":"WV"},{"zip":"25688","fips":"54059","name":"Mingo County","state_id":"WV"},{"zip":"25690","fips":"54059","name":"Mingo County","state_id":"WV"},{"zip":"25691","fips":"54059","name":"Mingo County","state_id":"WV"},{"zip":"25692","fips":"54059","name":"Mingo County","state_id":"WV"},{"zip":"25696","fips":"54059","name":"Mingo County","state_id":"WV"},{"zip":"25699","fips":"54043","name":"Lincoln County","state_id":"WV"},{"zip":"25699","fips":"54099","name":"Wayne County","state_id":"WV"}]
