[{"zip":"25701","fips":"54099","name":"Wayne County","state_id":"WV"},{"zip":"25701","fips":"54011","name":"Cabell County","state_id":"WV"},{"zip":"25702","fips":"54011","name":"Cabell County","state_id":"WV"},{"zip":"25703","fips":"54011","name":"Cabell County","state_id":"WV"},{"zip":"25704","fips":"54011","name":"Cabell County","state_id":"WV"},{"zip":"25704","fips":"54099","name":"Wayne County","state_id":"WV"},{"zip":"25705","fips":"54011","name":"Cabell County","state_id":"WV"},{"zip":"25706","fips":"54011","name":"Cabell County","state_id":"WV"},{"zip":"25707","fips":"54011","name":"Cabell County","state_id":"WV"},{"zip":"25708","fips":"54011","name":"Cabell County","state_id":"WV"},{"zip":"25709","fips":"54011","name":"Cabell County","state_id":"WV"},{"zip":"25710","fips":"54011","name":"Cabell County","state_id":"WV"},{"zip":"25711","fips":"54011","name":"Cabell County","state_id":"WV"},{"zip":"25712","fips":"54011","name":"Cabell County","state_id":"WV"},{"zip":"25713","fips":"54011","name":"Cabell County","state_id":"WV"},{"zip":"25714","fips":"54011","name":"Cabell County","state_id":"WV"},{"zip":"25715","fips":"54011","name":"Cabell County","state_id":"WV"},{"zip":"25716","fips":"54011","name":"Cabell County","state_id":"WV"},{"zip":"25717","fips":"54011","name":"Cabell County","state_id":"WV"},{"zip":"25718","fips":"54011","name":"Cabell County","state_id":"WV"},{"zip":"25719","fips":"54011","name":"Cabell County","state_id":"WV"},{"zip":"25720","fips":"54011","name":"Cabell County","state_id":"WV"},{"zip":"25721","fips":"54011","name":"Cabell County","state_id":"WV"},{"zip":"25722","fips":"54011","name":"Cabell County","state_id":"WV"},{"zip":"25723","fips":"54011","name":"Cabell County","state_id":"WV"},{"zip":"25724","fips":"54011","name":"Cabell County","state_id":"WV"},{"zip":"25725","fips":"54011","name":"Cabell County","state_id":"WV"},{"zip":"25726","fips":"54011","name":"Cabell County","state_id":"WV"},{"zip":"25727","fips":"54011","name":"Cabell County","state_id":"WV"},{"zip":"25728","fips":"54011","name":"Cabell County","state_id":"WV"},{"zip":"25729","fips":"54011","name":"Cabell County","state_id":"WV"},{"zip":"25755","fips":"54011","name":"Cabell County","state_id":"WV"},{"zip":"25772","fips":"54011","name":"Cabell County","state_id":"WV"},{"zip":"25773","fips":"54011","name":"Cabell County","state_id":"WV"},{"zip":"25774","fips":"54011","name":"Cabell County","state_id":"WV"},{"zip":"25775","fips":"54011","name":"Cabell County","state_id":"WV"},{"zip":"25776","fips":"54011","name":"Cabell County","state_id":"WV"},{"zip":"25777","fips":"54011","name":"Cabell County","state_id":"WV"},{"zip":"25778","fips":"54011","name":"Cabell County","state_id":"WV"},{"zip":"25779","fips":"54011","name":"Cabell County","state_id":"WV"}]
