[{"zip":"25801","fips":"54019","name":"Fayette County","state_id":"WV"},{"zip":"25801","fips":"54081","name":"Raleigh County","state_id":"WV"},{"zip":"25802","fips":"54081","name":"Raleigh County","state_id":"WV"},{"zip":"25810","fips":"54109","name":"Wyoming County","state_id":"WV"},{"zip":"25811","fips":"54109","name":"Wyoming County","state_id":"WV"},{"zip":"25811","fips":"54081","name":"Raleigh County","state_id":"WV"},{"zip":"25812","fips":"54019","name":"Fayette County","state_id":"WV"},{"zip":"25813","fips":"54081","name":"Raleigh County","state_id":"WV"},{"zip":"25817","fips":"54081","name":"Raleigh County","state_id":"WV"},{"zip":"25818","fips":"54081","name":"Raleigh County","state_id":"WV"},{"zip":"25820","fips":"54055","name":"Mercer County","state_id":"WV"},{"zip":"25823","fips":"54081","name":"Raleigh County","state_id":"WV"},{"zip":"25825","fips":"54089","name":"Summers County","state_id":"WV"},{"zip":"25825","fips":"54081","name":"Raleigh County","state_id":"WV"},{"zip":"25826","fips":"54109","name":"Wyoming County","state_id":"WV"},{"zip":"25827","fips":"54081","name":"Raleigh County","state_id":"WV"},{"zip":"25831","fips":"54019","name":"Fayette County","state_id":"WV"},{"zip":"25832","fips":"54081","name":"Raleigh County","state_id":"WV"},{"zip":"25836","fips":"54081","name":"Raleigh County","state_id":"WV"},{"zip":"25837","fips":"54019","name":"Fayette County","state_id":"WV"},{"zip":"25839","fips":"54081","name":"Raleigh County","state_id":"WV"},{"zip":"25840","fips":"54019","name":"Fayette County","state_id":"WV"},{"zip":"25841","fips":"54089","name":"Summers County","state_id":"WV"},{"zip":"25841","fips":"54055","name":"Mercer County","state_id":"WV"},{"zip":"25841","fips":"54081","name":"Raleigh County","state_id":"WV"},{"zip":"25843","fips":"54081","name":"Raleigh County","state_id":"WV"},{"zip":"25844","fips":"54081","name":"Raleigh County","state_id":"WV"},{"zip":"25845","fips":"54109","name":"Wyoming County","state_id":"WV"},{"zip":"25846","fips":"54019","name":"Fayette County","state_id":"WV"},{"zip":"25848","fips":"54109","name":"Wyoming County","state_id":"WV"},{"zip":"25849","fips":"54081","name":"Raleigh County","state_id":"WV"},{"zip":"25851","fips":"54081","name":"Raleigh County","state_id":"WV"},{"zip":"25853","fips":"54081","name":"Raleigh County","state_id":"WV"},{"zip":"25854","fips":"54019","name":"Fayette County","state_id":"WV"},{"zip":"25855","fips":"54019","name":"Fayette County","state_id":"WV"},{"zip":"25857","fips":"54081","name":"Raleigh County","state_id":"WV"},{"zip":"25860","fips":"54081","name":"Raleigh County","state_id":"WV"},{"zip":"25862","fips":"54019","name":"Fayette County","state_id":"WV"},{"zip":"25864","fips":"54081","name":"Raleigh County","state_id":"WV"},{"zip":"25865","fips":"54081","name":"Raleigh County","state_id":"WV"},{"zip":"25866","fips":"54019","name":"Fayette County","state_id":"WV"},{"zip":"25868","fips":"54019","name":"Fayette County","state_id":"WV"},{"zip":"25870","fips":"54109","name":"Wyoming County","state_id":"WV"},{"zip":"25871","fips":"54081","name":"Raleigh County","state_id":"WV"},{"zip":"25873","fips":"54081","name":"Raleigh County","state_id":"WV"},{"zip":"25875","fips":"54109","name":"Wyoming County","state_id":"WV"},{"zip":"25876","fips":"54109","name":"Wyoming County","state_id":"WV"},{"zip":"25878","fips":"54081","name":"Raleigh County","state_id":"WV"},{"zip":"25879","fips":"54019","name":"Fayette County","state_id":"WV"},{"zip":"25880","fips":"54081","name":"Raleigh County","state_id":"WV"},{"zip":"25880","fips":"54019","name":"Fayette County","state_id":"WV"},{"zip":"25882","fips":"54109","name":"Wyoming County","state_id":"WV"},{"zip":"25888","fips":"54019","name":"Fayette County","state_id":"WV"}]
