[{"zip":"25901","fips":"54019","name":"Fayette County","state_id":"WV"},{"zip":"25902","fips":"54055","name":"Mercer County","state_id":"WV"},{"zip":"25902","fips":"54081","name":"Raleigh County","state_id":"WV"},{"zip":"25904","fips":"54019","name":"Fayette County","state_id":"WV"},{"zip":"25906","fips":"54081","name":"Raleigh County","state_id":"WV"},{"zip":"25907","fips":"54019","name":"Fayette County","state_id":"WV"},{"zip":"25908","fips":"54081","name":"Raleigh County","state_id":"WV"},{"zip":"25909","fips":"54081","name":"Raleigh County","state_id":"WV"},{"zip":"25911","fips":"54081","name":"Raleigh County","state_id":"WV"},{"zip":"25913","fips":"54109","name":"Wyoming County","state_id":"WV"},{"zip":"25915","fips":"54081","name":"Raleigh County","state_id":"WV"},{"zip":"25916","fips":"54109","name":"Wyoming County","state_id":"WV"},{"zip":"25917","fips":"54019","name":"Fayette County","state_id":"WV"},{"zip":"25918","fips":"54081","name":"Raleigh County","state_id":"WV"},{"zip":"25919","fips":"54081","name":"Raleigh County","state_id":"WV"},{"zip":"25920","fips":"54081","name":"Raleigh County","state_id":"WV"},{"zip":"25921","fips":"54081","name":"Raleigh County","state_id":"WV"},{"zip":"25922","fips":"54055","name":"Mercer County","state_id":"WV"},{"zip":"25927","fips":"54081","name":"Raleigh County","state_id":"WV"},{"zip":"25928","fips":"54109","name":"Wyoming County","state_id":"WV"},{"zip":"25932","fips":"54081","name":"Raleigh County","state_id":"WV"},{"zip":"25936","fips":"54019","name":"Fayette County","state_id":"WV"},{"zip":"25938","fips":"54019","name":"Fayette County","state_id":"WV"},{"zip":"25942","fips":"54019","name":"Fayette County","state_id":"WV"},{"zip":"25943","fips":"54109","name":"Wyoming County","state_id":"WV"},{"zip":"25951","fips":"54081","name":"Raleigh County","state_id":"WV"},{"zip":"25951","fips":"54089","name":"Summers County","state_id":"WV"},{"zip":"25958","fips":"54025","name":"Greenbrier County","state_id":"WV"},{"zip":"25962","fips":"54019","name":"Fayette County","state_id":"WV"},{"zip":"25962","fips":"54025","name":"Greenbrier County","state_id":"WV"},{"zip":"25966","fips":"54089","name":"Summers County","state_id":"WV"},{"zip":"25969","fips":"54081","name":"Raleigh County","state_id":"WV"},{"zip":"25969","fips":"54089","name":"Summers County","state_id":"WV"},{"zip":"25971","fips":"54055","name":"Mercer County","state_id":"WV"},{"zip":"25972","fips":"54025","name":"Greenbrier County","state_id":"WV"},{"zip":"25976","fips":"54025","name":"Greenbrier County","state_id":"WV"},{"zip":"25976","fips":"54089","name":"Summers County","state_id":"WV"},{"zip":"25976","fips":"54019","name":"Fayette County","state_id":"WV"},{"zip":"25977","fips":"54089","name":"Summers County","state_id":"WV"},{"zip":"25978","fips":"54089","name":"Summers County","state_id":"WV"},{"zip":"25979","fips":"54089","name":"Summers County","state_id":"WV"},{"zip":"25979","fips":"54055","name":"Mercer County","state_id":"WV"},{"zip":"25981","fips":"54025","name":"Greenbrier County","state_id":"WV"},{"zip":"25981","fips":"54067","name":"Nicholas County","state_id":"WV"},{"zip":"25981","fips":"54019","name":"Fayette County","state_id":"WV"},{"zip":"25984","fips":"54025","name":"Greenbrier County","state_id":"WV"},{"zip":"25985","fips":"54089","name":"Summers County","state_id":"WV"},{"zip":"25986","fips":"54089","name":"Summers County","state_id":"WV"},{"zip":"25989","fips":"54089","name":"Summers County","state_id":"WV"},{"zip":"25989","fips":"54081","name":"Raleigh County","state_id":"WV"}]
