[{"zip":"26003","fips":"54051","name":"Marshall County","state_id":"WV"},{"zip":"26003","fips":"54009","name":"Brooke County","state_id":"WV"},{"zip":"26003","fips":"54069","name":"Ohio County","state_id":"WV"},{"zip":"26030","fips":"54009","name":"Brooke County","state_id":"WV"},{"zip":"26031","fips":"54051","name":"Marshall County","state_id":"WV"},{"zip":"26031","fips":"54069","name":"Ohio County","state_id":"WV"},{"zip":"26032","fips":"54069","name":"Ohio County","state_id":"WV"},{"zip":"26032","fips":"54009","name":"Brooke County","state_id":"WV"},{"zip":"26033","fips":"54103","name":"Wetzel County","state_id":"WV"},{"zip":"26033","fips":"54051","name":"Marshall County","state_id":"WV"},{"zip":"26034","fips":"54029","name":"Hancock County","state_id":"WV"},{"zip":"26035","fips":"54009","name":"Brooke County","state_id":"WV"},{"zip":"26036","fips":"54051","name":"Marshall County","state_id":"WV"},{"zip":"26037","fips":"54009","name":"Brooke County","state_id":"WV"},{"zip":"26038","fips":"54051","name":"Marshall County","state_id":"WV"},{"zip":"26039","fips":"54103","name":"Wetzel County","state_id":"WV"},{"zip":"26039","fips":"54051","name":"Marshall County","state_id":"WV"},{"zip":"26040","fips":"54051","name":"Marshall County","state_id":"WV"},{"zip":"26041","fips":"54069","name":"Ohio County","state_id":"WV"},{"zip":"26041","fips":"54051","name":"Marshall County","state_id":"WV"},{"zip":"26047","fips":"54029","name":"Hancock County","state_id":"WV"},{"zip":"26050","fips":"54029","name":"Hancock County","state_id":"WV"},{"zip":"26055","fips":"54103","name":"Wetzel County","state_id":"WV"},{"zip":"26055","fips":"54051","name":"Marshall County","state_id":"WV"},{"zip":"26056","fips":"54029","name":"Hancock County","state_id":"WV"},{"zip":"26058","fips":"54009","name":"Brooke County","state_id":"WV"},{"zip":"26059","fips":"54069","name":"Ohio County","state_id":"WV"},{"zip":"26060","fips":"54069","name":"Ohio County","state_id":"WV"},{"zip":"26062","fips":"54009","name":"Brooke County","state_id":"WV"},{"zip":"26062","fips":"54029","name":"Hancock County","state_id":"WV"},{"zip":"26070","fips":"54069","name":"Ohio County","state_id":"WV"},{"zip":"26070","fips":"54009","name":"Brooke County","state_id":"WV"},{"zip":"26074","fips":"54069","name":"Ohio County","state_id":"WV"},{"zip":"26074","fips":"54009","name":"Brooke County","state_id":"WV"},{"zip":"26075","fips":"54009","name":"Brooke County","state_id":"WV"}]
