[{"zip":"26101","fips":"54107","name":"Wood County","state_id":"WV"},{"zip":"26102","fips":"54107","name":"Wood County","state_id":"WV"},{"zip":"26103","fips":"54107","name":"Wood County","state_id":"WV"},{"zip":"26104","fips":"54107","name":"Wood County","state_id":"WV"},{"zip":"26105","fips":"54107","name":"Wood County","state_id":"WV"},{"zip":"26106","fips":"54107","name":"Wood County","state_id":"WV"},{"zip":"26120","fips":"54107","name":"Wood County","state_id":"WV"},{"zip":"26121","fips":"54107","name":"Wood County","state_id":"WV"},{"zip":"26133","fips":"54107","name":"Wood County","state_id":"WV"},{"zip":"26133","fips":"54035","name":"Jackson County","state_id":"WV"},{"zip":"26134","fips":"54073","name":"Pleasants County","state_id":"WV"},{"zip":"26136","fips":"54013","name":"Calhoun County","state_id":"WV"},{"zip":"26137","fips":"54021","name":"Gilmer County","state_id":"WV"},{"zip":"26137","fips":"54085","name":"Ritchie County","state_id":"WV"},{"zip":"26137","fips":"54013","name":"Calhoun County","state_id":"WV"},{"zip":"26138","fips":"54105","name":"Wirt County","state_id":"WV"},{"zip":"26138","fips":"54013","name":"Calhoun County","state_id":"WV"},{"zip":"26138","fips":"54085","name":"Ritchie County","state_id":"WV"},{"zip":"26141","fips":"54105","name":"Wirt County","state_id":"WV"},{"zip":"26141","fips":"54013","name":"Calhoun County","state_id":"WV"},{"zip":"26142","fips":"54107","name":"Wood County","state_id":"WV"},{"zip":"26143","fips":"54105","name":"Wirt County","state_id":"WV"},{"zip":"26143","fips":"54107","name":"Wood County","state_id":"WV"},{"zip":"26143","fips":"54035","name":"Jackson County","state_id":"WV"},{"zip":"26143","fips":"54085","name":"Ritchie County","state_id":"WV"},{"zip":"26146","fips":"54073","name":"Pleasants County","state_id":"WV"},{"zip":"26146","fips":"54095","name":"Tyler County","state_id":"WV"},{"zip":"26147","fips":"54013","name":"Calhoun County","state_id":"WV"},{"zip":"26147","fips":"54021","name":"Gilmer County","state_id":"WV"},{"zip":"26148","fips":"54085","name":"Ritchie County","state_id":"WV"},{"zip":"26149","fips":"54095","name":"Tyler County","state_id":"WV"},{"zip":"26150","fips":"54107","name":"Wood County","state_id":"WV"},{"zip":"26151","fips":"54013","name":"Calhoun County","state_id":"WV"},{"zip":"26152","fips":"54013","name":"Calhoun County","state_id":"WV"},{"zip":"26152","fips":"54105","name":"Wirt County","state_id":"WV"},{"zip":"26155","fips":"54095","name":"Tyler County","state_id":"WV"},{"zip":"26155","fips":"54103","name":"Wetzel County","state_id":"WV"},{"zip":"26159","fips":"54095","name":"Tyler County","state_id":"WV"},{"zip":"26159","fips":"54103","name":"Wetzel County","state_id":"WV"},{"zip":"26160","fips":"54105","name":"Wirt County","state_id":"WV"},{"zip":"26160","fips":"54035","name":"Jackson County","state_id":"WV"},{"zip":"26161","fips":"54105","name":"Wirt County","state_id":"WV"},{"zip":"26161","fips":"54085","name":"Ritchie County","state_id":"WV"},{"zip":"26162","fips":"54103","name":"Wetzel County","state_id":"WV"},{"zip":"26164","fips":"54035","name":"Jackson County","state_id":"WV"},{"zip":"26164","fips":"54107","name":"Wood County","state_id":"WV"},{"zip":"26167","fips":"54103","name":"Wetzel County","state_id":"WV"},{"zip":"26167","fips":"54095","name":"Tyler County","state_id":"WV"},{"zip":"26169","fips":"54107","name":"Wood County","state_id":"WV"},{"zip":"26169","fips":"54035","name":"Jackson County","state_id":"WV"},{"zip":"26170","fips":"54085","name":"Ritchie County","state_id":"WV"},{"zip":"26170","fips":"54095","name":"Tyler County","state_id":"WV"},{"zip":"26170","fips":"54073","name":"Pleasants County","state_id":"WV"},{"zip":"26170","fips":"54107","name":"Wood County","state_id":"WV"},{"zip":"26175","fips":"54095","name":"Tyler County","state_id":"WV"},{"zip":"26178","fips":"54085","name":"Ritchie County","state_id":"WV"},{"zip":"26180","fips":"54105","name":"Wirt County","state_id":"WV"},{"zip":"26180","fips":"54085","name":"Ritchie County","state_id":"WV"},{"zip":"26180","fips":"54107","name":"Wood County","state_id":"WV"},{"zip":"26181","fips":"54107","name":"Wood County","state_id":"WV"},{"zip":"26184","fips":"54107","name":"Wood County","state_id":"WV"},{"zip":"26184","fips":"54073","name":"Pleasants County","state_id":"WV"},{"zip":"26187","fips":"54107","name":"Wood County","state_id":"WV"}]
