[{"zip":"26201","fips":"54001","name":"Barbour County","state_id":"WV"},{"zip":"26201","fips":"54041","name":"Lewis County","state_id":"WV"},{"zip":"26201","fips":"54097","name":"Upshur County","state_id":"WV"},{"zip":"26202","fips":"54067","name":"Nicholas County","state_id":"WV"},{"zip":"26203","fips":"54101","name":"Webster County","state_id":"WV"},{"zip":"26203","fips":"54007","name":"Braxton County","state_id":"WV"},{"zip":"26205","fips":"54067","name":"Nicholas County","state_id":"WV"},{"zip":"26206","fips":"54101","name":"Webster County","state_id":"WV"},{"zip":"26208","fips":"54101","name":"Webster County","state_id":"WV"},{"zip":"26208","fips":"54067","name":"Nicholas County","state_id":"WV"},{"zip":"26209","fips":"54075","name":"Pocahontas County","state_id":"WV"},{"zip":"26210","fips":"54097","name":"Upshur County","state_id":"WV"},{"zip":"26215","fips":"54097","name":"Upshur County","state_id":"WV"},{"zip":"26217","fips":"54101","name":"Webster County","state_id":"WV"},{"zip":"26217","fips":"54007","name":"Braxton County","state_id":"WV"},{"zip":"26218","fips":"54097","name":"Upshur County","state_id":"WV"},{"zip":"26218","fips":"54041","name":"Lewis County","state_id":"WV"},{"zip":"26222","fips":"54101","name":"Webster County","state_id":"WV"},{"zip":"26222","fips":"54007","name":"Braxton County","state_id":"WV"},{"zip":"26224","fips":"54097","name":"Upshur County","state_id":"WV"},{"zip":"26224","fips":"54083","name":"Randolph County","state_id":"WV"},{"zip":"26228","fips":"54097","name":"Upshur County","state_id":"WV"},{"zip":"26229","fips":"54097","name":"Upshur County","state_id":"WV"},{"zip":"26230","fips":"54083","name":"Randolph County","state_id":"WV"},{"zip":"26234","fips":"54097","name":"Upshur County","state_id":"WV"},{"zip":"26236","fips":"54097","name":"Upshur County","state_id":"WV"},{"zip":"26237","fips":"54097","name":"Upshur County","state_id":"WV"},{"zip":"26238","fips":"54001","name":"Barbour County","state_id":"WV"},{"zip":"26238","fips":"54097","name":"Upshur County","state_id":"WV"},{"zip":"26241","fips":"54083","name":"Randolph County","state_id":"WV"},{"zip":"26241","fips":"54001","name":"Barbour County","state_id":"WV"},{"zip":"26250","fips":"54001","name":"Barbour County","state_id":"WV"},{"zip":"26250","fips":"54083","name":"Randolph County","state_id":"WV"},{"zip":"26253","fips":"54083","name":"Randolph County","state_id":"WV"},{"zip":"26254","fips":"54083","name":"Randolph County","state_id":"WV"},{"zip":"26254","fips":"54093","name":"Tucker County","state_id":"WV"},{"zip":"26257","fips":"54083","name":"Randolph County","state_id":"WV"},{"zip":"26259","fips":"54083","name":"Randolph County","state_id":"WV"},{"zip":"26260","fips":"54093","name":"Tucker County","state_id":"WV"},{"zip":"26261","fips":"54025","name":"Greenbrier County","state_id":"WV"},{"zip":"26261","fips":"54067","name":"Nicholas County","state_id":"WV"},{"zip":"26263","fips":"54083","name":"Randolph County","state_id":"WV"},{"zip":"26263","fips":"54093","name":"Tucker County","state_id":"WV"},{"zip":"26264","fips":"54075","name":"Pocahontas County","state_id":"WV"},{"zip":"26266","fips":"54101","name":"Webster County","state_id":"WV"},{"zip":"26267","fips":"54097","name":"Upshur County","state_id":"WV"},{"zip":"26267","fips":"54001","name":"Barbour County","state_id":"WV"},{"zip":"26267","fips":"54083","name":"Randolph County","state_id":"WV"},{"zip":"26268","fips":"54083","name":"Randolph County","state_id":"WV"},{"zip":"26269","fips":"54093","name":"Tucker County","state_id":"WV"},{"zip":"26270","fips":"54093","name":"Tucker County","state_id":"WV"},{"zip":"26270","fips":"54083","name":"Randolph County","state_id":"WV"},{"zip":"26271","fips":"54093","name":"Tucker County","state_id":"WV"},{"zip":"26273","fips":"54075","name":"Pocahontas County","state_id":"WV"},{"zip":"26273","fips":"54083","name":"Randolph County","state_id":"WV"},{"zip":"26275","fips":"54001","name":"Barbour County","state_id":"WV"},{"zip":"26276","fips":"54083","name":"Randolph County","state_id":"WV"},{"zip":"26276","fips":"54093","name":"Tucker County","state_id":"WV"},{"zip":"26278","fips":"54083","name":"Randolph County","state_id":"WV"},{"zip":"26280","fips":"54083","name":"Randolph County","state_id":"WV"},{"zip":"26282","fips":"54075","name":"Pocahontas County","state_id":"WV"},{"zip":"26282","fips":"54083","name":"Randolph County","state_id":"WV"},{"zip":"26283","fips":"54093","name":"Tucker County","state_id":"WV"},{"zip":"26283","fips":"54083","name":"Randolph County","state_id":"WV"},{"zip":"26283","fips":"54001","name":"Barbour County","state_id":"WV"},{"zip":"26285","fips":"54083","name":"Randolph County","state_id":"WV"},{"zip":"26287","fips":"54077","name":"Preston County","state_id":"WV"},{"zip":"26287","fips":"54093","name":"Tucker County","state_id":"WV"},{"zip":"26288","fips":"54101","name":"Webster County","state_id":"WV"},{"zip":"26289","fips":"54093","name":"Tucker County","state_id":"WV"},{"zip":"26291","fips":"54075","name":"Pocahontas County","state_id":"WV"},{"zip":"26292","fips":"54093","name":"Tucker County","state_id":"WV"},{"zip":"26293","fips":"54083","name":"Randolph County","state_id":"WV"},{"zip":"26294","fips":"54083","name":"Randolph County","state_id":"WV"},{"zip":"26294","fips":"54075","name":"Pocahontas County","state_id":"WV"},{"zip":"26296","fips":"54083","name":"Randolph County","state_id":"WV"},{"zip":"26298","fips":"54101","name":"Webster County","state_id":"WV"}]
