[{"zip":"26301","fips":"54033","name":"Harrison County","state_id":"WV"},{"zip":"26306","fips":"54033","name":"Harrison County","state_id":"WV"},{"zip":"26320","fips":"54095","name":"Tyler County","state_id":"WV"},{"zip":"26321","fips":"54017","name":"Doddridge County","state_id":"WV"},{"zip":"26321","fips":"54041","name":"Lewis County","state_id":"WV"},{"zip":"26323","fips":"54033","name":"Harrison County","state_id":"WV"},{"zip":"26325","fips":"54085","name":"Ritchie County","state_id":"WV"},{"zip":"26327","fips":"54085","name":"Ritchie County","state_id":"WV"},{"zip":"26330","fips":"54001","name":"Barbour County","state_id":"WV"},{"zip":"26330","fips":"54049","name":"Marion County","state_id":"WV"},{"zip":"26330","fips":"54091","name":"Taylor County","state_id":"WV"},{"zip":"26330","fips":"54033","name":"Harrison County","state_id":"WV"},{"zip":"26335","fips":"54021","name":"Gilmer County","state_id":"WV"},{"zip":"26335","fips":"54007","name":"Braxton County","state_id":"WV"},{"zip":"26337","fips":"54105","name":"Wirt County","state_id":"WV"},{"zip":"26337","fips":"54085","name":"Ritchie County","state_id":"WV"},{"zip":"26338","fips":"54041","name":"Lewis County","state_id":"WV"},{"zip":"26339","fips":"54017","name":"Doddridge County","state_id":"WV"},{"zip":"26342","fips":"54021","name":"Gilmer County","state_id":"WV"},{"zip":"26343","fips":"54041","name":"Lewis County","state_id":"WV"},{"zip":"26343","fips":"54097","name":"Upshur County","state_id":"WV"},{"zip":"26346","fips":"54073","name":"Pleasants County","state_id":"WV"},{"zip":"26346","fips":"54085","name":"Ritchie County","state_id":"WV"},{"zip":"26347","fips":"54091","name":"Taylor County","state_id":"WV"},{"zip":"26347","fips":"54001","name":"Barbour County","state_id":"WV"},{"zip":"26347","fips":"54033","name":"Harrison County","state_id":"WV"},{"zip":"26348","fips":"54103","name":"Wetzel County","state_id":"WV"},{"zip":"26349","fips":"54001","name":"Barbour County","state_id":"WV"},{"zip":"26351","fips":"54021","name":"Gilmer County","state_id":"WV"},{"zip":"26354","fips":"54001","name":"Barbour County","state_id":"WV"},{"zip":"26354","fips":"54061","name":"Monongalia County","state_id":"WV"},{"zip":"26354","fips":"54049","name":"Marion County","state_id":"WV"},{"zip":"26354","fips":"54091","name":"Taylor County","state_id":"WV"},{"zip":"26361","fips":"54033","name":"Harrison County","state_id":"WV"},{"zip":"26362","fips":"54085","name":"Ritchie County","state_id":"WV"},{"zip":"26366","fips":"54033","name":"Harrison County","state_id":"WV"},{"zip":"26369","fips":"54033","name":"Harrison County","state_id":"WV"},{"zip":"26372","fips":"54097","name":"Upshur County","state_id":"WV"},{"zip":"26372","fips":"54041","name":"Lewis County","state_id":"WV"},{"zip":"26374","fips":"54061","name":"Monongalia County","state_id":"WV"},{"zip":"26374","fips":"54091","name":"Taylor County","state_id":"WV"},{"zip":"26374","fips":"54077","name":"Preston County","state_id":"WV"},{"zip":"26376","fips":"54007","name":"Braxton County","state_id":"WV"},{"zip":"26376","fips":"54041","name":"Lewis County","state_id":"WV"},{"zip":"26377","fips":"54103","name":"Wetzel County","state_id":"WV"},{"zip":"26377","fips":"54095","name":"Tyler County","state_id":"WV"},{"zip":"26378","fips":"54033","name":"Harrison County","state_id":"WV"},{"zip":"26378","fips":"54041","name":"Lewis County","state_id":"WV"},{"zip":"26384","fips":"54021","name":"Gilmer County","state_id":"WV"},{"zip":"26384","fips":"54041","name":"Lewis County","state_id":"WV"},{"zip":"26385","fips":"54001","name":"Barbour County","state_id":"WV"},{"zip":"26385","fips":"54033","name":"Harrison County","state_id":"WV"},{"zip":"26385","fips":"54097","name":"Upshur County","state_id":"WV"},{"zip":"26386","fips":"54033","name":"Harrison County","state_id":"WV"}]
