[{"zip":"26404","fips":"54033","name":"Harrison County","state_id":"WV"},{"zip":"26405","fips":"54077","name":"Preston County","state_id":"WV"},{"zip":"26405","fips":"54001","name":"Barbour County","state_id":"WV"},{"zip":"26408","fips":"54033","name":"Harrison County","state_id":"WV"},{"zip":"26410","fips":"54077","name":"Preston County","state_id":"WV"},{"zip":"26411","fips":"54021","name":"Gilmer County","state_id":"WV"},{"zip":"26411","fips":"54017","name":"Doddridge County","state_id":"WV"},{"zip":"26411","fips":"54041","name":"Lewis County","state_id":"WV"},{"zip":"26412","fips":"54021","name":"Gilmer County","state_id":"WV"},{"zip":"26412","fips":"54007","name":"Braxton County","state_id":"WV"},{"zip":"26412","fips":"54041","name":"Lewis County","state_id":"WV"},{"zip":"26415","fips":"54017","name":"Doddridge County","state_id":"WV"},{"zip":"26415","fips":"54085","name":"Ritchie County","state_id":"WV"},{"zip":"26415","fips":"54095","name":"Tyler County","state_id":"WV"},{"zip":"26416","fips":"54091","name":"Taylor County","state_id":"WV"},{"zip":"26416","fips":"54001","name":"Barbour County","state_id":"WV"},{"zip":"26416","fips":"54033","name":"Harrison County","state_id":"WV"},{"zip":"26419","fips":"54103","name":"Wetzel County","state_id":"WV"},{"zip":"26421","fips":"54085","name":"Ritchie County","state_id":"WV"},{"zip":"26422","fips":"54033","name":"Harrison County","state_id":"WV"},{"zip":"26424","fips":"54091","name":"Taylor County","state_id":"WV"},{"zip":"26425","fips":"54077","name":"Preston County","state_id":"WV"},{"zip":"26426","fips":"54033","name":"Harrison County","state_id":"WV"},{"zip":"26426","fips":"54017","name":"Doddridge County","state_id":"WV"},{"zip":"26430","fips":"54021","name":"Gilmer County","state_id":"WV"},{"zip":"26431","fips":"54049","name":"Marion County","state_id":"WV"},{"zip":"26431","fips":"54091","name":"Taylor County","state_id":"WV"},{"zip":"26431","fips":"54033","name":"Harrison County","state_id":"WV"},{"zip":"26434","fips":"54095","name":"Tyler County","state_id":"WV"},{"zip":"26435","fips":"54091","name":"Taylor County","state_id":"WV"},{"zip":"26436","fips":"54017","name":"Doddridge County","state_id":"WV"},{"zip":"26437","fips":"54103","name":"Wetzel County","state_id":"WV"},{"zip":"26438","fips":"54033","name":"Harrison County","state_id":"WV"},{"zip":"26440","fips":"54001","name":"Barbour County","state_id":"WV"},{"zip":"26440","fips":"54091","name":"Taylor County","state_id":"WV"},{"zip":"26440","fips":"54077","name":"Preston County","state_id":"WV"},{"zip":"26443","fips":"54017","name":"Doddridge County","state_id":"WV"},{"zip":"26443","fips":"54021","name":"Gilmer County","state_id":"WV"},{"zip":"26444","fips":"54077","name":"Preston County","state_id":"WV"},{"zip":"26447","fips":"54041","name":"Lewis County","state_id":"WV"},{"zip":"26447","fips":"54007","name":"Braxton County","state_id":"WV"},{"zip":"26448","fips":"54049","name":"Marion County","state_id":"WV"},{"zip":"26448","fips":"54033","name":"Harrison County","state_id":"WV"},{"zip":"26451","fips":"54033","name":"Harrison County","state_id":"WV"},{"zip":"26452","fips":"54041","name":"Lewis County","state_id":"WV"},{"zip":"26456","fips":"54085","name":"Ritchie County","state_id":"WV"},{"zip":"26456","fips":"54095","name":"Tyler County","state_id":"WV"},{"zip":"26456","fips":"54017","name":"Doddridge County","state_id":"WV"},{"zip":"26463","fips":"54033","name":"Harrison County","state_id":"WV"}]
