[{"zip":"26501","fips":"54061","name":"Monongalia County","state_id":"WV"},{"zip":"26504","fips":"54061","name":"Monongalia County","state_id":"WV"},{"zip":"26505","fips":"54061","name":"Monongalia County","state_id":"WV"},{"zip":"26506","fips":"54061","name":"Monongalia County","state_id":"WV"},{"zip":"26507","fips":"54061","name":"Monongalia County","state_id":"WV"},{"zip":"26508","fips":"54061","name":"Monongalia County","state_id":"WV"},{"zip":"26508","fips":"54077","name":"Preston County","state_id":"WV"},{"zip":"26508","fips":"54049","name":"Marion County","state_id":"WV"},{"zip":"26519","fips":"54077","name":"Preston County","state_id":"WV"},{"zip":"26520","fips":"54077","name":"Preston County","state_id":"WV"},{"zip":"26521","fips":"54061","name":"Monongalia County","state_id":"WV"},{"zip":"26524","fips":"54077","name":"Preston County","state_id":"WV"},{"zip":"26525","fips":"54077","name":"Preston County","state_id":"WV"},{"zip":"26525","fips":"54061","name":"Monongalia County","state_id":"WV"},{"zip":"26527","fips":"54061","name":"Monongalia County","state_id":"WV"},{"zip":"26531","fips":"54061","name":"Monongalia County","state_id":"WV"},{"zip":"26534","fips":"54061","name":"Monongalia County","state_id":"WV"},{"zip":"26537","fips":"54077","name":"Preston County","state_id":"WV"},{"zip":"26541","fips":"54061","name":"Monongalia County","state_id":"WV"},{"zip":"26542","fips":"54077","name":"Preston County","state_id":"WV"},{"zip":"26542","fips":"54061","name":"Monongalia County","state_id":"WV"},{"zip":"26543","fips":"54061","name":"Monongalia County","state_id":"WV"},{"zip":"26544","fips":"54061","name":"Monongalia County","state_id":"WV"},{"zip":"26546","fips":"54061","name":"Monongalia County","state_id":"WV"},{"zip":"26547","fips":"54077","name":"Preston County","state_id":"WV"},{"zip":"26554","fips":"54091","name":"Taylor County","state_id":"WV"},{"zip":"26554","fips":"54049","name":"Marion County","state_id":"WV"},{"zip":"26554","fips":"54061","name":"Monongalia County","state_id":"WV"},{"zip":"26554","fips":"54033","name":"Harrison County","state_id":"WV"},{"zip":"26555","fips":"54049","name":"Marion County","state_id":"WV"},{"zip":"26559","fips":"54049","name":"Marion County","state_id":"WV"},{"zip":"26560","fips":"54049","name":"Marion County","state_id":"WV"},{"zip":"26561","fips":"54103","name":"Wetzel County","state_id":"WV"},{"zip":"26562","fips":"54103","name":"Wetzel County","state_id":"WV"},{"zip":"26562","fips":"54061","name":"Monongalia County","state_id":"WV"},{"zip":"26562","fips":"54049","name":"Marion County","state_id":"WV"},{"zip":"26563","fips":"54049","name":"Marion County","state_id":"WV"},{"zip":"26566","fips":"54049","name":"Marion County","state_id":"WV"},{"zip":"26568","fips":"54033","name":"Harrison County","state_id":"WV"},{"zip":"26570","fips":"54061","name":"Monongalia County","state_id":"WV"},{"zip":"26570","fips":"54049","name":"Marion County","state_id":"WV"},{"zip":"26571","fips":"54049","name":"Marion County","state_id":"WV"},{"zip":"26572","fips":"54049","name":"Marion County","state_id":"WV"},{"zip":"26574","fips":"54049","name":"Marion County","state_id":"WV"},{"zip":"26575","fips":"54103","name":"Wetzel County","state_id":"WV"},{"zip":"26576","fips":"54049","name":"Marion County","state_id":"WV"},{"zip":"26578","fips":"54049","name":"Marion County","state_id":"WV"},{"zip":"26581","fips":"54103","name":"Wetzel County","state_id":"WV"},{"zip":"26582","fips":"54103","name":"Wetzel County","state_id":"WV"},{"zip":"26582","fips":"54061","name":"Monongalia County","state_id":"WV"},{"zip":"26582","fips":"54049","name":"Marion County","state_id":"WV"},{"zip":"26582","fips":"54033","name":"Harrison County","state_id":"WV"},{"zip":"26585","fips":"54103","name":"Wetzel County","state_id":"WV"},{"zip":"26585","fips":"54061","name":"Monongalia County","state_id":"WV"},{"zip":"26585","fips":"54049","name":"Marion County","state_id":"WV"},{"zip":"26586","fips":"54049","name":"Marion County","state_id":"WV"},{"zip":"26587","fips":"54049","name":"Marion County","state_id":"WV"},{"zip":"26588","fips":"54061","name":"Monongalia County","state_id":"WV"},{"zip":"26588","fips":"54049","name":"Marion County","state_id":"WV"},{"zip":"26590","fips":"54061","name":"Monongalia County","state_id":"WV"},{"zip":"26591","fips":"54049","name":"Marion County","state_id":"WV"}]
