[{"zip":"26601","fips":"54067","name":"Nicholas County","state_id":"WV"},{"zip":"26601","fips":"54007","name":"Braxton County","state_id":"WV"},{"zip":"26610","fips":"54067","name":"Nicholas County","state_id":"WV"},{"zip":"26610","fips":"54101","name":"Webster County","state_id":"WV"},{"zip":"26611","fips":"54007","name":"Braxton County","state_id":"WV"},{"zip":"26611","fips":"54021","name":"Gilmer County","state_id":"WV"},{"zip":"26615","fips":"54007","name":"Braxton County","state_id":"WV"},{"zip":"26617","fips":"54015","name":"Clay County","state_id":"WV"},{"zip":"26619","fips":"54007","name":"Braxton County","state_id":"WV"},{"zip":"26621","fips":"54007","name":"Braxton County","state_id":"WV"},{"zip":"26623","fips":"54007","name":"Braxton County","state_id":"WV"},{"zip":"26624","fips":"54007","name":"Braxton County","state_id":"WV"},{"zip":"26624","fips":"54021","name":"Gilmer County","state_id":"WV"},{"zip":"26627","fips":"54007","name":"Braxton County","state_id":"WV"},{"zip":"26629","fips":"54067","name":"Nicholas County","state_id":"WV"},{"zip":"26629","fips":"54007","name":"Braxton County","state_id":"WV"},{"zip":"26631","fips":"54007","name":"Braxton County","state_id":"WV"},{"zip":"26636","fips":"54021","name":"Gilmer County","state_id":"WV"},{"zip":"26636","fips":"54013","name":"Calhoun County","state_id":"WV"},{"zip":"26636","fips":"54007","name":"Braxton County","state_id":"WV"},{"zip":"26638","fips":"54021","name":"Gilmer County","state_id":"WV"},{"zip":"26638","fips":"54013","name":"Calhoun County","state_id":"WV"},{"zip":"26651","fips":"54067","name":"Nicholas County","state_id":"WV"},{"zip":"26656","fips":"54019","name":"Fayette County","state_id":"WV"},{"zip":"26656","fips":"54067","name":"Nicholas County","state_id":"WV"},{"zip":"26660","fips":"54067","name":"Nicholas County","state_id":"WV"},{"zip":"26662","fips":"54067","name":"Nicholas County","state_id":"WV"},{"zip":"26667","fips":"54067","name":"Nicholas County","state_id":"WV"},{"zip":"26671","fips":"54067","name":"Nicholas County","state_id":"WV"},{"zip":"26675","fips":"54067","name":"Nicholas County","state_id":"WV"},{"zip":"26676","fips":"54067","name":"Nicholas County","state_id":"WV"},{"zip":"26678","fips":"54067","name":"Nicholas County","state_id":"WV"},{"zip":"26679","fips":"54067","name":"Nicholas County","state_id":"WV"},{"zip":"26680","fips":"54067","name":"Nicholas County","state_id":"WV"},{"zip":"26680","fips":"54019","name":"Fayette County","state_id":"WV"},{"zip":"26680","fips":"54025","name":"Greenbrier County","state_id":"WV"},{"zip":"26681","fips":"54067","name":"Nicholas County","state_id":"WV"},{"zip":"26684","fips":"54067","name":"Nicholas County","state_id":"WV"},{"zip":"26690","fips":"54019","name":"Fayette County","state_id":"WV"},{"zip":"26690","fips":"54067","name":"Nicholas County","state_id":"WV"},{"zip":"26691","fips":"54067","name":"Nicholas County","state_id":"WV"}]
