[{"zip":"26704","fips":"54027","name":"Hampshire County","state_id":"WV"},{"zip":"26705","fips":"54077","name":"Preston County","state_id":"WV"},{"zip":"26707","fips":"54023","name":"Grant County","state_id":"WV"},{"zip":"26710","fips":"54027","name":"Hampshire County","state_id":"WV"},{"zip":"26710","fips":"54023","name":"Grant County","state_id":"WV"},{"zip":"26710","fips":"54057","name":"Mineral County","state_id":"WV"},{"zip":"26711","fips":"54027","name":"Hampshire County","state_id":"WV"},{"zip":"26714","fips":"54027","name":"Hampshire County","state_id":"WV"},{"zip":"26716","fips":"54093","name":"Tucker County","state_id":"WV"},{"zip":"26716","fips":"54077","name":"Preston County","state_id":"WV"},{"zip":"26717","fips":"54057","name":"Mineral County","state_id":"WV"},{"zip":"26717","fips":"54023","name":"Grant County","state_id":"WV"},{"zip":"26719","fips":"54057","name":"Mineral County","state_id":"WV"},{"zip":"26720","fips":"54023","name":"Grant County","state_id":"WV"},{"zip":"26722","fips":"54027","name":"Hampshire County","state_id":"WV"},{"zip":"26726","fips":"54023","name":"Grant County","state_id":"WV"},{"zip":"26726","fips":"54057","name":"Mineral County","state_id":"WV"},{"zip":"26731","fips":"54023","name":"Grant County","state_id":"WV"},{"zip":"26731","fips":"54057","name":"Mineral County","state_id":"WV"},{"zip":"26739","fips":"54023","name":"Grant County","state_id":"WV"},{"zip":"26743","fips":"54057","name":"Mineral County","state_id":"WV"},{"zip":"26743","fips":"54023","name":"Grant County","state_id":"WV"},{"zip":"26750","fips":"54057","name":"Mineral County","state_id":"WV"},{"zip":"26753","fips":"54057","name":"Mineral County","state_id":"WV"},{"zip":"26755","fips":"54031","name":"Hardy County","state_id":"WV"},{"zip":"26755","fips":"54027","name":"Hampshire County","state_id":"WV"},{"zip":"26757","fips":"54027","name":"Hampshire County","state_id":"WV"},{"zip":"26757","fips":"54057","name":"Mineral County","state_id":"WV"},{"zip":"26761","fips":"54027","name":"Hampshire County","state_id":"WV"},{"zip":"26763","fips":"54057","name":"Mineral County","state_id":"WV"},{"zip":"26763","fips":"54027","name":"Hampshire County","state_id":"WV"},{"zip":"26764","fips":"54077","name":"Preston County","state_id":"WV"},{"zip":"26767","fips":"54057","name":"Mineral County","state_id":"WV"}]
