[{"zip":"26801","fips":"54031","name":"Hardy County","state_id":"WV"},{"zip":"26802","fips":"54071","name":"Pendleton County","state_id":"WV"},{"zip":"26804","fips":"54071","name":"Pendleton County","state_id":"WV"},{"zip":"26807","fips":"54071","name":"Pendleton County","state_id":"WV"},{"zip":"26808","fips":"54027","name":"Hampshire County","state_id":"WV"},{"zip":"26810","fips":"54031","name":"Hardy County","state_id":"WV"},{"zip":"26812","fips":"54031","name":"Hardy County","state_id":"WV"},{"zip":"26814","fips":"54071","name":"Pendleton County","state_id":"WV"},{"zip":"26815","fips":"54031","name":"Hardy County","state_id":"WV"},{"zip":"26815","fips":"54071","name":"Pendleton County","state_id":"WV"},{"zip":"26817","fips":"54027","name":"Hampshire County","state_id":"WV"},{"zip":"26818","fips":"54031","name":"Hardy County","state_id":"WV"},{"zip":"26818","fips":"54027","name":"Hampshire County","state_id":"WV"},{"zip":"26823","fips":"54027","name":"Hampshire County","state_id":"WV"},{"zip":"26833","fips":"54023","name":"Grant County","state_id":"WV"},{"zip":"26836","fips":"54023","name":"Grant County","state_id":"WV"},{"zip":"26836","fips":"54031","name":"Hardy County","state_id":"WV"},{"zip":"26838","fips":"54031","name":"Hardy County","state_id":"WV"},{"zip":"26845","fips":"54027","name":"Hampshire County","state_id":"WV"},{"zip":"26845","fips":"54031","name":"Hardy County","state_id":"WV"},{"zip":"26847","fips":"54071","name":"Pendleton County","state_id":"WV"},{"zip":"26847","fips":"54023","name":"Grant County","state_id":"WV"},{"zip":"26847","fips":"54031","name":"Hardy County","state_id":"WV"},{"zip":"26851","fips":"54027","name":"Hampshire County","state_id":"WV"},{"zip":"26851","fips":"54031","name":"Hardy County","state_id":"WV"},{"zip":"26852","fips":"54031","name":"Hardy County","state_id":"WV"},{"zip":"26852","fips":"54057","name":"Mineral County","state_id":"WV"},{"zip":"26852","fips":"54027","name":"Hampshire County","state_id":"WV"},{"zip":"26855","fips":"54023","name":"Grant County","state_id":"WV"},{"zip":"26865","fips":"54027","name":"Hampshire County","state_id":"WV"},{"zip":"26865","fips":"54031","name":"Hardy County","state_id":"WV"},{"zip":"26866","fips":"54023","name":"Grant County","state_id":"WV"},{"zip":"26866","fips":"54071","name":"Pendleton County","state_id":"WV"},{"zip":"26884","fips":"54071","name":"Pendleton County","state_id":"WV"},{"zip":"26886","fips":"54071","name":"Pendleton County","state_id":"WV"}]
