[{"zip":"27006","fips":"37059","name":"Davie County","state_id":"NC"},{"zip":"27007","fips":"37171","name":"Surry County","state_id":"NC"},{"zip":"27009","fips":"37169","name":"Stokes County","state_id":"NC"},{"zip":"27009","fips":"37067","name":"Forsyth County","state_id":"NC"},{"zip":"27010","fips":"37067","name":"Forsyth County","state_id":"NC"},{"zip":"27011","fips":"37197","name":"Yadkin County","state_id":"NC"},{"zip":"27012","fips":"37067","name":"Forsyth County","state_id":"NC"},{"zip":"27012","fips":"37057","name":"Davidson County","state_id":"NC"},{"zip":"27013","fips":"37159","name":"Rowan County","state_id":"NC"},{"zip":"27013","fips":"37097","name":"Iredell County","state_id":"NC"},{"zip":"27014","fips":"37059","name":"Davie County","state_id":"NC"},{"zip":"27016","fips":"37169","name":"Stokes County","state_id":"NC"},{"zip":"27017","fips":"37171","name":"Surry County","state_id":"NC"},{"zip":"27018","fips":"37197","name":"Yadkin County","state_id":"NC"},{"zip":"27019","fips":"37169","name":"Stokes County","state_id":"NC"},{"zip":"27019","fips":"37067","name":"Forsyth County","state_id":"NC"},{"zip":"27020","fips":"37193","name":"Wilkes County","state_id":"NC"},{"zip":"27020","fips":"37097","name":"Iredell County","state_id":"NC"},{"zip":"27020","fips":"37197","name":"Yadkin County","state_id":"NC"},{"zip":"27021","fips":"37067","name":"Forsyth County","state_id":"NC"},{"zip":"27021","fips":"37169","name":"Stokes County","state_id":"NC"},{"zip":"27022","fips":"37169","name":"Stokes County","state_id":"NC"},{"zip":"27023","fips":"37067","name":"Forsyth County","state_id":"NC"},{"zip":"27024","fips":"37171","name":"Surry County","state_id":"NC"},{"zip":"27025","fips":"37157","name":"Rockingham County","state_id":"NC"},{"zip":"27025","fips":"37169","name":"Stokes County","state_id":"NC"},{"zip":"27027","fips":"37157","name":"Rockingham County","state_id":"NC"},{"zip":"27028","fips":"37059","name":"Davie County","state_id":"NC"},{"zip":"27028","fips":"37097","name":"Iredell County","state_id":"NC"},{"zip":"27030","fips":"37171","name":"Surry County","state_id":"NC"},{"zip":"27030","fips":"37169","name":"Stokes County","state_id":"NC"},{"zip":"27040","fips":"37067","name":"Forsyth County","state_id":"NC"},{"zip":"27041","fips":"37169","name":"Stokes County","state_id":"NC"},{"zip":"27041","fips":"37171","name":"Surry County","state_id":"NC"},{"zip":"27042","fips":"37169","name":"Stokes County","state_id":"NC"},{"zip":"27043","fips":"37169","name":"Stokes County","state_id":"NC"},{"zip":"27043","fips":"37171","name":"Surry County","state_id":"NC"},{"zip":"27045","fips":"37169","name":"Stokes County","state_id":"NC"},{"zip":"27045","fips":"37067","name":"Forsyth County","state_id":"NC"},{"zip":"27046","fips":"37169","name":"Stokes County","state_id":"NC"},{"zip":"27047","fips":"37171","name":"Surry County","state_id":"NC"},{"zip":"27048","fips":"37157","name":"Rockingham County","state_id":"NC"},{"zip":"27049","fips":"37171","name":"Surry County","state_id":"NC"},{"zip":"27050","fips":"37067","name":"Forsyth County","state_id":"NC"},{"zip":"27050","fips":"37169","name":"Stokes County","state_id":"NC"},{"zip":"27051","fips":"37067","name":"Forsyth County","state_id":"NC"},{"zip":"27052","fips":"37169","name":"Stokes County","state_id":"NC"},{"zip":"27052","fips":"37067","name":"Forsyth County","state_id":"NC"},{"zip":"27053","fips":"37169","name":"Stokes County","state_id":"NC"},{"zip":"27053","fips":"37171","name":"Surry County","state_id":"NC"},{"zip":"27054","fips":"37159","name":"Rowan County","state_id":"NC"},{"zip":"27055","fips":"37097","name":"Iredell County","state_id":"NC"},{"zip":"27055","fips":"37059","name":"Davie County","state_id":"NC"},{"zip":"27055","fips":"37197","name":"Yadkin County","state_id":"NC"},{"zip":"27094","fips":"37067","name":"Forsyth County","state_id":"NC"},{"zip":"27099","fips":"37067","name":"Forsyth County","state_id":"NC"}]
