[{"zip":"27101","fips":"37067","name":"Forsyth County","state_id":"NC"},{"zip":"27102","fips":"37067","name":"Forsyth County","state_id":"NC"},{"zip":"27103","fips":"37067","name":"Forsyth County","state_id":"NC"},{"zip":"27104","fips":"37067","name":"Forsyth County","state_id":"NC"},{"zip":"27105","fips":"37067","name":"Forsyth County","state_id":"NC"},{"zip":"27106","fips":"37067","name":"Forsyth County","state_id":"NC"},{"zip":"27107","fips":"37067","name":"Forsyth County","state_id":"NC"},{"zip":"27107","fips":"37057","name":"Davidson County","state_id":"NC"},{"zip":"27108","fips":"37067","name":"Forsyth County","state_id":"NC"},{"zip":"27109","fips":"37067","name":"Forsyth County","state_id":"NC"},{"zip":"27110","fips":"37067","name":"Forsyth County","state_id":"NC"},{"zip":"27111","fips":"37067","name":"Forsyth County","state_id":"NC"},{"zip":"27113","fips":"37067","name":"Forsyth County","state_id":"NC"},{"zip":"27114","fips":"37067","name":"Forsyth County","state_id":"NC"},{"zip":"27115","fips":"37067","name":"Forsyth County","state_id":"NC"},{"zip":"27116","fips":"37067","name":"Forsyth County","state_id":"NC"},{"zip":"27117","fips":"37067","name":"Forsyth County","state_id":"NC"},{"zip":"27120","fips":"37067","name":"Forsyth County","state_id":"NC"},{"zip":"27127","fips":"37057","name":"Davidson County","state_id":"NC"},{"zip":"27127","fips":"37067","name":"Forsyth County","state_id":"NC"},{"zip":"27130","fips":"37067","name":"Forsyth County","state_id":"NC"},{"zip":"27150","fips":"37067","name":"Forsyth County","state_id":"NC"},{"zip":"27152","fips":"37067","name":"Forsyth County","state_id":"NC"},{"zip":"27155","fips":"37067","name":"Forsyth County","state_id":"NC"},{"zip":"27157","fips":"37067","name":"Forsyth County","state_id":"NC"},{"zip":"27199","fips":"37067","name":"Forsyth County","state_id":"NC"}]
