[{"zip":"27201","fips":"37001","name":"Alamance County","state_id":"NC"},{"zip":"27202","fips":"37001","name":"Alamance County","state_id":"NC"},{"zip":"27203","fips":"37151","name":"Randolph County","state_id":"NC"},{"zip":"27205","fips":"37151","name":"Randolph County","state_id":"NC"},{"zip":"27207","fips":"37037","name":"Chatham County","state_id":"NC"},{"zip":"27208","fips":"37151","name":"Randolph County","state_id":"NC"},{"zip":"27208","fips":"37037","name":"Chatham County","state_id":"NC"},{"zip":"27208","fips":"37125","name":"Moore County","state_id":"NC"},{"zip":"27209","fips":"37125","name":"Moore County","state_id":"NC"},{"zip":"27209","fips":"37123","name":"Montgomery County","state_id":"NC"},{"zip":"27212","fips":"37033","name":"Caswell County","state_id":"NC"},{"zip":"27213","fips":"37037","name":"Chatham County","state_id":"NC"},{"zip":"27214","fips":"37081","name":"Guilford County","state_id":"NC"},{"zip":"27214","fips":"37157","name":"Rockingham County","state_id":"NC"},{"zip":"27215","fips":"37081","name":"Guilford County","state_id":"NC"},{"zip":"27215","fips":"37001","name":"Alamance County","state_id":"NC"},{"zip":"27216","fips":"37001","name":"Alamance County","state_id":"NC"},{"zip":"27217","fips":"37033","name":"Caswell County","state_id":"NC"},{"zip":"27217","fips":"37001","name":"Alamance County","state_id":"NC"},{"zip":"27229","fips":"37123","name":"Montgomery County","state_id":"NC"},{"zip":"27229","fips":"37153","name":"Richmond County","state_id":"NC"},{"zip":"27230","fips":"37151","name":"Randolph County","state_id":"NC"},{"zip":"27231","fips":"37145","name":"Person County","state_id":"NC"},{"zip":"27231","fips":"37135","name":"Orange County","state_id":"NC"},{"zip":"27233","fips":"37081","name":"Guilford County","state_id":"NC"},{"zip":"27233","fips":"37151","name":"Randolph County","state_id":"NC"},{"zip":"27235","fips":"37067","name":"Forsyth County","state_id":"NC"},{"zip":"27235","fips":"37081","name":"Guilford County","state_id":"NC"},{"zip":"27239","fips":"37057","name":"Davidson County","state_id":"NC"},{"zip":"27239","fips":"37123","name":"Montgomery County","state_id":"NC"},{"zip":"27239","fips":"37151","name":"Randolph County","state_id":"NC"},{"zip":"27242","fips":"37123","name":"Montgomery County","state_id":"NC"},{"zip":"27242","fips":"37125","name":"Moore County","state_id":"NC"},{"zip":"27243","fips":"37135","name":"Orange County","state_id":"NC"},{"zip":"27244","fips":"37001","name":"Alamance County","state_id":"NC"},{"zip":"27244","fips":"37081","name":"Guilford County","state_id":"NC"},{"zip":"27244","fips":"37033","name":"Caswell County","state_id":"NC"},{"zip":"27247","fips":"37123","name":"Montgomery County","state_id":"NC"},{"zip":"27248","fips":"37151","name":"Randolph County","state_id":"NC"},{"zip":"27249","fips":"37033","name":"Caswell County","state_id":"NC"},{"zip":"27249","fips":"37081","name":"Guilford County","state_id":"NC"},{"zip":"27249","fips":"37001","name":"Alamance County","state_id":"NC"},{"zip":"27249","fips":"37157","name":"Rockingham County","state_id":"NC"},{"zip":"27252","fips":"37037","name":"Chatham County","state_id":"NC"},{"zip":"27252","fips":"37125","name":"Moore County","state_id":"NC"},{"zip":"27253","fips":"37001","name":"Alamance County","state_id":"NC"},{"zip":"27256","fips":"37037","name":"Chatham County","state_id":"NC"},{"zip":"27258","fips":"37001","name":"Alamance County","state_id":"NC"},{"zip":"27259","fips":"37125","name":"Moore County","state_id":"NC"},{"zip":"27260","fips":"37151","name":"Randolph County","state_id":"NC"},{"zip":"27260","fips":"37081","name":"Guilford County","state_id":"NC"},{"zip":"27261","fips":"37081","name":"Guilford County","state_id":"NC"},{"zip":"27262","fips":"37057","name":"Davidson County","state_id":"NC"},{"zip":"27262","fips":"37081","name":"Guilford County","state_id":"NC"},{"zip":"27262","fips":"37151","name":"Randolph County","state_id":"NC"},{"zip":"27263","fips":"37081","name":"Guilford County","state_id":"NC"},{"zip":"27263","fips":"37151","name":"Randolph County","state_id":"NC"},{"zip":"27265","fips":"37057","name":"Davidson County","state_id":"NC"},{"zip":"27265","fips":"37081","name":"Guilford County","state_id":"NC"},{"zip":"27265","fips":"37067","name":"Forsyth County","state_id":"NC"},{"zip":"27268","fips":"37081","name":"Guilford County","state_id":"NC"},{"zip":"27278","fips":"37135","name":"Orange County","state_id":"NC"},{"zip":"27278","fips":"37063","name":"Durham County","state_id":"NC"},{"zip":"27281","fips":"37123","name":"Montgomery County","state_id":"NC"},{"zip":"27281","fips":"37125","name":"Moore County","state_id":"NC"},{"zip":"27281","fips":"37153","name":"Richmond County","state_id":"NC"},{"zip":"27282","fips":"37081","name":"Guilford County","state_id":"NC"},{"zip":"27283","fips":"37081","name":"Guilford County","state_id":"NC"},{"zip":"27283","fips":"37151","name":"Randolph County","state_id":"NC"},{"zip":"27284","fips":"37057","name":"Davidson County","state_id":"NC"},{"zip":"27284","fips":"37067","name":"Forsyth County","state_id":"NC"},{"zip":"27284","fips":"37081","name":"Guilford County","state_id":"NC"},{"zip":"27285","fips":"37067","name":"Forsyth County","state_id":"NC"},{"zip":"27288","fips":"37157","name":"Rockingham County","state_id":"NC"},{"zip":"27289","fips":"37157","name":"Rockingham County","state_id":"NC"},{"zip":"27291","fips":"37145","name":"Person County","state_id":"NC"},{"zip":"27291","fips":"37033","name":"Caswell County","state_id":"NC"},{"zip":"27292","fips":"37057","name":"Davidson County","state_id":"NC"},{"zip":"27292","fips":"37151","name":"Randolph County","state_id":"NC"},{"zip":"27293","fips":"37057","name":"Davidson County","state_id":"NC"},{"zip":"27294","fips":"37057","name":"Davidson County","state_id":"NC"},{"zip":"27295","fips":"37057","name":"Davidson County","state_id":"NC"},{"zip":"27298","fips":"37081","name":"Guilford County","state_id":"NC"},{"zip":"27298","fips":"37151","name":"Randolph County","state_id":"NC"},{"zip":"27298","fips":"37001","name":"Alamance County","state_id":"NC"},{"zip":"27298","fips":"37037","name":"Chatham County","state_id":"NC"},{"zip":"27299","fips":"37057","name":"Davidson County","state_id":"NC"}]
