[{"zip":"27301","fips":"37081","name":"Guilford County","state_id":"NC"},{"zip":"27302","fips":"37135","name":"Orange County","state_id":"NC"},{"zip":"27302","fips":"37033","name":"Caswell County","state_id":"NC"},{"zip":"27302","fips":"37001","name":"Alamance County","state_id":"NC"},{"zip":"27305","fips":"37033","name":"Caswell County","state_id":"NC"},{"zip":"27305","fips":"37145","name":"Person County","state_id":"NC"},{"zip":"27306","fips":"37153","name":"Richmond County","state_id":"NC"},{"zip":"27306","fips":"37123","name":"Montgomery County","state_id":"NC"},{"zip":"27310","fips":"37081","name":"Guilford County","state_id":"NC"},{"zip":"27311","fips":"37157","name":"Rockingham County","state_id":"NC"},{"zip":"27311","fips":"37033","name":"Caswell County","state_id":"NC"},{"zip":"27312","fips":"37037","name":"Chatham County","state_id":"NC"},{"zip":"27312","fips":"37135","name":"Orange County","state_id":"NC"},{"zip":"27313","fips":"37081","name":"Guilford County","state_id":"NC"},{"zip":"27313","fips":"37151","name":"Randolph County","state_id":"NC"},{"zip":"27314","fips":"37033","name":"Caswell County","state_id":"NC"},{"zip":"27314","fips":"37135","name":"Orange County","state_id":"NC"},{"zip":"27315","fips":"37033","name":"Caswell County","state_id":"NC"},{"zip":"27316","fips":"37151","name":"Randolph County","state_id":"NC"},{"zip":"27317","fips":"37081","name":"Guilford County","state_id":"NC"},{"zip":"27317","fips":"37151","name":"Randolph County","state_id":"NC"},{"zip":"27320","fips":"37157","name":"Rockingham County","state_id":"NC"},{"zip":"27320","fips":"37033","name":"Caswell County","state_id":"NC"},{"zip":"27320","fips":"37081","name":"Guilford County","state_id":"NC"},{"zip":"27325","fips":"37151","name":"Randolph County","state_id":"NC"},{"zip":"27325","fips":"37037","name":"Chatham County","state_id":"NC"},{"zip":"27325","fips":"37125","name":"Moore County","state_id":"NC"},{"zip":"27326","fips":"37033","name":"Caswell County","state_id":"NC"},{"zip":"27326","fips":"37157","name":"Rockingham County","state_id":"NC"},{"zip":"27330","fips":"37037","name":"Chatham County","state_id":"NC"},{"zip":"27330","fips":"37085","name":"Harnett County","state_id":"NC"},{"zip":"27330","fips":"37105","name":"Lee County","state_id":"NC"},{"zip":"27330","fips":"37125","name":"Moore County","state_id":"NC"},{"zip":"27331","fips":"37105","name":"Lee County","state_id":"NC"},{"zip":"27332","fips":"37037","name":"Chatham County","state_id":"NC"},{"zip":"27332","fips":"37105","name":"Lee County","state_id":"NC"},{"zip":"27332","fips":"37085","name":"Harnett County","state_id":"NC"},{"zip":"27340","fips":"37001","name":"Alamance County","state_id":"NC"},{"zip":"27341","fips":"37151","name":"Randolph County","state_id":"NC"},{"zip":"27341","fips":"37123","name":"Montgomery County","state_id":"NC"},{"zip":"27341","fips":"37125","name":"Moore County","state_id":"NC"},{"zip":"27342","fips":"37081","name":"Guilford County","state_id":"NC"},{"zip":"27343","fips":"37145","name":"Person County","state_id":"NC"},{"zip":"27343","fips":"37033","name":"Caswell County","state_id":"NC"},{"zip":"27344","fips":"37037","name":"Chatham County","state_id":"NC"},{"zip":"27344","fips":"37151","name":"Randolph County","state_id":"NC"},{"zip":"27344","fips":"37001","name":"Alamance County","state_id":"NC"},{"zip":"27349","fips":"37037","name":"Chatham County","state_id":"NC"},{"zip":"27349","fips":"37001","name":"Alamance County","state_id":"NC"},{"zip":"27350","fips":"37151","name":"Randolph County","state_id":"NC"},{"zip":"27351","fips":"37057","name":"Davidson County","state_id":"NC"},{"zip":"27355","fips":"37151","name":"Randolph County","state_id":"NC"},{"zip":"27355","fips":"37037","name":"Chatham County","state_id":"NC"},{"zip":"27356","fips":"37125","name":"Moore County","state_id":"NC"},{"zip":"27356","fips":"37123","name":"Montgomery County","state_id":"NC"},{"zip":"27357","fips":"37157","name":"Rockingham County","state_id":"NC"},{"zip":"27357","fips":"37081","name":"Guilford County","state_id":"NC"},{"zip":"27357","fips":"37169","name":"Stokes County","state_id":"NC"},{"zip":"27357","fips":"37067","name":"Forsyth County","state_id":"NC"},{"zip":"27358","fips":"37081","name":"Guilford County","state_id":"NC"},{"zip":"27358","fips":"37157","name":"Rockingham County","state_id":"NC"},{"zip":"27359","fips":"37001","name":"Alamance County","state_id":"NC"},{"zip":"27360","fips":"37057","name":"Davidson County","state_id":"NC"},{"zip":"27360","fips":"37151","name":"Randolph County","state_id":"NC"},{"zip":"27370","fips":"37151","name":"Randolph County","state_id":"NC"},{"zip":"27371","fips":"37151","name":"Randolph County","state_id":"NC"},{"zip":"27371","fips":"37123","name":"Montgomery County","state_id":"NC"},{"zip":"27373","fips":"37057","name":"Davidson County","state_id":"NC"},{"zip":"27374","fips":"37057","name":"Davidson County","state_id":"NC"},{"zip":"27375","fips":"37157","name":"Rockingham County","state_id":"NC"},{"zip":"27376","fips":"37125","name":"Moore County","state_id":"NC"},{"zip":"27377","fips":"37081","name":"Guilford County","state_id":"NC"},{"zip":"27379","fips":"37033","name":"Caswell County","state_id":"NC"}]
