[{"zip":"27401","fips":"37081","name":"Guilford County","state_id":"NC"},{"zip":"27402","fips":"37081","name":"Guilford County","state_id":"NC"},{"zip":"27403","fips":"37081","name":"Guilford County","state_id":"NC"},{"zip":"27404","fips":"37081","name":"Guilford County","state_id":"NC"},{"zip":"27405","fips":"37081","name":"Guilford County","state_id":"NC"},{"zip":"27406","fips":"37081","name":"Guilford County","state_id":"NC"},{"zip":"27407","fips":"37081","name":"Guilford County","state_id":"NC"},{"zip":"27408","fips":"37081","name":"Guilford County","state_id":"NC"},{"zip":"27409","fips":"37081","name":"Guilford County","state_id":"NC"},{"zip":"27410","fips":"37081","name":"Guilford County","state_id":"NC"},{"zip":"27411","fips":"37081","name":"Guilford County","state_id":"NC"},{"zip":"27412","fips":"37081","name":"Guilford County","state_id":"NC"},{"zip":"27413","fips":"37081","name":"Guilford County","state_id":"NC"},{"zip":"27415","fips":"37081","name":"Guilford County","state_id":"NC"},{"zip":"27416","fips":"37081","name":"Guilford County","state_id":"NC"},{"zip":"27417","fips":"37081","name":"Guilford County","state_id":"NC"},{"zip":"27419","fips":"37081","name":"Guilford County","state_id":"NC"},{"zip":"27420","fips":"37081","name":"Guilford County","state_id":"NC"},{"zip":"27425","fips":"37081","name":"Guilford County","state_id":"NC"},{"zip":"27429","fips":"37081","name":"Guilford County","state_id":"NC"},{"zip":"27435","fips":"37081","name":"Guilford County","state_id":"NC"},{"zip":"27438","fips":"37081","name":"Guilford County","state_id":"NC"},{"zip":"27455","fips":"37081","name":"Guilford County","state_id":"NC"},{"zip":"27495","fips":"37081","name":"Guilford County","state_id":"NC"},{"zip":"27497","fips":"37081","name":"Guilford County","state_id":"NC"},{"zip":"27498","fips":"37081","name":"Guilford County","state_id":"NC"},{"zip":"27499","fips":"37081","name":"Guilford County","state_id":"NC"}]
