[{"zip":"27501","fips":"37183","name":"Wake County","state_id":"NC"},{"zip":"27501","fips":"37101","name":"Johnston County","state_id":"NC"},{"zip":"27501","fips":"37085","name":"Harnett County","state_id":"NC"},{"zip":"27502","fips":"37183","name":"Wake County","state_id":"NC"},{"zip":"27502","fips":"37037","name":"Chatham County","state_id":"NC"},{"zip":"27503","fips":"37063","name":"Durham County","state_id":"NC"},{"zip":"27504","fips":"37101","name":"Johnston County","state_id":"NC"},{"zip":"27504","fips":"37085","name":"Harnett County","state_id":"NC"},{"zip":"27505","fips":"37085","name":"Harnett County","state_id":"NC"},{"zip":"27505","fips":"37105","name":"Lee County","state_id":"NC"},{"zip":"27506","fips":"37085","name":"Harnett County","state_id":"NC"},{"zip":"27507","fips":"37077","name":"Granville County","state_id":"NC"},{"zip":"27507","fips":"37181","name":"Vance County","state_id":"NC"},{"zip":"27508","fips":"37069","name":"Franklin County","state_id":"NC"},{"zip":"27509","fips":"37077","name":"Granville County","state_id":"NC"},{"zip":"27510","fips":"37135","name":"Orange County","state_id":"NC"},{"zip":"27511","fips":"37183","name":"Wake County","state_id":"NC"},{"zip":"27512","fips":"37183","name":"Wake County","state_id":"NC"},{"zip":"27513","fips":"37183","name":"Wake County","state_id":"NC"},{"zip":"27514","fips":"37135","name":"Orange County","state_id":"NC"},{"zip":"27515","fips":"37135","name":"Orange County","state_id":"NC"},{"zip":"27516","fips":"37135","name":"Orange County","state_id":"NC"},{"zip":"27516","fips":"37037","name":"Chatham County","state_id":"NC"},{"zip":"27517","fips":"37135","name":"Orange County","state_id":"NC"},{"zip":"27517","fips":"37037","name":"Chatham County","state_id":"NC"},{"zip":"27517","fips":"37063","name":"Durham County","state_id":"NC"},{"zip":"27518","fips":"37183","name":"Wake County","state_id":"NC"},{"zip":"27519","fips":"37037","name":"Chatham County","state_id":"NC"},{"zip":"27519","fips":"37183","name":"Wake County","state_id":"NC"},{"zip":"27520","fips":"37183","name":"Wake County","state_id":"NC"},{"zip":"27520","fips":"37101","name":"Johnston County","state_id":"NC"},{"zip":"27521","fips":"37085","name":"Harnett County","state_id":"NC"},{"zip":"27522","fips":"37183","name":"Wake County","state_id":"NC"},{"zip":"27522","fips":"37077","name":"Granville County","state_id":"NC"},{"zip":"27523","fips":"37037","name":"Chatham County","state_id":"NC"},{"zip":"27523","fips":"37183","name":"Wake County","state_id":"NC"},{"zip":"27524","fips":"37191","name":"Wayne County","state_id":"NC"},{"zip":"27524","fips":"37101","name":"Johnston County","state_id":"NC"},{"zip":"27525","fips":"37077","name":"Granville County","state_id":"NC"},{"zip":"27525","fips":"37069","name":"Franklin County","state_id":"NC"},{"zip":"27526","fips":"37085","name":"Harnett County","state_id":"NC"},{"zip":"27526","fips":"37183","name":"Wake County","state_id":"NC"},{"zip":"27527","fips":"37101","name":"Johnston County","state_id":"NC"},{"zip":"27528","fips":"37101","name":"Johnston County","state_id":"NC"},{"zip":"27529","fips":"37183","name":"Wake County","state_id":"NC"},{"zip":"27529","fips":"37101","name":"Johnston County","state_id":"NC"},{"zip":"27530","fips":"37191","name":"Wayne County","state_id":"NC"},{"zip":"27531","fips":"37191","name":"Wayne County","state_id":"NC"},{"zip":"27532","fips":"37191","name":"Wayne County","state_id":"NC"},{"zip":"27533","fips":"37191","name":"Wayne County","state_id":"NC"},{"zip":"27534","fips":"37191","name":"Wayne County","state_id":"NC"},{"zip":"27534","fips":"37079","name":"Greene County","state_id":"NC"},{"zip":"27536","fips":"37181","name":"Vance County","state_id":"NC"},{"zip":"27537","fips":"37181","name":"Vance County","state_id":"NC"},{"zip":"27537","fips":"37185","name":"Warren County","state_id":"NC"},{"zip":"27537","fips":"37069","name":"Franklin County","state_id":"NC"},{"zip":"27539","fips":"37183","name":"Wake County","state_id":"NC"},{"zip":"27540","fips":"37037","name":"Chatham County","state_id":"NC"},{"zip":"27540","fips":"37085","name":"Harnett County","state_id":"NC"},{"zip":"27540","fips":"37183","name":"Wake County","state_id":"NC"},{"zip":"27541","fips":"37145","name":"Person County","state_id":"NC"},{"zip":"27541","fips":"37135","name":"Orange County","state_id":"NC"},{"zip":"27542","fips":"37101","name":"Johnston County","state_id":"NC"},{"zip":"27542","fips":"37195","name":"Wilson County","state_id":"NC"},{"zip":"27542","fips":"37191","name":"Wayne County","state_id":"NC"},{"zip":"27543","fips":"37085","name":"Harnett County","state_id":"NC"},{"zip":"27544","fips":"37069","name":"Franklin County","state_id":"NC"},{"zip":"27544","fips":"37077","name":"Granville County","state_id":"NC"},{"zip":"27544","fips":"37181","name":"Vance County","state_id":"NC"},{"zip":"27545","fips":"37183","name":"Wake County","state_id":"NC"},{"zip":"27546","fips":"37085","name":"Harnett County","state_id":"NC"},{"zip":"27549","fips":"37069","name":"Franklin County","state_id":"NC"},{"zip":"27551","fips":"37185","name":"Warren County","state_id":"NC"},{"zip":"27552","fips":"37085","name":"Harnett County","state_id":"NC"},{"zip":"27553","fips":"37181","name":"Vance County","state_id":"NC"},{"zip":"27553","fips":"37185","name":"Warren County","state_id":"NC"},{"zip":"27555","fips":"37101","name":"Johnston County","state_id":"NC"},{"zip":"27556","fips":"37181","name":"Vance County","state_id":"NC"},{"zip":"27557","fips":"37195","name":"Wilson County","state_id":"NC"},{"zip":"27557","fips":"37127","name":"Nash County","state_id":"NC"},{"zip":"27557","fips":"37069","name":"Franklin County","state_id":"NC"},{"zip":"27557","fips":"37101","name":"Johnston County","state_id":"NC"},{"zip":"27559","fips":"37037","name":"Chatham County","state_id":"NC"},{"zip":"27560","fips":"37183","name":"Wake County","state_id":"NC"},{"zip":"27560","fips":"37063","name":"Durham County","state_id":"NC"},{"zip":"27562","fips":"37037","name":"Chatham County","state_id":"NC"},{"zip":"27562","fips":"37183","name":"Wake County","state_id":"NC"},{"zip":"27563","fips":"37181","name":"Vance County","state_id":"NC"},{"zip":"27563","fips":"37185","name":"Warren County","state_id":"NC"},{"zip":"27565","fips":"37181","name":"Vance County","state_id":"NC"},{"zip":"27565","fips":"37145","name":"Person County","state_id":"NC"},{"zip":"27565","fips":"37077","name":"Granville County","state_id":"NC"},{"zip":"27568","fips":"37101","name":"Johnston County","state_id":"NC"},{"zip":"27569","fips":"37191","name":"Wayne County","state_id":"NC"},{"zip":"27569","fips":"37101","name":"Johnston County","state_id":"NC"},{"zip":"27570","fips":"37185","name":"Warren County","state_id":"NC"},{"zip":"27571","fips":"37183","name":"Wake County","state_id":"NC"},{"zip":"27572","fips":"37145","name":"Person County","state_id":"NC"},{"zip":"27572","fips":"37135","name":"Orange County","state_id":"NC"},{"zip":"27572","fips":"37063","name":"Durham County","state_id":"NC"},{"zip":"27572","fips":"37077","name":"Granville County","state_id":"NC"},{"zip":"27573","fips":"37145","name":"Person County","state_id":"NC"},{"zip":"27574","fips":"37145","name":"Person County","state_id":"NC"},{"zip":"27574","fips":"37077","name":"Granville County","state_id":"NC"},{"zip":"27576","fips":"37101","name":"Johnston County","state_id":"NC"},{"zip":"27577","fips":"37101","name":"Johnston County","state_id":"NC"},{"zip":"27581","fips":"37077","name":"Granville County","state_id":"NC"},{"zip":"27582","fips":"37077","name":"Granville County","state_id":"NC"},{"zip":"27583","fips":"37145","name":"Person County","state_id":"NC"},{"zip":"27583","fips":"37135","name":"Orange County","state_id":"NC"},{"zip":"27584","fips":"37181","name":"Vance County","state_id":"NC"},{"zip":"27586","fips":"37185","name":"Warren County","state_id":"NC"},{"zip":"27587","fips":"37183","name":"Wake County","state_id":"NC"},{"zip":"27587","fips":"37077","name":"Granville County","state_id":"NC"},{"zip":"27587","fips":"37069","name":"Franklin County","state_id":"NC"},{"zip":"27588","fips":"37183","name":"Wake County","state_id":"NC"},{"zip":"27589","fips":"37069","name":"Franklin County","state_id":"NC"},{"zip":"27589","fips":"37185","name":"Warren County","state_id":"NC"},{"zip":"27591","fips":"37183","name":"Wake County","state_id":"NC"},{"zip":"27591","fips":"37101","name":"Johnston County","state_id":"NC"},{"zip":"27592","fips":"37085","name":"Harnett County","state_id":"NC"},{"zip":"27592","fips":"37183","name":"Wake County","state_id":"NC"},{"zip":"27592","fips":"37101","name":"Johnston County","state_id":"NC"},{"zip":"27593","fips":"37101","name":"Johnston County","state_id":"NC"},{"zip":"27594","fips":"37185","name":"Warren County","state_id":"NC"},{"zip":"27596","fips":"37077","name":"Granville County","state_id":"NC"},{"zip":"27596","fips":"37069","name":"Franklin County","state_id":"NC"},{"zip":"27596","fips":"37183","name":"Wake County","state_id":"NC"},{"zip":"27597","fips":"37183","name":"Wake County","state_id":"NC"},{"zip":"27597","fips":"37127","name":"Nash County","state_id":"NC"},{"zip":"27597","fips":"37101","name":"Johnston County","state_id":"NC"},{"zip":"27597","fips":"37069","name":"Franklin County","state_id":"NC"},{"zip":"27599","fips":"37135","name":"Orange County","state_id":"NC"}]
