[{"zip":"27601","fips":"37183","name":"Wake County","state_id":"NC"},{"zip":"27602","fips":"37183","name":"Wake County","state_id":"NC"},{"zip":"27603","fips":"37183","name":"Wake County","state_id":"NC"},{"zip":"27603","fips":"37101","name":"Johnston County","state_id":"NC"},{"zip":"27604","fips":"37183","name":"Wake County","state_id":"NC"},{"zip":"27605","fips":"37183","name":"Wake County","state_id":"NC"},{"zip":"27606","fips":"37183","name":"Wake County","state_id":"NC"},{"zip":"27607","fips":"37183","name":"Wake County","state_id":"NC"},{"zip":"27608","fips":"37183","name":"Wake County","state_id":"NC"},{"zip":"27609","fips":"37183","name":"Wake County","state_id":"NC"},{"zip":"27610","fips":"37183","name":"Wake County","state_id":"NC"},{"zip":"27610","fips":"37101","name":"Johnston County","state_id":"NC"},{"zip":"27611","fips":"37183","name":"Wake County","state_id":"NC"},{"zip":"27612","fips":"37183","name":"Wake County","state_id":"NC"},{"zip":"27613","fips":"37063","name":"Durham County","state_id":"NC"},{"zip":"27613","fips":"37183","name":"Wake County","state_id":"NC"},{"zip":"27614","fips":"37183","name":"Wake County","state_id":"NC"},{"zip":"27615","fips":"37183","name":"Wake County","state_id":"NC"},{"zip":"27616","fips":"37183","name":"Wake County","state_id":"NC"},{"zip":"27617","fips":"37183","name":"Wake County","state_id":"NC"},{"zip":"27617","fips":"37063","name":"Durham County","state_id":"NC"},{"zip":"27619","fips":"37183","name":"Wake County","state_id":"NC"},{"zip":"27620","fips":"37183","name":"Wake County","state_id":"NC"},{"zip":"27622","fips":"37183","name":"Wake County","state_id":"NC"},{"zip":"27623","fips":"37183","name":"Wake County","state_id":"NC"},{"zip":"27624","fips":"37183","name":"Wake County","state_id":"NC"},{"zip":"27627","fips":"37183","name":"Wake County","state_id":"NC"},{"zip":"27628","fips":"37183","name":"Wake County","state_id":"NC"},{"zip":"27629","fips":"37183","name":"Wake County","state_id":"NC"},{"zip":"27636","fips":"37183","name":"Wake County","state_id":"NC"},{"zip":"27640","fips":"37183","name":"Wake County","state_id":"NC"},{"zip":"27656","fips":"37183","name":"Wake County","state_id":"NC"},{"zip":"27658","fips":"37183","name":"Wake County","state_id":"NC"},{"zip":"27661","fips":"37183","name":"Wake County","state_id":"NC"},{"zip":"27675","fips":"37183","name":"Wake County","state_id":"NC"},{"zip":"27676","fips":"37183","name":"Wake County","state_id":"NC"},{"zip":"27690","fips":"37183","name":"Wake County","state_id":"NC"},{"zip":"27697","fips":"37183","name":"Wake County","state_id":"NC"},{"zip":"27699","fips":"37183","name":"Wake County","state_id":"NC"}]
