[{"zip":"27701","fips":"37063","name":"Durham County","state_id":"NC"},{"zip":"27702","fips":"37063","name":"Durham County","state_id":"NC"},{"zip":"27703","fips":"37063","name":"Durham County","state_id":"NC"},{"zip":"27703","fips":"37183","name":"Wake County","state_id":"NC"},{"zip":"27704","fips":"37063","name":"Durham County","state_id":"NC"},{"zip":"27705","fips":"37063","name":"Durham County","state_id":"NC"},{"zip":"27705","fips":"37135","name":"Orange County","state_id":"NC"},{"zip":"27706","fips":"37063","name":"Durham County","state_id":"NC"},{"zip":"27707","fips":"37135","name":"Orange County","state_id":"NC"},{"zip":"27707","fips":"37063","name":"Durham County","state_id":"NC"},{"zip":"27708","fips":"37063","name":"Durham County","state_id":"NC"},{"zip":"27709","fips":"37063","name":"Durham County","state_id":"NC"},{"zip":"27710","fips":"37063","name":"Durham County","state_id":"NC"},{"zip":"27712","fips":"37063","name":"Durham County","state_id":"NC"},{"zip":"27712","fips":"37135","name":"Orange County","state_id":"NC"},{"zip":"27713","fips":"37063","name":"Durham County","state_id":"NC"},{"zip":"27713","fips":"37037","name":"Chatham County","state_id":"NC"},{"zip":"27713","fips":"37183","name":"Wake County","state_id":"NC"},{"zip":"27715","fips":"37063","name":"Durham County","state_id":"NC"},{"zip":"27717","fips":"37063","name":"Durham County","state_id":"NC"},{"zip":"27722","fips":"37063","name":"Durham County","state_id":"NC"}]
