[{"zip":"27801","fips":"37127","name":"Nash County","state_id":"NC"},{"zip":"27801","fips":"37065","name":"Edgecombe County","state_id":"NC"},{"zip":"27802","fips":"37065","name":"Edgecombe County","state_id":"NC"},{"zip":"27803","fips":"37127","name":"Nash County","state_id":"NC"},{"zip":"27803","fips":"37065","name":"Edgecombe County","state_id":"NC"},{"zip":"27803","fips":"37195","name":"Wilson County","state_id":"NC"},{"zip":"27804","fips":"37127","name":"Nash County","state_id":"NC"},{"zip":"27804","fips":"37065","name":"Edgecombe County","state_id":"NC"},{"zip":"27805","fips":"37015","name":"Bertie County","state_id":"NC"},{"zip":"27805","fips":"37091","name":"Hertford County","state_id":"NC"},{"zip":"27805","fips":"37131","name":"Northampton County","state_id":"NC"},{"zip":"27806","fips":"37013","name":"Beaufort County","state_id":"NC"},{"zip":"27807","fips":"37195","name":"Wilson County","state_id":"NC"},{"zip":"27807","fips":"37127","name":"Nash County","state_id":"NC"},{"zip":"27808","fips":"37013","name":"Beaufort County","state_id":"NC"},{"zip":"27809","fips":"37127","name":"Nash County","state_id":"NC"},{"zip":"27809","fips":"37065","name":"Edgecombe County","state_id":"NC"},{"zip":"27810","fips":"37095","name":"Hyde County","state_id":"NC"},{"zip":"27810","fips":"37013","name":"Beaufort County","state_id":"NC"},{"zip":"27811","fips":"37147","name":"Pitt County","state_id":"NC"},{"zip":"27812","fips":"37147","name":"Pitt County","state_id":"NC"},{"zip":"27812","fips":"37117","name":"Martin County","state_id":"NC"},{"zip":"27812","fips":"37065","name":"Edgecombe County","state_id":"NC"},{"zip":"27813","fips":"37195","name":"Wilson County","state_id":"NC"},{"zip":"27814","fips":"37013","name":"Beaufort County","state_id":"NC"},{"zip":"27815","fips":"37065","name":"Edgecombe County","state_id":"NC"},{"zip":"27816","fips":"37127","name":"Nash County","state_id":"NC"},{"zip":"27816","fips":"37069","name":"Franklin County","state_id":"NC"},{"zip":"27817","fips":"37013","name":"Beaufort County","state_id":"NC"},{"zip":"27817","fips":"37147","name":"Pitt County","state_id":"NC"},{"zip":"27818","fips":"37091","name":"Hertford County","state_id":"NC"},{"zip":"27819","fips":"37065","name":"Edgecombe County","state_id":"NC"},{"zip":"27820","fips":"37131","name":"Northampton County","state_id":"NC"},{"zip":"27821","fips":"37013","name":"Beaufort County","state_id":"NC"},{"zip":"27822","fips":"37127","name":"Nash County","state_id":"NC"},{"zip":"27822","fips":"37065","name":"Edgecombe County","state_id":"NC"},{"zip":"27822","fips":"37195","name":"Wilson County","state_id":"NC"},{"zip":"27823","fips":"37083","name":"Halifax County","state_id":"NC"},{"zip":"27824","fips":"37095","name":"Hyde County","state_id":"NC"},{"zip":"27825","fips":"37117","name":"Martin County","state_id":"NC"},{"zip":"27826","fips":"37095","name":"Hyde County","state_id":"NC"},{"zip":"27826","fips":"37177","name":"Tyrrell County","state_id":"NC"},{"zip":"27827","fips":"37147","name":"Pitt County","state_id":"NC"},{"zip":"27828","fips":"37079","name":"Greene County","state_id":"NC"},{"zip":"27828","fips":"37147","name":"Pitt County","state_id":"NC"},{"zip":"27829","fips":"37147","name":"Pitt County","state_id":"NC"},{"zip":"27829","fips":"37065","name":"Edgecombe County","state_id":"NC"},{"zip":"27829","fips":"37195","name":"Wilson County","state_id":"NC"},{"zip":"27830","fips":"37191","name":"Wayne County","state_id":"NC"},{"zip":"27830","fips":"37195","name":"Wilson County","state_id":"NC"},{"zip":"27831","fips":"37131","name":"Northampton County","state_id":"NC"},{"zip":"27832","fips":"37131","name":"Northampton County","state_id":"NC"},{"zip":"27833","fips":"37147","name":"Pitt County","state_id":"NC"},{"zip":"27834","fips":"37013","name":"Beaufort County","state_id":"NC"},{"zip":"27834","fips":"37065","name":"Edgecombe County","state_id":"NC"},{"zip":"27834","fips":"37147","name":"Pitt County","state_id":"NC"},{"zip":"27835","fips":"37147","name":"Pitt County","state_id":"NC"},{"zip":"27836","fips":"37147","name":"Pitt County","state_id":"NC"},{"zip":"27837","fips":"37013","name":"Beaufort County","state_id":"NC"},{"zip":"27837","fips":"37147","name":"Pitt County","state_id":"NC"},{"zip":"27839","fips":"37083","name":"Halifax County","state_id":"NC"},{"zip":"27840","fips":"37117","name":"Martin County","state_id":"NC"},{"zip":"27841","fips":"37117","name":"Martin County","state_id":"NC"},{"zip":"27842","fips":"37131","name":"Northampton County","state_id":"NC"},{"zip":"27842","fips":"37185","name":"Warren County","state_id":"NC"},{"zip":"27843","fips":"37117","name":"Martin County","state_id":"NC"},{"zip":"27843","fips":"37065","name":"Edgecombe County","state_id":"NC"},{"zip":"27843","fips":"37083","name":"Halifax County","state_id":"NC"},{"zip":"27844","fips":"37185","name":"Warren County","state_id":"NC"},{"zip":"27844","fips":"37083","name":"Halifax County","state_id":"NC"},{"zip":"27845","fips":"37131","name":"Northampton County","state_id":"NC"},{"zip":"27846","fips":"37187","name":"Washington County","state_id":"NC"},{"zip":"27846","fips":"37117","name":"Martin County","state_id":"NC"},{"zip":"27847","fips":"37015","name":"Bertie County","state_id":"NC"},{"zip":"27849","fips":"37015","name":"Bertie County","state_id":"NC"},{"zip":"27850","fips":"37083","name":"Halifax County","state_id":"NC"},{"zip":"27850","fips":"37185","name":"Warren County","state_id":"NC"},{"zip":"27851","fips":"37191","name":"Wayne County","state_id":"NC"},{"zip":"27851","fips":"37195","name":"Wilson County","state_id":"NC"},{"zip":"27852","fips":"37195","name":"Wilson County","state_id":"NC"},{"zip":"27852","fips":"37147","name":"Pitt County","state_id":"NC"},{"zip":"27852","fips":"37065","name":"Edgecombe County","state_id":"NC"},{"zip":"27853","fips":"37131","name":"Northampton County","state_id":"NC"},{"zip":"27855","fips":"37091","name":"Hertford County","state_id":"NC"},{"zip":"27855","fips":"37131","name":"Northampton County","state_id":"NC"},{"zip":"27856","fips":"37127","name":"Nash County","state_id":"NC"},{"zip":"27857","fips":"37117","name":"Martin County","state_id":"NC"},{"zip":"27858","fips":"37147","name":"Pitt County","state_id":"NC"},{"zip":"27860","fips":"37013","name":"Beaufort County","state_id":"NC"},{"zip":"27860","fips":"37095","name":"Hyde County","state_id":"NC"},{"zip":"27860","fips":"37187","name":"Washington County","state_id":"NC"},{"zip":"27861","fips":"37117","name":"Martin County","state_id":"NC"},{"zip":"27862","fips":"37131","name":"Northampton County","state_id":"NC"},{"zip":"27863","fips":"37079","name":"Greene County","state_id":"NC"},{"zip":"27863","fips":"37101","name":"Johnston County","state_id":"NC"},{"zip":"27863","fips":"37191","name":"Wayne County","state_id":"NC"},{"zip":"27864","fips":"37065","name":"Edgecombe County","state_id":"NC"},{"zip":"27865","fips":"37187","name":"Washington County","state_id":"NC"},{"zip":"27865","fips":"37013","name":"Beaufort County","state_id":"NC"},{"zip":"27866","fips":"37131","name":"Northampton County","state_id":"NC"},{"zip":"27867","fips":"37131","name":"Northampton County","state_id":"NC"},{"zip":"27868","fips":"37127","name":"Nash County","state_id":"NC"},{"zip":"27869","fips":"37015","name":"Bertie County","state_id":"NC"},{"zip":"27869","fips":"37131","name":"Northampton County","state_id":"NC"},{"zip":"27870","fips":"37083","name":"Halifax County","state_id":"NC"},{"zip":"27871","fips":"37013","name":"Beaufort County","state_id":"NC"},{"zip":"27871","fips":"37147","name":"Pitt County","state_id":"NC"},{"zip":"27871","fips":"37117","name":"Martin County","state_id":"NC"},{"zip":"27872","fips":"37015","name":"Bertie County","state_id":"NC"},{"zip":"27873","fips":"37195","name":"Wilson County","state_id":"NC"},{"zip":"27874","fips":"37083","name":"Halifax County","state_id":"NC"},{"zip":"27875","fips":"37095","name":"Hyde County","state_id":"NC"},{"zip":"27876","fips":"37131","name":"Northampton County","state_id":"NC"},{"zip":"27877","fips":"37131","name":"Northampton County","state_id":"NC"},{"zip":"27878","fips":"37127","name":"Nash County","state_id":"NC"},{"zip":"27879","fips":"37147","name":"Pitt County","state_id":"NC"},{"zip":"27880","fips":"37195","name":"Wilson County","state_id":"NC"},{"zip":"27880","fips":"37127","name":"Nash County","state_id":"NC"},{"zip":"27881","fips":"37065","name":"Edgecombe County","state_id":"NC"},{"zip":"27882","fips":"37069","name":"Franklin County","state_id":"NC"},{"zip":"27882","fips":"37127","name":"Nash County","state_id":"NC"},{"zip":"27883","fips":"37195","name":"Wilson County","state_id":"NC"},{"zip":"27883","fips":"37191","name":"Wayne County","state_id":"NC"},{"zip":"27883","fips":"37079","name":"Greene County","state_id":"NC"},{"zip":"27884","fips":"37147","name":"Pitt County","state_id":"NC"},{"zip":"27885","fips":"37095","name":"Hyde County","state_id":"NC"},{"zip":"27886","fips":"37147","name":"Pitt County","state_id":"NC"},{"zip":"27886","fips":"37065","name":"Edgecombe County","state_id":"NC"},{"zip":"27887","fips":"37083","name":"Halifax County","state_id":"NC"},{"zip":"27888","fips":"37079","name":"Greene County","state_id":"NC"},{"zip":"27888","fips":"37147","name":"Pitt County","state_id":"NC"},{"zip":"27888","fips":"37195","name":"Wilson County","state_id":"NC"},{"zip":"27889","fips":"37147","name":"Pitt County","state_id":"NC"},{"zip":"27889","fips":"37117","name":"Martin County","state_id":"NC"},{"zip":"27889","fips":"37013","name":"Beaufort County","state_id":"NC"},{"zip":"27890","fips":"37083","name":"Halifax County","state_id":"NC"},{"zip":"27891","fips":"37083","name":"Halifax County","state_id":"NC"},{"zip":"27891","fips":"37065","name":"Edgecombe County","state_id":"NC"},{"zip":"27891","fips":"37127","name":"Nash County","state_id":"NC"},{"zip":"27892","fips":"37117","name":"Martin County","state_id":"NC"},{"zip":"27893","fips":"37195","name":"Wilson County","state_id":"NC"},{"zip":"27894","fips":"37195","name":"Wilson County","state_id":"NC"},{"zip":"27895","fips":"37195","name":"Wilson County","state_id":"NC"},{"zip":"27896","fips":"37127","name":"Nash County","state_id":"NC"},{"zip":"27896","fips":"37195","name":"Wilson County","state_id":"NC"},{"zip":"27897","fips":"37091","name":"Hertford County","state_id":"NC"},{"zip":"27897","fips":"37131","name":"Northampton County","state_id":"NC"}]
