[{"zip":"27906","fips":"37139","name":"Pasquotank County","state_id":"NC"},{"zip":"27907","fips":"37139","name":"Pasquotank County","state_id":"NC"},{"zip":"27909","fips":"37139","name":"Pasquotank County","state_id":"NC"},{"zip":"27909","fips":"37029","name":"Camden County","state_id":"NC"},{"zip":"27910","fips":"37015","name":"Bertie County","state_id":"NC"},{"zip":"27910","fips":"37091","name":"Hertford County","state_id":"NC"},{"zip":"27915","fips":"37055","name":"Dare County","state_id":"NC"},{"zip":"27916","fips":"37053","name":"Currituck County","state_id":"NC"},{"zip":"27917","fips":"37053","name":"Currituck County","state_id":"NC"},{"zip":"27919","fips":"37073","name":"Gates County","state_id":"NC"},{"zip":"27919","fips":"37143","name":"Perquimans County","state_id":"NC"},{"zip":"27919","fips":"37041","name":"Chowan County","state_id":"NC"},{"zip":"27920","fips":"37055","name":"Dare County","state_id":"NC"},{"zip":"27921","fips":"37029","name":"Camden County","state_id":"NC"},{"zip":"27922","fips":"37091","name":"Hertford County","state_id":"NC"},{"zip":"27923","fips":"37053","name":"Currituck County","state_id":"NC"},{"zip":"27924","fips":"37015","name":"Bertie County","state_id":"NC"},{"zip":"27925","fips":"37177","name":"Tyrrell County","state_id":"NC"},{"zip":"27926","fips":"37073","name":"Gates County","state_id":"NC"},{"zip":"27927","fips":"37053","name":"Currituck County","state_id":"NC"},{"zip":"27928","fips":"37187","name":"Washington County","state_id":"NC"},{"zip":"27928","fips":"37177","name":"Tyrrell County","state_id":"NC"},{"zip":"27929","fips":"37053","name":"Currituck County","state_id":"NC"},{"zip":"27932","fips":"37041","name":"Chowan County","state_id":"NC"},{"zip":"27932","fips":"37143","name":"Perquimans County","state_id":"NC"},{"zip":"27935","fips":"37073","name":"Gates County","state_id":"NC"},{"zip":"27936","fips":"37055","name":"Dare County","state_id":"NC"},{"zip":"27937","fips":"37073","name":"Gates County","state_id":"NC"},{"zip":"27938","fips":"37073","name":"Gates County","state_id":"NC"},{"zip":"27939","fips":"37053","name":"Currituck County","state_id":"NC"},{"zip":"27941","fips":"37053","name":"Currituck County","state_id":"NC"},{"zip":"27942","fips":"37091","name":"Hertford County","state_id":"NC"},{"zip":"27943","fips":"37055","name":"Dare County","state_id":"NC"},{"zip":"27944","fips":"37143","name":"Perquimans County","state_id":"NC"},{"zip":"27946","fips":"37041","name":"Chowan County","state_id":"NC"},{"zip":"27946","fips":"37143","name":"Perquimans County","state_id":"NC"},{"zip":"27946","fips":"37073","name":"Gates County","state_id":"NC"},{"zip":"27947","fips":"37053","name":"Currituck County","state_id":"NC"},{"zip":"27948","fips":"37055","name":"Dare County","state_id":"NC"},{"zip":"27949","fips":"37055","name":"Dare County","state_id":"NC"},{"zip":"27950","fips":"37053","name":"Currituck County","state_id":"NC"},{"zip":"27953","fips":"37055","name":"Dare County","state_id":"NC"},{"zip":"27954","fips":"37055","name":"Dare County","state_id":"NC"},{"zip":"27956","fips":"37053","name":"Currituck County","state_id":"NC"},{"zip":"27957","fips":"37015","name":"Bertie County","state_id":"NC"},{"zip":"27958","fips":"37053","name":"Currituck County","state_id":"NC"},{"zip":"27959","fips":"37055","name":"Dare County","state_id":"NC"},{"zip":"27960","fips":"37095","name":"Hyde County","state_id":"NC"},{"zip":"27962","fips":"37117","name":"Martin County","state_id":"NC"},{"zip":"27962","fips":"37013","name":"Beaufort County","state_id":"NC"},{"zip":"27962","fips":"37187","name":"Washington County","state_id":"NC"},{"zip":"27964","fips":"37053","name":"Currituck County","state_id":"NC"},{"zip":"27965","fips":"37053","name":"Currituck County","state_id":"NC"},{"zip":"27966","fips":"37053","name":"Currituck County","state_id":"NC"},{"zip":"27967","fips":"37015","name":"Bertie County","state_id":"NC"},{"zip":"27968","fips":"37055","name":"Dare County","state_id":"NC"},{"zip":"27969","fips":"37073","name":"Gates County","state_id":"NC"},{"zip":"27970","fips":"37187","name":"Washington County","state_id":"NC"},{"zip":"27973","fips":"37053","name":"Currituck County","state_id":"NC"},{"zip":"27973","fips":"37029","name":"Camden County","state_id":"NC"},{"zip":"27974","fips":"37029","name":"Camden County","state_id":"NC"},{"zip":"27976","fips":"37029","name":"Camden County","state_id":"NC"},{"zip":"27978","fips":"37055","name":"Dare County","state_id":"NC"},{"zip":"27979","fips":"37073","name":"Gates County","state_id":"NC"},{"zip":"27980","fips":"37041","name":"Chowan County","state_id":"NC"},{"zip":"27980","fips":"37143","name":"Perquimans County","state_id":"NC"},{"zip":"27981","fips":"37055","name":"Dare County","state_id":"NC"},{"zip":"27983","fips":"37015","name":"Bertie County","state_id":"NC"},{"zip":"27985","fips":"37143","name":"Perquimans County","state_id":"NC"},{"zip":"27986","fips":"37091","name":"Hertford County","state_id":"NC"}]
