[{"zip":"28001","fips":"37167","name":"Stanly County","state_id":"NC"},{"zip":"28002","fips":"37167","name":"Stanly County","state_id":"NC"},{"zip":"28006","fips":"37109","name":"Lincoln County","state_id":"NC"},{"zip":"28006","fips":"37071","name":"Gaston County","state_id":"NC"},{"zip":"28007","fips":"37007","name":"Anson County","state_id":"NC"},{"zip":"28009","fips":"37167","name":"Stanly County","state_id":"NC"},{"zip":"28010","fips":"37097","name":"Iredell County","state_id":"NC"},{"zip":"28012","fips":"37071","name":"Gaston County","state_id":"NC"},{"zip":"28016","fips":"37071","name":"Gaston County","state_id":"NC"},{"zip":"28016","fips":"37109","name":"Lincoln County","state_id":"NC"},{"zip":"28017","fips":"37045","name":"Cleveland County","state_id":"NC"},{"zip":"28018","fips":"37161","name":"Rutherford County","state_id":"NC"},{"zip":"28018","fips":"37023","name":"Burke County","state_id":"NC"},{"zip":"28019","fips":"37161","name":"Rutherford County","state_id":"NC"},{"zip":"28020","fips":"37045","name":"Cleveland County","state_id":"NC"},{"zip":"28020","fips":"37161","name":"Rutherford County","state_id":"NC"},{"zip":"28021","fips":"37109","name":"Lincoln County","state_id":"NC"},{"zip":"28021","fips":"37071","name":"Gaston County","state_id":"NC"},{"zip":"28021","fips":"37045","name":"Cleveland County","state_id":"NC"},{"zip":"28023","fips":"37159","name":"Rowan County","state_id":"NC"},{"zip":"28024","fips":"37161","name":"Rutherford County","state_id":"NC"},{"zip":"28025","fips":"37025","name":"Cabarrus County","state_id":"NC"},{"zip":"28026","fips":"37025","name":"Cabarrus County","state_id":"NC"},{"zip":"28027","fips":"37025","name":"Cabarrus County","state_id":"NC"},{"zip":"28027","fips":"37119","name":"Mecklenburg County","state_id":"NC"},{"zip":"28031","fips":"37119","name":"Mecklenburg County","state_id":"NC"},{"zip":"28032","fips":"37071","name":"Gaston County","state_id":"NC"},{"zip":"28033","fips":"37071","name":"Gaston County","state_id":"NC"},{"zip":"28033","fips":"37109","name":"Lincoln County","state_id":"NC"},{"zip":"28034","fips":"37071","name":"Gaston County","state_id":"NC"},{"zip":"28034","fips":"37109","name":"Lincoln County","state_id":"NC"},{"zip":"28035","fips":"37119","name":"Mecklenburg County","state_id":"NC"},{"zip":"28036","fips":"37097","name":"Iredell County","state_id":"NC"},{"zip":"28036","fips":"37159","name":"Rowan County","state_id":"NC"},{"zip":"28036","fips":"37025","name":"Cabarrus County","state_id":"NC"},{"zip":"28036","fips":"37119","name":"Mecklenburg County","state_id":"NC"},{"zip":"28037","fips":"37035","name":"Catawba County","state_id":"NC"},{"zip":"28037","fips":"37109","name":"Lincoln County","state_id":"NC"},{"zip":"28038","fips":"37045","name":"Cleveland County","state_id":"NC"},{"zip":"28039","fips":"37159","name":"Rowan County","state_id":"NC"},{"zip":"28040","fips":"37161","name":"Rutherford County","state_id":"NC"},{"zip":"28040","fips":"37045","name":"Cleveland County","state_id":"NC"},{"zip":"28041","fips":"37159","name":"Rowan County","state_id":"NC"},{"zip":"28042","fips":"37045","name":"Cleveland County","state_id":"NC"},{"zip":"28043","fips":"37161","name":"Rutherford County","state_id":"NC"},{"zip":"28052","fips":"37071","name":"Gaston County","state_id":"NC"},{"zip":"28053","fips":"37071","name":"Gaston County","state_id":"NC"},{"zip":"28054","fips":"37071","name":"Gaston County","state_id":"NC"},{"zip":"28055","fips":"37071","name":"Gaston County","state_id":"NC"},{"zip":"28056","fips":"37071","name":"Gaston County","state_id":"NC"},{"zip":"28070","fips":"37119","name":"Mecklenburg County","state_id":"NC"},{"zip":"28071","fips":"37025","name":"Cabarrus County","state_id":"NC"},{"zip":"28071","fips":"37159","name":"Rowan County","state_id":"NC"},{"zip":"28071","fips":"37167","name":"Stanly County","state_id":"NC"},{"zip":"28072","fips":"37159","name":"Rowan County","state_id":"NC"},{"zip":"28073","fips":"37045","name":"Cleveland County","state_id":"NC"},{"zip":"28074","fips":"37161","name":"Rutherford County","state_id":"NC"},{"zip":"28075","fips":"37025","name":"Cabarrus County","state_id":"NC"},{"zip":"28076","fips":"37161","name":"Rutherford County","state_id":"NC"},{"zip":"28077","fips":"37071","name":"Gaston County","state_id":"NC"},{"zip":"28078","fips":"37025","name":"Cabarrus County","state_id":"NC"},{"zip":"28078","fips":"37119","name":"Mecklenburg County","state_id":"NC"},{"zip":"28079","fips":"37179","name":"Union County","state_id":"NC"},{"zip":"28079","fips":"37119","name":"Mecklenburg County","state_id":"NC"},{"zip":"28080","fips":"37109","name":"Lincoln County","state_id":"NC"},{"zip":"28080","fips":"37071","name":"Gaston County","state_id":"NC"},{"zip":"28081","fips":"37025","name":"Cabarrus County","state_id":"NC"},{"zip":"28081","fips":"37159","name":"Rowan County","state_id":"NC"},{"zip":"28082","fips":"37025","name":"Cabarrus County","state_id":"NC"},{"zip":"28083","fips":"37159","name":"Rowan County","state_id":"NC"},{"zip":"28083","fips":"37025","name":"Cabarrus County","state_id":"NC"},{"zip":"28086","fips":"37071","name":"Gaston County","state_id":"NC"},{"zip":"28086","fips":"37045","name":"Cleveland County","state_id":"NC"},{"zip":"28088","fips":"37159","name":"Rowan County","state_id":"NC"},{"zip":"28089","fips":"37045","name":"Cleveland County","state_id":"NC"},{"zip":"28090","fips":"37023","name":"Burke County","state_id":"NC"},{"zip":"28090","fips":"37045","name":"Cleveland County","state_id":"NC"},{"zip":"28090","fips":"37109","name":"Lincoln County","state_id":"NC"},{"zip":"28090","fips":"37035","name":"Catawba County","state_id":"NC"},{"zip":"28091","fips":"37007","name":"Anson County","state_id":"NC"},{"zip":"28092","fips":"37035","name":"Catawba County","state_id":"NC"},{"zip":"28092","fips":"37071","name":"Gaston County","state_id":"NC"},{"zip":"28092","fips":"37109","name":"Lincoln County","state_id":"NC"},{"zip":"28093","fips":"37109","name":"Lincoln County","state_id":"NC"},{"zip":"28097","fips":"37025","name":"Cabarrus County","state_id":"NC"},{"zip":"28097","fips":"37167","name":"Stanly County","state_id":"NC"},{"zip":"28098","fips":"37071","name":"Gaston County","state_id":"NC"}]
