[{"zip":"28101","fips":"37071","name":"Gaston County","state_id":"NC"},{"zip":"28102","fips":"37007","name":"Anson County","state_id":"NC"},{"zip":"28103","fips":"37007","name":"Anson County","state_id":"NC"},{"zip":"28103","fips":"37179","name":"Union County","state_id":"NC"},{"zip":"28104","fips":"37119","name":"Mecklenburg County","state_id":"NC"},{"zip":"28104","fips":"37179","name":"Union County","state_id":"NC"},{"zip":"28105","fips":"37119","name":"Mecklenburg County","state_id":"NC"},{"zip":"28105","fips":"37179","name":"Union County","state_id":"NC"},{"zip":"28106","fips":"37119","name":"Mecklenburg County","state_id":"NC"},{"zip":"28107","fips":"37119","name":"Mecklenburg County","state_id":"NC"},{"zip":"28107","fips":"37167","name":"Stanly County","state_id":"NC"},{"zip":"28107","fips":"37179","name":"Union County","state_id":"NC"},{"zip":"28107","fips":"37025","name":"Cabarrus County","state_id":"NC"},{"zip":"28108","fips":"37179","name":"Union County","state_id":"NC"},{"zip":"28109","fips":"37167","name":"Stanly County","state_id":"NC"},{"zip":"28110","fips":"37179","name":"Union County","state_id":"NC"},{"zip":"28111","fips":"37179","name":"Union County","state_id":"NC"},{"zip":"28112","fips":"37179","name":"Union County","state_id":"NC"},{"zip":"28114","fips":"37161","name":"Rutherford County","state_id":"NC"},{"zip":"28114","fips":"37045","name":"Cleveland County","state_id":"NC"},{"zip":"28115","fips":"37119","name":"Mecklenburg County","state_id":"NC"},{"zip":"28115","fips":"37097","name":"Iredell County","state_id":"NC"},{"zip":"28115","fips":"37159","name":"Rowan County","state_id":"NC"},{"zip":"28117","fips":"37097","name":"Iredell County","state_id":"NC"},{"zip":"28117","fips":"37119","name":"Mecklenburg County","state_id":"NC"},{"zip":"28119","fips":"37007","name":"Anson County","state_id":"NC"},{"zip":"28120","fips":"37071","name":"Gaston County","state_id":"NC"},{"zip":"28123","fips":"37097","name":"Iredell County","state_id":"NC"},{"zip":"28124","fips":"37167","name":"Stanly County","state_id":"NC"},{"zip":"28124","fips":"37025","name":"Cabarrus County","state_id":"NC"},{"zip":"28125","fips":"37097","name":"Iredell County","state_id":"NC"},{"zip":"28125","fips":"37159","name":"Rowan County","state_id":"NC"},{"zip":"28126","fips":"37119","name":"Mecklenburg County","state_id":"NC"},{"zip":"28127","fips":"37159","name":"Rowan County","state_id":"NC"},{"zip":"28127","fips":"37167","name":"Stanly County","state_id":"NC"},{"zip":"28127","fips":"37057","name":"Davidson County","state_id":"NC"},{"zip":"28127","fips":"37123","name":"Montgomery County","state_id":"NC"},{"zip":"28128","fips":"37167","name":"Stanly County","state_id":"NC"},{"zip":"28129","fips":"37167","name":"Stanly County","state_id":"NC"},{"zip":"28130","fips":"37119","name":"Mecklenburg County","state_id":"NC"},{"zip":"28133","fips":"37179","name":"Union County","state_id":"NC"},{"zip":"28133","fips":"37007","name":"Anson County","state_id":"NC"},{"zip":"28134","fips":"37119","name":"Mecklenburg County","state_id":"NC"},{"zip":"28135","fips":"37007","name":"Anson County","state_id":"NC"},{"zip":"28135","fips":"37179","name":"Union County","state_id":"NC"},{"zip":"28136","fips":"37045","name":"Cleveland County","state_id":"NC"},{"zip":"28137","fips":"37159","name":"Rowan County","state_id":"NC"},{"zip":"28137","fips":"37167","name":"Stanly County","state_id":"NC"},{"zip":"28138","fips":"37025","name":"Cabarrus County","state_id":"NC"},{"zip":"28138","fips":"37159","name":"Rowan County","state_id":"NC"},{"zip":"28139","fips":"37161","name":"Rutherford County","state_id":"NC"},{"zip":"28139","fips":"37149","name":"Polk County","state_id":"NC"},{"zip":"28144","fips":"37159","name":"Rowan County","state_id":"NC"},{"zip":"28145","fips":"37159","name":"Rowan County","state_id":"NC"},{"zip":"28146","fips":"37159","name":"Rowan County","state_id":"NC"},{"zip":"28147","fips":"37159","name":"Rowan County","state_id":"NC"},{"zip":"28150","fips":"37161","name":"Rutherford County","state_id":"NC"},{"zip":"28150","fips":"37045","name":"Cleveland County","state_id":"NC"},{"zip":"28151","fips":"37045","name":"Cleveland County","state_id":"NC"},{"zip":"28152","fips":"37045","name":"Cleveland County","state_id":"NC"},{"zip":"28159","fips":"37159","name":"Rowan County","state_id":"NC"},{"zip":"28160","fips":"37161","name":"Rutherford County","state_id":"NC"},{"zip":"28163","fips":"37167","name":"Stanly County","state_id":"NC"},{"zip":"28164","fips":"37071","name":"Gaston County","state_id":"NC"},{"zip":"28164","fips":"37109","name":"Lincoln County","state_id":"NC"},{"zip":"28166","fips":"37097","name":"Iredell County","state_id":"NC"},{"zip":"28167","fips":"37111","name":"McDowell County","state_id":"NC"},{"zip":"28167","fips":"37161","name":"Rutherford County","state_id":"NC"},{"zip":"28168","fips":"37045","name":"Cleveland County","state_id":"NC"},{"zip":"28168","fips":"37035","name":"Catawba County","state_id":"NC"},{"zip":"28168","fips":"37109","name":"Lincoln County","state_id":"NC"},{"zip":"28168","fips":"37023","name":"Burke County","state_id":"NC"},{"zip":"28169","fips":"37045","name":"Cleveland County","state_id":"NC"},{"zip":"28170","fips":"37007","name":"Anson County","state_id":"NC"},{"zip":"28173","fips":"37179","name":"Union County","state_id":"NC"},{"zip":"28174","fips":"37179","name":"Union County","state_id":"NC"}]
