[{"zip":"28201","fips":"37119","name":"Mecklenburg County","state_id":"NC"},{"zip":"28202","fips":"37119","name":"Mecklenburg County","state_id":"NC"},{"zip":"28203","fips":"37119","name":"Mecklenburg County","state_id":"NC"},{"zip":"28204","fips":"37119","name":"Mecklenburg County","state_id":"NC"},{"zip":"28205","fips":"37119","name":"Mecklenburg County","state_id":"NC"},{"zip":"28206","fips":"37119","name":"Mecklenburg County","state_id":"NC"},{"zip":"28207","fips":"37119","name":"Mecklenburg County","state_id":"NC"},{"zip":"28208","fips":"37119","name":"Mecklenburg County","state_id":"NC"},{"zip":"28209","fips":"37119","name":"Mecklenburg County","state_id":"NC"},{"zip":"28210","fips":"37119","name":"Mecklenburg County","state_id":"NC"},{"zip":"28211","fips":"37119","name":"Mecklenburg County","state_id":"NC"},{"zip":"28212","fips":"37119","name":"Mecklenburg County","state_id":"NC"},{"zip":"28213","fips":"37025","name":"Cabarrus County","state_id":"NC"},{"zip":"28213","fips":"37119","name":"Mecklenburg County","state_id":"NC"},{"zip":"28214","fips":"37119","name":"Mecklenburg County","state_id":"NC"},{"zip":"28215","fips":"37119","name":"Mecklenburg County","state_id":"NC"},{"zip":"28215","fips":"37025","name":"Cabarrus County","state_id":"NC"},{"zip":"28216","fips":"37119","name":"Mecklenburg County","state_id":"NC"},{"zip":"28217","fips":"37119","name":"Mecklenburg County","state_id":"NC"},{"zip":"28219","fips":"37119","name":"Mecklenburg County","state_id":"NC"},{"zip":"28220","fips":"37119","name":"Mecklenburg County","state_id":"NC"},{"zip":"28221","fips":"37119","name":"Mecklenburg County","state_id":"NC"},{"zip":"28222","fips":"37119","name":"Mecklenburg County","state_id":"NC"},{"zip":"28223","fips":"37119","name":"Mecklenburg County","state_id":"NC"},{"zip":"28224","fips":"37119","name":"Mecklenburg County","state_id":"NC"},{"zip":"28226","fips":"37119","name":"Mecklenburg County","state_id":"NC"},{"zip":"28227","fips":"37119","name":"Mecklenburg County","state_id":"NC"},{"zip":"28227","fips":"37025","name":"Cabarrus County","state_id":"NC"},{"zip":"28227","fips":"37179","name":"Union County","state_id":"NC"},{"zip":"28228","fips":"37119","name":"Mecklenburg County","state_id":"NC"},{"zip":"28229","fips":"37119","name":"Mecklenburg County","state_id":"NC"},{"zip":"28230","fips":"37119","name":"Mecklenburg County","state_id":"NC"},{"zip":"28231","fips":"37119","name":"Mecklenburg County","state_id":"NC"},{"zip":"28232","fips":"37119","name":"Mecklenburg County","state_id":"NC"},{"zip":"28233","fips":"37119","name":"Mecklenburg County","state_id":"NC"},{"zip":"28234","fips":"37119","name":"Mecklenburg County","state_id":"NC"},{"zip":"28235","fips":"37119","name":"Mecklenburg County","state_id":"NC"},{"zip":"28236","fips":"37119","name":"Mecklenburg County","state_id":"NC"},{"zip":"28237","fips":"37119","name":"Mecklenburg County","state_id":"NC"},{"zip":"28241","fips":"37119","name":"Mecklenburg County","state_id":"NC"},{"zip":"28244","fips":"37119","name":"Mecklenburg County","state_id":"NC"},{"zip":"28246","fips":"37119","name":"Mecklenburg County","state_id":"NC"},{"zip":"28247","fips":"37119","name":"Mecklenburg County","state_id":"NC"},{"zip":"28256","fips":"37119","name":"Mecklenburg County","state_id":"NC"},{"zip":"28262","fips":"37025","name":"Cabarrus County","state_id":"NC"},{"zip":"28262","fips":"37119","name":"Mecklenburg County","state_id":"NC"},{"zip":"28266","fips":"37119","name":"Mecklenburg County","state_id":"NC"},{"zip":"28269","fips":"37025","name":"Cabarrus County","state_id":"NC"},{"zip":"28269","fips":"37119","name":"Mecklenburg County","state_id":"NC"},{"zip":"28270","fips":"37119","name":"Mecklenburg County","state_id":"NC"},{"zip":"28271","fips":"37119","name":"Mecklenburg County","state_id":"NC"},{"zip":"28273","fips":"37119","name":"Mecklenburg County","state_id":"NC"},{"zip":"28274","fips":"37119","name":"Mecklenburg County","state_id":"NC"},{"zip":"28277","fips":"37119","name":"Mecklenburg County","state_id":"NC"},{"zip":"28278","fips":"37119","name":"Mecklenburg County","state_id":"NC"},{"zip":"28280","fips":"37119","name":"Mecklenburg County","state_id":"NC"},{"zip":"28281","fips":"37119","name":"Mecklenburg County","state_id":"NC"},{"zip":"28282","fips":"37119","name":"Mecklenburg County","state_id":"NC"},{"zip":"28284","fips":"37119","name":"Mecklenburg County","state_id":"NC"},{"zip":"28285","fips":"37119","name":"Mecklenburg County","state_id":"NC"},{"zip":"28287","fips":"37119","name":"Mecklenburg County","state_id":"NC"},{"zip":"28288","fips":"37119","name":"Mecklenburg County","state_id":"NC"},{"zip":"28297","fips":"37119","name":"Mecklenburg County","state_id":"NC"},{"zip":"28299","fips":"37119","name":"Mecklenburg County","state_id":"NC"}]
