[{"zip":"28301","fips":"37051","name":"Cumberland County","state_id":"NC"},{"zip":"28302","fips":"37051","name":"Cumberland County","state_id":"NC"},{"zip":"28303","fips":"37051","name":"Cumberland County","state_id":"NC"},{"zip":"28304","fips":"37093","name":"Hoke County","state_id":"NC"},{"zip":"28304","fips":"37051","name":"Cumberland County","state_id":"NC"},{"zip":"28305","fips":"37051","name":"Cumberland County","state_id":"NC"},{"zip":"28306","fips":"37093","name":"Hoke County","state_id":"NC"},{"zip":"28306","fips":"37051","name":"Cumberland County","state_id":"NC"},{"zip":"28306","fips":"37017","name":"Bladen County","state_id":"NC"},{"zip":"28307","fips":"37051","name":"Cumberland County","state_id":"NC"},{"zip":"28308","fips":"37051","name":"Cumberland County","state_id":"NC"},{"zip":"28309","fips":"37051","name":"Cumberland County","state_id":"NC"},{"zip":"28310","fips":"37051","name":"Cumberland County","state_id":"NC"},{"zip":"28311","fips":"37051","name":"Cumberland County","state_id":"NC"},{"zip":"28312","fips":"37051","name":"Cumberland County","state_id":"NC"},{"zip":"28312","fips":"37017","name":"Bladen County","state_id":"NC"},{"zip":"28314","fips":"37051","name":"Cumberland County","state_id":"NC"},{"zip":"28315","fips":"37125","name":"Moore County","state_id":"NC"},{"zip":"28315","fips":"37093","name":"Hoke County","state_id":"NC"},{"zip":"28318","fips":"37051","name":"Cumberland County","state_id":"NC"},{"zip":"28318","fips":"37163","name":"Sampson County","state_id":"NC"},{"zip":"28320","fips":"37017","name":"Bladen County","state_id":"NC"},{"zip":"28320","fips":"37047","name":"Columbus County","state_id":"NC"},{"zip":"28323","fips":"37085","name":"Harnett County","state_id":"NC"},{"zip":"28325","fips":"37061","name":"Duplin County","state_id":"NC"},{"zip":"28326","fips":"37105","name":"Lee County","state_id":"NC"},{"zip":"28326","fips":"37051","name":"Cumberland County","state_id":"NC"},{"zip":"28326","fips":"37125","name":"Moore County","state_id":"NC"},{"zip":"28326","fips":"37085","name":"Harnett County","state_id":"NC"},{"zip":"28327","fips":"37125","name":"Moore County","state_id":"NC"},{"zip":"28328","fips":"37163","name":"Sampson County","state_id":"NC"},{"zip":"28329","fips":"37163","name":"Sampson County","state_id":"NC"},{"zip":"28330","fips":"37153","name":"Richmond County","state_id":"NC"},{"zip":"28331","fips":"37051","name":"Cumberland County","state_id":"NC"},{"zip":"28332","fips":"37017","name":"Bladen County","state_id":"NC"},{"zip":"28333","fips":"37191","name":"Wayne County","state_id":"NC"},{"zip":"28334","fips":"37163","name":"Sampson County","state_id":"NC"},{"zip":"28334","fips":"37101","name":"Johnston County","state_id":"NC"},{"zip":"28334","fips":"37051","name":"Cumberland County","state_id":"NC"},{"zip":"28334","fips":"37085","name":"Harnett County","state_id":"NC"},{"zip":"28337","fips":"37017","name":"Bladen County","state_id":"NC"},{"zip":"28338","fips":"37153","name":"Richmond County","state_id":"NC"},{"zip":"28338","fips":"37123","name":"Montgomery County","state_id":"NC"},{"zip":"28339","fips":"37085","name":"Harnett County","state_id":"NC"},{"zip":"28340","fips":"37155","name":"Robeson County","state_id":"NC"},{"zip":"28341","fips":"37163","name":"Sampson County","state_id":"NC"},{"zip":"28341","fips":"37061","name":"Duplin County","state_id":"NC"},{"zip":"28342","fips":"37051","name":"Cumberland County","state_id":"NC"},{"zip":"28343","fips":"37165","name":"Scotland County","state_id":"NC"},{"zip":"28344","fips":"37163","name":"Sampson County","state_id":"NC"},{"zip":"28344","fips":"37051","name":"Cumberland County","state_id":"NC"},{"zip":"28345","fips":"37165","name":"Scotland County","state_id":"NC"},{"zip":"28345","fips":"37153","name":"Richmond County","state_id":"NC"},{"zip":"28347","fips":"37153","name":"Richmond County","state_id":"NC"},{"zip":"28347","fips":"37125","name":"Moore County","state_id":"NC"},{"zip":"28348","fips":"37051","name":"Cumberland County","state_id":"NC"},{"zip":"28349","fips":"37061","name":"Duplin County","state_id":"NC"},{"zip":"28350","fips":"37125","name":"Moore County","state_id":"NC"},{"zip":"28351","fips":"37153","name":"Richmond County","state_id":"NC"},{"zip":"28351","fips":"37165","name":"Scotland County","state_id":"NC"},{"zip":"28352","fips":"37155","name":"Robeson County","state_id":"NC"},{"zip":"28352","fips":"37165","name":"Scotland County","state_id":"NC"},{"zip":"28353","fips":"37165","name":"Scotland County","state_id":"NC"},{"zip":"28355","fips":"37105","name":"Lee County","state_id":"NC"},{"zip":"28356","fips":"37085","name":"Harnett County","state_id":"NC"},{"zip":"28356","fips":"37051","name":"Cumberland County","state_id":"NC"},{"zip":"28357","fips":"37093","name":"Hoke County","state_id":"NC"},{"zip":"28357","fips":"37155","name":"Robeson County","state_id":"NC"},{"zip":"28358","fips":"37155","name":"Robeson County","state_id":"NC"},{"zip":"28359","fips":"37155","name":"Robeson County","state_id":"NC"},{"zip":"28360","fips":"37155","name":"Robeson County","state_id":"NC"},{"zip":"28362","fips":"37155","name":"Robeson County","state_id":"NC"},{"zip":"28363","fips":"37165","name":"Scotland County","state_id":"NC"},{"zip":"28363","fips":"37153","name":"Richmond County","state_id":"NC"},{"zip":"28364","fips":"37155","name":"Robeson County","state_id":"NC"},{"zip":"28364","fips":"37165","name":"Scotland County","state_id":"NC"},{"zip":"28364","fips":"37093","name":"Hoke County","state_id":"NC"},{"zip":"28365","fips":"37061","name":"Duplin County","state_id":"NC"},{"zip":"28365","fips":"37163","name":"Sampson County","state_id":"NC"},{"zip":"28365","fips":"37191","name":"Wayne County","state_id":"NC"},{"zip":"28366","fips":"37101","name":"Johnston County","state_id":"NC"},{"zip":"28366","fips":"37163","name":"Sampson County","state_id":"NC"},{"zip":"28367","fips":"37153","name":"Richmond County","state_id":"NC"},{"zip":"28368","fips":"37085","name":"Harnett County","state_id":"NC"},{"zip":"28369","fips":"37155","name":"Robeson County","state_id":"NC"},{"zip":"28370","fips":"37125","name":"Moore County","state_id":"NC"},{"zip":"28371","fips":"37051","name":"Cumberland County","state_id":"NC"},{"zip":"28371","fips":"37155","name":"Robeson County","state_id":"NC"},{"zip":"28371","fips":"37093","name":"Hoke County","state_id":"NC"},{"zip":"28372","fips":"37155","name":"Robeson County","state_id":"NC"},{"zip":"28373","fips":"37125","name":"Moore County","state_id":"NC"},{"zip":"28374","fips":"37125","name":"Moore County","state_id":"NC"},{"zip":"28375","fips":"37155","name":"Robeson County","state_id":"NC"},{"zip":"28376","fips":"37093","name":"Hoke County","state_id":"NC"},{"zip":"28377","fips":"37155","name":"Robeson County","state_id":"NC"},{"zip":"28377","fips":"37093","name":"Hoke County","state_id":"NC"},{"zip":"28378","fips":"37155","name":"Robeson County","state_id":"NC"},{"zip":"28379","fips":"37153","name":"Richmond County","state_id":"NC"},{"zip":"28380","fips":"37153","name":"Richmond County","state_id":"NC"},{"zip":"28382","fips":"37163","name":"Sampson County","state_id":"NC"},{"zip":"28382","fips":"37017","name":"Bladen County","state_id":"NC"},{"zip":"28382","fips":"37051","name":"Cumberland County","state_id":"NC"},{"zip":"28383","fips":"37155","name":"Robeson County","state_id":"NC"},{"zip":"28384","fips":"37051","name":"Cumberland County","state_id":"NC"},{"zip":"28384","fips":"37017","name":"Bladen County","state_id":"NC"},{"zip":"28384","fips":"37155","name":"Robeson County","state_id":"NC"},{"zip":"28385","fips":"37163","name":"Sampson County","state_id":"NC"},{"zip":"28386","fips":"37155","name":"Robeson County","state_id":"NC"},{"zip":"28386","fips":"37093","name":"Hoke County","state_id":"NC"},{"zip":"28387","fips":"37125","name":"Moore County","state_id":"NC"},{"zip":"28388","fips":"37125","name":"Moore County","state_id":"NC"},{"zip":"28390","fips":"37051","name":"Cumberland County","state_id":"NC"},{"zip":"28390","fips":"37085","name":"Harnett County","state_id":"NC"},{"zip":"28391","fips":"37163","name":"Sampson County","state_id":"NC"},{"zip":"28391","fips":"37051","name":"Cumberland County","state_id":"NC"},{"zip":"28392","fips":"37017","name":"Bladen County","state_id":"NC"},{"zip":"28393","fips":"37163","name":"Sampson County","state_id":"NC"},{"zip":"28393","fips":"37061","name":"Duplin County","state_id":"NC"},{"zip":"28394","fips":"37125","name":"Moore County","state_id":"NC"},{"zip":"28395","fips":"37051","name":"Cumberland County","state_id":"NC"},{"zip":"28396","fips":"37165","name":"Scotland County","state_id":"NC"},{"zip":"28398","fips":"37163","name":"Sampson County","state_id":"NC"},{"zip":"28398","fips":"37061","name":"Duplin County","state_id":"NC"},{"zip":"28399","fips":"37051","name":"Cumberland County","state_id":"NC"},{"zip":"28399","fips":"37017","name":"Bladen County","state_id":"NC"}]
