[{"zip":"28401","fips":"37141","name":"Pender County","state_id":"NC"},{"zip":"28401","fips":"37129","name":"New Hanover County","state_id":"NC"},{"zip":"28401","fips":"37019","name":"Brunswick County","state_id":"NC"},{"zip":"28402","fips":"37129","name":"New Hanover County","state_id":"NC"},{"zip":"28403","fips":"37129","name":"New Hanover County","state_id":"NC"},{"zip":"28404","fips":"37129","name":"New Hanover County","state_id":"NC"},{"zip":"28405","fips":"37129","name":"New Hanover County","state_id":"NC"},{"zip":"28406","fips":"37129","name":"New Hanover County","state_id":"NC"},{"zip":"28408","fips":"37129","name":"New Hanover County","state_id":"NC"},{"zip":"28409","fips":"37129","name":"New Hanover County","state_id":"NC"},{"zip":"28410","fips":"37129","name":"New Hanover County","state_id":"NC"},{"zip":"28411","fips":"37129","name":"New Hanover County","state_id":"NC"},{"zip":"28411","fips":"37141","name":"Pender County","state_id":"NC"},{"zip":"28412","fips":"37129","name":"New Hanover County","state_id":"NC"},{"zip":"28420","fips":"37019","name":"Brunswick County","state_id":"NC"},{"zip":"28421","fips":"37141","name":"Pender County","state_id":"NC"},{"zip":"28421","fips":"37163","name":"Sampson County","state_id":"NC"},{"zip":"28422","fips":"37019","name":"Brunswick County","state_id":"NC"},{"zip":"28423","fips":"37017","name":"Bladen County","state_id":"NC"},{"zip":"28423","fips":"37047","name":"Columbus County","state_id":"NC"},{"zip":"28424","fips":"37047","name":"Columbus County","state_id":"NC"},{"zip":"28425","fips":"37141","name":"Pender County","state_id":"NC"},{"zip":"28428","fips":"37129","name":"New Hanover County","state_id":"NC"},{"zip":"28429","fips":"37129","name":"New Hanover County","state_id":"NC"},{"zip":"28430","fips":"37047","name":"Columbus County","state_id":"NC"},{"zip":"28431","fips":"37047","name":"Columbus County","state_id":"NC"},{"zip":"28432","fips":"37047","name":"Columbus County","state_id":"NC"},{"zip":"28433","fips":"37047","name":"Columbus County","state_id":"NC"},{"zip":"28433","fips":"37017","name":"Bladen County","state_id":"NC"},{"zip":"28434","fips":"37017","name":"Bladen County","state_id":"NC"},{"zip":"28435","fips":"37141","name":"Pender County","state_id":"NC"},{"zip":"28435","fips":"37017","name":"Bladen County","state_id":"NC"},{"zip":"28436","fips":"37019","name":"Brunswick County","state_id":"NC"},{"zip":"28436","fips":"37047","name":"Columbus County","state_id":"NC"},{"zip":"28438","fips":"37047","name":"Columbus County","state_id":"NC"},{"zip":"28438","fips":"37017","name":"Bladen County","state_id":"NC"},{"zip":"28439","fips":"37047","name":"Columbus County","state_id":"NC"},{"zip":"28441","fips":"37017","name":"Bladen County","state_id":"NC"},{"zip":"28441","fips":"37163","name":"Sampson County","state_id":"NC"},{"zip":"28441","fips":"37051","name":"Cumberland County","state_id":"NC"},{"zip":"28442","fips":"37047","name":"Columbus County","state_id":"NC"},{"zip":"28443","fips":"37141","name":"Pender County","state_id":"NC"},{"zip":"28444","fips":"37017","name":"Bladen County","state_id":"NC"},{"zip":"28444","fips":"37061","name":"Duplin County","state_id":"NC"},{"zip":"28444","fips":"37163","name":"Sampson County","state_id":"NC"},{"zip":"28445","fips":"37141","name":"Pender County","state_id":"NC"},{"zip":"28445","fips":"37133","name":"Onslow County","state_id":"NC"},{"zip":"28447","fips":"37163","name":"Sampson County","state_id":"NC"},{"zip":"28447","fips":"37017","name":"Bladen County","state_id":"NC"},{"zip":"28447","fips":"37141","name":"Pender County","state_id":"NC"},{"zip":"28448","fips":"37141","name":"Pender County","state_id":"NC"},{"zip":"28448","fips":"37017","name":"Bladen County","state_id":"NC"},{"zip":"28449","fips":"37129","name":"New Hanover County","state_id":"NC"},{"zip":"28450","fips":"37047","name":"Columbus County","state_id":"NC"},{"zip":"28451","fips":"37019","name":"Brunswick County","state_id":"NC"},{"zip":"28452","fips":"37019","name":"Brunswick County","state_id":"NC"},{"zip":"28453","fips":"37163","name":"Sampson County","state_id":"NC"},{"zip":"28453","fips":"37061","name":"Duplin County","state_id":"NC"},{"zip":"28454","fips":"37141","name":"Pender County","state_id":"NC"},{"zip":"28454","fips":"37133","name":"Onslow County","state_id":"NC"},{"zip":"28455","fips":"37047","name":"Columbus County","state_id":"NC"},{"zip":"28456","fips":"37047","name":"Columbus County","state_id":"NC"},{"zip":"28456","fips":"37017","name":"Bladen County","state_id":"NC"},{"zip":"28456","fips":"37019","name":"Brunswick County","state_id":"NC"},{"zip":"28457","fips":"37141","name":"Pender County","state_id":"NC"},{"zip":"28458","fips":"37163","name":"Sampson County","state_id":"NC"},{"zip":"28458","fips":"37061","name":"Duplin County","state_id":"NC"},{"zip":"28459","fips":"37019","name":"Brunswick County","state_id":"NC"},{"zip":"28460","fips":"37133","name":"Onslow County","state_id":"NC"},{"zip":"28461","fips":"37019","name":"Brunswick County","state_id":"NC"},{"zip":"28462","fips":"37019","name":"Brunswick County","state_id":"NC"},{"zip":"28463","fips":"37047","name":"Columbus County","state_id":"NC"},{"zip":"28464","fips":"37061","name":"Duplin County","state_id":"NC"},{"zip":"28465","fips":"37019","name":"Brunswick County","state_id":"NC"},{"zip":"28466","fips":"37141","name":"Pender County","state_id":"NC"},{"zip":"28466","fips":"37061","name":"Duplin County","state_id":"NC"},{"zip":"28466","fips":"37163","name":"Sampson County","state_id":"NC"},{"zip":"28467","fips":"37019","name":"Brunswick County","state_id":"NC"},{"zip":"28468","fips":"37019","name":"Brunswick County","state_id":"NC"},{"zip":"28469","fips":"37019","name":"Brunswick County","state_id":"NC"},{"zip":"28470","fips":"37019","name":"Brunswick County","state_id":"NC"},{"zip":"28472","fips":"37047","name":"Columbus County","state_id":"NC"},{"zip":"28478","fips":"37061","name":"Duplin County","state_id":"NC"},{"zip":"28478","fips":"37163","name":"Sampson County","state_id":"NC"},{"zip":"28478","fips":"37141","name":"Pender County","state_id":"NC"},{"zip":"28479","fips":"37019","name":"Brunswick County","state_id":"NC"},{"zip":"28480","fips":"37129","name":"New Hanover County","state_id":"NC"}]
