[{"zip":"28501","fips":"37107","name":"Lenoir County","state_id":"NC"},{"zip":"28501","fips":"37103","name":"Jones County","state_id":"NC"},{"zip":"28501","fips":"37079","name":"Greene County","state_id":"NC"},{"zip":"28501","fips":"37049","name":"Craven County","state_id":"NC"},{"zip":"28504","fips":"37103","name":"Jones County","state_id":"NC"},{"zip":"28504","fips":"37107","name":"Lenoir County","state_id":"NC"},{"zip":"28508","fips":"37061","name":"Duplin County","state_id":"NC"},{"zip":"28509","fips":"37137","name":"Pamlico County","state_id":"NC"},{"zip":"28510","fips":"37137","name":"Pamlico County","state_id":"NC"},{"zip":"28511","fips":"37031","name":"Carteret County","state_id":"NC"},{"zip":"28512","fips":"37031","name":"Carteret County","state_id":"NC"},{"zip":"28513","fips":"37079","name":"Greene County","state_id":"NC"},{"zip":"28513","fips":"37147","name":"Pitt County","state_id":"NC"},{"zip":"28515","fips":"37137","name":"Pamlico County","state_id":"NC"},{"zip":"28516","fips":"37031","name":"Carteret County","state_id":"NC"},{"zip":"28518","fips":"37133","name":"Onslow County","state_id":"NC"},{"zip":"28518","fips":"37061","name":"Duplin County","state_id":"NC"},{"zip":"28519","fips":"37049","name":"Craven County","state_id":"NC"},{"zip":"28520","fips":"37031","name":"Carteret County","state_id":"NC"},{"zip":"28521","fips":"37061","name":"Duplin County","state_id":"NC"},{"zip":"28521","fips":"37133","name":"Onslow County","state_id":"NC"},{"zip":"28522","fips":"37103","name":"Jones County","state_id":"NC"},{"zip":"28523","fips":"37049","name":"Craven County","state_id":"NC"},{"zip":"28524","fips":"37031","name":"Carteret County","state_id":"NC"},{"zip":"28525","fips":"37107","name":"Lenoir County","state_id":"NC"},{"zip":"28525","fips":"37061","name":"Duplin County","state_id":"NC"},{"zip":"28526","fips":"37103","name":"Jones County","state_id":"NC"},{"zip":"28526","fips":"37107","name":"Lenoir County","state_id":"NC"},{"zip":"28526","fips":"37049","name":"Craven County","state_id":"NC"},{"zip":"28527","fips":"37049","name":"Craven County","state_id":"NC"},{"zip":"28528","fips":"37031","name":"Carteret County","state_id":"NC"},{"zip":"28529","fips":"37137","name":"Pamlico County","state_id":"NC"},{"zip":"28530","fips":"37049","name":"Craven County","state_id":"NC"},{"zip":"28530","fips":"37107","name":"Lenoir County","state_id":"NC"},{"zip":"28530","fips":"37147","name":"Pitt County","state_id":"NC"},{"zip":"28530","fips":"37079","name":"Greene County","state_id":"NC"},{"zip":"28531","fips":"37031","name":"Carteret County","state_id":"NC"},{"zip":"28532","fips":"37049","name":"Craven County","state_id":"NC"},{"zip":"28532","fips":"37031","name":"Carteret County","state_id":"NC"},{"zip":"28533","fips":"37049","name":"Craven County","state_id":"NC"},{"zip":"28537","fips":"37137","name":"Pamlico County","state_id":"NC"},{"zip":"28538","fips":"37107","name":"Lenoir County","state_id":"NC"},{"zip":"28538","fips":"37079","name":"Greene County","state_id":"NC"},{"zip":"28539","fips":"37133","name":"Onslow County","state_id":"NC"},{"zip":"28540","fips":"37133","name":"Onslow County","state_id":"NC"},{"zip":"28541","fips":"37133","name":"Onslow County","state_id":"NC"},{"zip":"28542","fips":"37133","name":"Onslow County","state_id":"NC"},{"zip":"28543","fips":"37133","name":"Onslow County","state_id":"NC"},{"zip":"28544","fips":"37133","name":"Onslow County","state_id":"NC"},{"zip":"28545","fips":"37133","name":"Onslow County","state_id":"NC"},{"zip":"28546","fips":"37133","name":"Onslow County","state_id":"NC"},{"zip":"28547","fips":"37133","name":"Onslow County","state_id":"NC"},{"zip":"28551","fips":"37191","name":"Wayne County","state_id":"NC"},{"zip":"28551","fips":"37107","name":"Lenoir County","state_id":"NC"},{"zip":"28551","fips":"37079","name":"Greene County","state_id":"NC"},{"zip":"28552","fips":"37137","name":"Pamlico County","state_id":"NC"},{"zip":"28553","fips":"37031","name":"Carteret County","state_id":"NC"},{"zip":"28554","fips":"37079","name":"Greene County","state_id":"NC"},{"zip":"28555","fips":"37103","name":"Jones County","state_id":"NC"},{"zip":"28555","fips":"37031","name":"Carteret County","state_id":"NC"},{"zip":"28555","fips":"37133","name":"Onslow County","state_id":"NC"},{"zip":"28556","fips":"37137","name":"Pamlico County","state_id":"NC"},{"zip":"28557","fips":"37031","name":"Carteret County","state_id":"NC"},{"zip":"28560","fips":"37137","name":"Pamlico County","state_id":"NC"},{"zip":"28560","fips":"37049","name":"Craven County","state_id":"NC"},{"zip":"28561","fips":"37049","name":"Craven County","state_id":"NC"},{"zip":"28562","fips":"37049","name":"Craven County","state_id":"NC"},{"zip":"28562","fips":"37103","name":"Jones County","state_id":"NC"},{"zip":"28563","fips":"37049","name":"Craven County","state_id":"NC"},{"zip":"28564","fips":"37049","name":"Craven County","state_id":"NC"},{"zip":"28570","fips":"37031","name":"Carteret County","state_id":"NC"},{"zip":"28571","fips":"37137","name":"Pamlico County","state_id":"NC"},{"zip":"28572","fips":"37103","name":"Jones County","state_id":"NC"},{"zip":"28572","fips":"37107","name":"Lenoir County","state_id":"NC"},{"zip":"28572","fips":"37061","name":"Duplin County","state_id":"NC"},{"zip":"28573","fips":"37103","name":"Jones County","state_id":"NC"},{"zip":"28573","fips":"37049","name":"Craven County","state_id":"NC"},{"zip":"28574","fips":"37133","name":"Onslow County","state_id":"NC"},{"zip":"28574","fips":"37103","name":"Jones County","state_id":"NC"},{"zip":"28574","fips":"37061","name":"Duplin County","state_id":"NC"},{"zip":"28575","fips":"37031","name":"Carteret County","state_id":"NC"},{"zip":"28577","fips":"37031","name":"Carteret County","state_id":"NC"},{"zip":"28578","fips":"37107","name":"Lenoir County","state_id":"NC"},{"zip":"28578","fips":"37191","name":"Wayne County","state_id":"NC"},{"zip":"28578","fips":"37061","name":"Duplin County","state_id":"NC"},{"zip":"28579","fips":"37031","name":"Carteret County","state_id":"NC"},{"zip":"28580","fips":"37079","name":"Greene County","state_id":"NC"},{"zip":"28580","fips":"37107","name":"Lenoir County","state_id":"NC"},{"zip":"28581","fips":"37031","name":"Carteret County","state_id":"NC"},{"zip":"28582","fips":"37133","name":"Onslow County","state_id":"NC"},{"zip":"28582","fips":"37031","name":"Carteret County","state_id":"NC"},{"zip":"28583","fips":"37137","name":"Pamlico County","state_id":"NC"},{"zip":"28584","fips":"37133","name":"Onslow County","state_id":"NC"},{"zip":"28584","fips":"37031","name":"Carteret County","state_id":"NC"},{"zip":"28585","fips":"37103","name":"Jones County","state_id":"NC"},{"zip":"28586","fips":"37049","name":"Craven County","state_id":"NC"},{"zip":"28586","fips":"37013","name":"Beaufort County","state_id":"NC"},{"zip":"28586","fips":"37147","name":"Pitt County","state_id":"NC"},{"zip":"28587","fips":"37137","name":"Pamlico County","state_id":"NC"},{"zip":"28590","fips":"37147","name":"Pitt County","state_id":"NC"},{"zip":"28594","fips":"37031","name":"Carteret County","state_id":"NC"}]
