[{"zip":"28601","fips":"37035","name":"Catawba County","state_id":"NC"},{"zip":"28601","fips":"37023","name":"Burke County","state_id":"NC"},{"zip":"28601","fips":"37003","name":"Alexander County","state_id":"NC"},{"zip":"28601","fips":"37027","name":"Caldwell County","state_id":"NC"},{"zip":"28602","fips":"37035","name":"Catawba County","state_id":"NC"},{"zip":"28602","fips":"37023","name":"Burke County","state_id":"NC"},{"zip":"28603","fips":"37035","name":"Catawba County","state_id":"NC"},{"zip":"28604","fips":"37189","name":"Watauga County","state_id":"NC"},{"zip":"28604","fips":"37011","name":"Avery County","state_id":"NC"},{"zip":"28605","fips":"37189","name":"Watauga County","state_id":"NC"},{"zip":"28605","fips":"37027","name":"Caldwell County","state_id":"NC"},{"zip":"28605","fips":"37011","name":"Avery County","state_id":"NC"},{"zip":"28606","fips":"37027","name":"Caldwell County","state_id":"NC"},{"zip":"28606","fips":"37193","name":"Wilkes County","state_id":"NC"},{"zip":"28607","fips":"37011","name":"Avery County","state_id":"NC"},{"zip":"28607","fips":"37009","name":"Ashe County","state_id":"NC"},{"zip":"28607","fips":"37189","name":"Watauga County","state_id":"NC"},{"zip":"28608","fips":"37189","name":"Watauga County","state_id":"NC"},{"zip":"28609","fips":"37035","name":"Catawba County","state_id":"NC"},{"zip":"28610","fips":"37035","name":"Catawba County","state_id":"NC"},{"zip":"28611","fips":"37027","name":"Caldwell County","state_id":"NC"},{"zip":"28611","fips":"37011","name":"Avery County","state_id":"NC"},{"zip":"28612","fips":"37035","name":"Catawba County","state_id":"NC"},{"zip":"28612","fips":"37023","name":"Burke County","state_id":"NC"},{"zip":"28612","fips":"37045","name":"Cleveland County","state_id":"NC"},{"zip":"28613","fips":"37035","name":"Catawba County","state_id":"NC"},{"zip":"28615","fips":"37009","name":"Ashe County","state_id":"NC"},{"zip":"28616","fips":"37011","name":"Avery County","state_id":"NC"},{"zip":"28617","fips":"37009","name":"Ashe County","state_id":"NC"},{"zip":"28618","fips":"37189","name":"Watauga County","state_id":"NC"},{"zip":"28618","fips":"37009","name":"Ashe County","state_id":"NC"},{"zip":"28618","fips":"37193","name":"Wilkes County","state_id":"NC"},{"zip":"28619","fips":"37023","name":"Burke County","state_id":"NC"},{"zip":"28621","fips":"37171","name":"Surry County","state_id":"NC"},{"zip":"28621","fips":"37193","name":"Wilkes County","state_id":"NC"},{"zip":"28622","fips":"37011","name":"Avery County","state_id":"NC"},{"zip":"28622","fips":"37189","name":"Watauga County","state_id":"NC"},{"zip":"28623","fips":"37005","name":"Alleghany County","state_id":"NC"},{"zip":"28624","fips":"37193","name":"Wilkes County","state_id":"NC"},{"zip":"28624","fips":"37027","name":"Caldwell County","state_id":"NC"},{"zip":"28625","fips":"37159","name":"Rowan County","state_id":"NC"},{"zip":"28625","fips":"37003","name":"Alexander County","state_id":"NC"},{"zip":"28625","fips":"37097","name":"Iredell County","state_id":"NC"},{"zip":"28625","fips":"37059","name":"Davie County","state_id":"NC"},{"zip":"28626","fips":"37009","name":"Ashe County","state_id":"NC"},{"zip":"28627","fips":"37005","name":"Alleghany County","state_id":"NC"},{"zip":"28628","fips":"37023","name":"Burke County","state_id":"NC"},{"zip":"28629","fips":"37009","name":"Ashe County","state_id":"NC"},{"zip":"28630","fips":"37027","name":"Caldwell County","state_id":"NC"},{"zip":"28630","fips":"37003","name":"Alexander County","state_id":"NC"},{"zip":"28631","fips":"37005","name":"Alleghany County","state_id":"NC"},{"zip":"28631","fips":"37009","name":"Ashe County","state_id":"NC"},{"zip":"28633","fips":"37027","name":"Caldwell County","state_id":"NC"},{"zip":"28634","fips":"37097","name":"Iredell County","state_id":"NC"},{"zip":"28634","fips":"37197","name":"Yadkin County","state_id":"NC"},{"zip":"28634","fips":"37059","name":"Davie County","state_id":"NC"},{"zip":"28635","fips":"37193","name":"Wilkes County","state_id":"NC"},{"zip":"28636","fips":"37003","name":"Alexander County","state_id":"NC"},{"zip":"28636","fips":"37097","name":"Iredell County","state_id":"NC"},{"zip":"28637","fips":"37023","name":"Burke County","state_id":"NC"},{"zip":"28638","fips":"37027","name":"Caldwell County","state_id":"NC"},{"zip":"28640","fips":"37009","name":"Ashe County","state_id":"NC"},{"zip":"28641","fips":"37023","name":"Burke County","state_id":"NC"},{"zip":"28642","fips":"37193","name":"Wilkes County","state_id":"NC"},{"zip":"28642","fips":"37197","name":"Yadkin County","state_id":"NC"},{"zip":"28643","fips":"37009","name":"Ashe County","state_id":"NC"},{"zip":"28644","fips":"37193","name":"Wilkes County","state_id":"NC"},{"zip":"28644","fips":"37005","name":"Alleghany County","state_id":"NC"},{"zip":"28644","fips":"37009","name":"Ashe County","state_id":"NC"},{"zip":"28645","fips":"37189","name":"Watauga County","state_id":"NC"},{"zip":"28645","fips":"37027","name":"Caldwell County","state_id":"NC"},{"zip":"28645","fips":"37193","name":"Wilkes County","state_id":"NC"},{"zip":"28645","fips":"37023","name":"Burke County","state_id":"NC"},{"zip":"28646","fips":"37011","name":"Avery County","state_id":"NC"},{"zip":"28647","fips":"37023","name":"Burke County","state_id":"NC"},{"zip":"28649","fips":"37193","name":"Wilkes County","state_id":"NC"},{"zip":"28650","fips":"37109","name":"Lincoln County","state_id":"NC"},{"zip":"28650","fips":"37035","name":"Catawba County","state_id":"NC"},{"zip":"28651","fips":"37193","name":"Wilkes County","state_id":"NC"},{"zip":"28652","fips":"37011","name":"Avery County","state_id":"NC"},{"zip":"28653","fips":"37011","name":"Avery County","state_id":"NC"},{"zip":"28654","fips":"37193","name":"Wilkes County","state_id":"NC"},{"zip":"28654","fips":"37003","name":"Alexander County","state_id":"NC"},{"zip":"28655","fips":"37021","name":"Buncombe County","state_id":"NC"},{"zip":"28655","fips":"37023","name":"Burke County","state_id":"NC"},{"zip":"28655","fips":"37111","name":"McDowell County","state_id":"NC"},{"zip":"28655","fips":"37027","name":"Caldwell County","state_id":"NC"},{"zip":"28656","fips":"37193","name":"Wilkes County","state_id":"NC"},{"zip":"28657","fips":"37023","name":"Burke County","state_id":"NC"},{"zip":"28657","fips":"37121","name":"Mitchell County","state_id":"NC"},{"zip":"28657","fips":"37111","name":"McDowell County","state_id":"NC"},{"zip":"28657","fips":"37011","name":"Avery County","state_id":"NC"},{"zip":"28658","fips":"37035","name":"Catawba County","state_id":"NC"},{"zip":"28659","fips":"37193","name":"Wilkes County","state_id":"NC"},{"zip":"28660","fips":"37097","name":"Iredell County","state_id":"NC"},{"zip":"28661","fips":"37027","name":"Caldwell County","state_id":"NC"},{"zip":"28662","fips":"37011","name":"Avery County","state_id":"NC"},{"zip":"28663","fips":"37005","name":"Alleghany County","state_id":"NC"},{"zip":"28664","fips":"37011","name":"Avery County","state_id":"NC"},{"zip":"28665","fips":"37193","name":"Wilkes County","state_id":"NC"},{"zip":"28666","fips":"37023","name":"Burke County","state_id":"NC"},{"zip":"28667","fips":"37027","name":"Caldwell County","state_id":"NC"},{"zip":"28668","fips":"37005","name":"Alleghany County","state_id":"NC"},{"zip":"28669","fips":"37171","name":"Surry County","state_id":"NC"},{"zip":"28669","fips":"37193","name":"Wilkes County","state_id":"NC"},{"zip":"28670","fips":"37193","name":"Wilkes County","state_id":"NC"},{"zip":"28671","fips":"37023","name":"Burke County","state_id":"NC"},{"zip":"28672","fips":"37009","name":"Ashe County","state_id":"NC"},{"zip":"28672","fips":"37005","name":"Alleghany County","state_id":"NC"},{"zip":"28673","fips":"37109","name":"Lincoln County","state_id":"NC"},{"zip":"28673","fips":"37035","name":"Catawba County","state_id":"NC"},{"zip":"28675","fips":"37005","name":"Alleghany County","state_id":"NC"},{"zip":"28676","fips":"37193","name":"Wilkes County","state_id":"NC"},{"zip":"28676","fips":"37171","name":"Surry County","state_id":"NC"},{"zip":"28677","fips":"37097","name":"Iredell County","state_id":"NC"},{"zip":"28678","fips":"37097","name":"Iredell County","state_id":"NC"},{"zip":"28678","fips":"37003","name":"Alexander County","state_id":"NC"},{"zip":"28679","fips":"37189","name":"Watauga County","state_id":"NC"},{"zip":"28679","fips":"37011","name":"Avery County","state_id":"NC"},{"zip":"28680","fips":"37023","name":"Burke County","state_id":"NC"},{"zip":"28681","fips":"37027","name":"Caldwell County","state_id":"NC"},{"zip":"28681","fips":"37003","name":"Alexander County","state_id":"NC"},{"zip":"28682","fips":"37035","name":"Catawba County","state_id":"NC"},{"zip":"28683","fips":"37171","name":"Surry County","state_id":"NC"},{"zip":"28683","fips":"37193","name":"Wilkes County","state_id":"NC"},{"zip":"28684","fips":"37189","name":"Watauga County","state_id":"NC"},{"zip":"28684","fips":"37009","name":"Ashe County","state_id":"NC"},{"zip":"28685","fips":"37193","name":"Wilkes County","state_id":"NC"},{"zip":"28687","fips":"37097","name":"Iredell County","state_id":"NC"},{"zip":"28688","fips":"37097","name":"Iredell County","state_id":"NC"},{"zip":"28689","fips":"37197","name":"Yadkin County","state_id":"NC"},{"zip":"28689","fips":"37193","name":"Wilkes County","state_id":"NC"},{"zip":"28689","fips":"37097","name":"Iredell County","state_id":"NC"},{"zip":"28689","fips":"37003","name":"Alexander County","state_id":"NC"},{"zip":"28690","fips":"37023","name":"Burke County","state_id":"NC"},{"zip":"28692","fips":"37189","name":"Watauga County","state_id":"NC"},{"zip":"28693","fips":"37009","name":"Ashe County","state_id":"NC"},{"zip":"28694","fips":"37193","name":"Wilkes County","state_id":"NC"},{"zip":"28694","fips":"37009","name":"Ashe County","state_id":"NC"},{"zip":"28697","fips":"37193","name":"Wilkes County","state_id":"NC"},{"zip":"28698","fips":"37009","name":"Ashe County","state_id":"NC"},{"zip":"28698","fips":"37189","name":"Watauga County","state_id":"NC"},{"zip":"28699","fips":"37097","name":"Iredell County","state_id":"NC"}]
