[{"zip":"28701","fips":"37021","name":"Buncombe County","state_id":"NC"},{"zip":"28701","fips":"37115","name":"Madison County","state_id":"NC"},{"zip":"28702","fips":"37075","name":"Graham County","state_id":"NC"},{"zip":"28702","fips":"37173","name":"Swain County","state_id":"NC"},{"zip":"28704","fips":"37021","name":"Buncombe County","state_id":"NC"},{"zip":"28704","fips":"37089","name":"Henderson County","state_id":"NC"},{"zip":"28705","fips":"37011","name":"Avery County","state_id":"NC"},{"zip":"28705","fips":"37121","name":"Mitchell County","state_id":"NC"},{"zip":"28705","fips":"37199","name":"Yancey County","state_id":"NC"},{"zip":"28707","fips":"37099","name":"Jackson County","state_id":"NC"},{"zip":"28708","fips":"37175","name":"Transylvania County","state_id":"NC"},{"zip":"28709","fips":"37021","name":"Buncombe County","state_id":"NC"},{"zip":"28710","fips":"37089","name":"Henderson County","state_id":"NC"},{"zip":"28711","fips":"37089","name":"Henderson County","state_id":"NC"},{"zip":"28711","fips":"37021","name":"Buncombe County","state_id":"NC"},{"zip":"28711","fips":"37161","name":"Rutherford County","state_id":"NC"},{"zip":"28711","fips":"37111","name":"McDowell County","state_id":"NC"},{"zip":"28712","fips":"37175","name":"Transylvania County","state_id":"NC"},{"zip":"28713","fips":"37173","name":"Swain County","state_id":"NC"},{"zip":"28713","fips":"37113","name":"Macon County","state_id":"NC"},{"zip":"28714","fips":"37121","name":"Mitchell County","state_id":"NC"},{"zip":"28714","fips":"37115","name":"Madison County","state_id":"NC"},{"zip":"28714","fips":"37199","name":"Yancey County","state_id":"NC"},{"zip":"28714","fips":"37111","name":"McDowell County","state_id":"NC"},{"zip":"28714","fips":"37021","name":"Buncombe County","state_id":"NC"},{"zip":"28715","fips":"37021","name":"Buncombe County","state_id":"NC"},{"zip":"28715","fips":"37087","name":"Haywood County","state_id":"NC"},{"zip":"28716","fips":"37087","name":"Haywood County","state_id":"NC"},{"zip":"28716","fips":"37021","name":"Buncombe County","state_id":"NC"},{"zip":"28717","fips":"37099","name":"Jackson County","state_id":"NC"},{"zip":"28717","fips":"37113","name":"Macon County","state_id":"NC"},{"zip":"28718","fips":"37175","name":"Transylvania County","state_id":"NC"},{"zip":"28719","fips":"37173","name":"Swain County","state_id":"NC"},{"zip":"28719","fips":"37087","name":"Haywood County","state_id":"NC"},{"zip":"28719","fips":"37099","name":"Jackson County","state_id":"NC"},{"zip":"28720","fips":"37161","name":"Rutherford County","state_id":"NC"},{"zip":"28721","fips":"37087","name":"Haywood County","state_id":"NC"},{"zip":"28721","fips":"37021","name":"Buncombe County","state_id":"NC"},{"zip":"28722","fips":"37149","name":"Polk County","state_id":"NC"},{"zip":"28723","fips":"37099","name":"Jackson County","state_id":"NC"},{"zip":"28723","fips":"37087","name":"Haywood County","state_id":"NC"},{"zip":"28724","fips":"37089","name":"Henderson County","state_id":"NC"},{"zip":"28725","fips":"37099","name":"Jackson County","state_id":"NC"},{"zip":"28726","fips":"37089","name":"Henderson County","state_id":"NC"},{"zip":"28727","fips":"37089","name":"Henderson County","state_id":"NC"},{"zip":"28728","fips":"37021","name":"Buncombe County","state_id":"NC"},{"zip":"28729","fips":"37089","name":"Henderson County","state_id":"NC"},{"zip":"28730","fips":"37021","name":"Buncombe County","state_id":"NC"},{"zip":"28731","fips":"37089","name":"Henderson County","state_id":"NC"},{"zip":"28731","fips":"37149","name":"Polk County","state_id":"NC"},{"zip":"28732","fips":"37021","name":"Buncombe County","state_id":"NC"},{"zip":"28732","fips":"37089","name":"Henderson County","state_id":"NC"},{"zip":"28733","fips":"37075","name":"Graham County","state_id":"NC"},{"zip":"28734","fips":"37043","name":"Clay County","state_id":"NC"},{"zip":"28734","fips":"37099","name":"Jackson County","state_id":"NC"},{"zip":"28734","fips":"37113","name":"Macon County","state_id":"NC"},{"zip":"28735","fips":"37089","name":"Henderson County","state_id":"NC"},{"zip":"28736","fips":"37099","name":"Jackson County","state_id":"NC"},{"zip":"28738","fips":"37087","name":"Haywood County","state_id":"NC"},{"zip":"28739","fips":"37175","name":"Transylvania County","state_id":"NC"},{"zip":"28739","fips":"37089","name":"Henderson County","state_id":"NC"},{"zip":"28740","fips":"37121","name":"Mitchell County","state_id":"NC"},{"zip":"28740","fips":"37199","name":"Yancey County","state_id":"NC"},{"zip":"28741","fips":"37113","name":"Macon County","state_id":"NC"},{"zip":"28741","fips":"37099","name":"Jackson County","state_id":"NC"},{"zip":"28742","fips":"37089","name":"Henderson County","state_id":"NC"},{"zip":"28742","fips":"37175","name":"Transylvania County","state_id":"NC"},{"zip":"28743","fips":"37087","name":"Haywood County","state_id":"NC"},{"zip":"28743","fips":"37115","name":"Madison County","state_id":"NC"},{"zip":"28744","fips":"37113","name":"Macon County","state_id":"NC"},{"zip":"28745","fips":"37087","name":"Haywood County","state_id":"NC"},{"zip":"28746","fips":"37161","name":"Rutherford County","state_id":"NC"},{"zip":"28747","fips":"37099","name":"Jackson County","state_id":"NC"},{"zip":"28747","fips":"37175","name":"Transylvania County","state_id":"NC"},{"zip":"28748","fips":"37087","name":"Haywood County","state_id":"NC"},{"zip":"28748","fips":"37021","name":"Buncombe County","state_id":"NC"},{"zip":"28748","fips":"37115","name":"Madison County","state_id":"NC"},{"zip":"28749","fips":"37111","name":"McDowell County","state_id":"NC"},{"zip":"28750","fips":"37149","name":"Polk County","state_id":"NC"},{"zip":"28751","fips":"37087","name":"Haywood County","state_id":"NC"},{"zip":"28751","fips":"37099","name":"Jackson County","state_id":"NC"},{"zip":"28752","fips":"37121","name":"Mitchell County","state_id":"NC"},{"zip":"28752","fips":"37011","name":"Avery County","state_id":"NC"},{"zip":"28752","fips":"37111","name":"McDowell County","state_id":"NC"},{"zip":"28752","fips":"37161","name":"Rutherford County","state_id":"NC"},{"zip":"28753","fips":"37021","name":"Buncombe County","state_id":"NC"},{"zip":"28753","fips":"37115","name":"Madison County","state_id":"NC"},{"zip":"28754","fips":"37115","name":"Madison County","state_id":"NC"},{"zip":"28754","fips":"37199","name":"Yancey County","state_id":"NC"},{"zip":"28754","fips":"37021","name":"Buncombe County","state_id":"NC"},{"zip":"28755","fips":"37199","name":"Yancey County","state_id":"NC"},{"zip":"28756","fips":"37161","name":"Rutherford County","state_id":"NC"},{"zip":"28756","fips":"37149","name":"Polk County","state_id":"NC"},{"zip":"28756","fips":"37089","name":"Henderson County","state_id":"NC"},{"zip":"28757","fips":"37021","name":"Buncombe County","state_id":"NC"},{"zip":"28758","fips":"37089","name":"Henderson County","state_id":"NC"},{"zip":"28759","fips":"37175","name":"Transylvania County","state_id":"NC"},{"zip":"28759","fips":"37089","name":"Henderson County","state_id":"NC"},{"zip":"28759","fips":"37021","name":"Buncombe County","state_id":"NC"},{"zip":"28760","fips":"37089","name":"Henderson County","state_id":"NC"},{"zip":"28761","fips":"37023","name":"Burke County","state_id":"NC"},{"zip":"28761","fips":"37111","name":"McDowell County","state_id":"NC"},{"zip":"28762","fips":"37021","name":"Buncombe County","state_id":"NC"},{"zip":"28762","fips":"37111","name":"McDowell County","state_id":"NC"},{"zip":"28763","fips":"37113","name":"Macon County","state_id":"NC"},{"zip":"28765","fips":"37121","name":"Mitchell County","state_id":"NC"},{"zip":"28766","fips":"37089","name":"Henderson County","state_id":"NC"},{"zip":"28766","fips":"37175","name":"Transylvania County","state_id":"NC"},{"zip":"28768","fips":"37089","name":"Henderson County","state_id":"NC"},{"zip":"28768","fips":"37175","name":"Transylvania County","state_id":"NC"},{"zip":"28770","fips":"37021","name":"Buncombe County","state_id":"NC"},{"zip":"28771","fips":"37075","name":"Graham County","state_id":"NC"},{"zip":"28771","fips":"37039","name":"Cherokee County","state_id":"NC"},{"zip":"28771","fips":"37173","name":"Swain County","state_id":"NC"},{"zip":"28772","fips":"37175","name":"Transylvania County","state_id":"NC"},{"zip":"28773","fips":"37089","name":"Henderson County","state_id":"NC"},{"zip":"28773","fips":"37149","name":"Polk County","state_id":"NC"},{"zip":"28774","fips":"37175","name":"Transylvania County","state_id":"NC"},{"zip":"28774","fips":"37099","name":"Jackson County","state_id":"NC"},{"zip":"28775","fips":"37113","name":"Macon County","state_id":"NC"},{"zip":"28776","fips":"37021","name":"Buncombe County","state_id":"NC"},{"zip":"28777","fips":"37199","name":"Yancey County","state_id":"NC"},{"zip":"28777","fips":"37121","name":"Mitchell County","state_id":"NC"},{"zip":"28777","fips":"37011","name":"Avery County","state_id":"NC"},{"zip":"28777","fips":"37111","name":"McDowell County","state_id":"NC"},{"zip":"28778","fips":"37021","name":"Buncombe County","state_id":"NC"},{"zip":"28779","fips":"37099","name":"Jackson County","state_id":"NC"},{"zip":"28779","fips":"37113","name":"Macon County","state_id":"NC"},{"zip":"28779","fips":"37087","name":"Haywood County","state_id":"NC"},{"zip":"28781","fips":"37113","name":"Macon County","state_id":"NC"},{"zip":"28782","fips":"37149","name":"Polk County","state_id":"NC"},{"zip":"28783","fips":"37175","name":"Transylvania County","state_id":"NC"},{"zip":"28783","fips":"37099","name":"Jackson County","state_id":"NC"},{"zip":"28784","fips":"37089","name":"Henderson County","state_id":"NC"},{"zip":"28785","fips":"37087","name":"Haywood County","state_id":"NC"},{"zip":"28786","fips":"37087","name":"Haywood County","state_id":"NC"},{"zip":"28787","fips":"37115","name":"Madison County","state_id":"NC"},{"zip":"28787","fips":"37021","name":"Buncombe County","state_id":"NC"},{"zip":"28788","fips":"37099","name":"Jackson County","state_id":"NC"},{"zip":"28789","fips":"37173","name":"Swain County","state_id":"NC"},{"zip":"28789","fips":"37099","name":"Jackson County","state_id":"NC"},{"zip":"28790","fips":"37089","name":"Henderson County","state_id":"NC"},{"zip":"28791","fips":"37089","name":"Henderson County","state_id":"NC"},{"zip":"28791","fips":"37021","name":"Buncombe County","state_id":"NC"},{"zip":"28792","fips":"37149","name":"Polk County","state_id":"NC"},{"zip":"28792","fips":"37021","name":"Buncombe County","state_id":"NC"},{"zip":"28792","fips":"37089","name":"Henderson County","state_id":"NC"},{"zip":"28793","fips":"37089","name":"Henderson County","state_id":"NC"}]
