[{"zip":"29001","fips":"45085","name":"Sumter County","state_id":"SC"},{"zip":"29001","fips":"45027","name":"Clarendon County","state_id":"SC"},{"zip":"29002","fips":"45079","name":"Richland County","state_id":"SC"},{"zip":"29003","fips":"45009","name":"Bamberg County","state_id":"SC"},{"zip":"29006","fips":"45003","name":"Aiken County","state_id":"SC"},{"zip":"29006","fips":"45063","name":"Lexington County","state_id":"SC"},{"zip":"29006","fips":"45081","name":"Saluda County","state_id":"SC"},{"zip":"29009","fips":"45025","name":"Chesterfield County","state_id":"SC"},{"zip":"29009","fips":"45055","name":"Kershaw County","state_id":"SC"},{"zip":"29009","fips":"45061","name":"Lee County","state_id":"SC"},{"zip":"29010","fips":"45061","name":"Lee County","state_id":"SC"},{"zip":"29010","fips":"45055","name":"Kershaw County","state_id":"SC"},{"zip":"29014","fips":"45023","name":"Chester County","state_id":"SC"},{"zip":"29014","fips":"45039","name":"Fairfield County","state_id":"SC"},{"zip":"29015","fips":"45039","name":"Fairfield County","state_id":"SC"},{"zip":"29016","fips":"45079","name":"Richland County","state_id":"SC"},{"zip":"29016","fips":"45039","name":"Fairfield County","state_id":"SC"},{"zip":"29018","fips":"45035","name":"Dorchester County","state_id":"SC"},{"zip":"29018","fips":"45075","name":"Orangeburg County","state_id":"SC"},{"zip":"29020","fips":"45055","name":"Kershaw County","state_id":"SC"},{"zip":"29020","fips":"45061","name":"Lee County","state_id":"SC"},{"zip":"29021","fips":"45055","name":"Kershaw County","state_id":"SC"},{"zip":"29030","fips":"45075","name":"Orangeburg County","state_id":"SC"},{"zip":"29030","fips":"45017","name":"Calhoun County","state_id":"SC"},{"zip":"29031","fips":"45023","name":"Chester County","state_id":"SC"},{"zip":"29031","fips":"45087","name":"Union County","state_id":"SC"},{"zip":"29031","fips":"45039","name":"Fairfield County","state_id":"SC"},{"zip":"29032","fips":"45061","name":"Lee County","state_id":"SC"},{"zip":"29032","fips":"45055","name":"Kershaw County","state_id":"SC"},{"zip":"29033","fips":"45063","name":"Lexington County","state_id":"SC"},{"zip":"29036","fips":"45079","name":"Richland County","state_id":"SC"},{"zip":"29036","fips":"45063","name":"Lexington County","state_id":"SC"},{"zip":"29036","fips":"45071","name":"Newberry County","state_id":"SC"},{"zip":"29037","fips":"45071","name":"Newberry County","state_id":"SC"},{"zip":"29037","fips":"45059","name":"Laurens County","state_id":"SC"},{"zip":"29037","fips":"45081","name":"Saluda County","state_id":"SC"},{"zip":"29038","fips":"45075","name":"Orangeburg County","state_id":"SC"},{"zip":"29038","fips":"45009","name":"Bamberg County","state_id":"SC"},{"zip":"29039","fips":"45075","name":"Orangeburg County","state_id":"SC"},{"zip":"29040","fips":"45061","name":"Lee County","state_id":"SC"},{"zip":"29040","fips":"45085","name":"Sumter County","state_id":"SC"},{"zip":"29041","fips":"45027","name":"Clarendon County","state_id":"SC"},{"zip":"29042","fips":"45009","name":"Bamberg County","state_id":"SC"},{"zip":"29044","fips":"45079","name":"Richland County","state_id":"SC"},{"zip":"29045","fips":"45039","name":"Fairfield County","state_id":"SC"},{"zip":"29045","fips":"45055","name":"Kershaw County","state_id":"SC"},{"zip":"29045","fips":"45079","name":"Richland County","state_id":"SC"},{"zip":"29046","fips":"45061","name":"Lee County","state_id":"SC"},{"zip":"29047","fips":"45075","name":"Orangeburg County","state_id":"SC"},{"zip":"29047","fips":"45017","name":"Calhoun County","state_id":"SC"},{"zip":"29048","fips":"45075","name":"Orangeburg County","state_id":"SC"},{"zip":"29051","fips":"45027","name":"Clarendon County","state_id":"SC"},{"zip":"29051","fips":"45085","name":"Sumter County","state_id":"SC"},{"zip":"29052","fips":"45079","name":"Richland County","state_id":"SC"},{"zip":"29053","fips":"45017","name":"Calhoun County","state_id":"SC"},{"zip":"29053","fips":"45063","name":"Lexington County","state_id":"SC"},{"zip":"29054","fips":"45063","name":"Lexington County","state_id":"SC"},{"zip":"29055","fips":"45023","name":"Chester County","state_id":"SC"},{"zip":"29055","fips":"45039","name":"Fairfield County","state_id":"SC"},{"zip":"29056","fips":"45089","name":"Williamsburg County","state_id":"SC"},{"zip":"29056","fips":"45027","name":"Clarendon County","state_id":"SC"},{"zip":"29058","fips":"45055","name":"Kershaw County","state_id":"SC"},{"zip":"29058","fips":"45057","name":"Lancaster County","state_id":"SC"},{"zip":"29059","fips":"45015","name":"Berkeley County","state_id":"SC"},{"zip":"29059","fips":"45075","name":"Orangeburg County","state_id":"SC"},{"zip":"29061","fips":"45079","name":"Richland County","state_id":"SC"},{"zip":"29062","fips":"45085","name":"Sumter County","state_id":"SC"},{"zip":"29063","fips":"45063","name":"Lexington County","state_id":"SC"},{"zip":"29063","fips":"45079","name":"Richland County","state_id":"SC"},{"zip":"29065","fips":"45039","name":"Fairfield County","state_id":"SC"},{"zip":"29067","fips":"45057","name":"Lancaster County","state_id":"SC"},{"zip":"29067","fips":"45055","name":"Kershaw County","state_id":"SC"},{"zip":"29069","fips":"45031","name":"Darlington County","state_id":"SC"},{"zip":"29069","fips":"45061","name":"Lee County","state_id":"SC"},{"zip":"29070","fips":"45063","name":"Lexington County","state_id":"SC"},{"zip":"29070","fips":"45081","name":"Saluda County","state_id":"SC"},{"zip":"29071","fips":"45063","name":"Lexington County","state_id":"SC"},{"zip":"29072","fips":"45063","name":"Lexington County","state_id":"SC"},{"zip":"29073","fips":"45063","name":"Lexington County","state_id":"SC"},{"zip":"29074","fips":"45055","name":"Kershaw County","state_id":"SC"},{"zip":"29075","fips":"45071","name":"Newberry County","state_id":"SC"},{"zip":"29075","fips":"45063","name":"Lexington County","state_id":"SC"},{"zip":"29075","fips":"45079","name":"Richland County","state_id":"SC"},{"zip":"29078","fips":"45055","name":"Kershaw County","state_id":"SC"},{"zip":"29078","fips":"45079","name":"Richland County","state_id":"SC"},{"zip":"29079","fips":"45031","name":"Darlington County","state_id":"SC"},{"zip":"29080","fips":"45085","name":"Sumter County","state_id":"SC"},{"zip":"29080","fips":"45061","name":"Lee County","state_id":"SC"},{"zip":"29081","fips":"45029","name":"Colleton County","state_id":"SC"},{"zip":"29081","fips":"45009","name":"Bamberg County","state_id":"SC"},{"zip":"29082","fips":"45009","name":"Bamberg County","state_id":"SC"},{"zip":"29082","fips":"45029","name":"Colleton County","state_id":"SC"}]
