[{"zip":"29101","fips":"45031","name":"Darlington County","state_id":"SC"},{"zip":"29101","fips":"45025","name":"Chesterfield County","state_id":"SC"},{"zip":"29102","fips":"45027","name":"Clarendon County","state_id":"SC"},{"zip":"29102","fips":"45085","name":"Sumter County","state_id":"SC"},{"zip":"29104","fips":"45085","name":"Sumter County","state_id":"SC"},{"zip":"29104","fips":"45061","name":"Lee County","state_id":"SC"},{"zip":"29105","fips":"45003","name":"Aiken County","state_id":"SC"},{"zip":"29105","fips":"45081","name":"Saluda County","state_id":"SC"},{"zip":"29107","fips":"45075","name":"Orangeburg County","state_id":"SC"},{"zip":"29108","fips":"45071","name":"Newberry County","state_id":"SC"},{"zip":"29111","fips":"45027","name":"Clarendon County","state_id":"SC"},{"zip":"29111","fips":"45089","name":"Williamsburg County","state_id":"SC"},{"zip":"29112","fips":"45063","name":"Lexington County","state_id":"SC"},{"zip":"29112","fips":"45075","name":"Orangeburg County","state_id":"SC"},{"zip":"29112","fips":"45017","name":"Calhoun County","state_id":"SC"},{"zip":"29113","fips":"45075","name":"Orangeburg County","state_id":"SC"},{"zip":"29114","fips":"45027","name":"Clarendon County","state_id":"SC"},{"zip":"29114","fips":"45041","name":"Florence County","state_id":"SC"},{"zip":"29114","fips":"45085","name":"Sumter County","state_id":"SC"},{"zip":"29115","fips":"45075","name":"Orangeburg County","state_id":"SC"},{"zip":"29116","fips":"45075","name":"Orangeburg County","state_id":"SC"},{"zip":"29117","fips":"45075","name":"Orangeburg County","state_id":"SC"},{"zip":"29118","fips":"45075","name":"Orangeburg County","state_id":"SC"},{"zip":"29118","fips":"45017","name":"Calhoun County","state_id":"SC"},{"zip":"29122","fips":"45071","name":"Newberry County","state_id":"SC"},{"zip":"29123","fips":"45063","name":"Lexington County","state_id":"SC"},{"zip":"29125","fips":"45085","name":"Sumter County","state_id":"SC"},{"zip":"29125","fips":"45027","name":"Clarendon County","state_id":"SC"},{"zip":"29126","fips":"45071","name":"Newberry County","state_id":"SC"},{"zip":"29127","fips":"45071","name":"Newberry County","state_id":"SC"},{"zip":"29127","fips":"45081","name":"Saluda County","state_id":"SC"},{"zip":"29128","fips":"45055","name":"Kershaw County","state_id":"SC"},{"zip":"29128","fips":"45085","name":"Sumter County","state_id":"SC"},{"zip":"29128","fips":"45061","name":"Lee County","state_id":"SC"},{"zip":"29129","fips":"45037","name":"Edgefield County","state_id":"SC"},{"zip":"29129","fips":"45003","name":"Aiken County","state_id":"SC"},{"zip":"29129","fips":"45081","name":"Saluda County","state_id":"SC"},{"zip":"29130","fips":"45039","name":"Fairfield County","state_id":"SC"},{"zip":"29130","fips":"45055","name":"Kershaw County","state_id":"SC"},{"zip":"29130","fips":"45079","name":"Richland County","state_id":"SC"},{"zip":"29132","fips":"45039","name":"Fairfield County","state_id":"SC"},{"zip":"29133","fips":"45075","name":"Orangeburg County","state_id":"SC"},{"zip":"29135","fips":"45017","name":"Calhoun County","state_id":"SC"},{"zip":"29135","fips":"45075","name":"Orangeburg County","state_id":"SC"},{"zip":"29137","fips":"45003","name":"Aiken County","state_id":"SC"},{"zip":"29137","fips":"45075","name":"Orangeburg County","state_id":"SC"},{"zip":"29138","fips":"45081","name":"Saluda County","state_id":"SC"},{"zip":"29138","fips":"45047","name":"Greenwood County","state_id":"SC"},{"zip":"29138","fips":"45037","name":"Edgefield County","state_id":"SC"},{"zip":"29142","fips":"45075","name":"Orangeburg County","state_id":"SC"},{"zip":"29145","fips":"45071","name":"Newberry County","state_id":"SC"},{"zip":"29146","fips":"45075","name":"Orangeburg County","state_id":"SC"},{"zip":"29146","fips":"45003","name":"Aiken County","state_id":"SC"},{"zip":"29147","fips":"45079","name":"Richland County","state_id":"SC"},{"zip":"29148","fips":"45027","name":"Clarendon County","state_id":"SC"},{"zip":"29150","fips":"45085","name":"Sumter County","state_id":"SC"},{"zip":"29151","fips":"45085","name":"Sumter County","state_id":"SC"},{"zip":"29152","fips":"45085","name":"Sumter County","state_id":"SC"},{"zip":"29153","fips":"45085","name":"Sumter County","state_id":"SC"},{"zip":"29153","fips":"45061","name":"Lee County","state_id":"SC"},{"zip":"29154","fips":"45085","name":"Sumter County","state_id":"SC"},{"zip":"29160","fips":"45063","name":"Lexington County","state_id":"SC"},{"zip":"29160","fips":"45075","name":"Orangeburg County","state_id":"SC"},{"zip":"29160","fips":"45017","name":"Calhoun County","state_id":"SC"},{"zip":"29161","fips":"45031","name":"Darlington County","state_id":"SC"},{"zip":"29161","fips":"45041","name":"Florence County","state_id":"SC"},{"zip":"29162","fips":"45027","name":"Clarendon County","state_id":"SC"},{"zip":"29162","fips":"45085","name":"Sumter County","state_id":"SC"},{"zip":"29163","fips":"45075","name":"Orangeburg County","state_id":"SC"},{"zip":"29164","fips":"45003","name":"Aiken County","state_id":"SC"},{"zip":"29166","fips":"45081","name":"Saluda County","state_id":"SC"},{"zip":"29168","fips":"45085","name":"Sumter County","state_id":"SC"},{"zip":"29169","fips":"45063","name":"Lexington County","state_id":"SC"},{"zip":"29170","fips":"45063","name":"Lexington County","state_id":"SC"},{"zip":"29171","fips":"45063","name":"Lexington County","state_id":"SC"},{"zip":"29172","fips":"45063","name":"Lexington County","state_id":"SC"},{"zip":"29175","fips":"45055","name":"Kershaw County","state_id":"SC"},{"zip":"29177","fips":"45079","name":"Richland County","state_id":"SC"},{"zip":"29178","fips":"45087","name":"Union County","state_id":"SC"},{"zip":"29178","fips":"45071","name":"Newberry County","state_id":"SC"},{"zip":"29178","fips":"45059","name":"Laurens County","state_id":"SC"},{"zip":"29180","fips":"45079","name":"Richland County","state_id":"SC"},{"zip":"29180","fips":"45039","name":"Fairfield County","state_id":"SC"}]
