[{"zip":"29201","fips":"45079","name":"Richland County","state_id":"SC"},{"zip":"29202","fips":"45079","name":"Richland County","state_id":"SC"},{"zip":"29203","fips":"45079","name":"Richland County","state_id":"SC"},{"zip":"29204","fips":"45079","name":"Richland County","state_id":"SC"},{"zip":"29205","fips":"45079","name":"Richland County","state_id":"SC"},{"zip":"29206","fips":"45079","name":"Richland County","state_id":"SC"},{"zip":"29207","fips":"45079","name":"Richland County","state_id":"SC"},{"zip":"29208","fips":"45079","name":"Richland County","state_id":"SC"},{"zip":"29209","fips":"45079","name":"Richland County","state_id":"SC"},{"zip":"29210","fips":"45063","name":"Lexington County","state_id":"SC"},{"zip":"29210","fips":"45079","name":"Richland County","state_id":"SC"},{"zip":"29211","fips":"45079","name":"Richland County","state_id":"SC"},{"zip":"29212","fips":"45063","name":"Lexington County","state_id":"SC"},{"zip":"29212","fips":"45079","name":"Richland County","state_id":"SC"},{"zip":"29214","fips":"45063","name":"Lexington County","state_id":"SC"},{"zip":"29214","fips":"45079","name":"Richland County","state_id":"SC"},{"zip":"29215","fips":"45079","name":"Richland County","state_id":"SC"},{"zip":"29216","fips":"45079","name":"Richland County","state_id":"SC"},{"zip":"29217","fips":"45079","name":"Richland County","state_id":"SC"},{"zip":"29218","fips":"45079","name":"Richland County","state_id":"SC"},{"zip":"29219","fips":"45079","name":"Richland County","state_id":"SC"},{"zip":"29220","fips":"45079","name":"Richland County","state_id":"SC"},{"zip":"29221","fips":"45079","name":"Richland County","state_id":"SC"},{"zip":"29222","fips":"45079","name":"Richland County","state_id":"SC"},{"zip":"29223","fips":"45079","name":"Richland County","state_id":"SC"},{"zip":"29224","fips":"45079","name":"Richland County","state_id":"SC"},{"zip":"29225","fips":"45079","name":"Richland County","state_id":"SC"},{"zip":"29226","fips":"45079","name":"Richland County","state_id":"SC"},{"zip":"29227","fips":"45079","name":"Richland County","state_id":"SC"},{"zip":"29229","fips":"45079","name":"Richland County","state_id":"SC"},{"zip":"29230","fips":"45079","name":"Richland County","state_id":"SC"},{"zip":"29240","fips":"45079","name":"Richland County","state_id":"SC"},{"zip":"29250","fips":"45079","name":"Richland County","state_id":"SC"},{"zip":"29260","fips":"45079","name":"Richland County","state_id":"SC"},{"zip":"29290","fips":"45079","name":"Richland County","state_id":"SC"},{"zip":"29292","fips":"45079","name":"Richland County","state_id":"SC"}]
