[{"zip":"29301","fips":"45083","name":"Spartanburg County","state_id":"SC"},{"zip":"29302","fips":"45083","name":"Spartanburg County","state_id":"SC"},{"zip":"29303","fips":"45083","name":"Spartanburg County","state_id":"SC"},{"zip":"29304","fips":"45083","name":"Spartanburg County","state_id":"SC"},{"zip":"29305","fips":"45083","name":"Spartanburg County","state_id":"SC"},{"zip":"29306","fips":"45083","name":"Spartanburg County","state_id":"SC"},{"zip":"29306","fips":"45021","name":"Cherokee County","state_id":"SC"},{"zip":"29307","fips":"45083","name":"Spartanburg County","state_id":"SC"},{"zip":"29307","fips":"45021","name":"Cherokee County","state_id":"SC"},{"zip":"29316","fips":"45083","name":"Spartanburg County","state_id":"SC"},{"zip":"29319","fips":"45083","name":"Spartanburg County","state_id":"SC"},{"zip":"29320","fips":"45083","name":"Spartanburg County","state_id":"SC"},{"zip":"29321","fips":"45087","name":"Union County","state_id":"SC"},{"zip":"29322","fips":"45045","name":"Greenville County","state_id":"SC"},{"zip":"29322","fips":"45083","name":"Spartanburg County","state_id":"SC"},{"zip":"29323","fips":"45083","name":"Spartanburg County","state_id":"SC"},{"zip":"29323","fips":"45021","name":"Cherokee County","state_id":"SC"},{"zip":"29324","fips":"45083","name":"Spartanburg County","state_id":"SC"},{"zip":"29325","fips":"45059","name":"Laurens County","state_id":"SC"},{"zip":"29329","fips":"45083","name":"Spartanburg County","state_id":"SC"},{"zip":"29330","fips":"45021","name":"Cherokee County","state_id":"SC"},{"zip":"29330","fips":"45083","name":"Spartanburg County","state_id":"SC"},{"zip":"29331","fips":"45083","name":"Spartanburg County","state_id":"SC"},{"zip":"29332","fips":"45071","name":"Newberry County","state_id":"SC"},{"zip":"29332","fips":"45059","name":"Laurens County","state_id":"SC"},{"zip":"29333","fips":"45083","name":"Spartanburg County","state_id":"SC"},{"zip":"29334","fips":"45083","name":"Spartanburg County","state_id":"SC"},{"zip":"29335","fips":"45087","name":"Union County","state_id":"SC"},{"zip":"29335","fips":"45059","name":"Laurens County","state_id":"SC"},{"zip":"29335","fips":"45083","name":"Spartanburg County","state_id":"SC"},{"zip":"29336","fips":"45083","name":"Spartanburg County","state_id":"SC"},{"zip":"29338","fips":"45083","name":"Spartanburg County","state_id":"SC"},{"zip":"29340","fips":"45021","name":"Cherokee County","state_id":"SC"},{"zip":"29341","fips":"45021","name":"Cherokee County","state_id":"SC"},{"zip":"29346","fips":"45083","name":"Spartanburg County","state_id":"SC"},{"zip":"29348","fips":"45083","name":"Spartanburg County","state_id":"SC"},{"zip":"29349","fips":"45083","name":"Spartanburg County","state_id":"SC"},{"zip":"29351","fips":"45059","name":"Laurens County","state_id":"SC"},{"zip":"29353","fips":"45087","name":"Union County","state_id":"SC"},{"zip":"29355","fips":"45059","name":"Laurens County","state_id":"SC"},{"zip":"29355","fips":"45071","name":"Newberry County","state_id":"SC"},{"zip":"29356","fips":"45045","name":"Greenville County","state_id":"SC"},{"zip":"29356","fips":"45083","name":"Spartanburg County","state_id":"SC"},{"zip":"29360","fips":"45059","name":"Laurens County","state_id":"SC"},{"zip":"29364","fips":"45087","name":"Union County","state_id":"SC"},{"zip":"29365","fips":"45083","name":"Spartanburg County","state_id":"SC"},{"zip":"29368","fips":"45083","name":"Spartanburg County","state_id":"SC"},{"zip":"29369","fips":"45083","name":"Spartanburg County","state_id":"SC"},{"zip":"29370","fips":"45059","name":"Laurens County","state_id":"SC"},{"zip":"29372","fips":"45083","name":"Spartanburg County","state_id":"SC"},{"zip":"29372","fips":"45021","name":"Cherokee County","state_id":"SC"},{"zip":"29372","fips":"45087","name":"Union County","state_id":"SC"},{"zip":"29373","fips":"45083","name":"Spartanburg County","state_id":"SC"},{"zip":"29374","fips":"45087","name":"Union County","state_id":"SC"},{"zip":"29374","fips":"45083","name":"Spartanburg County","state_id":"SC"},{"zip":"29375","fips":"45083","name":"Spartanburg County","state_id":"SC"},{"zip":"29376","fips":"45083","name":"Spartanburg County","state_id":"SC"},{"zip":"29377","fips":"45083","name":"Spartanburg County","state_id":"SC"},{"zip":"29378","fips":"45083","name":"Spartanburg County","state_id":"SC"},{"zip":"29379","fips":"45087","name":"Union County","state_id":"SC"},{"zip":"29384","fips":"45059","name":"Laurens County","state_id":"SC"},{"zip":"29385","fips":"45083","name":"Spartanburg County","state_id":"SC"},{"zip":"29386","fips":"45083","name":"Spartanburg County","state_id":"SC"},{"zip":"29388","fips":"45059","name":"Laurens County","state_id":"SC"},{"zip":"29388","fips":"45083","name":"Spartanburg County","state_id":"SC"},{"zip":"29395","fips":"45087","name":"Union County","state_id":"SC"}]
