[{"zip":"29401","fips":"45019","name":"Charleston County","state_id":"SC"},{"zip":"29402","fips":"45019","name":"Charleston County","state_id":"SC"},{"zip":"29403","fips":"45019","name":"Charleston County","state_id":"SC"},{"zip":"29404","fips":"45019","name":"Charleston County","state_id":"SC"},{"zip":"29405","fips":"45019","name":"Charleston County","state_id":"SC"},{"zip":"29406","fips":"45019","name":"Charleston County","state_id":"SC"},{"zip":"29406","fips":"45015","name":"Berkeley County","state_id":"SC"},{"zip":"29407","fips":"45019","name":"Charleston County","state_id":"SC"},{"zip":"29409","fips":"45019","name":"Charleston County","state_id":"SC"},{"zip":"29410","fips":"45015","name":"Berkeley County","state_id":"SC"},{"zip":"29410","fips":"45019","name":"Charleston County","state_id":"SC"},{"zip":"29412","fips":"45019","name":"Charleston County","state_id":"SC"},{"zip":"29413","fips":"45019","name":"Charleston County","state_id":"SC"},{"zip":"29414","fips":"45019","name":"Charleston County","state_id":"SC"},{"zip":"29414","fips":"45035","name":"Dorchester County","state_id":"SC"},{"zip":"29415","fips":"45019","name":"Charleston County","state_id":"SC"},{"zip":"29416","fips":"45019","name":"Charleston County","state_id":"SC"},{"zip":"29417","fips":"45019","name":"Charleston County","state_id":"SC"},{"zip":"29418","fips":"45035","name":"Dorchester County","state_id":"SC"},{"zip":"29418","fips":"45019","name":"Charleston County","state_id":"SC"},{"zip":"29419","fips":"45019","name":"Charleston County","state_id":"SC"},{"zip":"29420","fips":"45019","name":"Charleston County","state_id":"SC"},{"zip":"29420","fips":"45035","name":"Dorchester County","state_id":"SC"},{"zip":"29422","fips":"45019","name":"Charleston County","state_id":"SC"},{"zip":"29423","fips":"45019","name":"Charleston County","state_id":"SC"},{"zip":"29424","fips":"45019","name":"Charleston County","state_id":"SC"},{"zip":"29425","fips":"45019","name":"Charleston County","state_id":"SC"},{"zip":"29426","fips":"45019","name":"Charleston County","state_id":"SC"},{"zip":"29426","fips":"45035","name":"Dorchester County","state_id":"SC"},{"zip":"29429","fips":"45019","name":"Charleston County","state_id":"SC"},{"zip":"29431","fips":"45015","name":"Berkeley County","state_id":"SC"},{"zip":"29432","fips":"45035","name":"Dorchester County","state_id":"SC"},{"zip":"29432","fips":"45009","name":"Bamberg County","state_id":"SC"},{"zip":"29432","fips":"45075","name":"Orangeburg County","state_id":"SC"},{"zip":"29432","fips":"45029","name":"Colleton County","state_id":"SC"},{"zip":"29434","fips":"45015","name":"Berkeley County","state_id":"SC"},{"zip":"29435","fips":"45029","name":"Colleton County","state_id":"SC"},{"zip":"29436","fips":"45015","name":"Berkeley County","state_id":"SC"},{"zip":"29436","fips":"45075","name":"Orangeburg County","state_id":"SC"},{"zip":"29437","fips":"45035","name":"Dorchester County","state_id":"SC"},{"zip":"29438","fips":"45029","name":"Colleton County","state_id":"SC"},{"zip":"29438","fips":"45019","name":"Charleston County","state_id":"SC"},{"zip":"29439","fips":"45019","name":"Charleston County","state_id":"SC"},{"zip":"29440","fips":"45043","name":"Georgetown County","state_id":"SC"},{"zip":"29440","fips":"45089","name":"Williamsburg County","state_id":"SC"},{"zip":"29442","fips":"45043","name":"Georgetown County","state_id":"SC"},{"zip":"29445","fips":"45015","name":"Berkeley County","state_id":"SC"},{"zip":"29446","fips":"45029","name":"Colleton County","state_id":"SC"},{"zip":"29447","fips":"45035","name":"Dorchester County","state_id":"SC"},{"zip":"29448","fips":"45035","name":"Dorchester County","state_id":"SC"},{"zip":"29449","fips":"45019","name":"Charleston County","state_id":"SC"},{"zip":"29450","fips":"45015","name":"Berkeley County","state_id":"SC"},{"zip":"29450","fips":"45019","name":"Charleston County","state_id":"SC"},{"zip":"29451","fips":"45019","name":"Charleston County","state_id":"SC"},{"zip":"29452","fips":"45029","name":"Colleton County","state_id":"SC"},{"zip":"29453","fips":"45019","name":"Charleston County","state_id":"SC"},{"zip":"29453","fips":"45015","name":"Berkeley County","state_id":"SC"},{"zip":"29455","fips":"45019","name":"Charleston County","state_id":"SC"},{"zip":"29456","fips":"45019","name":"Charleston County","state_id":"SC"},{"zip":"29456","fips":"45035","name":"Dorchester County","state_id":"SC"},{"zip":"29456","fips":"45015","name":"Berkeley County","state_id":"SC"},{"zip":"29457","fips":"45019","name":"Charleston County","state_id":"SC"},{"zip":"29458","fips":"45019","name":"Charleston County","state_id":"SC"},{"zip":"29461","fips":"45015","name":"Berkeley County","state_id":"SC"},{"zip":"29464","fips":"45019","name":"Charleston County","state_id":"SC"},{"zip":"29465","fips":"45019","name":"Charleston County","state_id":"SC"},{"zip":"29466","fips":"45019","name":"Charleston County","state_id":"SC"},{"zip":"29466","fips":"45015","name":"Berkeley County","state_id":"SC"},{"zip":"29468","fips":"45015","name":"Berkeley County","state_id":"SC"},{"zip":"29469","fips":"45015","name":"Berkeley County","state_id":"SC"},{"zip":"29470","fips":"45035","name":"Dorchester County","state_id":"SC"},{"zip":"29470","fips":"45019","name":"Charleston County","state_id":"SC"},{"zip":"29471","fips":"45035","name":"Dorchester County","state_id":"SC"},{"zip":"29471","fips":"45075","name":"Orangeburg County","state_id":"SC"},{"zip":"29472","fips":"45015","name":"Berkeley County","state_id":"SC"},{"zip":"29472","fips":"45035","name":"Dorchester County","state_id":"SC"},{"zip":"29472","fips":"45029","name":"Colleton County","state_id":"SC"},{"zip":"29474","fips":"45029","name":"Colleton County","state_id":"SC"},{"zip":"29475","fips":"45029","name":"Colleton County","state_id":"SC"},{"zip":"29476","fips":"45015","name":"Berkeley County","state_id":"SC"},{"zip":"29477","fips":"45035","name":"Dorchester County","state_id":"SC"},{"zip":"29477","fips":"45029","name":"Colleton County","state_id":"SC"},{"zip":"29477","fips":"45075","name":"Orangeburg County","state_id":"SC"},{"zip":"29479","fips":"45015","name":"Berkeley County","state_id":"SC"},{"zip":"29481","fips":"45009","name":"Bamberg County","state_id":"SC"},{"zip":"29481","fips":"45029","name":"Colleton County","state_id":"SC"},{"zip":"29482","fips":"45019","name":"Charleston County","state_id":"SC"},{"zip":"29483","fips":"45035","name":"Dorchester County","state_id":"SC"},{"zip":"29483","fips":"45019","name":"Charleston County","state_id":"SC"},{"zip":"29483","fips":"45015","name":"Berkeley County","state_id":"SC"},{"zip":"29484","fips":"45035","name":"Dorchester County","state_id":"SC"},{"zip":"29485","fips":"45035","name":"Dorchester County","state_id":"SC"},{"zip":"29485","fips":"45019","name":"Charleston County","state_id":"SC"},{"zip":"29486","fips":"45015","name":"Berkeley County","state_id":"SC"},{"zip":"29487","fips":"45019","name":"Charleston County","state_id":"SC"},{"zip":"29488","fips":"45029","name":"Colleton County","state_id":"SC"},{"zip":"29492","fips":"45015","name":"Berkeley County","state_id":"SC"},{"zip":"29493","fips":"45029","name":"Colleton County","state_id":"SC"}]
