[{"zip":"29501","fips":"45041","name":"Florence County","state_id":"SC"},{"zip":"29501","fips":"45031","name":"Darlington County","state_id":"SC"},{"zip":"29502","fips":"45041","name":"Florence County","state_id":"SC"},{"zip":"29503","fips":"45041","name":"Florence County","state_id":"SC"},{"zip":"29504","fips":"45041","name":"Florence County","state_id":"SC"},{"zip":"29505","fips":"45041","name":"Florence County","state_id":"SC"},{"zip":"29506","fips":"45041","name":"Florence County","state_id":"SC"},{"zip":"29506","fips":"45031","name":"Darlington County","state_id":"SC"},{"zip":"29510","fips":"45089","name":"Williamsburg County","state_id":"SC"},{"zip":"29510","fips":"45043","name":"Georgetown County","state_id":"SC"},{"zip":"29511","fips":"45051","name":"Horry County","state_id":"SC"},{"zip":"29512","fips":"45069","name":"Marlboro County","state_id":"SC"},{"zip":"29516","fips":"45069","name":"Marlboro County","state_id":"SC"},{"zip":"29518","fips":"45089","name":"Williamsburg County","state_id":"SC"},{"zip":"29518","fips":"45027","name":"Clarendon County","state_id":"SC"},{"zip":"29519","fips":"45067","name":"Marion County","state_id":"SC"},{"zip":"29520","fips":"45025","name":"Chesterfield County","state_id":"SC"},{"zip":"29525","fips":"45033","name":"Dillon County","state_id":"SC"},{"zip":"29525","fips":"45069","name":"Marlboro County","state_id":"SC"},{"zip":"29526","fips":"45051","name":"Horry County","state_id":"SC"},{"zip":"29527","fips":"45051","name":"Horry County","state_id":"SC"},{"zip":"29528","fips":"45051","name":"Horry County","state_id":"SC"},{"zip":"29530","fips":"45041","name":"Florence County","state_id":"SC"},{"zip":"29532","fips":"45031","name":"Darlington County","state_id":"SC"},{"zip":"29532","fips":"45041","name":"Florence County","state_id":"SC"},{"zip":"29536","fips":"45033","name":"Dillon County","state_id":"SC"},{"zip":"29540","fips":"45031","name":"Darlington County","state_id":"SC"},{"zip":"29541","fips":"45041","name":"Florence County","state_id":"SC"},{"zip":"29543","fips":"45033","name":"Dillon County","state_id":"SC"},{"zip":"29544","fips":"45051","name":"Horry County","state_id":"SC"},{"zip":"29545","fips":"45051","name":"Horry County","state_id":"SC"},{"zip":"29546","fips":"45067","name":"Marion County","state_id":"SC"},{"zip":"29547","fips":"45033","name":"Dillon County","state_id":"SC"},{"zip":"29550","fips":"45031","name":"Darlington County","state_id":"SC"},{"zip":"29550","fips":"45025","name":"Chesterfield County","state_id":"SC"},{"zip":"29550","fips":"45061","name":"Lee County","state_id":"SC"},{"zip":"29551","fips":"45031","name":"Darlington County","state_id":"SC"},{"zip":"29554","fips":"45043","name":"Georgetown County","state_id":"SC"},{"zip":"29554","fips":"45041","name":"Florence County","state_id":"SC"},{"zip":"29554","fips":"45089","name":"Williamsburg County","state_id":"SC"},{"zip":"29555","fips":"45041","name":"Florence County","state_id":"SC"},{"zip":"29555","fips":"45089","name":"Williamsburg County","state_id":"SC"},{"zip":"29556","fips":"45089","name":"Williamsburg County","state_id":"SC"},{"zip":"29560","fips":"45089","name":"Williamsburg County","state_id":"SC"},{"zip":"29560","fips":"45027","name":"Clarendon County","state_id":"SC"},{"zip":"29560","fips":"45041","name":"Florence County","state_id":"SC"},{"zip":"29563","fips":"45033","name":"Dillon County","state_id":"SC"},{"zip":"29564","fips":"45089","name":"Williamsburg County","state_id":"SC"},{"zip":"29565","fips":"45033","name":"Dillon County","state_id":"SC"},{"zip":"29565","fips":"45067","name":"Marion County","state_id":"SC"},{"zip":"29565","fips":"45069","name":"Marlboro County","state_id":"SC"},{"zip":"29566","fips":"45051","name":"Horry County","state_id":"SC"},{"zip":"29567","fips":"45033","name":"Dillon County","state_id":"SC"},{"zip":"29568","fips":"45051","name":"Horry County","state_id":"SC"},{"zip":"29569","fips":"45051","name":"Horry County","state_id":"SC"},{"zip":"29570","fips":"45069","name":"Marlboro County","state_id":"SC"},{"zip":"29571","fips":"45067","name":"Marion County","state_id":"SC"},{"zip":"29571","fips":"45033","name":"Dillon County","state_id":"SC"},{"zip":"29572","fips":"45051","name":"Horry County","state_id":"SC"},{"zip":"29574","fips":"45067","name":"Marion County","state_id":"SC"},{"zip":"29574","fips":"45033","name":"Dillon County","state_id":"SC"},{"zip":"29575","fips":"45051","name":"Horry County","state_id":"SC"},{"zip":"29576","fips":"45043","name":"Georgetown County","state_id":"SC"},{"zip":"29576","fips":"45051","name":"Horry County","state_id":"SC"},{"zip":"29577","fips":"45051","name":"Horry County","state_id":"SC"},{"zip":"29578","fips":"45051","name":"Horry County","state_id":"SC"},{"zip":"29579","fips":"45051","name":"Horry County","state_id":"SC"},{"zip":"29580","fips":"45089","name":"Williamsburg County","state_id":"SC"},{"zip":"29581","fips":"45051","name":"Horry County","state_id":"SC"},{"zip":"29581","fips":"45067","name":"Marion County","state_id":"SC"},{"zip":"29581","fips":"45033","name":"Dillon County","state_id":"SC"},{"zip":"29582","fips":"45051","name":"Horry County","state_id":"SC"},{"zip":"29583","fips":"45041","name":"Florence County","state_id":"SC"},{"zip":"29584","fips":"45025","name":"Chesterfield County","state_id":"SC"},{"zip":"29585","fips":"45043","name":"Georgetown County","state_id":"SC"},{"zip":"29587","fips":"45051","name":"Horry County","state_id":"SC"},{"zip":"29588","fips":"45051","name":"Horry County","state_id":"SC"},{"zip":"29589","fips":"45067","name":"Marion County","state_id":"SC"},{"zip":"29590","fips":"45089","name":"Williamsburg County","state_id":"SC"},{"zip":"29591","fips":"45041","name":"Florence County","state_id":"SC"},{"zip":"29592","fips":"45067","name":"Marion County","state_id":"SC"},{"zip":"29592","fips":"45033","name":"Dillon County","state_id":"SC"},{"zip":"29593","fips":"45025","name":"Chesterfield County","state_id":"SC"},{"zip":"29593","fips":"45031","name":"Darlington County","state_id":"SC"},{"zip":"29594","fips":"45069","name":"Marlboro County","state_id":"SC"},{"zip":"29596","fips":"45069","name":"Marlboro County","state_id":"SC"},{"zip":"29597","fips":"45051","name":"Horry County","state_id":"SC"},{"zip":"29598","fips":"45051","name":"Horry County","state_id":"SC"}]
