[{"zip":"29601","fips":"45045","name":"Greenville County","state_id":"SC"},{"zip":"29602","fips":"45045","name":"Greenville County","state_id":"SC"},{"zip":"29603","fips":"45045","name":"Greenville County","state_id":"SC"},{"zip":"29604","fips":"45045","name":"Greenville County","state_id":"SC"},{"zip":"29605","fips":"45045","name":"Greenville County","state_id":"SC"},{"zip":"29606","fips":"45045","name":"Greenville County","state_id":"SC"},{"zip":"29607","fips":"45045","name":"Greenville County","state_id":"SC"},{"zip":"29608","fips":"45045","name":"Greenville County","state_id":"SC"},{"zip":"29609","fips":"45045","name":"Greenville County","state_id":"SC"},{"zip":"29610","fips":"45045","name":"Greenville County","state_id":"SC"},{"zip":"29611","fips":"45077","name":"Pickens County","state_id":"SC"},{"zip":"29611","fips":"45007","name":"Anderson County","state_id":"SC"},{"zip":"29611","fips":"45045","name":"Greenville County","state_id":"SC"},{"zip":"29612","fips":"45045","name":"Greenville County","state_id":"SC"},{"zip":"29613","fips":"45045","name":"Greenville County","state_id":"SC"},{"zip":"29614","fips":"45045","name":"Greenville County","state_id":"SC"},{"zip":"29615","fips":"45045","name":"Greenville County","state_id":"SC"},{"zip":"29616","fips":"45045","name":"Greenville County","state_id":"SC"},{"zip":"29617","fips":"45045","name":"Greenville County","state_id":"SC"},{"zip":"29620","fips":"45001","name":"Abbeville County","state_id":"SC"},{"zip":"29620","fips":"45065","name":"McCormick County","state_id":"SC"},{"zip":"29621","fips":"45007","name":"Anderson County","state_id":"SC"},{"zip":"29622","fips":"45007","name":"Anderson County","state_id":"SC"},{"zip":"29623","fips":"45007","name":"Anderson County","state_id":"SC"},{"zip":"29624","fips":"45007","name":"Anderson County","state_id":"SC"},{"zip":"29625","fips":"45007","name":"Anderson County","state_id":"SC"},{"zip":"29626","fips":"45007","name":"Anderson County","state_id":"SC"},{"zip":"29627","fips":"45007","name":"Anderson County","state_id":"SC"},{"zip":"29627","fips":"45001","name":"Abbeville County","state_id":"SC"},{"zip":"29627","fips":"45045","name":"Greenville County","state_id":"SC"},{"zip":"29628","fips":"45065","name":"McCormick County","state_id":"SC"},{"zip":"29628","fips":"45001","name":"Abbeville County","state_id":"SC"},{"zip":"29630","fips":"45007","name":"Anderson County","state_id":"SC"},{"zip":"29630","fips":"45077","name":"Pickens County","state_id":"SC"},{"zip":"29631","fips":"45007","name":"Anderson County","state_id":"SC"},{"zip":"29631","fips":"45077","name":"Pickens County","state_id":"SC"},{"zip":"29632","fips":"45077","name":"Pickens County","state_id":"SC"},{"zip":"29633","fips":"45077","name":"Pickens County","state_id":"SC"},{"zip":"29634","fips":"45077","name":"Pickens County","state_id":"SC"},{"zip":"29635","fips":"45045","name":"Greenville County","state_id":"SC"},{"zip":"29635","fips":"45077","name":"Pickens County","state_id":"SC"},{"zip":"29636","fips":"45045","name":"Greenville County","state_id":"SC"},{"zip":"29638","fips":"45047","name":"Greenwood County","state_id":"SC"},{"zip":"29638","fips":"45001","name":"Abbeville County","state_id":"SC"},{"zip":"29639","fips":"45001","name":"Abbeville County","state_id":"SC"},{"zip":"29640","fips":"45077","name":"Pickens County","state_id":"SC"},{"zip":"29641","fips":"45077","name":"Pickens County","state_id":"SC"},{"zip":"29642","fips":"45077","name":"Pickens County","state_id":"SC"},{"zip":"29642","fips":"45007","name":"Anderson County","state_id":"SC"},{"zip":"29643","fips":"45073","name":"Oconee County","state_id":"SC"},{"zip":"29643","fips":"45007","name":"Anderson County","state_id":"SC"},{"zip":"29644","fips":"45045","name":"Greenville County","state_id":"SC"},{"zip":"29644","fips":"45059","name":"Laurens County","state_id":"SC"},{"zip":"29645","fips":"45083","name":"Spartanburg County","state_id":"SC"},{"zip":"29645","fips":"45059","name":"Laurens County","state_id":"SC"},{"zip":"29646","fips":"45047","name":"Greenwood County","state_id":"SC"},{"zip":"29646","fips":"45001","name":"Abbeville County","state_id":"SC"},{"zip":"29647","fips":"45047","name":"Greenwood County","state_id":"SC"},{"zip":"29648","fips":"45047","name":"Greenwood County","state_id":"SC"},{"zip":"29649","fips":"45047","name":"Greenwood County","state_id":"SC"},{"zip":"29649","fips":"45001","name":"Abbeville County","state_id":"SC"},{"zip":"29650","fips":"45083","name":"Spartanburg County","state_id":"SC"},{"zip":"29650","fips":"45045","name":"Greenville County","state_id":"SC"},{"zip":"29651","fips":"45045","name":"Greenville County","state_id":"SC"},{"zip":"29651","fips":"45083","name":"Spartanburg County","state_id":"SC"},{"zip":"29652","fips":"45045","name":"Greenville County","state_id":"SC"},{"zip":"29653","fips":"45001","name":"Abbeville County","state_id":"SC"},{"zip":"29653","fips":"45047","name":"Greenwood County","state_id":"SC"},{"zip":"29654","fips":"45007","name":"Anderson County","state_id":"SC"},{"zip":"29654","fips":"45001","name":"Abbeville County","state_id":"SC"},{"zip":"29654","fips":"45045","name":"Greenville County","state_id":"SC"},{"zip":"29654","fips":"45059","name":"Laurens County","state_id":"SC"},{"zip":"29655","fips":"45001","name":"Abbeville County","state_id":"SC"},{"zip":"29655","fips":"45007","name":"Anderson County","state_id":"SC"},{"zip":"29656","fips":"45007","name":"Anderson County","state_id":"SC"},{"zip":"29657","fips":"45077","name":"Pickens County","state_id":"SC"},{"zip":"29657","fips":"45007","name":"Anderson County","state_id":"SC"},{"zip":"29658","fips":"45073","name":"Oconee County","state_id":"SC"},{"zip":"29659","fips":"45001","name":"Abbeville County","state_id":"SC"},{"zip":"29661","fips":"45045","name":"Greenville County","state_id":"SC"},{"zip":"29661","fips":"45077","name":"Pickens County","state_id":"SC"},{"zip":"29662","fips":"45045","name":"Greenville County","state_id":"SC"},{"zip":"29664","fips":"45073","name":"Oconee County","state_id":"SC"},{"zip":"29665","fips":"45073","name":"Oconee County","state_id":"SC"},{"zip":"29666","fips":"45047","name":"Greenwood County","state_id":"SC"},{"zip":"29666","fips":"45081","name":"Saluda County","state_id":"SC"},{"zip":"29667","fips":"45077","name":"Pickens County","state_id":"SC"},{"zip":"29669","fips":"45007","name":"Anderson County","state_id":"SC"},{"zip":"29669","fips":"45045","name":"Greenville County","state_id":"SC"},{"zip":"29670","fips":"45007","name":"Anderson County","state_id":"SC"},{"zip":"29670","fips":"45077","name":"Pickens County","state_id":"SC"},{"zip":"29671","fips":"45077","name":"Pickens County","state_id":"SC"},{"zip":"29672","fips":"45073","name":"Oconee County","state_id":"SC"},{"zip":"29673","fips":"45045","name":"Greenville County","state_id":"SC"},{"zip":"29673","fips":"45007","name":"Anderson County","state_id":"SC"},{"zip":"29675","fips":"45073","name":"Oconee County","state_id":"SC"},{"zip":"29676","fips":"45073","name":"Oconee County","state_id":"SC"},{"zip":"29677","fips":"45007","name":"Anderson County","state_id":"SC"},{"zip":"29678","fips":"45073","name":"Oconee County","state_id":"SC"},{"zip":"29678","fips":"45077","name":"Pickens County","state_id":"SC"},{"zip":"29678","fips":"45007","name":"Anderson County","state_id":"SC"},{"zip":"29679","fips":"45073","name":"Oconee County","state_id":"SC"},{"zip":"29680","fips":"45045","name":"Greenville County","state_id":"SC"},{"zip":"29681","fips":"45045","name":"Greenville County","state_id":"SC"},{"zip":"29681","fips":"45059","name":"Laurens County","state_id":"SC"},{"zip":"29682","fips":"45077","name":"Pickens County","state_id":"SC"},{"zip":"29683","fips":"45045","name":"Greenville County","state_id":"SC"},{"zip":"29684","fips":"45007","name":"Anderson County","state_id":"SC"},{"zip":"29685","fips":"45077","name":"Pickens County","state_id":"SC"},{"zip":"29686","fips":"45073","name":"Oconee County","state_id":"SC"},{"zip":"29687","fips":"45045","name":"Greenville County","state_id":"SC"},{"zip":"29688","fips":"45045","name":"Greenville County","state_id":"SC"},{"zip":"29689","fips":"45073","name":"Oconee County","state_id":"SC"},{"zip":"29689","fips":"45007","name":"Anderson County","state_id":"SC"},{"zip":"29690","fips":"45045","name":"Greenville County","state_id":"SC"},{"zip":"29691","fips":"45073","name":"Oconee County","state_id":"SC"},{"zip":"29692","fips":"45047","name":"Greenwood County","state_id":"SC"},{"zip":"29692","fips":"45001","name":"Abbeville County","state_id":"SC"},{"zip":"29692","fips":"45059","name":"Laurens County","state_id":"SC"},{"zip":"29693","fips":"45073","name":"Oconee County","state_id":"SC"},{"zip":"29695","fips":"45047","name":"Greenwood County","state_id":"SC"},{"zip":"29696","fips":"45073","name":"Oconee County","state_id":"SC"},{"zip":"29697","fips":"45007","name":"Anderson County","state_id":"SC"}]
