[{"zip":"29702","fips":"45091","name":"York County","state_id":"SC"},{"zip":"29702","fips":"45021","name":"Cherokee County","state_id":"SC"},{"zip":"29703","fips":"45091","name":"York County","state_id":"SC"},{"zip":"29704","fips":"45023","name":"Chester County","state_id":"SC"},{"zip":"29704","fips":"45091","name":"York County","state_id":"SC"},{"zip":"29706","fips":"45091","name":"York County","state_id":"SC"},{"zip":"29706","fips":"45023","name":"Chester County","state_id":"SC"},{"zip":"29707","fips":"45091","name":"York County","state_id":"SC"},{"zip":"29707","fips":"45057","name":"Lancaster County","state_id":"SC"},{"zip":"29708","fips":"45091","name":"York County","state_id":"SC"},{"zip":"29709","fips":"45025","name":"Chesterfield County","state_id":"SC"},{"zip":"29710","fips":"45091","name":"York County","state_id":"SC"},{"zip":"29712","fips":"45091","name":"York County","state_id":"SC"},{"zip":"29712","fips":"45023","name":"Chester County","state_id":"SC"},{"zip":"29714","fips":"45023","name":"Chester County","state_id":"SC"},{"zip":"29715","fips":"45091","name":"York County","state_id":"SC"},{"zip":"29716","fips":"45091","name":"York County","state_id":"SC"},{"zip":"29717","fips":"45091","name":"York County","state_id":"SC"},{"zip":"29718","fips":"45055","name":"Kershaw County","state_id":"SC"},{"zip":"29718","fips":"45057","name":"Lancaster County","state_id":"SC"},{"zip":"29718","fips":"45025","name":"Chesterfield County","state_id":"SC"},{"zip":"29720","fips":"45057","name":"Lancaster County","state_id":"SC"},{"zip":"29720","fips":"45025","name":"Chesterfield County","state_id":"SC"},{"zip":"29721","fips":"45057","name":"Lancaster County","state_id":"SC"},{"zip":"29726","fips":"45091","name":"York County","state_id":"SC"},{"zip":"29727","fips":"45025","name":"Chesterfield County","state_id":"SC"},{"zip":"29728","fips":"45057","name":"Lancaster County","state_id":"SC"},{"zip":"29728","fips":"45025","name":"Chesterfield County","state_id":"SC"},{"zip":"29729","fips":"45023","name":"Chester County","state_id":"SC"},{"zip":"29730","fips":"45023","name":"Chester County","state_id":"SC"},{"zip":"29730","fips":"45091","name":"York County","state_id":"SC"},{"zip":"29731","fips":"45091","name":"York County","state_id":"SC"},{"zip":"29732","fips":"45091","name":"York County","state_id":"SC"},{"zip":"29733","fips":"45091","name":"York County","state_id":"SC"},{"zip":"29734","fips":"45091","name":"York County","state_id":"SC"},{"zip":"29741","fips":"45025","name":"Chesterfield County","state_id":"SC"},{"zip":"29742","fips":"45091","name":"York County","state_id":"SC"},{"zip":"29742","fips":"45023","name":"Chester County","state_id":"SC"},{"zip":"29743","fips":"45091","name":"York County","state_id":"SC"},{"zip":"29743","fips":"45021","name":"Cherokee County","state_id":"SC"},{"zip":"29744","fips":"45057","name":"Lancaster County","state_id":"SC"},{"zip":"29745","fips":"45091","name":"York County","state_id":"SC"}]
