[{"zip":"29801","fips":"45003","name":"Aiken County","state_id":"SC"},{"zip":"29802","fips":"45003","name":"Aiken County","state_id":"SC"},{"zip":"29803","fips":"45003","name":"Aiken County","state_id":"SC"},{"zip":"29804","fips":"45003","name":"Aiken County","state_id":"SC"},{"zip":"29805","fips":"45003","name":"Aiken County","state_id":"SC"},{"zip":"29808","fips":"45011","name":"Barnwell County","state_id":"SC"},{"zip":"29809","fips":"45003","name":"Aiken County","state_id":"SC"},{"zip":"29810","fips":"45005","name":"Allendale County","state_id":"SC"},{"zip":"29812","fips":"45005","name":"Allendale County","state_id":"SC"},{"zip":"29812","fips":"45011","name":"Barnwell County","state_id":"SC"},{"zip":"29813","fips":"45011","name":"Barnwell County","state_id":"SC"},{"zip":"29816","fips":"45003","name":"Aiken County","state_id":"SC"},{"zip":"29817","fips":"45009","name":"Bamberg County","state_id":"SC"},{"zip":"29817","fips":"45011","name":"Barnwell County","state_id":"SC"},{"zip":"29819","fips":"45001","name":"Abbeville County","state_id":"SC"},{"zip":"29819","fips":"45065","name":"McCormick County","state_id":"SC"},{"zip":"29819","fips":"45047","name":"Greenwood County","state_id":"SC"},{"zip":"29821","fips":"45037","name":"Edgefield County","state_id":"SC"},{"zip":"29821","fips":"45065","name":"McCormick County","state_id":"SC"},{"zip":"29822","fips":"45003","name":"Aiken County","state_id":"SC"},{"zip":"29824","fips":"45037","name":"Edgefield County","state_id":"SC"},{"zip":"29824","fips":"45081","name":"Saluda County","state_id":"SC"},{"zip":"29826","fips":"45011","name":"Barnwell County","state_id":"SC"},{"zip":"29827","fips":"45005","name":"Allendale County","state_id":"SC"},{"zip":"29827","fips":"45049","name":"Hampton County","state_id":"SC"},{"zip":"29828","fips":"45003","name":"Aiken County","state_id":"SC"},{"zip":"29829","fips":"45003","name":"Aiken County","state_id":"SC"},{"zip":"29831","fips":"45003","name":"Aiken County","state_id":"SC"},{"zip":"29832","fips":"45003","name":"Aiken County","state_id":"SC"},{"zip":"29832","fips":"45081","name":"Saluda County","state_id":"SC"},{"zip":"29832","fips":"45037","name":"Edgefield County","state_id":"SC"},{"zip":"29834","fips":"45003","name":"Aiken County","state_id":"SC"},{"zip":"29835","fips":"45065","name":"McCormick County","state_id":"SC"},{"zip":"29835","fips":"45037","name":"Edgefield County","state_id":"SC"},{"zip":"29836","fips":"45011","name":"Barnwell County","state_id":"SC"},{"zip":"29836","fips":"45005","name":"Allendale County","state_id":"SC"},{"zip":"29838","fips":"45065","name":"McCormick County","state_id":"SC"},{"zip":"29838","fips":"45037","name":"Edgefield County","state_id":"SC"},{"zip":"29839","fips":"45003","name":"Aiken County","state_id":"SC"},{"zip":"29840","fips":"45065","name":"McCormick County","state_id":"SC"},{"zip":"29841","fips":"45003","name":"Aiken County","state_id":"SC"},{"zip":"29841","fips":"45037","name":"Edgefield County","state_id":"SC"},{"zip":"29842","fips":"45003","name":"Aiken County","state_id":"SC"},{"zip":"29843","fips":"45009","name":"Bamberg County","state_id":"SC"},{"zip":"29843","fips":"45011","name":"Barnwell County","state_id":"SC"},{"zip":"29844","fips":"45065","name":"McCormick County","state_id":"SC"},{"zip":"29845","fips":"45065","name":"McCormick County","state_id":"SC"},{"zip":"29845","fips":"45037","name":"Edgefield County","state_id":"SC"},{"zip":"29846","fips":"45005","name":"Allendale County","state_id":"SC"},{"zip":"29847","fips":"45037","name":"Edgefield County","state_id":"SC"},{"zip":"29847","fips":"45003","name":"Aiken County","state_id":"SC"},{"zip":"29848","fips":"45047","name":"Greenwood County","state_id":"SC"},{"zip":"29848","fips":"45065","name":"McCormick County","state_id":"SC"},{"zip":"29848","fips":"45081","name":"Saluda County","state_id":"SC"},{"zip":"29849","fips":"45005","name":"Allendale County","state_id":"SC"},{"zip":"29849","fips":"45011","name":"Barnwell County","state_id":"SC"},{"zip":"29850","fips":"45003","name":"Aiken County","state_id":"SC"},{"zip":"29851","fips":"45003","name":"Aiken County","state_id":"SC"},{"zip":"29853","fips":"45003","name":"Aiken County","state_id":"SC"},{"zip":"29853","fips":"45011","name":"Barnwell County","state_id":"SC"},{"zip":"29856","fips":"45003","name":"Aiken County","state_id":"SC"},{"zip":"29860","fips":"45037","name":"Edgefield County","state_id":"SC"},{"zip":"29860","fips":"45003","name":"Aiken County","state_id":"SC"},{"zip":"29861","fips":"45003","name":"Aiken County","state_id":"SC"},{"zip":"29899","fips":"45065","name":"McCormick County","state_id":"SC"}]
