[{"zip":"29901","fips":"45013","name":"Beaufort County","state_id":"SC"},{"zip":"29902","fips":"45013","name":"Beaufort County","state_id":"SC"},{"zip":"29903","fips":"45013","name":"Beaufort County","state_id":"SC"},{"zip":"29904","fips":"45013","name":"Beaufort County","state_id":"SC"},{"zip":"29905","fips":"45013","name":"Beaufort County","state_id":"SC"},{"zip":"29906","fips":"45013","name":"Beaufort County","state_id":"SC"},{"zip":"29907","fips":"45013","name":"Beaufort County","state_id":"SC"},{"zip":"29909","fips":"45013","name":"Beaufort County","state_id":"SC"},{"zip":"29909","fips":"45053","name":"Jasper County","state_id":"SC"},{"zip":"29910","fips":"45013","name":"Beaufort County","state_id":"SC"},{"zip":"29911","fips":"45049","name":"Hampton County","state_id":"SC"},{"zip":"29912","fips":"45053","name":"Jasper County","state_id":"SC"},{"zip":"29915","fips":"45013","name":"Beaufort County","state_id":"SC"},{"zip":"29916","fips":"45053","name":"Jasper County","state_id":"SC"},{"zip":"29916","fips":"45049","name":"Hampton County","state_id":"SC"},{"zip":"29918","fips":"45049","name":"Hampton County","state_id":"SC"},{"zip":"29920","fips":"45013","name":"Beaufort County","state_id":"SC"},{"zip":"29921","fips":"45049","name":"Hampton County","state_id":"SC"},{"zip":"29922","fips":"45049","name":"Hampton County","state_id":"SC"},{"zip":"29922","fips":"45053","name":"Jasper County","state_id":"SC"},{"zip":"29923","fips":"45049","name":"Hampton County","state_id":"SC"},{"zip":"29924","fips":"45049","name":"Hampton County","state_id":"SC"},{"zip":"29925","fips":"45013","name":"Beaufort County","state_id":"SC"},{"zip":"29926","fips":"45013","name":"Beaufort County","state_id":"SC"},{"zip":"29927","fips":"45053","name":"Jasper County","state_id":"SC"},{"zip":"29928","fips":"45013","name":"Beaufort County","state_id":"SC"},{"zip":"29929","fips":"45029","name":"Colleton County","state_id":"SC"},{"zip":"29931","fips":"45013","name":"Beaufort County","state_id":"SC"},{"zip":"29932","fips":"45049","name":"Hampton County","state_id":"SC"},{"zip":"29932","fips":"45005","name":"Allendale County","state_id":"SC"},{"zip":"29933","fips":"45049","name":"Hampton County","state_id":"SC"},{"zip":"29934","fips":"45053","name":"Jasper County","state_id":"SC"},{"zip":"29934","fips":"45049","name":"Hampton County","state_id":"SC"},{"zip":"29935","fips":"45013","name":"Beaufort County","state_id":"SC"},{"zip":"29936","fips":"45013","name":"Beaufort County","state_id":"SC"},{"zip":"29936","fips":"45053","name":"Jasper County","state_id":"SC"},{"zip":"29938","fips":"45013","name":"Beaufort County","state_id":"SC"},{"zip":"29939","fips":"45049","name":"Hampton County","state_id":"SC"},{"zip":"29940","fips":"45013","name":"Beaufort County","state_id":"SC"},{"zip":"29941","fips":"45013","name":"Beaufort County","state_id":"SC"},{"zip":"29943","fips":"45053","name":"Jasper County","state_id":"SC"},{"zip":"29944","fips":"45053","name":"Jasper County","state_id":"SC"},{"zip":"29944","fips":"45049","name":"Hampton County","state_id":"SC"},{"zip":"29945","fips":"45013","name":"Beaufort County","state_id":"SC"},{"zip":"29945","fips":"45049","name":"Hampton County","state_id":"SC"},{"zip":"29945","fips":"45029","name":"Colleton County","state_id":"SC"},{"zip":"29945","fips":"45053","name":"Jasper County","state_id":"SC"}]
