[{"zip":"50001","fips":"19181","name":"Warren County","state_id":"IA"},{"zip":"50002","fips":"19077","name":"Guthrie County","state_id":"IA"},{"zip":"50002","fips":"19001","name":"Adair County","state_id":"IA"},{"zip":"50003","fips":"19049","name":"Dallas County","state_id":"IA"},{"zip":"50005","fips":"19127","name":"Marshall County","state_id":"IA"},{"zip":"50006","fips":"19083","name":"Hardin County","state_id":"IA"},{"zip":"50006","fips":"19069","name":"Franklin County","state_id":"IA"},{"zip":"50006","fips":"19079","name":"Hamilton County","state_id":"IA"},{"zip":"50006","fips":"19197","name":"Wright County","state_id":"IA"},{"zip":"50007","fips":"19153","name":"Polk County","state_id":"IA"},{"zip":"50008","fips":"19185","name":"Wayne County","state_id":"IA"},{"zip":"50009","fips":"19153","name":"Polk County","state_id":"IA"},{"zip":"50010","fips":"19169","name":"Story County","state_id":"IA"},{"zip":"50011","fips":"19169","name":"Story County","state_id":"IA"},{"zip":"50012","fips":"19169","name":"Story County","state_id":"IA"},{"zip":"50013","fips":"19169","name":"Story County","state_id":"IA"},{"zip":"50014","fips":"19015","name":"Boone County","state_id":"IA"},{"zip":"50014","fips":"19169","name":"Story County","state_id":"IA"},{"zip":"50020","fips":"19029","name":"Cass County","state_id":"IA"},{"zip":"50020","fips":"19077","name":"Guthrie County","state_id":"IA"},{"zip":"50020","fips":"19001","name":"Adair County","state_id":"IA"},{"zip":"50020","fips":"19009","name":"Audubon County","state_id":"IA"},{"zip":"50021","fips":"19153","name":"Polk County","state_id":"IA"},{"zip":"50022","fips":"19165","name":"Shelby County","state_id":"IA"},{"zip":"50022","fips":"19009","name":"Audubon County","state_id":"IA"},{"zip":"50022","fips":"19029","name":"Cass County","state_id":"IA"},{"zip":"50023","fips":"19153","name":"Polk County","state_id":"IA"},{"zip":"50025","fips":"19027","name":"Carroll County","state_id":"IA"},{"zip":"50025","fips":"19165","name":"Shelby County","state_id":"IA"},{"zip":"50025","fips":"19009","name":"Audubon County","state_id":"IA"},{"zip":"50026","fips":"19073","name":"Greene County","state_id":"IA"},{"zip":"50026","fips":"19077","name":"Guthrie County","state_id":"IA"},{"zip":"50027","fips":"19157","name":"Poweshiek County","state_id":"IA"},{"zip":"50027","fips":"19123","name":"Mahaska County","state_id":"IA"},{"zip":"50028","fips":"19127","name":"Marshall County","state_id":"IA"},{"zip":"50028","fips":"19099","name":"Jasper County","state_id":"IA"},{"zip":"50029","fips":"19073","name":"Greene County","state_id":"IA"},{"zip":"50029","fips":"19077","name":"Guthrie County","state_id":"IA"},{"zip":"50031","fips":"19015","name":"Boone County","state_id":"IA"},{"zip":"50032","fips":"19153","name":"Polk County","state_id":"IA"},{"zip":"50033","fips":"19121","name":"Madison County","state_id":"IA"},{"zip":"50033","fips":"19181","name":"Warren County","state_id":"IA"},{"zip":"50034","fips":"19079","name":"Hamilton County","state_id":"IA"},{"zip":"50034","fips":"19197","name":"Wright County","state_id":"IA"},{"zip":"50035","fips":"19153","name":"Polk County","state_id":"IA"},{"zip":"50036","fips":"19079","name":"Hamilton County","state_id":"IA"},{"zip":"50036","fips":"19015","name":"Boone County","state_id":"IA"},{"zip":"50038","fips":"19049","name":"Dallas County","state_id":"IA"},{"zip":"50038","fips":"19121","name":"Madison County","state_id":"IA"},{"zip":"50039","fips":"19015","name":"Boone County","state_id":"IA"},{"zip":"50039","fips":"19049","name":"Dallas County","state_id":"IA"},{"zip":"50040","fips":"19015","name":"Boone County","state_id":"IA"},{"zip":"50041","fips":"19069","name":"Franklin County","state_id":"IA"},{"zip":"50042","fips":"19009","name":"Audubon County","state_id":"IA"},{"zip":"50042","fips":"19029","name":"Cass County","state_id":"IA"},{"zip":"50044","fips":"19125","name":"Marion County","state_id":"IA"},{"zip":"50044","fips":"19123","name":"Mahaska County","state_id":"IA"},{"zip":"50044","fips":"19135","name":"Monroe County","state_id":"IA"},{"zip":"50046","fips":"19153","name":"Polk County","state_id":"IA"},{"zip":"50046","fips":"19169","name":"Story County","state_id":"IA"},{"zip":"50047","fips":"19181","name":"Warren County","state_id":"IA"},{"zip":"50047","fips":"19153","name":"Polk County","state_id":"IA"},{"zip":"50048","fips":"19001","name":"Adair County","state_id":"IA"},{"zip":"50048","fips":"19077","name":"Guthrie County","state_id":"IA"},{"zip":"50049","fips":"19185","name":"Wayne County","state_id":"IA"},{"zip":"50049","fips":"19125","name":"Marion County","state_id":"IA"},{"zip":"50049","fips":"19117","name":"Lucas County","state_id":"IA"},{"zip":"50050","fips":"19027","name":"Carroll County","state_id":"IA"},{"zip":"50050","fips":"19025","name":"Calhoun County","state_id":"IA"},{"zip":"50050","fips":"19073","name":"Greene County","state_id":"IA"},{"zip":"50051","fips":"19127","name":"Marshall County","state_id":"IA"},{"zip":"50052","fips":"19185","name":"Wayne County","state_id":"IA"},{"zip":"50054","fips":"19153","name":"Polk County","state_id":"IA"},{"zip":"50054","fips":"19099","name":"Jasper County","state_id":"IA"},{"zip":"50055","fips":"19127","name":"Marshall County","state_id":"IA"},{"zip":"50055","fips":"19169","name":"Story County","state_id":"IA"},{"zip":"50055","fips":"19099","name":"Jasper County","state_id":"IA"},{"zip":"50056","fips":"19169","name":"Story County","state_id":"IA"},{"zip":"50057","fips":"19125","name":"Marion County","state_id":"IA"},{"zip":"50057","fips":"19117","name":"Lucas County","state_id":"IA"},{"zip":"50057","fips":"19135","name":"Monroe County","state_id":"IA"},{"zip":"50058","fips":"19009","name":"Audubon County","state_id":"IA"},{"zip":"50058","fips":"19027","name":"Carroll County","state_id":"IA"},{"zip":"50058","fips":"19077","name":"Guthrie County","state_id":"IA"},{"zip":"50058","fips":"19073","name":"Greene County","state_id":"IA"},{"zip":"50059","fips":"19073","name":"Greene County","state_id":"IA"},{"zip":"50060","fips":"19185","name":"Wayne County","state_id":"IA"},{"zip":"50060","fips":"19117","name":"Lucas County","state_id":"IA"},{"zip":"50061","fips":"19121","name":"Madison County","state_id":"IA"},{"zip":"50061","fips":"19181","name":"Warren County","state_id":"IA"},{"zip":"50061","fips":"19049","name":"Dallas County","state_id":"IA"},{"zip":"50061","fips":"19153","name":"Polk County","state_id":"IA"},{"zip":"50062","fips":"19125","name":"Marion County","state_id":"IA"},{"zip":"50063","fips":"19049","name":"Dallas County","state_id":"IA"},{"zip":"50064","fips":"19015","name":"Boone County","state_id":"IA"},{"zip":"50064","fips":"19073","name":"Greene County","state_id":"IA"},{"zip":"50065","fips":"19053","name":"Decatur County","state_id":"IA"},{"zip":"50066","fips":"19049","name":"Dallas County","state_id":"IA"},{"zip":"50067","fips":"19053","name":"Decatur County","state_id":"IA"},{"zip":"50068","fips":"19185","name":"Wayne County","state_id":"IA"},{"zip":"50068","fips":"19117","name":"Lucas County","state_id":"IA"},{"zip":"50069","fips":"19049","name":"Dallas County","state_id":"IA"},{"zip":"50069","fips":"19121","name":"Madison County","state_id":"IA"},{"zip":"50070","fips":"19001","name":"Adair County","state_id":"IA"},{"zip":"50070","fips":"19049","name":"Dallas County","state_id":"IA"},{"zip":"50070","fips":"19077","name":"Guthrie County","state_id":"IA"},{"zip":"50070","fips":"19121","name":"Madison County","state_id":"IA"},{"zip":"50071","fips":"19069","name":"Franklin County","state_id":"IA"},{"zip":"50071","fips":"19197","name":"Wright County","state_id":"IA"},{"zip":"50072","fips":"19121","name":"Madison County","state_id":"IA"},{"zip":"50072","fips":"19049","name":"Dallas County","state_id":"IA"},{"zip":"50073","fips":"19153","name":"Polk County","state_id":"IA"},{"zip":"50074","fips":"19159","name":"Ringgold County","state_id":"IA"},{"zip":"50074","fips":"19175","name":"Union County","state_id":"IA"},{"zip":"50075","fips":"19079","name":"Hamilton County","state_id":"IA"},{"zip":"50076","fips":"19077","name":"Guthrie County","state_id":"IA"},{"zip":"50076","fips":"19009","name":"Audubon County","state_id":"IA"},{"zip":"50076","fips":"19165","name":"Shelby County","state_id":"IA"},{"zip":"50078","fips":"19127","name":"Marshall County","state_id":"IA"}]
