[{"zip":"50101","fips":"19197","name":"Wright County","state_id":"IA"},{"zip":"50102","fips":"19083","name":"Hardin County","state_id":"IA"},{"zip":"50103","fips":"19053","name":"Decatur County","state_id":"IA"},{"zip":"50103","fips":"19185","name":"Wayne County","state_id":"IA"},{"zip":"50104","fips":"19123","name":"Mahaska County","state_id":"IA"},{"zip":"50104","fips":"19107","name":"Keokuk County","state_id":"IA"},{"zip":"50104","fips":"19157","name":"Poweshiek County","state_id":"IA"},{"zip":"50105","fips":"19169","name":"Story County","state_id":"IA"},{"zip":"50106","fips":"19127","name":"Marshall County","state_id":"IA"},{"zip":"50106","fips":"19157","name":"Poweshiek County","state_id":"IA"},{"zip":"50106","fips":"19171","name":"Tama County","state_id":"IA"},{"zip":"50106","fips":"19099","name":"Jasper County","state_id":"IA"},{"zip":"50107","fips":"19015","name":"Boone County","state_id":"IA"},{"zip":"50107","fips":"19073","name":"Greene County","state_id":"IA"},{"zip":"50108","fips":"19053","name":"Decatur County","state_id":"IA"},{"zip":"50108","fips":"19039","name":"Clarke County","state_id":"IA"},{"zip":"50109","fips":"19049","name":"Dallas County","state_id":"IA"},{"zip":"50109","fips":"19153","name":"Polk County","state_id":"IA"},{"zip":"50110","fips":"19009","name":"Audubon County","state_id":"IA"},{"zip":"50111","fips":"19153","name":"Polk County","state_id":"IA"},{"zip":"50111","fips":"19049","name":"Dallas County","state_id":"IA"},{"zip":"50112","fips":"19099","name":"Jasper County","state_id":"IA"},{"zip":"50112","fips":"19157","name":"Poweshiek County","state_id":"IA"},{"zip":"50115","fips":"19077","name":"Guthrie County","state_id":"IA"},{"zip":"50116","fips":"19125","name":"Marion County","state_id":"IA"},{"zip":"50117","fips":"19009","name":"Audubon County","state_id":"IA"},{"zip":"50118","fips":"19181","name":"Warren County","state_id":"IA"},{"zip":"50119","fips":"19125","name":"Marion County","state_id":"IA"},{"zip":"50120","fips":"19127","name":"Marshall County","state_id":"IA"},{"zip":"50122","fips":"19083","name":"Hardin County","state_id":"IA"},{"zip":"50122","fips":"19169","name":"Story County","state_id":"IA"},{"zip":"50123","fips":"19185","name":"Wayne County","state_id":"IA"},{"zip":"50123","fips":"19053","name":"Decatur County","state_id":"IA"},{"zip":"50123","fips":"19039","name":"Clarke County","state_id":"IA"},{"zip":"50123","fips":"19117","name":"Lucas County","state_id":"IA"},{"zip":"50124","fips":"19169","name":"Story County","state_id":"IA"},{"zip":"50124","fips":"19153","name":"Polk County","state_id":"IA"},{"zip":"50125","fips":"19181","name":"Warren County","state_id":"IA"},{"zip":"50126","fips":"19083","name":"Hardin County","state_id":"IA"},{"zip":"50126","fips":"19069","name":"Franklin County","state_id":"IA"},{"zip":"50127","fips":"19099","name":"Jasper County","state_id":"IA"},{"zip":"50128","fips":"19077","name":"Guthrie County","state_id":"IA"},{"zip":"50128","fips":"19073","name":"Greene County","state_id":"IA"},{"zip":"50128","fips":"19049","name":"Dallas County","state_id":"IA"},{"zip":"50129","fips":"19073","name":"Greene County","state_id":"IA"},{"zip":"50129","fips":"19077","name":"Guthrie County","state_id":"IA"},{"zip":"50130","fips":"19079","name":"Hamilton County","state_id":"IA"},{"zip":"50131","fips":"19153","name":"Polk County","state_id":"IA"},{"zip":"50132","fips":"19079","name":"Hamilton County","state_id":"IA"},{"zip":"50133","fips":"19159","name":"Ringgold County","state_id":"IA"},{"zip":"50133","fips":"19053","name":"Decatur County","state_id":"IA"},{"zip":"50134","fips":"19015","name":"Boone County","state_id":"IA"},{"zip":"50134","fips":"19169","name":"Story County","state_id":"IA"},{"zip":"50135","fips":"19099","name":"Jasper County","state_id":"IA"},{"zip":"50136","fips":"19107","name":"Keokuk County","state_id":"IA"},{"zip":"50136","fips":"19095","name":"Iowa County","state_id":"IA"},{"zip":"50137","fips":"19099","name":"Jasper County","state_id":"IA"},{"zip":"50138","fips":"19125","name":"Marion County","state_id":"IA"},{"zip":"50139","fips":"19181","name":"Warren County","state_id":"IA"},{"zip":"50139","fips":"19125","name":"Marion County","state_id":"IA"},{"zip":"50139","fips":"19117","name":"Lucas County","state_id":"IA"},{"zip":"50140","fips":"19053","name":"Decatur County","state_id":"IA"},{"zip":"50140","fips":"19159","name":"Ringgold County","state_id":"IA"},{"zip":"50141","fips":"19127","name":"Marshall County","state_id":"IA"},{"zip":"50141","fips":"19099","name":"Jasper County","state_id":"IA"},{"zip":"50142","fips":"19127","name":"Marshall County","state_id":"IA"},{"zip":"50143","fips":"19123","name":"Mahaska County","state_id":"IA"},{"zip":"50143","fips":"19125","name":"Marion County","state_id":"IA"},{"zip":"50144","fips":"19053","name":"Decatur County","state_id":"IA"},{"zip":"50145","fips":"19181","name":"Warren County","state_id":"IA"},{"zip":"50146","fips":"19077","name":"Guthrie County","state_id":"IA"},{"zip":"50146","fips":"19049","name":"Dallas County","state_id":"IA"},{"zip":"50147","fips":"19185","name":"Wayne County","state_id":"IA"},{"zip":"50147","fips":"19053","name":"Decatur County","state_id":"IA"},{"zip":"50148","fips":"19083","name":"Hardin County","state_id":"IA"},{"zip":"50148","fips":"19075","name":"Grundy County","state_id":"IA"},{"zip":"50148","fips":"19127","name":"Marshall County","state_id":"IA"},{"zip":"50149","fips":"19121","name":"Madison County","state_id":"IA"},{"zip":"50149","fips":"19039","name":"Clarke County","state_id":"IA"},{"zip":"50149","fips":"19175","name":"Union County","state_id":"IA"},{"zip":"50150","fips":"19135","name":"Monroe County","state_id":"IA"},{"zip":"50150","fips":"19125","name":"Marion County","state_id":"IA"},{"zip":"50151","fips":"19117","name":"Lucas County","state_id":"IA"},{"zip":"50151","fips":"19039","name":"Clarke County","state_id":"IA"},{"zip":"50151","fips":"19181","name":"Warren County","state_id":"IA"},{"zip":"50152","fips":"19015","name":"Boone County","state_id":"IA"},{"zip":"50153","fips":"19123","name":"Mahaska County","state_id":"IA"},{"zip":"50153","fips":"19157","name":"Poweshiek County","state_id":"IA"},{"zip":"50153","fips":"19099","name":"Jasper County","state_id":"IA"},{"zip":"50154","fips":"19083","name":"Hardin County","state_id":"IA"},{"zip":"50154","fips":"19169","name":"Story County","state_id":"IA"},{"zip":"50155","fips":"19001","name":"Adair County","state_id":"IA"},{"zip":"50155","fips":"19121","name":"Madison County","state_id":"IA"},{"zip":"50156","fips":"19153","name":"Polk County","state_id":"IA"},{"zip":"50156","fips":"19049","name":"Dallas County","state_id":"IA"},{"zip":"50156","fips":"19169","name":"Story County","state_id":"IA"},{"zip":"50156","fips":"19015","name":"Boone County","state_id":"IA"},{"zip":"50157","fips":"19157","name":"Poweshiek County","state_id":"IA"},{"zip":"50158","fips":"19171","name":"Tama County","state_id":"IA"},{"zip":"50158","fips":"19127","name":"Marshall County","state_id":"IA"},{"zip":"50160","fips":"19181","name":"Warren County","state_id":"IA"},{"zip":"50161","fips":"19169","name":"Story County","state_id":"IA"},{"zip":"50161","fips":"19153","name":"Polk County","state_id":"IA"},{"zip":"50161","fips":"19099","name":"Jasper County","state_id":"IA"},{"zip":"50162","fips":"19099","name":"Jasper County","state_id":"IA"},{"zip":"50162","fips":"19127","name":"Marshall County","state_id":"IA"},{"zip":"50163","fips":"19125","name":"Marion County","state_id":"IA"},{"zip":"50164","fips":"19077","name":"Guthrie County","state_id":"IA"},{"zip":"50164","fips":"19001","name":"Adair County","state_id":"IA"},{"zip":"50165","fips":"19185","name":"Wayne County","state_id":"IA"},{"zip":"50166","fips":"19181","name":"Warren County","state_id":"IA"},{"zip":"50167","fips":"19049","name":"Dallas County","state_id":"IA"},{"zip":"50168","fips":"19153","name":"Polk County","state_id":"IA"},{"zip":"50168","fips":"19099","name":"Jasper County","state_id":"IA"},{"zip":"50169","fips":"19099","name":"Jasper County","state_id":"IA"},{"zip":"50169","fips":"19153","name":"Polk County","state_id":"IA"},{"zip":"50170","fips":"19125","name":"Marion County","state_id":"IA"},{"zip":"50170","fips":"19099","name":"Jasper County","state_id":"IA"},{"zip":"50171","fips":"19157","name":"Poweshiek County","state_id":"IA"},{"zip":"50173","fips":"19127","name":"Marshall County","state_id":"IA"},{"zip":"50173","fips":"19171","name":"Tama County","state_id":"IA"},{"zip":"50174","fips":"19175","name":"Union County","state_id":"IA"},{"zip":"50174","fips":"19121","name":"Madison County","state_id":"IA"},{"zip":"50174","fips":"19039","name":"Clarke County","state_id":"IA"}]
