[{"zip":"50201","fips":"19169","name":"Story County","state_id":"IA"},{"zip":"50206","fips":"19127","name":"Marshall County","state_id":"IA"},{"zip":"50206","fips":"19169","name":"Story County","state_id":"IA"},{"zip":"50206","fips":"19083","name":"Hardin County","state_id":"IA"},{"zip":"50207","fips":"19123","name":"Mahaska County","state_id":"IA"},{"zip":"50207","fips":"19157","name":"Poweshiek County","state_id":"IA"},{"zip":"50208","fips":"19099","name":"Jasper County","state_id":"IA"},{"zip":"50210","fips":"19121","name":"Madison County","state_id":"IA"},{"zip":"50210","fips":"19039","name":"Clarke County","state_id":"IA"},{"zip":"50210","fips":"19181","name":"Warren County","state_id":"IA"},{"zip":"50211","fips":"19121","name":"Madison County","state_id":"IA"},{"zip":"50211","fips":"19181","name":"Warren County","state_id":"IA"},{"zip":"50212","fips":"19015","name":"Boone County","state_id":"IA"},{"zip":"50213","fips":"19039","name":"Clarke County","state_id":"IA"},{"zip":"50213","fips":"19181","name":"Warren County","state_id":"IA"},{"zip":"50214","fips":"19099","name":"Jasper County","state_id":"IA"},{"zip":"50214","fips":"19125","name":"Marion County","state_id":"IA"},{"zip":"50216","fips":"19049","name":"Dallas County","state_id":"IA"},{"zip":"50216","fips":"19077","name":"Guthrie County","state_id":"IA"},{"zip":"50217","fips":"19187","name":"Webster County","state_id":"IA"},{"zip":"50217","fips":"19073","name":"Greene County","state_id":"IA"},{"zip":"50217","fips":"19015","name":"Boone County","state_id":"IA"},{"zip":"50218","fips":"19121","name":"Madison County","state_id":"IA"},{"zip":"50219","fips":"19125","name":"Marion County","state_id":"IA"},{"zip":"50219","fips":"19123","name":"Mahaska County","state_id":"IA"},{"zip":"50220","fips":"19049","name":"Dallas County","state_id":"IA"},{"zip":"50220","fips":"19073","name":"Greene County","state_id":"IA"},{"zip":"50220","fips":"19015","name":"Boone County","state_id":"IA"},{"zip":"50222","fips":"19121","name":"Madison County","state_id":"IA"},{"zip":"50222","fips":"19039","name":"Clarke County","state_id":"IA"},{"zip":"50223","fips":"19015","name":"Boone County","state_id":"IA"},{"zip":"50225","fips":"19181","name":"Warren County","state_id":"IA"},{"zip":"50225","fips":"19125","name":"Marion County","state_id":"IA"},{"zip":"50226","fips":"19169","name":"Story County","state_id":"IA"},{"zip":"50226","fips":"19153","name":"Polk County","state_id":"IA"},{"zip":"50227","fips":"19069","name":"Franklin County","state_id":"IA"},{"zip":"50228","fips":"19153","name":"Polk County","state_id":"IA"},{"zip":"50228","fips":"19125","name":"Marion County","state_id":"IA"},{"zip":"50228","fips":"19099","name":"Jasper County","state_id":"IA"},{"zip":"50229","fips":"19181","name":"Warren County","state_id":"IA"},{"zip":"50229","fips":"19121","name":"Madison County","state_id":"IA"},{"zip":"50230","fips":"19083","name":"Hardin County","state_id":"IA"},{"zip":"50230","fips":"19079","name":"Hamilton County","state_id":"IA"},{"zip":"50230","fips":"19169","name":"Story County","state_id":"IA"},{"zip":"50231","fips":"19079","name":"Hamilton County","state_id":"IA"},{"zip":"50232","fips":"19099","name":"Jasper County","state_id":"IA"},{"zip":"50233","fips":"19077","name":"Guthrie County","state_id":"IA"},{"zip":"50233","fips":"19049","name":"Dallas County","state_id":"IA"},{"zip":"50234","fips":"19099","name":"Jasper County","state_id":"IA"},{"zip":"50234","fips":"19127","name":"Marshall County","state_id":"IA"},{"zip":"50235","fips":"19015","name":"Boone County","state_id":"IA"},{"zip":"50235","fips":"19049","name":"Dallas County","state_id":"IA"},{"zip":"50235","fips":"19073","name":"Greene County","state_id":"IA"},{"zip":"50236","fips":"19079","name":"Hamilton County","state_id":"IA"},{"zip":"50236","fips":"19169","name":"Story County","state_id":"IA"},{"zip":"50237","fips":"19099","name":"Jasper County","state_id":"IA"},{"zip":"50237","fips":"19153","name":"Polk County","state_id":"IA"},{"zip":"50237","fips":"19125","name":"Marion County","state_id":"IA"},{"zip":"50238","fips":"19117","name":"Lucas County","state_id":"IA"},{"zip":"50238","fips":"19185","name":"Wayne County","state_id":"IA"},{"zip":"50239","fips":"19127","name":"Marshall County","state_id":"IA"},{"zip":"50239","fips":"19169","name":"Story County","state_id":"IA"},{"zip":"50240","fips":"19181","name":"Warren County","state_id":"IA"},{"zip":"50240","fips":"19121","name":"Madison County","state_id":"IA"},{"zip":"50241","fips":"19181","name":"Warren County","state_id":"IA"},{"zip":"50242","fips":"19099","name":"Jasper County","state_id":"IA"},{"zip":"50242","fips":"19157","name":"Poweshiek County","state_id":"IA"},{"zip":"50243","fips":"19169","name":"Story County","state_id":"IA"},{"zip":"50243","fips":"19153","name":"Polk County","state_id":"IA"},{"zip":"50243","fips":"19015","name":"Boone County","state_id":"IA"},{"zip":"50244","fips":"19169","name":"Story County","state_id":"IA"},{"zip":"50244","fips":"19015","name":"Boone County","state_id":"IA"},{"zip":"50244","fips":"19153","name":"Polk County","state_id":"IA"},{"zip":"50246","fips":"19079","name":"Hamilton County","state_id":"IA"},{"zip":"50247","fips":"19127","name":"Marshall County","state_id":"IA"},{"zip":"50247","fips":"19169","name":"Story County","state_id":"IA"},{"zip":"50248","fips":"19015","name":"Boone County","state_id":"IA"},{"zip":"50248","fips":"19169","name":"Story County","state_id":"IA"},{"zip":"50248","fips":"19079","name":"Hamilton County","state_id":"IA"},{"zip":"50249","fips":"19187","name":"Webster County","state_id":"IA"},{"zip":"50249","fips":"19015","name":"Boone County","state_id":"IA"},{"zip":"50249","fips":"19079","name":"Hamilton County","state_id":"IA"},{"zip":"50250","fips":"19077","name":"Guthrie County","state_id":"IA"},{"zip":"50250","fips":"19001","name":"Adair County","state_id":"IA"},{"zip":"50251","fips":"19099","name":"Jasper County","state_id":"IA"},{"zip":"50251","fips":"19123","name":"Mahaska County","state_id":"IA"},{"zip":"50252","fips":"19181","name":"Warren County","state_id":"IA"},{"zip":"50252","fips":"19125","name":"Marion County","state_id":"IA"},{"zip":"50254","fips":"19039","name":"Clarke County","state_id":"IA"},{"zip":"50254","fips":"19175","name":"Union County","state_id":"IA"},{"zip":"50255","fips":"19107","name":"Keokuk County","state_id":"IA"},{"zip":"50256","fips":"19125","name":"Marion County","state_id":"IA"},{"zip":"50256","fips":"19123","name":"Mahaska County","state_id":"IA"},{"zip":"50257","fips":"19039","name":"Clarke County","state_id":"IA"},{"zip":"50257","fips":"19181","name":"Warren County","state_id":"IA"},{"zip":"50257","fips":"19121","name":"Madison County","state_id":"IA"},{"zip":"50258","fips":"19083","name":"Hardin County","state_id":"IA"},{"zip":"50258","fips":"19127","name":"Marshall County","state_id":"IA"},{"zip":"50258","fips":"19075","name":"Grundy County","state_id":"IA"},{"zip":"50259","fips":"19083","name":"Hardin County","state_id":"IA"},{"zip":"50261","fips":"19049","name":"Dallas County","state_id":"IA"},{"zip":"50261","fips":"19121","name":"Madison County","state_id":"IA"},{"zip":"50262","fips":"19053","name":"Decatur County","state_id":"IA"},{"zip":"50263","fips":"19049","name":"Dallas County","state_id":"IA"},{"zip":"50264","fips":"19039","name":"Clarke County","state_id":"IA"},{"zip":"50264","fips":"19053","name":"Decatur County","state_id":"IA"},{"zip":"50265","fips":"19153","name":"Polk County","state_id":"IA"},{"zip":"50265","fips":"19181","name":"Warren County","state_id":"IA"},{"zip":"50266","fips":"19049","name":"Dallas County","state_id":"IA"},{"zip":"50266","fips":"19153","name":"Polk County","state_id":"IA"},{"zip":"50268","fips":"19107","name":"Keokuk County","state_id":"IA"},{"zip":"50268","fips":"19123","name":"Mahaska County","state_id":"IA"},{"zip":"50269","fips":"19083","name":"Hardin County","state_id":"IA"},{"zip":"50269","fips":"19075","name":"Grundy County","state_id":"IA"},{"zip":"50271","fips":"19197","name":"Wright County","state_id":"IA"},{"zip":"50271","fips":"19083","name":"Hardin County","state_id":"IA"},{"zip":"50271","fips":"19079","name":"Hamilton County","state_id":"IA"},{"zip":"50272","fips":"19117","name":"Lucas County","state_id":"IA"},{"zip":"50273","fips":"19001","name":"Adair County","state_id":"IA"},{"zip":"50273","fips":"19121","name":"Madison County","state_id":"IA"},{"zip":"50274","fips":"19029","name":"Cass County","state_id":"IA"},{"zip":"50275","fips":"19039","name":"Clarke County","state_id":"IA"},{"zip":"50275","fips":"19117","name":"Lucas County","state_id":"IA"},{"zip":"50276","fips":"19049","name":"Dallas County","state_id":"IA"},{"zip":"50276","fips":"19015","name":"Boone County","state_id":"IA"},{"zip":"50277","fips":"19049","name":"Dallas County","state_id":"IA"},{"zip":"50277","fips":"19077","name":"Guthrie County","state_id":"IA"},{"zip":"50278","fips":"19169","name":"Story County","state_id":"IA"}]
