[{"zip":"50301","fips":"19153","name":"Polk County","state_id":"IA"},{"zip":"50302","fips":"19153","name":"Polk County","state_id":"IA"},{"zip":"50303","fips":"19153","name":"Polk County","state_id":"IA"},{"zip":"50304","fips":"19153","name":"Polk County","state_id":"IA"},{"zip":"50305","fips":"19153","name":"Polk County","state_id":"IA"},{"zip":"50309","fips":"19153","name":"Polk County","state_id":"IA"},{"zip":"50310","fips":"19153","name":"Polk County","state_id":"IA"},{"zip":"50311","fips":"19153","name":"Polk County","state_id":"IA"},{"zip":"50312","fips":"19153","name":"Polk County","state_id":"IA"},{"zip":"50313","fips":"19153","name":"Polk County","state_id":"IA"},{"zip":"50314","fips":"19153","name":"Polk County","state_id":"IA"},{"zip":"50315","fips":"19153","name":"Polk County","state_id":"IA"},{"zip":"50316","fips":"19153","name":"Polk County","state_id":"IA"},{"zip":"50317","fips":"19153","name":"Polk County","state_id":"IA"},{"zip":"50318","fips":"19153","name":"Polk County","state_id":"IA"},{"zip":"50319","fips":"19153","name":"Polk County","state_id":"IA"},{"zip":"50320","fips":"19181","name":"Warren County","state_id":"IA"},{"zip":"50320","fips":"19153","name":"Polk County","state_id":"IA"},{"zip":"50321","fips":"19153","name":"Polk County","state_id":"IA"},{"zip":"50321","fips":"19181","name":"Warren County","state_id":"IA"},{"zip":"50322","fips":"19153","name":"Polk County","state_id":"IA"},{"zip":"50323","fips":"19153","name":"Polk County","state_id":"IA"},{"zip":"50323","fips":"19049","name":"Dallas County","state_id":"IA"},{"zip":"50324","fips":"19153","name":"Polk County","state_id":"IA"},{"zip":"50325","fips":"19153","name":"Polk County","state_id":"IA"},{"zip":"50325","fips":"19049","name":"Dallas County","state_id":"IA"},{"zip":"50327","fips":"19153","name":"Polk County","state_id":"IA"},{"zip":"50328","fips":"19153","name":"Polk County","state_id":"IA"},{"zip":"50359","fips":"19153","name":"Polk County","state_id":"IA"},{"zip":"50360","fips":"19153","name":"Polk County","state_id":"IA"},{"zip":"50361","fips":"19153","name":"Polk County","state_id":"IA"},{"zip":"50362","fips":"19153","name":"Polk County","state_id":"IA"},{"zip":"50363","fips":"19153","name":"Polk County","state_id":"IA"},{"zip":"50364","fips":"19153","name":"Polk County","state_id":"IA"},{"zip":"50368","fips":"19153","name":"Polk County","state_id":"IA"},{"zip":"50380","fips":"19153","name":"Polk County","state_id":"IA"},{"zip":"50391","fips":"19153","name":"Polk County","state_id":"IA"},{"zip":"50392","fips":"19153","name":"Polk County","state_id":"IA"},{"zip":"50395","fips":"19153","name":"Polk County","state_id":"IA"},{"zip":"50398","fips":"19153","name":"Polk County","state_id":"IA"}]
