[{"zip":"50401","fips":"19195","name":"Worth County","state_id":"IA"},{"zip":"50401","fips":"19033","name":"Cerro Gordo County","state_id":"IA"},{"zip":"50402","fips":"19033","name":"Cerro Gordo County","state_id":"IA"},{"zip":"50420","fips":"19197","name":"Wright County","state_id":"IA"},{"zip":"50420","fips":"19069","name":"Franklin County","state_id":"IA"},{"zip":"50421","fips":"19081","name":"Hancock County","state_id":"IA"},{"zip":"50421","fips":"19197","name":"Wright County","state_id":"IA"},{"zip":"50423","fips":"19189","name":"Winnebago County","state_id":"IA"},{"zip":"50423","fips":"19081","name":"Hancock County","state_id":"IA"},{"zip":"50424","fips":"19109","name":"Kossuth County","state_id":"IA"},{"zip":"50424","fips":"19189","name":"Winnebago County","state_id":"IA"},{"zip":"50426","fips":"19131","name":"Mitchell County","state_id":"IA"},{"zip":"50426","fips":"19195","name":"Worth County","state_id":"IA"},{"zip":"50427","fips":"19069","name":"Franklin County","state_id":"IA"},{"zip":"50428","fips":"19033","name":"Cerro Gordo County","state_id":"IA"},{"zip":"50430","fips":"19081","name":"Hancock County","state_id":"IA"},{"zip":"50430","fips":"19109","name":"Kossuth County","state_id":"IA"},{"zip":"50430","fips":"19197","name":"Wright County","state_id":"IA"},{"zip":"50430","fips":"19091","name":"Humboldt County","state_id":"IA"},{"zip":"50431","fips":"19069","name":"Franklin County","state_id":"IA"},{"zip":"50432","fips":"19081","name":"Hancock County","state_id":"IA"},{"zip":"50433","fips":"19023","name":"Butler County","state_id":"IA"},{"zip":"50433","fips":"19033","name":"Cerro Gordo County","state_id":"IA"},{"zip":"50433","fips":"19069","name":"Franklin County","state_id":"IA"},{"zip":"50433","fips":"19067","name":"Floyd County","state_id":"IA"},{"zip":"50434","fips":"19189","name":"Winnebago County","state_id":"IA"},{"zip":"50434","fips":"19195","name":"Worth County","state_id":"IA"},{"zip":"50434","fips":"19033","name":"Cerro Gordo County","state_id":"IA"},{"zip":"50435","fips":"19067","name":"Floyd County","state_id":"IA"},{"zip":"50436","fips":"19081","name":"Hancock County","state_id":"IA"},{"zip":"50436","fips":"19189","name":"Winnebago County","state_id":"IA"},{"zip":"50438","fips":"19033","name":"Cerro Gordo County","state_id":"IA"},{"zip":"50438","fips":"19081","name":"Hancock County","state_id":"IA"},{"zip":"50439","fips":"19081","name":"Hancock County","state_id":"IA"},{"zip":"50440","fips":"19195","name":"Worth County","state_id":"IA"},{"zip":"50441","fips":"19069","name":"Franklin County","state_id":"IA"},{"zip":"50444","fips":"19033","name":"Cerro Gordo County","state_id":"IA"},{"zip":"50444","fips":"19195","name":"Worth County","state_id":"IA"},{"zip":"50444","fips":"19189","name":"Winnebago County","state_id":"IA"},{"zip":"50446","fips":"19189","name":"Winnebago County","state_id":"IA"},{"zip":"50446","fips":"19195","name":"Worth County","state_id":"IA"},{"zip":"50447","fips":"19197","name":"Wright County","state_id":"IA"},{"zip":"50447","fips":"19081","name":"Hancock County","state_id":"IA"},{"zip":"50448","fips":"19195","name":"Worth County","state_id":"IA"},{"zip":"50449","fips":"19081","name":"Hancock County","state_id":"IA"},{"zip":"50449","fips":"19033","name":"Cerro Gordo County","state_id":"IA"},{"zip":"50450","fips":"19195","name":"Worth County","state_id":"IA"},{"zip":"50450","fips":"19189","name":"Winnebago County","state_id":"IA"},{"zip":"50451","fips":"19109","name":"Kossuth County","state_id":"IA"},{"zip":"50452","fips":"19069","name":"Franklin County","state_id":"IA"},{"zip":"50453","fips":"19189","name":"Winnebago County","state_id":"IA"},{"zip":"50454","fips":"19131","name":"Mitchell County","state_id":"IA"},{"zip":"50455","fips":"19131","name":"Mitchell County","state_id":"IA"},{"zip":"50456","fips":"19195","name":"Worth County","state_id":"IA"},{"zip":"50456","fips":"19033","name":"Cerro Gordo County","state_id":"IA"},{"zip":"50457","fips":"19081","name":"Hancock County","state_id":"IA"},{"zip":"50457","fips":"19033","name":"Cerro Gordo County","state_id":"IA"},{"zip":"50457","fips":"19069","name":"Franklin County","state_id":"IA"},{"zip":"50457","fips":"19197","name":"Wright County","state_id":"IA"},{"zip":"50458","fips":"19033","name":"Cerro Gordo County","state_id":"IA"},{"zip":"50458","fips":"19067","name":"Floyd County","state_id":"IA"},{"zip":"50458","fips":"19131","name":"Mitchell County","state_id":"IA"},{"zip":"50459","fips":"19189","name":"Winnebago County","state_id":"IA"},{"zip":"50459","fips":"19195","name":"Worth County","state_id":"IA"},{"zip":"50460","fips":"19067","name":"Floyd County","state_id":"IA"},{"zip":"50460","fips":"19131","name":"Mitchell County","state_id":"IA"},{"zip":"50461","fips":"19131","name":"Mitchell County","state_id":"IA"},{"zip":"50461","fips":"19067","name":"Floyd County","state_id":"IA"},{"zip":"50461","fips":"19195","name":"Worth County","state_id":"IA"},{"zip":"50464","fips":"19195","name":"Worth County","state_id":"IA"},{"zip":"50464","fips":"19131","name":"Mitchell County","state_id":"IA"},{"zip":"50464","fips":"19033","name":"Cerro Gordo County","state_id":"IA"},{"zip":"50465","fips":"19189","name":"Winnebago County","state_id":"IA"},{"zip":"50466","fips":"19131","name":"Mitchell County","state_id":"IA"},{"zip":"50466","fips":"19089","name":"Howard County","state_id":"IA"},{"zip":"50467","fips":"19033","name":"Cerro Gordo County","state_id":"IA"},{"zip":"50468","fips":"19033","name":"Cerro Gordo County","state_id":"IA"},{"zip":"50468","fips":"19067","name":"Floyd County","state_id":"IA"},{"zip":"50469","fips":"19033","name":"Cerro Gordo County","state_id":"IA"},{"zip":"50470","fips":"19197","name":"Wright County","state_id":"IA"},{"zip":"50470","fips":"19069","name":"Franklin County","state_id":"IA"},{"zip":"50471","fips":"19131","name":"Mitchell County","state_id":"IA"},{"zip":"50471","fips":"19067","name":"Floyd County","state_id":"IA"},{"zip":"50472","fips":"19195","name":"Worth County","state_id":"IA"},{"zip":"50472","fips":"19131","name":"Mitchell County","state_id":"IA"},{"zip":"50473","fips":"19189","name":"Winnebago County","state_id":"IA"},{"zip":"50475","fips":"19033","name":"Cerro Gordo County","state_id":"IA"},{"zip":"50475","fips":"19069","name":"Franklin County","state_id":"IA"},{"zip":"50476","fips":"19131","name":"Mitchell County","state_id":"IA"},{"zip":"50477","fips":"19033","name":"Cerro Gordo County","state_id":"IA"},{"zip":"50478","fips":"19189","name":"Winnebago County","state_id":"IA"},{"zip":"50479","fips":"19033","name":"Cerro Gordo County","state_id":"IA"},{"zip":"50479","fips":"19069","name":"Franklin County","state_id":"IA"},{"zip":"50480","fips":"19109","name":"Kossuth County","state_id":"IA"},{"zip":"50481","fips":"19131","name":"Mitchell County","state_id":"IA"},{"zip":"50482","fips":"19081","name":"Hancock County","state_id":"IA"},{"zip":"50482","fips":"19033","name":"Cerro Gordo County","state_id":"IA"},{"zip":"50483","fips":"19081","name":"Hancock County","state_id":"IA"},{"zip":"50483","fips":"19109","name":"Kossuth County","state_id":"IA"},{"zip":"50484","fips":"19109","name":"Kossuth County","state_id":"IA"},{"zip":"50484","fips":"19189","name":"Winnebago County","state_id":"IA"},{"zip":"50484","fips":"19081","name":"Hancock County","state_id":"IA"}]
