[{"zip":"50501","fips":"19187","name":"Webster County","state_id":"IA"},{"zip":"50510","fips":"19021","name":"Buena Vista County","state_id":"IA"},{"zip":"50510","fips":"19151","name":"Pocahontas County","state_id":"IA"},{"zip":"50511","fips":"19109","name":"Kossuth County","state_id":"IA"},{"zip":"50514","fips":"19063","name":"Emmet County","state_id":"IA"},{"zip":"50514","fips":"19109","name":"Kossuth County","state_id":"IA"},{"zip":"50515","fips":"19041","name":"Clay County","state_id":"IA"},{"zip":"50515","fips":"19147","name":"Palo Alto County","state_id":"IA"},{"zip":"50516","fips":"19091","name":"Humboldt County","state_id":"IA"},{"zip":"50516","fips":"19187","name":"Webster County","state_id":"IA"},{"zip":"50517","fips":"19109","name":"Kossuth County","state_id":"IA"},{"zip":"50518","fips":"19187","name":"Webster County","state_id":"IA"},{"zip":"50519","fips":"19091","name":"Humboldt County","state_id":"IA"},{"zip":"50519","fips":"19109","name":"Kossuth County","state_id":"IA"},{"zip":"50520","fips":"19091","name":"Humboldt County","state_id":"IA"},{"zip":"50520","fips":"19151","name":"Pocahontas County","state_id":"IA"},{"zip":"50521","fips":"19187","name":"Webster County","state_id":"IA"},{"zip":"50522","fips":"19109","name":"Kossuth County","state_id":"IA"},{"zip":"50523","fips":"19187","name":"Webster County","state_id":"IA"},{"zip":"50524","fips":"19151","name":"Pocahontas County","state_id":"IA"},{"zip":"50524","fips":"19187","name":"Webster County","state_id":"IA"},{"zip":"50524","fips":"19091","name":"Humboldt County","state_id":"IA"},{"zip":"50525","fips":"19197","name":"Wright County","state_id":"IA"},{"zip":"50527","fips":"19147","name":"Palo Alto County","state_id":"IA"},{"zip":"50528","fips":"19147","name":"Palo Alto County","state_id":"IA"},{"zip":"50529","fips":"19091","name":"Humboldt County","state_id":"IA"},{"zip":"50530","fips":"19015","name":"Boone County","state_id":"IA"},{"zip":"50530","fips":"19187","name":"Webster County","state_id":"IA"},{"zip":"50531","fips":"19063","name":"Emmet County","state_id":"IA"},{"zip":"50532","fips":"19079","name":"Hamilton County","state_id":"IA"},{"zip":"50532","fips":"19187","name":"Webster County","state_id":"IA"},{"zip":"50532","fips":"19197","name":"Wright County","state_id":"IA"},{"zip":"50533","fips":"19091","name":"Humboldt County","state_id":"IA"},{"zip":"50533","fips":"19197","name":"Wright County","state_id":"IA"},{"zip":"50533","fips":"19187","name":"Webster County","state_id":"IA"},{"zip":"50535","fips":"19161","name":"Sac County","state_id":"IA"},{"zip":"50536","fips":"19147","name":"Palo Alto County","state_id":"IA"},{"zip":"50538","fips":"19025","name":"Calhoun County","state_id":"IA"},{"zip":"50538","fips":"19187","name":"Webster County","state_id":"IA"},{"zip":"50539","fips":"19063","name":"Emmet County","state_id":"IA"},{"zip":"50539","fips":"19109","name":"Kossuth County","state_id":"IA"},{"zip":"50539","fips":"19147","name":"Palo Alto County","state_id":"IA"},{"zip":"50540","fips":"19025","name":"Calhoun County","state_id":"IA"},{"zip":"50540","fips":"19021","name":"Buena Vista County","state_id":"IA"},{"zip":"50540","fips":"19161","name":"Sac County","state_id":"IA"},{"zip":"50540","fips":"19151","name":"Pocahontas County","state_id":"IA"},{"zip":"50541","fips":"19091","name":"Humboldt County","state_id":"IA"},{"zip":"50541","fips":"19151","name":"Pocahontas County","state_id":"IA"},{"zip":"50542","fips":"19091","name":"Humboldt County","state_id":"IA"},{"zip":"50542","fips":"19197","name":"Wright County","state_id":"IA"},{"zip":"50543","fips":"19187","name":"Webster County","state_id":"IA"},{"zip":"50543","fips":"19073","name":"Greene County","state_id":"IA"},{"zip":"50544","fips":"19187","name":"Webster County","state_id":"IA"},{"zip":"50544","fips":"19073","name":"Greene County","state_id":"IA"},{"zip":"50545","fips":"19091","name":"Humboldt County","state_id":"IA"},{"zip":"50546","fips":"19147","name":"Palo Alto County","state_id":"IA"},{"zip":"50546","fips":"19151","name":"Pocahontas County","state_id":"IA"},{"zip":"50548","fips":"19187","name":"Webster County","state_id":"IA"},{"zip":"50548","fips":"19091","name":"Humboldt County","state_id":"IA"},{"zip":"50551","fips":"19025","name":"Calhoun County","state_id":"IA"},{"zip":"50552","fips":"19025","name":"Calhoun County","state_id":"IA"},{"zip":"50554","fips":"19041","name":"Clay County","state_id":"IA"},{"zip":"50554","fips":"19147","name":"Palo Alto County","state_id":"IA"},{"zip":"50554","fips":"19151","name":"Pocahontas County","state_id":"IA"},{"zip":"50554","fips":"19021","name":"Buena Vista County","state_id":"IA"},{"zip":"50556","fips":"19109","name":"Kossuth County","state_id":"IA"},{"zip":"50557","fips":"19187","name":"Webster County","state_id":"IA"},{"zip":"50558","fips":"19109","name":"Kossuth County","state_id":"IA"},{"zip":"50558","fips":"19091","name":"Humboldt County","state_id":"IA"},{"zip":"50559","fips":"19109","name":"Kossuth County","state_id":"IA"},{"zip":"50560","fips":"19109","name":"Kossuth County","state_id":"IA"},{"zip":"50560","fips":"19091","name":"Humboldt County","state_id":"IA"},{"zip":"50561","fips":"19161","name":"Sac County","state_id":"IA"},{"zip":"50561","fips":"19025","name":"Calhoun County","state_id":"IA"},{"zip":"50562","fips":"19151","name":"Pocahontas County","state_id":"IA"},{"zip":"50562","fips":"19147","name":"Palo Alto County","state_id":"IA"},{"zip":"50563","fips":"19187","name":"Webster County","state_id":"IA"},{"zip":"50563","fips":"19025","name":"Calhoun County","state_id":"IA"},{"zip":"50563","fips":"19151","name":"Pocahontas County","state_id":"IA"},{"zip":"50565","fips":"19021","name":"Buena Vista County","state_id":"IA"},{"zip":"50565","fips":"19041","name":"Clay County","state_id":"IA"},{"zip":"50566","fips":"19025","name":"Calhoun County","state_id":"IA"},{"zip":"50566","fips":"19187","name":"Webster County","state_id":"IA"},{"zip":"50567","fips":"19021","name":"Buena Vista County","state_id":"IA"},{"zip":"50567","fips":"19161","name":"Sac County","state_id":"IA"},{"zip":"50568","fips":"19161","name":"Sac County","state_id":"IA"},{"zip":"50568","fips":"19151","name":"Pocahontas County","state_id":"IA"},{"zip":"50568","fips":"19021","name":"Buena Vista County","state_id":"IA"},{"zip":"50569","fips":"19187","name":"Webster County","state_id":"IA"},{"zip":"50570","fips":"19091","name":"Humboldt County","state_id":"IA"},{"zip":"50570","fips":"19151","name":"Pocahontas County","state_id":"IA"},{"zip":"50570","fips":"19109","name":"Kossuth County","state_id":"IA"},{"zip":"50571","fips":"19151","name":"Pocahontas County","state_id":"IA"},{"zip":"50573","fips":"19151","name":"Pocahontas County","state_id":"IA"},{"zip":"50574","fips":"19151","name":"Pocahontas County","state_id":"IA"},{"zip":"50575","fips":"19025","name":"Calhoun County","state_id":"IA"},{"zip":"50575","fips":"19151","name":"Pocahontas County","state_id":"IA"},{"zip":"50576","fips":"19021","name":"Buena Vista County","state_id":"IA"},{"zip":"50577","fips":"19197","name":"Wright County","state_id":"IA"},{"zip":"50577","fips":"19091","name":"Humboldt County","state_id":"IA"},{"zip":"50578","fips":"19063","name":"Emmet County","state_id":"IA"},{"zip":"50578","fips":"19109","name":"Kossuth County","state_id":"IA"},{"zip":"50578","fips":"19147","name":"Palo Alto County","state_id":"IA"},{"zip":"50579","fips":"19025","name":"Calhoun County","state_id":"IA"},{"zip":"50581","fips":"19151","name":"Pocahontas County","state_id":"IA"},{"zip":"50581","fips":"19147","name":"Palo Alto County","state_id":"IA"},{"zip":"50582","fips":"19091","name":"Humboldt County","state_id":"IA"},{"zip":"50583","fips":"19161","name":"Sac County","state_id":"IA"},{"zip":"50585","fips":"19041","name":"Clay County","state_id":"IA"},{"zip":"50585","fips":"19021","name":"Buena Vista County","state_id":"IA"},{"zip":"50586","fips":"19187","name":"Webster County","state_id":"IA"},{"zip":"50586","fips":"19025","name":"Calhoun County","state_id":"IA"},{"zip":"50588","fips":"19021","name":"Buena Vista County","state_id":"IA"},{"zip":"50588","fips":"19161","name":"Sac County","state_id":"IA"},{"zip":"50590","fips":"19109","name":"Kossuth County","state_id":"IA"},{"zip":"50591","fips":"19187","name":"Webster County","state_id":"IA"},{"zip":"50591","fips":"19091","name":"Humboldt County","state_id":"IA"},{"zip":"50592","fips":"19021","name":"Buena Vista County","state_id":"IA"},{"zip":"50593","fips":"19151","name":"Pocahontas County","state_id":"IA"},{"zip":"50594","fips":"19187","name":"Webster County","state_id":"IA"},{"zip":"50595","fips":"19079","name":"Hamilton County","state_id":"IA"},{"zip":"50595","fips":"19197","name":"Wright County","state_id":"IA"},{"zip":"50595","fips":"19187","name":"Webster County","state_id":"IA"},{"zip":"50597","fips":"19147","name":"Palo Alto County","state_id":"IA"},{"zip":"50597","fips":"19151","name":"Pocahontas County","state_id":"IA"},{"zip":"50597","fips":"19091","name":"Humboldt County","state_id":"IA"},{"zip":"50597","fips":"19109","name":"Kossuth County","state_id":"IA"},{"zip":"50598","fips":"19109","name":"Kossuth County","state_id":"IA"},{"zip":"50598","fips":"19147","name":"Palo Alto County","state_id":"IA"},{"zip":"50599","fips":"19079","name":"Hamilton County","state_id":"IA"},{"zip":"50599","fips":"19197","name":"Wright County","state_id":"IA"}]
