[{"zip":"50601","fips":"19023","name":"Butler County","state_id":"IA"},{"zip":"50601","fips":"19075","name":"Grundy County","state_id":"IA"},{"zip":"50601","fips":"19069","name":"Franklin County","state_id":"IA"},{"zip":"50601","fips":"19083","name":"Hardin County","state_id":"IA"},{"zip":"50602","fips":"19023","name":"Butler County","state_id":"IA"},{"zip":"50603","fips":"19131","name":"Mitchell County","state_id":"IA"},{"zip":"50603","fips":"19037","name":"Chickasaw County","state_id":"IA"},{"zip":"50603","fips":"19089","name":"Howard County","state_id":"IA"},{"zip":"50604","fips":"19023","name":"Butler County","state_id":"IA"},{"zip":"50604","fips":"19075","name":"Grundy County","state_id":"IA"},{"zip":"50605","fips":"19069","name":"Franklin County","state_id":"IA"},{"zip":"50605","fips":"19023","name":"Butler County","state_id":"IA"},{"zip":"50606","fips":"19065","name":"Fayette County","state_id":"IA"},{"zip":"50606","fips":"19043","name":"Clayton County","state_id":"IA"},{"zip":"50607","fips":"19019","name":"Buchanan County","state_id":"IA"},{"zip":"50607","fips":"19065","name":"Fayette County","state_id":"IA"},{"zip":"50608","fips":"19023","name":"Butler County","state_id":"IA"},{"zip":"50609","fips":"19127","name":"Marshall County","state_id":"IA"},{"zip":"50609","fips":"19075","name":"Grundy County","state_id":"IA"},{"zip":"50609","fips":"19171","name":"Tama County","state_id":"IA"},{"zip":"50611","fips":"19023","name":"Butler County","state_id":"IA"},{"zip":"50612","fips":"19171","name":"Tama County","state_id":"IA"},{"zip":"50612","fips":"19013","name":"Black Hawk County","state_id":"IA"},{"zip":"50613","fips":"19023","name":"Butler County","state_id":"IA"},{"zip":"50613","fips":"19013","name":"Black Hawk County","state_id":"IA"},{"zip":"50613","fips":"19017","name":"Bremer County","state_id":"IA"},{"zip":"50613","fips":"19075","name":"Grundy County","state_id":"IA"},{"zip":"50614","fips":"19013","name":"Black Hawk County","state_id":"IA"},{"zip":"50616","fips":"19067","name":"Floyd County","state_id":"IA"},{"zip":"50616","fips":"19037","name":"Chickasaw County","state_id":"IA"},{"zip":"50619","fips":"19023","name":"Butler County","state_id":"IA"},{"zip":"50619","fips":"19067","name":"Floyd County","state_id":"IA"},{"zip":"50620","fips":"19067","name":"Floyd County","state_id":"IA"},{"zip":"50621","fips":"19127","name":"Marshall County","state_id":"IA"},{"zip":"50621","fips":"19075","name":"Grundy County","state_id":"IA"},{"zip":"50622","fips":"19017","name":"Bremer County","state_id":"IA"},{"zip":"50622","fips":"19013","name":"Black Hawk County","state_id":"IA"},{"zip":"50623","fips":"19013","name":"Black Hawk County","state_id":"IA"},{"zip":"50624","fips":"19075","name":"Grundy County","state_id":"IA"},{"zip":"50625","fips":"19069","name":"Franklin County","state_id":"IA"},{"zip":"50625","fips":"19023","name":"Butler County","state_id":"IA"},{"zip":"50626","fips":"19013","name":"Black Hawk County","state_id":"IA"},{"zip":"50627","fips":"19083","name":"Hardin County","state_id":"IA"},{"zip":"50627","fips":"19075","name":"Grundy County","state_id":"IA"},{"zip":"50628","fips":"19131","name":"Mitchell County","state_id":"IA"},{"zip":"50628","fips":"19089","name":"Howard County","state_id":"IA"},{"zip":"50629","fips":"19019","name":"Buchanan County","state_id":"IA"},{"zip":"50629","fips":"19013","name":"Black Hawk County","state_id":"IA"},{"zip":"50629","fips":"19065","name":"Fayette County","state_id":"IA"},{"zip":"50629","fips":"19017","name":"Bremer County","state_id":"IA"},{"zip":"50630","fips":"19017","name":"Bremer County","state_id":"IA"},{"zip":"50630","fips":"19037","name":"Chickasaw County","state_id":"IA"},{"zip":"50631","fips":"19017","name":"Bremer County","state_id":"IA"},{"zip":"50632","fips":"19127","name":"Marshall County","state_id":"IA"},{"zip":"50632","fips":"19171","name":"Tama County","state_id":"IA"},{"zip":"50633","fips":"19069","name":"Franklin County","state_id":"IA"},{"zip":"50634","fips":"19013","name":"Black Hawk County","state_id":"IA"},{"zip":"50635","fips":"19127","name":"Marshall County","state_id":"IA"},{"zip":"50635","fips":"19171","name":"Tama County","state_id":"IA"},{"zip":"50636","fips":"19067","name":"Floyd County","state_id":"IA"},{"zip":"50636","fips":"19023","name":"Butler County","state_id":"IA"},{"zip":"50638","fips":"19171","name":"Tama County","state_id":"IA"},{"zip":"50638","fips":"19075","name":"Grundy County","state_id":"IA"},{"zip":"50641","fips":"19019","name":"Buchanan County","state_id":"IA"},{"zip":"50642","fips":"19075","name":"Grundy County","state_id":"IA"},{"zip":"50643","fips":"19013","name":"Black Hawk County","state_id":"IA"},{"zip":"50643","fips":"19075","name":"Grundy County","state_id":"IA"},{"zip":"50644","fips":"19019","name":"Buchanan County","state_id":"IA"},{"zip":"50645","fips":"19067","name":"Floyd County","state_id":"IA"},{"zip":"50645","fips":"19037","name":"Chickasaw County","state_id":"IA"},{"zip":"50645","fips":"19017","name":"Bremer County","state_id":"IA"},{"zip":"50647","fips":"19017","name":"Bremer County","state_id":"IA"},{"zip":"50647","fips":"19013","name":"Black Hawk County","state_id":"IA"},{"zip":"50648","fips":"19013","name":"Black Hawk County","state_id":"IA"},{"zip":"50648","fips":"19019","name":"Buchanan County","state_id":"IA"},{"zip":"50649","fips":"19023","name":"Butler County","state_id":"IA"},{"zip":"50650","fips":"19055","name":"Delaware County","state_id":"IA"},{"zip":"50650","fips":"19065","name":"Fayette County","state_id":"IA"},{"zip":"50650","fips":"19019","name":"Buchanan County","state_id":"IA"},{"zip":"50651","fips":"19011","name":"Benton County","state_id":"IA"},{"zip":"50651","fips":"19171","name":"Tama County","state_id":"IA"},{"zip":"50651","fips":"19013","name":"Black Hawk County","state_id":"IA"},{"zip":"50651","fips":"19019","name":"Buchanan County","state_id":"IA"},{"zip":"50652","fips":"19171","name":"Tama County","state_id":"IA"},{"zip":"50653","fips":"19067","name":"Floyd County","state_id":"IA"},{"zip":"50654","fips":"19019","name":"Buchanan County","state_id":"IA"},{"zip":"50654","fips":"19055","name":"Delaware County","state_id":"IA"},{"zip":"50655","fips":"19065","name":"Fayette County","state_id":"IA"},{"zip":"50657","fips":"19075","name":"Grundy County","state_id":"IA"},{"zip":"50658","fips":"19037","name":"Chickasaw County","state_id":"IA"},{"zip":"50658","fips":"19067","name":"Floyd County","state_id":"IA"},{"zip":"50658","fips":"19017","name":"Bremer County","state_id":"IA"},{"zip":"50658","fips":"19023","name":"Butler County","state_id":"IA"},{"zip":"50659","fips":"19037","name":"Chickasaw County","state_id":"IA"},{"zip":"50659","fips":"19089","name":"Howard County","state_id":"IA"},{"zip":"50660","fips":"19023","name":"Butler County","state_id":"IA"},{"zip":"50660","fips":"19075","name":"Grundy County","state_id":"IA"},{"zip":"50661","fips":"19037","name":"Chickasaw County","state_id":"IA"},{"zip":"50662","fips":"19065","name":"Fayette County","state_id":"IA"},{"zip":"50662","fips":"19019","name":"Buchanan County","state_id":"IA"},{"zip":"50664","fips":"19065","name":"Fayette County","state_id":"IA"},{"zip":"50664","fips":"19017","name":"Bremer County","state_id":"IA"},{"zip":"50665","fips":"19023","name":"Butler County","state_id":"IA"},{"zip":"50665","fips":"19075","name":"Grundy County","state_id":"IA"},{"zip":"50666","fips":"19023","name":"Butler County","state_id":"IA"},{"zip":"50666","fips":"19017","name":"Bremer County","state_id":"IA"},{"zip":"50667","fips":"19013","name":"Black Hawk County","state_id":"IA"},{"zip":"50668","fips":"19013","name":"Black Hawk County","state_id":"IA"},{"zip":"50668","fips":"19017","name":"Bremer County","state_id":"IA"},{"zip":"50669","fips":"19075","name":"Grundy County","state_id":"IA"},{"zip":"50669","fips":"19013","name":"Black Hawk County","state_id":"IA"},{"zip":"50669","fips":"19171","name":"Tama County","state_id":"IA"},{"zip":"50670","fips":"19023","name":"Butler County","state_id":"IA"},{"zip":"50670","fips":"19017","name":"Bremer County","state_id":"IA"},{"zip":"50671","fips":"19019","name":"Buchanan County","state_id":"IA"},{"zip":"50671","fips":"19065","name":"Fayette County","state_id":"IA"},{"zip":"50672","fips":"19075","name":"Grundy County","state_id":"IA"},{"zip":"50672","fips":"19083","name":"Hardin County","state_id":"IA"},{"zip":"50673","fips":"19075","name":"Grundy County","state_id":"IA"},{"zip":"50674","fips":"19017","name":"Bremer County","state_id":"IA"},{"zip":"50674","fips":"19065","name":"Fayette County","state_id":"IA"},{"zip":"50674","fips":"19037","name":"Chickasaw County","state_id":"IA"},{"zip":"50675","fips":"19013","name":"Black Hawk County","state_id":"IA"},{"zip":"50675","fips":"19171","name":"Tama County","state_id":"IA"},{"zip":"50676","fips":"19017","name":"Bremer County","state_id":"IA"},{"zip":"50677","fips":"19023","name":"Butler County","state_id":"IA"},{"zip":"50677","fips":"19017","name":"Bremer County","state_id":"IA"},{"zip":"50680","fips":"19075","name":"Grundy County","state_id":"IA"},{"zip":"50681","fips":"19065","name":"Fayette County","state_id":"IA"},{"zip":"50682","fips":"19019","name":"Buchanan County","state_id":"IA"}]
