[{"zip":"50801","fips":"19175","name":"Union County","state_id":"IA"},{"zip":"50801","fips":"19001","name":"Adair County","state_id":"IA"},{"zip":"50801","fips":"19003","name":"Adams County","state_id":"IA"},{"zip":"50830","fips":"19175","name":"Union County","state_id":"IA"},{"zip":"50831","fips":"19175","name":"Union County","state_id":"IA"},{"zip":"50833","fips":"19145","name":"Page County","state_id":"IA"},{"zip":"50833","fips":"19173","name":"Taylor County","state_id":"IA"},{"zip":"50835","fips":"19159","name":"Ringgold County","state_id":"IA"},{"zip":"50836","fips":"19173","name":"Taylor County","state_id":"IA"},{"zip":"50836","fips":"19159","name":"Ringgold County","state_id":"IA"},{"zip":"50837","fips":"19003","name":"Adams County","state_id":"IA"},{"zip":"50837","fips":"19001","name":"Adair County","state_id":"IA"},{"zip":"50837","fips":"19029","name":"Cass County","state_id":"IA"},{"zip":"50839","fips":"19003","name":"Adams County","state_id":"IA"},{"zip":"50840","fips":"19173","name":"Taylor County","state_id":"IA"},{"zip":"50840","fips":"19159","name":"Ringgold County","state_id":"IA"},{"zip":"50841","fips":"19003","name":"Adams County","state_id":"IA"},{"zip":"50841","fips":"19173","name":"Taylor County","state_id":"IA"},{"zip":"50841","fips":"19137","name":"Montgomery County","state_id":"IA"},{"zip":"50842","fips":"19175","name":"Union County","state_id":"IA"},{"zip":"50843","fips":"19029","name":"Cass County","state_id":"IA"},{"zip":"50843","fips":"19137","name":"Montgomery County","state_id":"IA"},{"zip":"50843","fips":"19003","name":"Adams County","state_id":"IA"},{"zip":"50845","fips":"19175","name":"Union County","state_id":"IA"},{"zip":"50845","fips":"19159","name":"Ringgold County","state_id":"IA"},{"zip":"50846","fips":"19001","name":"Adair County","state_id":"IA"},{"zip":"50847","fips":"19137","name":"Montgomery County","state_id":"IA"},{"zip":"50848","fips":"19173","name":"Taylor County","state_id":"IA"},{"zip":"50849","fips":"19001","name":"Adair County","state_id":"IA"},{"zip":"50851","fips":"19159","name":"Ringgold County","state_id":"IA"},{"zip":"50851","fips":"19003","name":"Adams County","state_id":"IA"},{"zip":"50851","fips":"19173","name":"Taylor County","state_id":"IA"},{"zip":"50851","fips":"19175","name":"Union County","state_id":"IA"},{"zip":"50853","fips":"19003","name":"Adams County","state_id":"IA"},{"zip":"50853","fips":"19029","name":"Cass County","state_id":"IA"},{"zip":"50854","fips":"19159","name":"Ringgold County","state_id":"IA"},{"zip":"50857","fips":"19003","name":"Adams County","state_id":"IA"},{"zip":"50857","fips":"19137","name":"Montgomery County","state_id":"IA"},{"zip":"50857","fips":"19173","name":"Taylor County","state_id":"IA"},{"zip":"50858","fips":"19001","name":"Adair County","state_id":"IA"},{"zip":"50858","fips":"19121","name":"Madison County","state_id":"IA"},{"zip":"50859","fips":"19001","name":"Adair County","state_id":"IA"},{"zip":"50859","fips":"19003","name":"Adams County","state_id":"IA"},{"zip":"50860","fips":"19159","name":"Ringgold County","state_id":"IA"},{"zip":"50861","fips":"19175","name":"Union County","state_id":"IA"},{"zip":"50861","fips":"19159","name":"Ringgold County","state_id":"IA"},{"zip":"50862","fips":"19173","name":"Taylor County","state_id":"IA"},{"zip":"50863","fips":"19159","name":"Ringgold County","state_id":"IA"},{"zip":"50864","fips":"19145","name":"Page County","state_id":"IA"},{"zip":"50864","fips":"19029","name":"Cass County","state_id":"IA"},{"zip":"50864","fips":"19173","name":"Taylor County","state_id":"IA"},{"zip":"50864","fips":"19137","name":"Montgomery County","state_id":"IA"},{"zip":"50864","fips":"19003","name":"Adams County","state_id":"IA"}]
