[{"zip":"51001","fips":"19149","name":"Plymouth County","state_id":"IA"},{"zip":"51002","fips":"19021","name":"Buena Vista County","state_id":"IA"},{"zip":"51002","fips":"19161","name":"Sac County","state_id":"IA"},{"zip":"51002","fips":"19035","name":"Cherokee County","state_id":"IA"},{"zip":"51003","fips":"19167","name":"Sioux County","state_id":"IA"},{"zip":"51003","fips":"19149","name":"Plymouth County","state_id":"IA"},{"zip":"51004","fips":"19193","name":"Woodbury County","state_id":"IA"},{"zip":"51005","fips":"19021","name":"Buena Vista County","state_id":"IA"},{"zip":"51005","fips":"19035","name":"Cherokee County","state_id":"IA"},{"zip":"51006","fips":"19093","name":"Ida County","state_id":"IA"},{"zip":"51006","fips":"19193","name":"Woodbury County","state_id":"IA"},{"zip":"51006","fips":"19047","name":"Crawford County","state_id":"IA"},{"zip":"51007","fips":"19193","name":"Woodbury County","state_id":"IA"},{"zip":"51008","fips":"19149","name":"Plymouth County","state_id":"IA"},{"zip":"51009","fips":"19141","name":"O'Brien County","state_id":"IA"},{"zip":"51010","fips":"19133","name":"Monona County","state_id":"IA"},{"zip":"51011","fips":"19167","name":"Sioux County","state_id":"IA"},{"zip":"51012","fips":"19035","name":"Cherokee County","state_id":"IA"},{"zip":"51014","fips":"19035","name":"Cherokee County","state_id":"IA"},{"zip":"51014","fips":"19141","name":"O'Brien County","state_id":"IA"},{"zip":"51015","fips":"19193","name":"Woodbury County","state_id":"IA"},{"zip":"51016","fips":"19035","name":"Cherokee County","state_id":"IA"},{"zip":"51016","fips":"19193","name":"Woodbury County","state_id":"IA"},{"zip":"51016","fips":"19093","name":"Ida County","state_id":"IA"},{"zip":"51018","fips":"19193","name":"Woodbury County","state_id":"IA"},{"zip":"51018","fips":"19093","name":"Ida County","state_id":"IA"},{"zip":"51019","fips":"19093","name":"Ida County","state_id":"IA"},{"zip":"51019","fips":"19193","name":"Woodbury County","state_id":"IA"},{"zip":"51019","fips":"19047","name":"Crawford County","state_id":"IA"},{"zip":"51019","fips":"19133","name":"Monona County","state_id":"IA"},{"zip":"51020","fips":"19161","name":"Sac County","state_id":"IA"},{"zip":"51020","fips":"19021","name":"Buena Vista County","state_id":"IA"},{"zip":"51020","fips":"19035","name":"Cherokee County","state_id":"IA"},{"zip":"51020","fips":"19093","name":"Ida County","state_id":"IA"},{"zip":"51022","fips":"19035","name":"Cherokee County","state_id":"IA"},{"zip":"51022","fips":"19141","name":"O'Brien County","state_id":"IA"},{"zip":"51022","fips":"19167","name":"Sioux County","state_id":"IA"},{"zip":"51022","fips":"19149","name":"Plymouth County","state_id":"IA"},{"zip":"51023","fips":"19149","name":"Plymouth County","state_id":"IA"},{"zip":"51023","fips":"19167","name":"Sioux County","state_id":"IA"},{"zip":"51024","fips":"19149","name":"Plymouth County","state_id":"IA"},{"zip":"51025","fips":"19093","name":"Ida County","state_id":"IA"},{"zip":"51025","fips":"19035","name":"Cherokee County","state_id":"IA"},{"zip":"51026","fips":"19133","name":"Monona County","state_id":"IA"},{"zip":"51026","fips":"19193","name":"Woodbury County","state_id":"IA"},{"zip":"51027","fips":"19149","name":"Plymouth County","state_id":"IA"},{"zip":"51027","fips":"19167","name":"Sioux County","state_id":"IA"},{"zip":"51028","fips":"19193","name":"Woodbury County","state_id":"IA"},{"zip":"51028","fips":"19149","name":"Plymouth County","state_id":"IA"},{"zip":"51029","fips":"19141","name":"O'Brien County","state_id":"IA"},{"zip":"51029","fips":"19035","name":"Cherokee County","state_id":"IA"},{"zip":"51030","fips":"19193","name":"Woodbury County","state_id":"IA"},{"zip":"51031","fips":"19167","name":"Sioux County","state_id":"IA"},{"zip":"51031","fips":"19149","name":"Plymouth County","state_id":"IA"},{"zip":"51033","fips":"19041","name":"Clay County","state_id":"IA"},{"zip":"51033","fips":"19021","name":"Buena Vista County","state_id":"IA"},{"zip":"51034","fips":"19133","name":"Monona County","state_id":"IA"},{"zip":"51034","fips":"19047","name":"Crawford County","state_id":"IA"},{"zip":"51034","fips":"19193","name":"Woodbury County","state_id":"IA"},{"zip":"51035","fips":"19141","name":"O'Brien County","state_id":"IA"},{"zip":"51035","fips":"19035","name":"Cherokee County","state_id":"IA"},{"zip":"51035","fips":"19149","name":"Plymouth County","state_id":"IA"},{"zip":"51036","fips":"19149","name":"Plymouth County","state_id":"IA"},{"zip":"51036","fips":"19167","name":"Sioux County","state_id":"IA"},{"zip":"51037","fips":"19035","name":"Cherokee County","state_id":"IA"},{"zip":"51038","fips":"19149","name":"Plymouth County","state_id":"IA"},{"zip":"51039","fips":"19193","name":"Woodbury County","state_id":"IA"},{"zip":"51040","fips":"19133","name":"Monona County","state_id":"IA"},{"zip":"51041","fips":"19167","name":"Sioux County","state_id":"IA"},{"zip":"51041","fips":"19149","name":"Plymouth County","state_id":"IA"},{"zip":"51044","fips":"19193","name":"Woodbury County","state_id":"IA"},{"zip":"51045","fips":"19149","name":"Plymouth County","state_id":"IA"},{"zip":"51046","fips":"19035","name":"Cherokee County","state_id":"IA"},{"zip":"51046","fips":"19141","name":"O'Brien County","state_id":"IA"},{"zip":"51047","fips":"19141","name":"O'Brien County","state_id":"IA"},{"zip":"51047","fips":"19035","name":"Cherokee County","state_id":"IA"},{"zip":"51047","fips":"19021","name":"Buena Vista County","state_id":"IA"},{"zip":"51047","fips":"19041","name":"Clay County","state_id":"IA"},{"zip":"51048","fips":"19149","name":"Plymouth County","state_id":"IA"},{"zip":"51048","fips":"19035","name":"Cherokee County","state_id":"IA"},{"zip":"51048","fips":"19193","name":"Woodbury County","state_id":"IA"},{"zip":"51049","fips":"19035","name":"Cherokee County","state_id":"IA"},{"zip":"51050","fips":"19035","name":"Cherokee County","state_id":"IA"},{"zip":"51050","fips":"19167","name":"Sioux County","state_id":"IA"},{"zip":"51050","fips":"19149","name":"Plymouth County","state_id":"IA"},{"zip":"51051","fips":"19133","name":"Monona County","state_id":"IA"},{"zip":"51052","fips":"19193","name":"Woodbury County","state_id":"IA"},{"zip":"51053","fips":"19093","name":"Ida County","state_id":"IA"},{"zip":"51053","fips":"19021","name":"Buena Vista County","state_id":"IA"},{"zip":"51053","fips":"19161","name":"Sac County","state_id":"IA"},{"zip":"51054","fips":"19193","name":"Woodbury County","state_id":"IA"},{"zip":"51055","fips":"19133","name":"Monona County","state_id":"IA"},{"zip":"51055","fips":"19193","name":"Woodbury County","state_id":"IA"},{"zip":"51056","fips":"19193","name":"Woodbury County","state_id":"IA"},{"zip":"51056","fips":"19133","name":"Monona County","state_id":"IA"},{"zip":"51058","fips":"19141","name":"O'Brien County","state_id":"IA"},{"zip":"51058","fips":"19035","name":"Cherokee County","state_id":"IA"},{"zip":"51058","fips":"19041","name":"Clay County","state_id":"IA"},{"zip":"51060","fips":"19133","name":"Monona County","state_id":"IA"},{"zip":"51060","fips":"19047","name":"Crawford County","state_id":"IA"},{"zip":"51061","fips":"19093","name":"Ida County","state_id":"IA"},{"zip":"51061","fips":"19035","name":"Cherokee County","state_id":"IA"},{"zip":"51061","fips":"19193","name":"Woodbury County","state_id":"IA"},{"zip":"51062","fips":"19149","name":"Plymouth County","state_id":"IA"},{"zip":"51063","fips":"19133","name":"Monona County","state_id":"IA"},{"zip":"51063","fips":"19193","name":"Woodbury County","state_id":"IA"}]
