[{"zip":"51201","fips":"19141","name":"O'Brien County","state_id":"IA"},{"zip":"51201","fips":"19119","name":"Lyon County","state_id":"IA"},{"zip":"51201","fips":"19167","name":"Sioux County","state_id":"IA"},{"zip":"51201","fips":"19143","name":"Osceola County","state_id":"IA"},{"zip":"51230","fips":"19119","name":"Lyon County","state_id":"IA"},{"zip":"51231","fips":"19141","name":"O'Brien County","state_id":"IA"},{"zip":"51232","fips":"19141","name":"O'Brien County","state_id":"IA"},{"zip":"51232","fips":"19119","name":"Lyon County","state_id":"IA"},{"zip":"51232","fips":"19143","name":"Osceola County","state_id":"IA"},{"zip":"51232","fips":"19167","name":"Sioux County","state_id":"IA"},{"zip":"51234","fips":"19119","name":"Lyon County","state_id":"IA"},{"zip":"51234","fips":"19167","name":"Sioux County","state_id":"IA"},{"zip":"51235","fips":"19119","name":"Lyon County","state_id":"IA"},{"zip":"51235","fips":"19167","name":"Sioux County","state_id":"IA"},{"zip":"51237","fips":"19119","name":"Lyon County","state_id":"IA"},{"zip":"51238","fips":"19167","name":"Sioux County","state_id":"IA"},{"zip":"51238","fips":"19141","name":"O'Brien County","state_id":"IA"},{"zip":"51239","fips":"19119","name":"Lyon County","state_id":"IA"},{"zip":"51239","fips":"19167","name":"Sioux County","state_id":"IA"},{"zip":"51240","fips":"19167","name":"Sioux County","state_id":"IA"},{"zip":"51240","fips":"19119","name":"Lyon County","state_id":"IA"},{"zip":"51241","fips":"19119","name":"Lyon County","state_id":"IA"},{"zip":"51242","fips":"19119","name":"Lyon County","state_id":"IA"},{"zip":"51243","fips":"19143","name":"Osceola County","state_id":"IA"},{"zip":"51243","fips":"19119","name":"Lyon County","state_id":"IA"},{"zip":"51244","fips":"19167","name":"Sioux County","state_id":"IA"},{"zip":"51245","fips":"19141","name":"O'Brien County","state_id":"IA"},{"zip":"51246","fips":"19119","name":"Lyon County","state_id":"IA"},{"zip":"51247","fips":"19167","name":"Sioux County","state_id":"IA"},{"zip":"51247","fips":"19119","name":"Lyon County","state_id":"IA"},{"zip":"51248","fips":"19143","name":"Osceola County","state_id":"IA"},{"zip":"51248","fips":"19141","name":"O'Brien County","state_id":"IA"},{"zip":"51249","fips":"19119","name":"Lyon County","state_id":"IA"},{"zip":"51249","fips":"19143","name":"Osceola County","state_id":"IA"},{"zip":"51250","fips":"19167","name":"Sioux County","state_id":"IA"}]
