[{"zip":"51301","fips":"19041","name":"Clay County","state_id":"IA"},{"zip":"51301","fips":"19059","name":"Dickinson County","state_id":"IA"},{"zip":"51331","fips":"19059","name":"Dickinson County","state_id":"IA"},{"zip":"51333","fips":"19041","name":"Clay County","state_id":"IA"},{"zip":"51333","fips":"19059","name":"Dickinson County","state_id":"IA"},{"zip":"51334","fips":"19063","name":"Emmet County","state_id":"IA"},{"zip":"51334","fips":"19059","name":"Dickinson County","state_id":"IA"},{"zip":"51338","fips":"19041","name":"Clay County","state_id":"IA"},{"zip":"51338","fips":"19059","name":"Dickinson County","state_id":"IA"},{"zip":"51340","fips":"19041","name":"Clay County","state_id":"IA"},{"zip":"51341","fips":"19041","name":"Clay County","state_id":"IA"},{"zip":"51342","fips":"19063","name":"Emmet County","state_id":"IA"},{"zip":"51342","fips":"19147","name":"Palo Alto County","state_id":"IA"},{"zip":"51343","fips":"19041","name":"Clay County","state_id":"IA"},{"zip":"51345","fips":"19143","name":"Osceola County","state_id":"IA"},{"zip":"51345","fips":"19059","name":"Dickinson County","state_id":"IA"},{"zip":"51346","fips":"19143","name":"Osceola County","state_id":"IA"},{"zip":"51346","fips":"19041","name":"Clay County","state_id":"IA"},{"zip":"51346","fips":"19141","name":"O'Brien County","state_id":"IA"},{"zip":"51347","fips":"19059","name":"Dickinson County","state_id":"IA"},{"zip":"51347","fips":"19143","name":"Osceola County","state_id":"IA"},{"zip":"51350","fips":"19141","name":"O'Brien County","state_id":"IA"},{"zip":"51350","fips":"19143","name":"Osceola County","state_id":"IA"},{"zip":"51351","fips":"19041","name":"Clay County","state_id":"IA"},{"zip":"51351","fips":"19059","name":"Dickinson County","state_id":"IA"},{"zip":"51354","fips":"19143","name":"Osceola County","state_id":"IA"},{"zip":"51355","fips":"19059","name":"Dickinson County","state_id":"IA"},{"zip":"51357","fips":"19041","name":"Clay County","state_id":"IA"},{"zip":"51358","fips":"19147","name":"Palo Alto County","state_id":"IA"},{"zip":"51358","fips":"19041","name":"Clay County","state_id":"IA"},{"zip":"51360","fips":"19059","name":"Dickinson County","state_id":"IA"},{"zip":"51363","fips":"19059","name":"Dickinson County","state_id":"IA"},{"zip":"51364","fips":"19041","name":"Clay County","state_id":"IA"},{"zip":"51364","fips":"19147","name":"Palo Alto County","state_id":"IA"},{"zip":"51364","fips":"19063","name":"Emmet County","state_id":"IA"},{"zip":"51364","fips":"19059","name":"Dickinson County","state_id":"IA"},{"zip":"51365","fips":"19063","name":"Emmet County","state_id":"IA"},{"zip":"51366","fips":"19147","name":"Palo Alto County","state_id":"IA"},{"zip":"51366","fips":"19021","name":"Buena Vista County","state_id":"IA"},{"zip":"51366","fips":"19041","name":"Clay County","state_id":"IA"}]
