[{"zip":"51401","fips":"19027","name":"Carroll County","state_id":"IA"},{"zip":"51430","fips":"19027","name":"Carroll County","state_id":"IA"},{"zip":"51431","fips":"19161","name":"Sac County","state_id":"IA"},{"zip":"51431","fips":"19093","name":"Ida County","state_id":"IA"},{"zip":"51432","fips":"19047","name":"Crawford County","state_id":"IA"},{"zip":"51433","fips":"19027","name":"Carroll County","state_id":"IA"},{"zip":"51433","fips":"19025","name":"Calhoun County","state_id":"IA"},{"zip":"51433","fips":"19161","name":"Sac County","state_id":"IA"},{"zip":"51436","fips":"19161","name":"Sac County","state_id":"IA"},{"zip":"51436","fips":"19047","name":"Crawford County","state_id":"IA"},{"zip":"51436","fips":"19027","name":"Carroll County","state_id":"IA"},{"zip":"51439","fips":"19047","name":"Crawford County","state_id":"IA"},{"zip":"51440","fips":"19027","name":"Carroll County","state_id":"IA"},{"zip":"51440","fips":"19009","name":"Audubon County","state_id":"IA"},{"zip":"51441","fips":"19047","name":"Crawford County","state_id":"IA"},{"zip":"51442","fips":"19047","name":"Crawford County","state_id":"IA"},{"zip":"51443","fips":"19073","name":"Greene County","state_id":"IA"},{"zip":"51443","fips":"19027","name":"Carroll County","state_id":"IA"},{"zip":"51444","fips":"19027","name":"Carroll County","state_id":"IA"},{"zip":"51445","fips":"19093","name":"Ida County","state_id":"IA"},{"zip":"51446","fips":"19165","name":"Shelby County","state_id":"IA"},{"zip":"51447","fips":"19165","name":"Shelby County","state_id":"IA"},{"zip":"51448","fips":"19161","name":"Sac County","state_id":"IA"},{"zip":"51448","fips":"19093","name":"Ida County","state_id":"IA"},{"zip":"51448","fips":"19047","name":"Crawford County","state_id":"IA"},{"zip":"51449","fips":"19027","name":"Carroll County","state_id":"IA"},{"zip":"51449","fips":"19025","name":"Calhoun County","state_id":"IA"},{"zip":"51449","fips":"19073","name":"Greene County","state_id":"IA"},{"zip":"51450","fips":"19161","name":"Sac County","state_id":"IA"},{"zip":"51451","fips":"19027","name":"Carroll County","state_id":"IA"},{"zip":"51452","fips":"19027","name":"Carroll County","state_id":"IA"},{"zip":"51453","fips":"19027","name":"Carroll County","state_id":"IA"},{"zip":"51453","fips":"19025","name":"Calhoun County","state_id":"IA"},{"zip":"51453","fips":"19073","name":"Greene County","state_id":"IA"},{"zip":"51454","fips":"19047","name":"Crawford County","state_id":"IA"},{"zip":"51454","fips":"19165","name":"Shelby County","state_id":"IA"},{"zip":"51455","fips":"19165","name":"Shelby County","state_id":"IA"},{"zip":"51455","fips":"19027","name":"Carroll County","state_id":"IA"},{"zip":"51455","fips":"19047","name":"Crawford County","state_id":"IA"},{"zip":"51455","fips":"19009","name":"Audubon County","state_id":"IA"},{"zip":"51458","fips":"19047","name":"Crawford County","state_id":"IA"},{"zip":"51458","fips":"19161","name":"Sac County","state_id":"IA"},{"zip":"51459","fips":"19027","name":"Carroll County","state_id":"IA"},{"zip":"51460","fips":"19047","name":"Crawford County","state_id":"IA"},{"zip":"51461","fips":"19047","name":"Crawford County","state_id":"IA"},{"zip":"51461","fips":"19093","name":"Ida County","state_id":"IA"},{"zip":"51462","fips":"19027","name":"Carroll County","state_id":"IA"},{"zip":"51462","fips":"19073","name":"Greene County","state_id":"IA"},{"zip":"51463","fips":"19027","name":"Carroll County","state_id":"IA"},{"zip":"51463","fips":"19009","name":"Audubon County","state_id":"IA"},{"zip":"51465","fips":"19047","name":"Crawford County","state_id":"IA"},{"zip":"51466","fips":"19161","name":"Sac County","state_id":"IA"},{"zip":"51466","fips":"19047","name":"Crawford County","state_id":"IA"},{"zip":"51466","fips":"19027","name":"Carroll County","state_id":"IA"},{"zip":"51467","fips":"19047","name":"Crawford County","state_id":"IA"},{"zip":"51467","fips":"19027","name":"Carroll County","state_id":"IA"}]
