[{"zip":"51501","fips":"19155","name":"Pottawattamie County","state_id":"IA"},{"zip":"51503","fips":"19155","name":"Pottawattamie County","state_id":"IA"},{"zip":"51503","fips":"19129","name":"Mills County","state_id":"IA"},{"zip":"51510","fips":"19155","name":"Pottawattamie County","state_id":"IA"},{"zip":"51520","fips":"19047","name":"Crawford County","state_id":"IA"},{"zip":"51521","fips":"19165","name":"Shelby County","state_id":"IA"},{"zip":"51521","fips":"19155","name":"Pottawattamie County","state_id":"IA"},{"zip":"51523","fips":"19085","name":"Harrison County","state_id":"IA"},{"zip":"51523","fips":"19133","name":"Monona County","state_id":"IA"},{"zip":"51525","fips":"19155","name":"Pottawattamie County","state_id":"IA"},{"zip":"51526","fips":"19155","name":"Pottawattamie County","state_id":"IA"},{"zip":"51527","fips":"19165","name":"Shelby County","state_id":"IA"},{"zip":"51527","fips":"19047","name":"Crawford County","state_id":"IA"},{"zip":"51528","fips":"19047","name":"Crawford County","state_id":"IA"},{"zip":"51528","fips":"19165","name":"Shelby County","state_id":"IA"},{"zip":"51529","fips":"19047","name":"Crawford County","state_id":"IA"},{"zip":"51529","fips":"19085","name":"Harrison County","state_id":"IA"},{"zip":"51529","fips":"19133","name":"Monona County","state_id":"IA"},{"zip":"51529","fips":"19165","name":"Shelby County","state_id":"IA"},{"zip":"51530","fips":"19165","name":"Shelby County","state_id":"IA"},{"zip":"51531","fips":"19009","name":"Audubon County","state_id":"IA"},{"zip":"51531","fips":"19165","name":"Shelby County","state_id":"IA"},{"zip":"51532","fips":"19155","name":"Pottawattamie County","state_id":"IA"},{"zip":"51532","fips":"19029","name":"Cass County","state_id":"IA"},{"zip":"51532","fips":"19137","name":"Montgomery County","state_id":"IA"},{"zip":"51533","fips":"19137","name":"Montgomery County","state_id":"IA"},{"zip":"51533","fips":"19129","name":"Mills County","state_id":"IA"},{"zip":"51534","fips":"19129","name":"Mills County","state_id":"IA"},{"zip":"51535","fips":"19029","name":"Cass County","state_id":"IA"},{"zip":"51535","fips":"19155","name":"Pottawattamie County","state_id":"IA"},{"zip":"51536","fips":"19155","name":"Pottawattamie County","state_id":"IA"},{"zip":"51537","fips":"19165","name":"Shelby County","state_id":"IA"},{"zip":"51540","fips":"19129","name":"Mills County","state_id":"IA"},{"zip":"51541","fips":"19137","name":"Montgomery County","state_id":"IA"},{"zip":"51541","fips":"19155","name":"Pottawattamie County","state_id":"IA"},{"zip":"51541","fips":"19129","name":"Mills County","state_id":"IA"},{"zip":"51542","fips":"19155","name":"Pottawattamie County","state_id":"IA"},{"zip":"51543","fips":"19009","name":"Audubon County","state_id":"IA"},{"zip":"51543","fips":"19165","name":"Shelby County","state_id":"IA"},{"zip":"51544","fips":"19155","name":"Pottawattamie County","state_id":"IA"},{"zip":"51544","fips":"19029","name":"Cass County","state_id":"IA"},{"zip":"51545","fips":"19133","name":"Monona County","state_id":"IA"},{"zip":"51545","fips":"19085","name":"Harrison County","state_id":"IA"},{"zip":"51546","fips":"19085","name":"Harrison County","state_id":"IA"},{"zip":"51548","fips":"19155","name":"Pottawattamie County","state_id":"IA"},{"zip":"51549","fips":"19129","name":"Mills County","state_id":"IA"},{"zip":"51549","fips":"19137","name":"Montgomery County","state_id":"IA"},{"zip":"51549","fips":"19155","name":"Pottawattamie County","state_id":"IA"},{"zip":"51550","fips":"19085","name":"Harrison County","state_id":"IA"},{"zip":"51551","fips":"19129","name":"Mills County","state_id":"IA"},{"zip":"51551","fips":"19071","name":"Fremont County","state_id":"IA"},{"zip":"51552","fips":"19029","name":"Cass County","state_id":"IA"},{"zip":"51552","fips":"19155","name":"Pottawattamie County","state_id":"IA"},{"zip":"51552","fips":"19165","name":"Shelby County","state_id":"IA"},{"zip":"51553","fips":"19155","name":"Pottawattamie County","state_id":"IA"},{"zip":"51554","fips":"19129","name":"Mills County","state_id":"IA"},{"zip":"51555","fips":"19155","name":"Pottawattamie County","state_id":"IA"},{"zip":"51555","fips":"19085","name":"Harrison County","state_id":"IA"},{"zip":"51556","fips":"19085","name":"Harrison County","state_id":"IA"},{"zip":"51557","fips":"19085","name":"Harrison County","state_id":"IA"},{"zip":"51558","fips":"19085","name":"Harrison County","state_id":"IA"},{"zip":"51558","fips":"19133","name":"Monona County","state_id":"IA"},{"zip":"51559","fips":"19155","name":"Pottawattamie County","state_id":"IA"},{"zip":"51559","fips":"19085","name":"Harrison County","state_id":"IA"},{"zip":"51560","fips":"19155","name":"Pottawattamie County","state_id":"IA"},{"zip":"51561","fips":"19129","name":"Mills County","state_id":"IA"},{"zip":"51562","fips":"19165","name":"Shelby County","state_id":"IA"},{"zip":"51562","fips":"19085","name":"Harrison County","state_id":"IA"},{"zip":"51563","fips":"19085","name":"Harrison County","state_id":"IA"},{"zip":"51563","fips":"19165","name":"Shelby County","state_id":"IA"},{"zip":"51564","fips":"19085","name":"Harrison County","state_id":"IA"},{"zip":"51565","fips":"19085","name":"Harrison County","state_id":"IA"},{"zip":"51565","fips":"19165","name":"Shelby County","state_id":"IA"},{"zip":"51566","fips":"19155","name":"Pottawattamie County","state_id":"IA"},{"zip":"51566","fips":"19145","name":"Page County","state_id":"IA"},{"zip":"51566","fips":"19137","name":"Montgomery County","state_id":"IA"},{"zip":"51570","fips":"19165","name":"Shelby County","state_id":"IA"},{"zip":"51570","fips":"19085","name":"Harrison County","state_id":"IA"},{"zip":"51570","fips":"19155","name":"Pottawattamie County","state_id":"IA"},{"zip":"51571","fips":"19155","name":"Pottawattamie County","state_id":"IA"},{"zip":"51571","fips":"19129","name":"Mills County","state_id":"IA"},{"zip":"51572","fips":"19133","name":"Monona County","state_id":"IA"},{"zip":"51573","fips":"19137","name":"Montgomery County","state_id":"IA"},{"zip":"51575","fips":"19155","name":"Pottawattamie County","state_id":"IA"},{"zip":"51576","fips":"19155","name":"Pottawattamie County","state_id":"IA"},{"zip":"51577","fips":"19029","name":"Cass County","state_id":"IA"},{"zip":"51577","fips":"19165","name":"Shelby County","state_id":"IA"},{"zip":"51577","fips":"19155","name":"Pottawattamie County","state_id":"IA"},{"zip":"51578","fips":"19165","name":"Shelby County","state_id":"IA"},{"zip":"51579","fips":"19085","name":"Harrison County","state_id":"IA"}]
