[{"zip":"51601","fips":"19145","name":"Page County","state_id":"IA"},{"zip":"51601","fips":"19071","name":"Fremont County","state_id":"IA"},{"zip":"51603","fips":"19145","name":"Page County","state_id":"IA"},{"zip":"51603","fips":"19071","name":"Fremont County","state_id":"IA"},{"zip":"51630","fips":"19145","name":"Page County","state_id":"IA"},{"zip":"51631","fips":"19145","name":"Page County","state_id":"IA"},{"zip":"51632","fips":"19173","name":"Taylor County","state_id":"IA"},{"zip":"51632","fips":"19145","name":"Page County","state_id":"IA"},{"zip":"51636","fips":"19145","name":"Page County","state_id":"IA"},{"zip":"51637","fips":"19145","name":"Page County","state_id":"IA"},{"zip":"51638","fips":"19137","name":"Montgomery County","state_id":"IA"},{"zip":"51638","fips":"19145","name":"Page County","state_id":"IA"},{"zip":"51639","fips":"19071","name":"Fremont County","state_id":"IA"},{"zip":"51640","fips":"19071","name":"Fremont County","state_id":"IA"},{"zip":"51645","fips":"19145","name":"Page County","state_id":"IA"},{"zip":"51645","fips":"19129","name":"Mills County","state_id":"IA"},{"zip":"51645","fips":"19137","name":"Montgomery County","state_id":"IA"},{"zip":"51645","fips":"19071","name":"Fremont County","state_id":"IA"},{"zip":"51646","fips":"19173","name":"Taylor County","state_id":"IA"},{"zip":"51646","fips":"19145","name":"Page County","state_id":"IA"},{"zip":"51647","fips":"19145","name":"Page County","state_id":"IA"},{"zip":"51647","fips":"19071","name":"Fremont County","state_id":"IA"},{"zip":"51648","fips":"19071","name":"Fremont County","state_id":"IA"},{"zip":"51649","fips":"19071","name":"Fremont County","state_id":"IA"},{"zip":"51649","fips":"19129","name":"Mills County","state_id":"IA"},{"zip":"51650","fips":"19071","name":"Fremont County","state_id":"IA"},{"zip":"51651","fips":"19145","name":"Page County","state_id":"IA"},{"zip":"51652","fips":"19071","name":"Fremont County","state_id":"IA"},{"zip":"51653","fips":"19129","name":"Mills County","state_id":"IA"},{"zip":"51653","fips":"19071","name":"Fremont County","state_id":"IA"},{"zip":"51654","fips":"19071","name":"Fremont County","state_id":"IA"},{"zip":"51656","fips":"19145","name":"Page County","state_id":"IA"}]
