[{"zip":"52001","fips":"19061","name":"Dubuque County","state_id":"IA"},{"zip":"52002","fips":"19061","name":"Dubuque County","state_id":"IA"},{"zip":"52003","fips":"19061","name":"Dubuque County","state_id":"IA"},{"zip":"52004","fips":"19061","name":"Dubuque County","state_id":"IA"},{"zip":"52030","fips":"19097","name":"Jackson County","state_id":"IA"},{"zip":"52031","fips":"19097","name":"Jackson County","state_id":"IA"},{"zip":"52031","fips":"19061","name":"Dubuque County","state_id":"IA"},{"zip":"52032","fips":"19061","name":"Dubuque County","state_id":"IA"},{"zip":"52032","fips":"19105","name":"Jones County","state_id":"IA"},{"zip":"52032","fips":"19097","name":"Jackson County","state_id":"IA"},{"zip":"52033","fips":"19061","name":"Dubuque County","state_id":"IA"},{"zip":"52033","fips":"19105","name":"Jones County","state_id":"IA"},{"zip":"52035","fips":"19043","name":"Clayton County","state_id":"IA"},{"zip":"52035","fips":"19055","name":"Delaware County","state_id":"IA"},{"zip":"52036","fips":"19055","name":"Delaware County","state_id":"IA"},{"zip":"52037","fips":"19045","name":"Clinton County","state_id":"IA"},{"zip":"52037","fips":"19097","name":"Jackson County","state_id":"IA"},{"zip":"52038","fips":"19055","name":"Delaware County","state_id":"IA"},{"zip":"52039","fips":"19061","name":"Dubuque County","state_id":"IA"},{"zip":"52040","fips":"19061","name":"Dubuque County","state_id":"IA"},{"zip":"52040","fips":"19055","name":"Delaware County","state_id":"IA"},{"zip":"52041","fips":"19055","name":"Delaware County","state_id":"IA"},{"zip":"52042","fips":"19055","name":"Delaware County","state_id":"IA"},{"zip":"52042","fips":"19043","name":"Clayton County","state_id":"IA"},{"zip":"52043","fips":"19043","name":"Clayton County","state_id":"IA"},{"zip":"52044","fips":"19043","name":"Clayton County","state_id":"IA"},{"zip":"52045","fips":"19061","name":"Dubuque County","state_id":"IA"},{"zip":"52046","fips":"19061","name":"Dubuque County","state_id":"IA"},{"zip":"52047","fips":"19043","name":"Clayton County","state_id":"IA"},{"zip":"52048","fips":"19043","name":"Clayton County","state_id":"IA"},{"zip":"52049","fips":"19043","name":"Clayton County","state_id":"IA"},{"zip":"52050","fips":"19055","name":"Delaware County","state_id":"IA"},{"zip":"52050","fips":"19043","name":"Clayton County","state_id":"IA"},{"zip":"52052","fips":"19061","name":"Dubuque County","state_id":"IA"},{"zip":"52052","fips":"19043","name":"Clayton County","state_id":"IA"},{"zip":"52053","fips":"19043","name":"Clayton County","state_id":"IA"},{"zip":"52053","fips":"19061","name":"Dubuque County","state_id":"IA"},{"zip":"52054","fips":"19097","name":"Jackson County","state_id":"IA"},{"zip":"52054","fips":"19061","name":"Dubuque County","state_id":"IA"},{"zip":"52056","fips":"19061","name":"Dubuque County","state_id":"IA"},{"zip":"52057","fips":"19055","name":"Delaware County","state_id":"IA"},{"zip":"52060","fips":"19097","name":"Jackson County","state_id":"IA"},{"zip":"52060","fips":"19045","name":"Clinton County","state_id":"IA"},{"zip":"52064","fips":"19097","name":"Jackson County","state_id":"IA"},{"zip":"52064","fips":"19045","name":"Clinton County","state_id":"IA"},{"zip":"52065","fips":"19055","name":"Delaware County","state_id":"IA"},{"zip":"52065","fips":"19061","name":"Dubuque County","state_id":"IA"},{"zip":"52066","fips":"19043","name":"Clayton County","state_id":"IA"},{"zip":"52068","fips":"19061","name":"Dubuque County","state_id":"IA"},{"zip":"52069","fips":"19097","name":"Jackson County","state_id":"IA"},{"zip":"52069","fips":"19045","name":"Clinton County","state_id":"IA"},{"zip":"52070","fips":"19045","name":"Clinton County","state_id":"IA"},{"zip":"52070","fips":"19097","name":"Jackson County","state_id":"IA"},{"zip":"52071","fips":"19097","name":"Jackson County","state_id":"IA"},{"zip":"52072","fips":"19043","name":"Clayton County","state_id":"IA"},{"zip":"52073","fips":"19061","name":"Dubuque County","state_id":"IA"},{"zip":"52073","fips":"19043","name":"Clayton County","state_id":"IA"},{"zip":"52074","fips":"19097","name":"Jackson County","state_id":"IA"},{"zip":"52075","fips":"19097","name":"Jackson County","state_id":"IA"},{"zip":"52076","fips":"19043","name":"Clayton County","state_id":"IA"},{"zip":"52076","fips":"19055","name":"Delaware County","state_id":"IA"},{"zip":"52076","fips":"19065","name":"Fayette County","state_id":"IA"},{"zip":"52077","fips":"19043","name":"Clayton County","state_id":"IA"},{"zip":"52078","fips":"19061","name":"Dubuque County","state_id":"IA"},{"zip":"52078","fips":"19055","name":"Delaware County","state_id":"IA"},{"zip":"52079","fips":"19061","name":"Dubuque County","state_id":"IA"},{"zip":"52079","fips":"19097","name":"Jackson County","state_id":"IA"},{"zip":"52099","fips":"19061","name":"Dubuque County","state_id":"IA"}]
