[{"zip":"52101","fips":"19005","name":"Allamakee County","state_id":"IA"},{"zip":"52101","fips":"19191","name":"Winneshiek County","state_id":"IA"},{"zip":"52132","fips":"19191","name":"Winneshiek County","state_id":"IA"},{"zip":"52132","fips":"19089","name":"Howard County","state_id":"IA"},{"zip":"52132","fips":"19037","name":"Chickasaw County","state_id":"IA"},{"zip":"52133","fips":"19065","name":"Fayette County","state_id":"IA"},{"zip":"52133","fips":"19191","name":"Winneshiek County","state_id":"IA"},{"zip":"52134","fips":"19089","name":"Howard County","state_id":"IA"},{"zip":"52135","fips":"19065","name":"Fayette County","state_id":"IA"},{"zip":"52135","fips":"19043","name":"Clayton County","state_id":"IA"},{"zip":"52136","fips":"19191","name":"Winneshiek County","state_id":"IA"},{"zip":"52136","fips":"19089","name":"Howard County","state_id":"IA"},{"zip":"52140","fips":"19005","name":"Allamakee County","state_id":"IA"},{"zip":"52140","fips":"19191","name":"Winneshiek County","state_id":"IA"},{"zip":"52141","fips":"19043","name":"Clayton County","state_id":"IA"},{"zip":"52141","fips":"19065","name":"Fayette County","state_id":"IA"},{"zip":"52142","fips":"19065","name":"Fayette County","state_id":"IA"},{"zip":"52144","fips":"19191","name":"Winneshiek County","state_id":"IA"},{"zip":"52144","fips":"19065","name":"Fayette County","state_id":"IA"},{"zip":"52144","fips":"19037","name":"Chickasaw County","state_id":"IA"},{"zip":"52146","fips":"19005","name":"Allamakee County","state_id":"IA"},{"zip":"52147","fips":"19065","name":"Fayette County","state_id":"IA"},{"zip":"52149","fips":"19191","name":"Winneshiek County","state_id":"IA"},{"zip":"52151","fips":"19005","name":"Allamakee County","state_id":"IA"},{"zip":"52154","fips":"19089","name":"Howard County","state_id":"IA"},{"zip":"52154","fips":"19037","name":"Chickasaw County","state_id":"IA"},{"zip":"52155","fips":"19089","name":"Howard County","state_id":"IA"},{"zip":"52156","fips":"19005","name":"Allamakee County","state_id":"IA"},{"zip":"52156","fips":"19043","name":"Clayton County","state_id":"IA"},{"zip":"52157","fips":"19005","name":"Allamakee County","state_id":"IA"},{"zip":"52157","fips":"19043","name":"Clayton County","state_id":"IA"},{"zip":"52158","fips":"19043","name":"Clayton County","state_id":"IA"},{"zip":"52159","fips":"19005","name":"Allamakee County","state_id":"IA"},{"zip":"52159","fips":"19043","name":"Clayton County","state_id":"IA"},{"zip":"52160","fips":"19005","name":"Allamakee County","state_id":"IA"},{"zip":"52161","fips":"19191","name":"Winneshiek County","state_id":"IA"},{"zip":"52161","fips":"19065","name":"Fayette County","state_id":"IA"},{"zip":"52162","fips":"19191","name":"Winneshiek County","state_id":"IA"},{"zip":"52162","fips":"19043","name":"Clayton County","state_id":"IA"},{"zip":"52162","fips":"19005","name":"Allamakee County","state_id":"IA"},{"zip":"52162","fips":"19065","name":"Fayette County","state_id":"IA"},{"zip":"52163","fips":"19037","name":"Chickasaw County","state_id":"IA"},{"zip":"52163","fips":"19089","name":"Howard County","state_id":"IA"},{"zip":"52164","fips":"19065","name":"Fayette County","state_id":"IA"},{"zip":"52165","fips":"19191","name":"Winneshiek County","state_id":"IA"},{"zip":"52166","fips":"19065","name":"Fayette County","state_id":"IA"},{"zip":"52168","fips":"19191","name":"Winneshiek County","state_id":"IA"},{"zip":"52169","fips":"19043","name":"Clayton County","state_id":"IA"},{"zip":"52169","fips":"19065","name":"Fayette County","state_id":"IA"},{"zip":"52170","fips":"19005","name":"Allamakee County","state_id":"IA"},{"zip":"52171","fips":"19065","name":"Fayette County","state_id":"IA"},{"zip":"52171","fips":"19037","name":"Chickasaw County","state_id":"IA"},{"zip":"52171","fips":"19191","name":"Winneshiek County","state_id":"IA"},{"zip":"52171","fips":"19089","name":"Howard County","state_id":"IA"},{"zip":"52172","fips":"19191","name":"Winneshiek County","state_id":"IA"},{"zip":"52172","fips":"19005","name":"Allamakee County","state_id":"IA"},{"zip":"52175","fips":"19065","name":"Fayette County","state_id":"IA"}]
