[{"zip":"52201","fips":"19115","name":"Louisa County","state_id":"IA"},{"zip":"52201","fips":"19183","name":"Washington County","state_id":"IA"},{"zip":"52202","fips":"19113","name":"Linn County","state_id":"IA"},{"zip":"52203","fips":"19095","name":"Iowa County","state_id":"IA"},{"zip":"52203","fips":"19103","name":"Johnson County","state_id":"IA"},{"zip":"52204","fips":"19095","name":"Iowa County","state_id":"IA"},{"zip":"52205","fips":"19105","name":"Jones County","state_id":"IA"},{"zip":"52205","fips":"19113","name":"Linn County","state_id":"IA"},{"zip":"52206","fips":"19011","name":"Benton County","state_id":"IA"},{"zip":"52207","fips":"19045","name":"Clinton County","state_id":"IA"},{"zip":"52207","fips":"19097","name":"Jackson County","state_id":"IA"},{"zip":"52208","fips":"19171","name":"Tama County","state_id":"IA"},{"zip":"52208","fips":"19011","name":"Benton County","state_id":"IA"},{"zip":"52208","fips":"19157","name":"Poweshiek County","state_id":"IA"},{"zip":"52208","fips":"19095","name":"Iowa County","state_id":"IA"},{"zip":"52209","fips":"19095","name":"Iowa County","state_id":"IA"},{"zip":"52209","fips":"19011","name":"Benton County","state_id":"IA"},{"zip":"52210","fips":"19019","name":"Buchanan County","state_id":"IA"},{"zip":"52210","fips":"19011","name":"Benton County","state_id":"IA"},{"zip":"52211","fips":"19157","name":"Poweshiek County","state_id":"IA"},{"zip":"52212","fips":"19105","name":"Jones County","state_id":"IA"},{"zip":"52213","fips":"19113","name":"Linn County","state_id":"IA"},{"zip":"52213","fips":"19011","name":"Benton County","state_id":"IA"},{"zip":"52214","fips":"19113","name":"Linn County","state_id":"IA"},{"zip":"52215","fips":"19157","name":"Poweshiek County","state_id":"IA"},{"zip":"52215","fips":"19171","name":"Tama County","state_id":"IA"},{"zip":"52216","fips":"19031","name":"Cedar County","state_id":"IA"},{"zip":"52216","fips":"19105","name":"Jones County","state_id":"IA"},{"zip":"52217","fips":"19171","name":"Tama County","state_id":"IA"},{"zip":"52218","fips":"19105","name":"Jones County","state_id":"IA"},{"zip":"52218","fips":"19113","name":"Linn County","state_id":"IA"},{"zip":"52218","fips":"19019","name":"Buchanan County","state_id":"IA"},{"zip":"52218","fips":"19055","name":"Delaware County","state_id":"IA"},{"zip":"52219","fips":"19113","name":"Linn County","state_id":"IA"},{"zip":"52220","fips":"19095","name":"Iowa County","state_id":"IA"},{"zip":"52221","fips":"19095","name":"Iowa County","state_id":"IA"},{"zip":"52221","fips":"19157","name":"Poweshiek County","state_id":"IA"},{"zip":"52222","fips":"19095","name":"Iowa County","state_id":"IA"},{"zip":"52222","fips":"19157","name":"Poweshiek County","state_id":"IA"},{"zip":"52223","fips":"19055","name":"Delaware County","state_id":"IA"},{"zip":"52224","fips":"19011","name":"Benton County","state_id":"IA"},{"zip":"52224","fips":"19171","name":"Tama County","state_id":"IA"},{"zip":"52225","fips":"19171","name":"Tama County","state_id":"IA"},{"zip":"52225","fips":"19011","name":"Benton County","state_id":"IA"},{"zip":"52227","fips":"19113","name":"Linn County","state_id":"IA"},{"zip":"52227","fips":"19103","name":"Johnson County","state_id":"IA"},{"zip":"52228","fips":"19103","name":"Johnson County","state_id":"IA"},{"zip":"52228","fips":"19011","name":"Benton County","state_id":"IA"},{"zip":"52228","fips":"19113","name":"Linn County","state_id":"IA"},{"zip":"52229","fips":"19011","name":"Benton County","state_id":"IA"},{"zip":"52231","fips":"19107","name":"Keokuk County","state_id":"IA"},{"zip":"52232","fips":"19095","name":"Iowa County","state_id":"IA"},{"zip":"52232","fips":"19157","name":"Poweshiek County","state_id":"IA"},{"zip":"52233","fips":"19113","name":"Linn County","state_id":"IA"},{"zip":"52235","fips":"19103","name":"Johnson County","state_id":"IA"},{"zip":"52236","fips":"19103","name":"Johnson County","state_id":"IA"},{"zip":"52236","fips":"19095","name":"Iowa County","state_id":"IA"},{"zip":"52237","fips":"19061","name":"Dubuque County","state_id":"IA"},{"zip":"52237","fips":"19055","name":"Delaware County","state_id":"IA"},{"zip":"52237","fips":"19105","name":"Jones County","state_id":"IA"},{"zip":"52240","fips":"19103","name":"Johnson County","state_id":"IA"},{"zip":"52241","fips":"19103","name":"Johnson County","state_id":"IA"},{"zip":"52242","fips":"19103","name":"Johnson County","state_id":"IA"},{"zip":"52243","fips":"19103","name":"Johnson County","state_id":"IA"},{"zip":"52244","fips":"19103","name":"Johnson County","state_id":"IA"},{"zip":"52245","fips":"19103","name":"Johnson County","state_id":"IA"},{"zip":"52246","fips":"19103","name":"Johnson County","state_id":"IA"},{"zip":"52247","fips":"19183","name":"Washington County","state_id":"IA"},{"zip":"52247","fips":"19103","name":"Johnson County","state_id":"IA"},{"zip":"52248","fips":"19183","name":"Washington County","state_id":"IA"},{"zip":"52248","fips":"19107","name":"Keokuk County","state_id":"IA"},{"zip":"52249","fips":"19011","name":"Benton County","state_id":"IA"},{"zip":"52251","fips":"19095","name":"Iowa County","state_id":"IA"},{"zip":"52252","fips":"19105","name":"Jones County","state_id":"IA"},{"zip":"52253","fips":"19103","name":"Johnson County","state_id":"IA"},{"zip":"52253","fips":"19105","name":"Jones County","state_id":"IA"},{"zip":"52253","fips":"19031","name":"Cedar County","state_id":"IA"},{"zip":"52253","fips":"19113","name":"Linn County","state_id":"IA"},{"zip":"52254","fips":"19045","name":"Clinton County","state_id":"IA"},{"zip":"52255","fips":"19031","name":"Cedar County","state_id":"IA"},{"zip":"52255","fips":"19045","name":"Clinton County","state_id":"IA"},{"zip":"52257","fips":"19011","name":"Benton County","state_id":"IA"}]
