[{"zip":"52301","fips":"19011","name":"Benton County","state_id":"IA"},{"zip":"52301","fips":"19095","name":"Iowa County","state_id":"IA"},{"zip":"52302","fips":"19113","name":"Linn County","state_id":"IA"},{"zip":"52305","fips":"19113","name":"Linn County","state_id":"IA"},{"zip":"52305","fips":"19105","name":"Jones County","state_id":"IA"},{"zip":"52306","fips":"19031","name":"Cedar County","state_id":"IA"},{"zip":"52306","fips":"19105","name":"Jones County","state_id":"IA"},{"zip":"52307","fips":"19095","name":"Iowa County","state_id":"IA"},{"zip":"52308","fips":"19095","name":"Iowa County","state_id":"IA"},{"zip":"52309","fips":"19045","name":"Clinton County","state_id":"IA"},{"zip":"52309","fips":"19097","name":"Jackson County","state_id":"IA"},{"zip":"52309","fips":"19105","name":"Jones County","state_id":"IA"},{"zip":"52310","fips":"19055","name":"Delaware County","state_id":"IA"},{"zip":"52310","fips":"19113","name":"Linn County","state_id":"IA"},{"zip":"52310","fips":"19105","name":"Jones County","state_id":"IA"},{"zip":"52312","fips":"19105","name":"Jones County","state_id":"IA"},{"zip":"52313","fips":"19011","name":"Benton County","state_id":"IA"},{"zip":"52314","fips":"19113","name":"Linn County","state_id":"IA"},{"zip":"52314","fips":"19103","name":"Johnson County","state_id":"IA"},{"zip":"52315","fips":"19011","name":"Benton County","state_id":"IA"},{"zip":"52316","fips":"19107","name":"Keokuk County","state_id":"IA"},{"zip":"52316","fips":"19095","name":"Iowa County","state_id":"IA"},{"zip":"52317","fips":"19103","name":"Johnson County","state_id":"IA"},{"zip":"52318","fips":"19011","name":"Benton County","state_id":"IA"},{"zip":"52318","fips":"19095","name":"Iowa County","state_id":"IA"},{"zip":"52320","fips":"19105","name":"Jones County","state_id":"IA"},{"zip":"52320","fips":"19031","name":"Cedar County","state_id":"IA"},{"zip":"52321","fips":"19105","name":"Jones County","state_id":"IA"},{"zip":"52322","fips":"19103","name":"Johnson County","state_id":"IA"},{"zip":"52322","fips":"19095","name":"Iowa County","state_id":"IA"},{"zip":"52323","fips":"19031","name":"Cedar County","state_id":"IA"},{"zip":"52323","fips":"19045","name":"Clinton County","state_id":"IA"},{"zip":"52323","fips":"19105","name":"Jones County","state_id":"IA"},{"zip":"52324","fips":"19011","name":"Benton County","state_id":"IA"},{"zip":"52324","fips":"19113","name":"Linn County","state_id":"IA"},{"zip":"52325","fips":"19103","name":"Johnson County","state_id":"IA"},{"zip":"52325","fips":"19095","name":"Iowa County","state_id":"IA"},{"zip":"52326","fips":"19019","name":"Buchanan County","state_id":"IA"},{"zip":"52327","fips":"19183","name":"Washington County","state_id":"IA"},{"zip":"52327","fips":"19115","name":"Louisa County","state_id":"IA"},{"zip":"52327","fips":"19103","name":"Johnson County","state_id":"IA"},{"zip":"52328","fips":"19113","name":"Linn County","state_id":"IA"},{"zip":"52329","fips":"19019","name":"Buchanan County","state_id":"IA"},{"zip":"52330","fips":"19019","name":"Buchanan County","state_id":"IA"},{"zip":"52330","fips":"19055","name":"Delaware County","state_id":"IA"},{"zip":"52332","fips":"19011","name":"Benton County","state_id":"IA"},{"zip":"52332","fips":"19113","name":"Linn County","state_id":"IA"},{"zip":"52333","fips":"19031","name":"Cedar County","state_id":"IA"},{"zip":"52333","fips":"19113","name":"Linn County","state_id":"IA"},{"zip":"52333","fips":"19103","name":"Johnson County","state_id":"IA"},{"zip":"52334","fips":"19095","name":"Iowa County","state_id":"IA"},{"zip":"52335","fips":"19107","name":"Keokuk County","state_id":"IA"},{"zip":"52336","fips":"19105","name":"Jones County","state_id":"IA"},{"zip":"52336","fips":"19113","name":"Linn County","state_id":"IA"},{"zip":"52337","fips":"19031","name":"Cedar County","state_id":"IA"},{"zip":"52338","fips":"19113","name":"Linn County","state_id":"IA"},{"zip":"52338","fips":"19103","name":"Johnson County","state_id":"IA"},{"zip":"52339","fips":"19157","name":"Poweshiek County","state_id":"IA"},{"zip":"52339","fips":"19171","name":"Tama County","state_id":"IA"},{"zip":"52340","fips":"19103","name":"Johnson County","state_id":"IA"},{"zip":"52341","fips":"19113","name":"Linn County","state_id":"IA"},{"zip":"52342","fips":"19171","name":"Tama County","state_id":"IA"},{"zip":"52344","fips":"19113","name":"Linn County","state_id":"IA"},{"zip":"52345","fips":"19011","name":"Benton County","state_id":"IA"},{"zip":"52346","fips":"19011","name":"Benton County","state_id":"IA"},{"zip":"52347","fips":"19095","name":"Iowa County","state_id":"IA"},{"zip":"52347","fips":"19157","name":"Poweshiek County","state_id":"IA"},{"zip":"52348","fips":"19171","name":"Tama County","state_id":"IA"},{"zip":"52349","fips":"19011","name":"Benton County","state_id":"IA"},{"zip":"52351","fips":"19113","name":"Linn County","state_id":"IA"},{"zip":"52351","fips":"19011","name":"Benton County","state_id":"IA"},{"zip":"52352","fips":"19019","name":"Buchanan County","state_id":"IA"},{"zip":"52352","fips":"19011","name":"Benton County","state_id":"IA"},{"zip":"52352","fips":"19113","name":"Linn County","state_id":"IA"},{"zip":"52353","fips":"19183","name":"Washington County","state_id":"IA"},{"zip":"52354","fips":"19011","name":"Benton County","state_id":"IA"},{"zip":"52355","fips":"19107","name":"Keokuk County","state_id":"IA"},{"zip":"52355","fips":"19095","name":"Iowa County","state_id":"IA"},{"zip":"52356","fips":"19095","name":"Iowa County","state_id":"IA"},{"zip":"52356","fips":"19107","name":"Keokuk County","state_id":"IA"},{"zip":"52356","fips":"19103","name":"Johnson County","state_id":"IA"},{"zip":"52356","fips":"19183","name":"Washington County","state_id":"IA"},{"zip":"52358","fips":"19031","name":"Cedar County","state_id":"IA"},{"zip":"52358","fips":"19103","name":"Johnson County","state_id":"IA"},{"zip":"52359","fips":"19183","name":"Washington County","state_id":"IA"},{"zip":"52361","fips":"19095","name":"Iowa County","state_id":"IA"},{"zip":"52362","fips":"19105","name":"Jones County","state_id":"IA"}]
