[{"zip":"52501","fips":"19123","name":"Mahaska County","state_id":"IA"},{"zip":"52501","fips":"19179","name":"Wapello County","state_id":"IA"},{"zip":"52501","fips":"19107","name":"Keokuk County","state_id":"IA"},{"zip":"52530","fips":"19179","name":"Wapello County","state_id":"IA"},{"zip":"52531","fips":"19179","name":"Wapello County","state_id":"IA"},{"zip":"52531","fips":"19135","name":"Monroe County","state_id":"IA"},{"zip":"52531","fips":"19007","name":"Appanoose County","state_id":"IA"},{"zip":"52533","fips":"19101","name":"Jefferson County","state_id":"IA"},{"zip":"52533","fips":"19179","name":"Wapello County","state_id":"IA"},{"zip":"52534","fips":"19123","name":"Mahaska County","state_id":"IA"},{"zip":"52535","fips":"19177","name":"Van Buren County","state_id":"IA"},{"zip":"52535","fips":"19101","name":"Jefferson County","state_id":"IA"},{"zip":"52536","fips":"19051","name":"Davis County","state_id":"IA"},{"zip":"52536","fips":"19179","name":"Wapello County","state_id":"IA"},{"zip":"52536","fips":"19135","name":"Monroe County","state_id":"IA"},{"zip":"52537","fips":"19051","name":"Davis County","state_id":"IA"},{"zip":"52537","fips":"19179","name":"Wapello County","state_id":"IA"},{"zip":"52540","fips":"19183","name":"Washington County","state_id":"IA"},{"zip":"52540","fips":"19101","name":"Jefferson County","state_id":"IA"},{"zip":"52542","fips":"19177","name":"Van Buren County","state_id":"IA"},{"zip":"52543","fips":"19123","name":"Mahaska County","state_id":"IA"},{"zip":"52544","fips":"19007","name":"Appanoose County","state_id":"IA"},{"zip":"52548","fips":"19179","name":"Wapello County","state_id":"IA"},{"zip":"52549","fips":"19007","name":"Appanoose County","state_id":"IA"},{"zip":"52550","fips":"19123","name":"Mahaska County","state_id":"IA"},{"zip":"52550","fips":"19107","name":"Keokuk County","state_id":"IA"},{"zip":"52551","fips":"19051","name":"Davis County","state_id":"IA"},{"zip":"52551","fips":"19177","name":"Van Buren County","state_id":"IA"},{"zip":"52552","fips":"19051","name":"Davis County","state_id":"IA"},{"zip":"52552","fips":"19179","name":"Wapello County","state_id":"IA"},{"zip":"52553","fips":"19135","name":"Monroe County","state_id":"IA"},{"zip":"52553","fips":"19179","name":"Wapello County","state_id":"IA"},{"zip":"52553","fips":"19123","name":"Mahaska County","state_id":"IA"},{"zip":"52554","fips":"19177","name":"Van Buren County","state_id":"IA"},{"zip":"52554","fips":"19179","name":"Wapello County","state_id":"IA"},{"zip":"52554","fips":"19101","name":"Jefferson County","state_id":"IA"},{"zip":"52554","fips":"19051","name":"Davis County","state_id":"IA"},{"zip":"52555","fips":"19007","name":"Appanoose County","state_id":"IA"},{"zip":"52556","fips":"19101","name":"Jefferson County","state_id":"IA"},{"zip":"52557","fips":"19101","name":"Jefferson County","state_id":"IA"},{"zip":"52560","fips":"19051","name":"Davis County","state_id":"IA"},{"zip":"52561","fips":"19179","name":"Wapello County","state_id":"IA"},{"zip":"52561","fips":"19107","name":"Keokuk County","state_id":"IA"},{"zip":"52561","fips":"19123","name":"Mahaska County","state_id":"IA"},{"zip":"52562","fips":"19107","name":"Keokuk County","state_id":"IA"},{"zip":"52563","fips":"19101","name":"Jefferson County","state_id":"IA"},{"zip":"52563","fips":"19179","name":"Wapello County","state_id":"IA"},{"zip":"52563","fips":"19107","name":"Keokuk County","state_id":"IA"},{"zip":"52565","fips":"19177","name":"Van Buren County","state_id":"IA"},{"zip":"52566","fips":"19179","name":"Wapello County","state_id":"IA"},{"zip":"52567","fips":"19101","name":"Jefferson County","state_id":"IA"},{"zip":"52567","fips":"19177","name":"Van Buren County","state_id":"IA"},{"zip":"52568","fips":"19107","name":"Keokuk County","state_id":"IA"},{"zip":"52569","fips":"19135","name":"Monroe County","state_id":"IA"},{"zip":"52569","fips":"19007","name":"Appanoose County","state_id":"IA"},{"zip":"52569","fips":"19185","name":"Wayne County","state_id":"IA"},{"zip":"52569","fips":"19117","name":"Lucas County","state_id":"IA"},{"zip":"52570","fips":"19051","name":"Davis County","state_id":"IA"},{"zip":"52570","fips":"19177","name":"Van Buren County","state_id":"IA"},{"zip":"52571","fips":"19135","name":"Monroe County","state_id":"IA"},{"zip":"52571","fips":"19007","name":"Appanoose County","state_id":"IA"},{"zip":"52572","fips":"19051","name":"Davis County","state_id":"IA"},{"zip":"52572","fips":"19007","name":"Appanoose County","state_id":"IA"},{"zip":"52573","fips":"19177","name":"Van Buren County","state_id":"IA"},{"zip":"52574","fips":"19007","name":"Appanoose County","state_id":"IA"},{"zip":"52576","fips":"19107","name":"Keokuk County","state_id":"IA"},{"zip":"52576","fips":"19101","name":"Jefferson County","state_id":"IA"},{"zip":"52577","fips":"19123","name":"Mahaska County","state_id":"IA"},{"zip":"52580","fips":"19107","name":"Keokuk County","state_id":"IA"},{"zip":"52580","fips":"19101","name":"Jefferson County","state_id":"IA"},{"zip":"52581","fips":"19185","name":"Wayne County","state_id":"IA"},{"zip":"52581","fips":"19007","name":"Appanoose County","state_id":"IA"},{"zip":"52583","fips":"19185","name":"Wayne County","state_id":"IA"},{"zip":"52584","fips":"19051","name":"Davis County","state_id":"IA"},{"zip":"52585","fips":"19101","name":"Jefferson County","state_id":"IA"},{"zip":"52585","fips":"19183","name":"Washington County","state_id":"IA"},{"zip":"52585","fips":"19107","name":"Keokuk County","state_id":"IA"},{"zip":"52586","fips":"19123","name":"Mahaska County","state_id":"IA"},{"zip":"52586","fips":"19107","name":"Keokuk County","state_id":"IA"},{"zip":"52588","fips":"19177","name":"Van Buren County","state_id":"IA"},{"zip":"52588","fips":"19051","name":"Davis County","state_id":"IA"},{"zip":"52588","fips":"19101","name":"Jefferson County","state_id":"IA"},{"zip":"52590","fips":"19007","name":"Appanoose County","state_id":"IA"},{"zip":"52590","fips":"19185","name":"Wayne County","state_id":"IA"},{"zip":"52591","fips":"19107","name":"Keokuk County","state_id":"IA"},{"zip":"52593","fips":"19007","name":"Appanoose County","state_id":"IA"},{"zip":"52594","fips":"19051","name":"Davis County","state_id":"IA"},{"zip":"52594","fips":"19135","name":"Monroe County","state_id":"IA"},{"zip":"52594","fips":"19007","name":"Appanoose County","state_id":"IA"},{"zip":"52595","fips":"19123","name":"Mahaska County","state_id":"IA"}]
