[{"zip":"52601","fips":"19057","name":"Des Moines County","state_id":"IA"},{"zip":"52619","fips":"19111","name":"Lee County","state_id":"IA"},{"zip":"52620","fips":"19087","name":"Henry County","state_id":"IA"},{"zip":"52620","fips":"19177","name":"Van Buren County","state_id":"IA"},{"zip":"52621","fips":"19183","name":"Washington County","state_id":"IA"},{"zip":"52621","fips":"19115","name":"Louisa County","state_id":"IA"},{"zip":"52621","fips":"19087","name":"Henry County","state_id":"IA"},{"zip":"52623","fips":"19057","name":"Des Moines County","state_id":"IA"},{"zip":"52623","fips":"19087","name":"Henry County","state_id":"IA"},{"zip":"52624","fips":"19111","name":"Lee County","state_id":"IA"},{"zip":"52625","fips":"19111","name":"Lee County","state_id":"IA"},{"zip":"52626","fips":"19177","name":"Van Buren County","state_id":"IA"},{"zip":"52626","fips":"19111","name":"Lee County","state_id":"IA"},{"zip":"52627","fips":"19111","name":"Lee County","state_id":"IA"},{"zip":"52630","fips":"19111","name":"Lee County","state_id":"IA"},{"zip":"52630","fips":"19087","name":"Henry County","state_id":"IA"},{"zip":"52630","fips":"19177","name":"Van Buren County","state_id":"IA"},{"zip":"52631","fips":"19111","name":"Lee County","state_id":"IA"},{"zip":"52632","fips":"19111","name":"Lee County","state_id":"IA"},{"zip":"52635","fips":"19101","name":"Jefferson County","state_id":"IA"},{"zip":"52635","fips":"19087","name":"Henry County","state_id":"IA"},{"zip":"52637","fips":"19115","name":"Louisa County","state_id":"IA"},{"zip":"52637","fips":"19057","name":"Des Moines County","state_id":"IA"},{"zip":"52638","fips":"19057","name":"Des Moines County","state_id":"IA"},{"zip":"52639","fips":"19111","name":"Lee County","state_id":"IA"},{"zip":"52640","fips":"19057","name":"Des Moines County","state_id":"IA"},{"zip":"52640","fips":"19115","name":"Louisa County","state_id":"IA"},{"zip":"52641","fips":"19183","name":"Washington County","state_id":"IA"},{"zip":"52641","fips":"19087","name":"Henry County","state_id":"IA"},{"zip":"52641","fips":"19101","name":"Jefferson County","state_id":"IA"},{"zip":"52644","fips":"19115","name":"Louisa County","state_id":"IA"},{"zip":"52644","fips":"19057","name":"Des Moines County","state_id":"IA"},{"zip":"52644","fips":"19087","name":"Henry County","state_id":"IA"},{"zip":"52645","fips":"19057","name":"Des Moines County","state_id":"IA"},{"zip":"52645","fips":"19087","name":"Henry County","state_id":"IA"},{"zip":"52646","fips":"19057","name":"Des Moines County","state_id":"IA"},{"zip":"52646","fips":"19115","name":"Louisa County","state_id":"IA"},{"zip":"52647","fips":"19087","name":"Henry County","state_id":"IA"},{"zip":"52648","fips":"19111","name":"Lee County","state_id":"IA"},{"zip":"52649","fips":"19087","name":"Henry County","state_id":"IA"},{"zip":"52649","fips":"19111","name":"Lee County","state_id":"IA"},{"zip":"52650","fips":"19057","name":"Des Moines County","state_id":"IA"},{"zip":"52651","fips":"19101","name":"Jefferson County","state_id":"IA"},{"zip":"52651","fips":"19177","name":"Van Buren County","state_id":"IA"},{"zip":"52652","fips":"19087","name":"Henry County","state_id":"IA"},{"zip":"52653","fips":"19115","name":"Louisa County","state_id":"IA"},{"zip":"52654","fips":"19087","name":"Henry County","state_id":"IA"},{"zip":"52654","fips":"19183","name":"Washington County","state_id":"IA"},{"zip":"52654","fips":"19101","name":"Jefferson County","state_id":"IA"},{"zip":"52655","fips":"19057","name":"Des Moines County","state_id":"IA"},{"zip":"52656","fips":"19111","name":"Lee County","state_id":"IA"},{"zip":"52656","fips":"19087","name":"Henry County","state_id":"IA"},{"zip":"52657","fips":"19111","name":"Lee County","state_id":"IA"},{"zip":"52658","fips":"19111","name":"Lee County","state_id":"IA"},{"zip":"52658","fips":"19057","name":"Des Moines County","state_id":"IA"},{"zip":"52659","fips":"19115","name":"Louisa County","state_id":"IA"},{"zip":"52659","fips":"19087","name":"Henry County","state_id":"IA"},{"zip":"52660","fips":"19057","name":"Des Moines County","state_id":"IA"}]
