[{"zip":"52701","fips":"19045","name":"Clinton County","state_id":"IA"},{"zip":"52720","fips":"19031","name":"Cedar County","state_id":"IA"},{"zip":"52720","fips":"19139","name":"Muscatine County","state_id":"IA"},{"zip":"52721","fips":"19031","name":"Cedar County","state_id":"IA"},{"zip":"52722","fips":"19163","name":"Scott County","state_id":"IA"},{"zip":"52726","fips":"19139","name":"Muscatine County","state_id":"IA"},{"zip":"52726","fips":"19163","name":"Scott County","state_id":"IA"},{"zip":"52727","fips":"19045","name":"Clinton County","state_id":"IA"},{"zip":"52728","fips":"19163","name":"Scott County","state_id":"IA"},{"zip":"52729","fips":"19045","name":"Clinton County","state_id":"IA"},{"zip":"52730","fips":"19045","name":"Clinton County","state_id":"IA"},{"zip":"52731","fips":"19045","name":"Clinton County","state_id":"IA"},{"zip":"52731","fips":"19097","name":"Jackson County","state_id":"IA"},{"zip":"52732","fips":"19045","name":"Clinton County","state_id":"IA"},{"zip":"52737","fips":"19115","name":"Louisa County","state_id":"IA"},{"zip":"52738","fips":"19183","name":"Washington County","state_id":"IA"},{"zip":"52738","fips":"19115","name":"Louisa County","state_id":"IA"},{"zip":"52739","fips":"19139","name":"Muscatine County","state_id":"IA"},{"zip":"52739","fips":"19115","name":"Louisa County","state_id":"IA"},{"zip":"52742","fips":"19045","name":"Clinton County","state_id":"IA"},{"zip":"52745","fips":"19045","name":"Clinton County","state_id":"IA"},{"zip":"52745","fips":"19163","name":"Scott County","state_id":"IA"},{"zip":"52746","fips":"19163","name":"Scott County","state_id":"IA"},{"zip":"52747","fips":"19139","name":"Muscatine County","state_id":"IA"},{"zip":"52747","fips":"19031","name":"Cedar County","state_id":"IA"},{"zip":"52747","fips":"19163","name":"Scott County","state_id":"IA"},{"zip":"52748","fips":"19163","name":"Scott County","state_id":"IA"},{"zip":"52749","fips":"19139","name":"Muscatine County","state_id":"IA"},{"zip":"52750","fips":"19045","name":"Clinton County","state_id":"IA"},{"zip":"52751","fips":"19045","name":"Clinton County","state_id":"IA"},{"zip":"52752","fips":"19115","name":"Louisa County","state_id":"IA"},{"zip":"52753","fips":"19163","name":"Scott County","state_id":"IA"},{"zip":"52754","fips":"19139","name":"Muscatine County","state_id":"IA"},{"zip":"52754","fips":"19115","name":"Louisa County","state_id":"IA"},{"zip":"52755","fips":"19103","name":"Johnson County","state_id":"IA"},{"zip":"52755","fips":"19115","name":"Louisa County","state_id":"IA"},{"zip":"52755","fips":"19139","name":"Muscatine County","state_id":"IA"},{"zip":"52756","fips":"19163","name":"Scott County","state_id":"IA"},{"zip":"52756","fips":"19045","name":"Clinton County","state_id":"IA"},{"zip":"52757","fips":"19045","name":"Clinton County","state_id":"IA"},{"zip":"52758","fips":"19163","name":"Scott County","state_id":"IA"},{"zip":"52759","fips":"19139","name":"Muscatine County","state_id":"IA"},{"zip":"52760","fips":"19031","name":"Cedar County","state_id":"IA"},{"zip":"52760","fips":"19139","name":"Muscatine County","state_id":"IA"},{"zip":"52761","fips":"19139","name":"Muscatine County","state_id":"IA"},{"zip":"52761","fips":"19115","name":"Louisa County","state_id":"IA"},{"zip":"52765","fips":"19163","name":"Scott County","state_id":"IA"},{"zip":"52765","fips":"19031","name":"Cedar County","state_id":"IA"},{"zip":"52765","fips":"19045","name":"Clinton County","state_id":"IA"},{"zip":"52766","fips":"19103","name":"Johnson County","state_id":"IA"},{"zip":"52766","fips":"19139","name":"Muscatine County","state_id":"IA"},{"zip":"52767","fips":"19163","name":"Scott County","state_id":"IA"},{"zip":"52768","fips":"19163","name":"Scott County","state_id":"IA"},{"zip":"52769","fips":"19163","name":"Scott County","state_id":"IA"},{"zip":"52769","fips":"19139","name":"Muscatine County","state_id":"IA"},{"zip":"52771","fips":"19045","name":"Clinton County","state_id":"IA"},{"zip":"52772","fips":"19031","name":"Cedar County","state_id":"IA"},{"zip":"52773","fips":"19163","name":"Scott County","state_id":"IA"},{"zip":"52773","fips":"19139","name":"Muscatine County","state_id":"IA"},{"zip":"52774","fips":"19045","name":"Clinton County","state_id":"IA"},{"zip":"52776","fips":"19031","name":"Cedar County","state_id":"IA"},{"zip":"52776","fips":"19139","name":"Muscatine County","state_id":"IA"},{"zip":"52776","fips":"19103","name":"Johnson County","state_id":"IA"},{"zip":"52777","fips":"19031","name":"Cedar County","state_id":"IA"},{"zip":"52777","fips":"19045","name":"Clinton County","state_id":"IA"},{"zip":"52778","fips":"19139","name":"Muscatine County","state_id":"IA"},{"zip":"52778","fips":"19031","name":"Cedar County","state_id":"IA"}]
