[{"zip":"53001","fips":"55117","name":"Sheboygan County","state_id":"WI"},{"zip":"53002","fips":"55131","name":"Washington County","state_id":"WI"},{"zip":"53003","fips":"55027","name":"Dodge County","state_id":"WI"},{"zip":"53004","fips":"55117","name":"Sheboygan County","state_id":"WI"},{"zip":"53004","fips":"55089","name":"Ozaukee County","state_id":"WI"},{"zip":"53005","fips":"55133","name":"Waukesha County","state_id":"WI"},{"zip":"53006","fips":"55027","name":"Dodge County","state_id":"WI"},{"zip":"53006","fips":"55039","name":"Fond du Lac County","state_id":"WI"},{"zip":"53007","fips":"55133","name":"Waukesha County","state_id":"WI"},{"zip":"53007","fips":"55079","name":"Milwaukee County","state_id":"WI"},{"zip":"53008","fips":"55133","name":"Waukesha County","state_id":"WI"},{"zip":"53010","fips":"55039","name":"Fond du Lac County","state_id":"WI"},{"zip":"53010","fips":"55131","name":"Washington County","state_id":"WI"},{"zip":"53010","fips":"55027","name":"Dodge County","state_id":"WI"},{"zip":"53011","fips":"55039","name":"Fond du Lac County","state_id":"WI"},{"zip":"53011","fips":"55117","name":"Sheboygan County","state_id":"WI"},{"zip":"53012","fips":"55089","name":"Ozaukee County","state_id":"WI"},{"zip":"53012","fips":"55131","name":"Washington County","state_id":"WI"},{"zip":"53013","fips":"55089","name":"Ozaukee County","state_id":"WI"},{"zip":"53013","fips":"55117","name":"Sheboygan County","state_id":"WI"},{"zip":"53014","fips":"55071","name":"Manitowoc County","state_id":"WI"},{"zip":"53014","fips":"55015","name":"Calumet County","state_id":"WI"},{"zip":"53014","fips":"55039","name":"Fond du Lac County","state_id":"WI"},{"zip":"53015","fips":"55071","name":"Manitowoc County","state_id":"WI"},{"zip":"53015","fips":"55117","name":"Sheboygan County","state_id":"WI"},{"zip":"53016","fips":"55027","name":"Dodge County","state_id":"WI"},{"zip":"53017","fips":"55133","name":"Waukesha County","state_id":"WI"},{"zip":"53017","fips":"55131","name":"Washington County","state_id":"WI"},{"zip":"53018","fips":"55133","name":"Waukesha County","state_id":"WI"},{"zip":"53019","fips":"55039","name":"Fond du Lac County","state_id":"WI"},{"zip":"53020","fips":"55117","name":"Sheboygan County","state_id":"WI"},{"zip":"53020","fips":"55015","name":"Calumet County","state_id":"WI"},{"zip":"53020","fips":"55071","name":"Manitowoc County","state_id":"WI"},{"zip":"53021","fips":"55131","name":"Washington County","state_id":"WI"},{"zip":"53021","fips":"55117","name":"Sheboygan County","state_id":"WI"},{"zip":"53021","fips":"55089","name":"Ozaukee County","state_id":"WI"},{"zip":"53022","fips":"55089","name":"Ozaukee County","state_id":"WI"},{"zip":"53022","fips":"55131","name":"Washington County","state_id":"WI"},{"zip":"53022","fips":"55133","name":"Waukesha County","state_id":"WI"},{"zip":"53023","fips":"55039","name":"Fond du Lac County","state_id":"WI"},{"zip":"53023","fips":"55117","name":"Sheboygan County","state_id":"WI"},{"zip":"53024","fips":"55089","name":"Ozaukee County","state_id":"WI"},{"zip":"53026","fips":"55117","name":"Sheboygan County","state_id":"WI"},{"zip":"53027","fips":"55131","name":"Washington County","state_id":"WI"},{"zip":"53027","fips":"55027","name":"Dodge County","state_id":"WI"},{"zip":"53029","fips":"55131","name":"Washington County","state_id":"WI"},{"zip":"53029","fips":"55133","name":"Waukesha County","state_id":"WI"},{"zip":"53031","fips":"55117","name":"Sheboygan County","state_id":"WI"},{"zip":"53032","fips":"55027","name":"Dodge County","state_id":"WI"},{"zip":"53033","fips":"55131","name":"Washington County","state_id":"WI"},{"zip":"53034","fips":"55027","name":"Dodge County","state_id":"WI"},{"zip":"53035","fips":"55027","name":"Dodge County","state_id":"WI"},{"zip":"53036","fips":"55055","name":"Jefferson County","state_id":"WI"},{"zip":"53036","fips":"55133","name":"Waukesha County","state_id":"WI"},{"zip":"53036","fips":"55027","name":"Dodge County","state_id":"WI"},{"zip":"53037","fips":"55131","name":"Washington County","state_id":"WI"},{"zip":"53038","fips":"55055","name":"Jefferson County","state_id":"WI"},{"zip":"53039","fips":"55027","name":"Dodge County","state_id":"WI"},{"zip":"53040","fips":"55131","name":"Washington County","state_id":"WI"},{"zip":"53040","fips":"55039","name":"Fond du Lac County","state_id":"WI"},{"zip":"53040","fips":"55117","name":"Sheboygan County","state_id":"WI"},{"zip":"53042","fips":"55117","name":"Sheboygan County","state_id":"WI"},{"zip":"53042","fips":"55071","name":"Manitowoc County","state_id":"WI"},{"zip":"53042","fips":"55015","name":"Calumet County","state_id":"WI"},{"zip":"53044","fips":"55117","name":"Sheboygan County","state_id":"WI"},{"zip":"53045","fips":"55133","name":"Waukesha County","state_id":"WI"},{"zip":"53046","fips":"55133","name":"Waukesha County","state_id":"WI"},{"zip":"53047","fips":"55027","name":"Dodge County","state_id":"WI"},{"zip":"53048","fips":"55039","name":"Fond du Lac County","state_id":"WI"},{"zip":"53048","fips":"55027","name":"Dodge County","state_id":"WI"},{"zip":"53049","fips":"55039","name":"Fond du Lac County","state_id":"WI"},{"zip":"53049","fips":"55015","name":"Calumet County","state_id":"WI"},{"zip":"53050","fips":"55027","name":"Dodge County","state_id":"WI"},{"zip":"53051","fips":"55133","name":"Waukesha County","state_id":"WI"},{"zip":"53052","fips":"55133","name":"Waukesha County","state_id":"WI"},{"zip":"53056","fips":"55133","name":"Waukesha County","state_id":"WI"},{"zip":"53057","fips":"55039","name":"Fond du Lac County","state_id":"WI"},{"zip":"53058","fips":"55133","name":"Waukesha County","state_id":"WI"},{"zip":"53059","fips":"55027","name":"Dodge County","state_id":"WI"},{"zip":"53060","fips":"55131","name":"Washington County","state_id":"WI"},{"zip":"53061","fips":"55015","name":"Calumet County","state_id":"WI"},{"zip":"53061","fips":"55039","name":"Fond du Lac County","state_id":"WI"},{"zip":"53061","fips":"55071","name":"Manitowoc County","state_id":"WI"},{"zip":"53062","fips":"55015","name":"Calumet County","state_id":"WI"},{"zip":"53063","fips":"55071","name":"Manitowoc County","state_id":"WI"},{"zip":"53064","fips":"55133","name":"Waukesha County","state_id":"WI"},{"zip":"53065","fips":"55039","name":"Fond du Lac County","state_id":"WI"},{"zip":"53065","fips":"55027","name":"Dodge County","state_id":"WI"},{"zip":"53066","fips":"55055","name":"Jefferson County","state_id":"WI"},{"zip":"53066","fips":"55027","name":"Dodge County","state_id":"WI"},{"zip":"53066","fips":"55133","name":"Waukesha County","state_id":"WI"},{"zip":"53069","fips":"55133","name":"Waukesha County","state_id":"WI"},{"zip":"53070","fips":"55117","name":"Sheboygan County","state_id":"WI"},{"zip":"53072","fips":"55133","name":"Waukesha County","state_id":"WI"},{"zip":"53073","fips":"55117","name":"Sheboygan County","state_id":"WI"},{"zip":"53074","fips":"55089","name":"Ozaukee County","state_id":"WI"},{"zip":"53075","fips":"55117","name":"Sheboygan County","state_id":"WI"},{"zip":"53075","fips":"55131","name":"Washington County","state_id":"WI"},{"zip":"53075","fips":"55089","name":"Ozaukee County","state_id":"WI"},{"zip":"53076","fips":"55131","name":"Washington County","state_id":"WI"},{"zip":"53078","fips":"55027","name":"Dodge County","state_id":"WI"},{"zip":"53079","fips":"55015","name":"Calumet County","state_id":"WI"},{"zip":"53079","fips":"55039","name":"Fond du Lac County","state_id":"WI"},{"zip":"53079","fips":"55117","name":"Sheboygan County","state_id":"WI"},{"zip":"53080","fips":"55131","name":"Washington County","state_id":"WI"},{"zip":"53080","fips":"55089","name":"Ozaukee County","state_id":"WI"},{"zip":"53081","fips":"55117","name":"Sheboygan County","state_id":"WI"},{"zip":"53082","fips":"55117","name":"Sheboygan County","state_id":"WI"},{"zip":"53083","fips":"55117","name":"Sheboygan County","state_id":"WI"},{"zip":"53085","fips":"55117","name":"Sheboygan County","state_id":"WI"},{"zip":"53086","fips":"55131","name":"Washington County","state_id":"WI"},{"zip":"53088","fips":"55015","name":"Calumet County","state_id":"WI"},{"zip":"53089","fips":"55133","name":"Waukesha County","state_id":"WI"},{"zip":"53090","fips":"55089","name":"Ozaukee County","state_id":"WI"},{"zip":"53090","fips":"55131","name":"Washington County","state_id":"WI"},{"zip":"53091","fips":"55027","name":"Dodge County","state_id":"WI"},{"zip":"53091","fips":"55131","name":"Washington County","state_id":"WI"},{"zip":"53092","fips":"55089","name":"Ozaukee County","state_id":"WI"},{"zip":"53093","fips":"55117","name":"Sheboygan County","state_id":"WI"},{"zip":"53094","fips":"55027","name":"Dodge County","state_id":"WI"},{"zip":"53094","fips":"55055","name":"Jefferson County","state_id":"WI"},{"zip":"53095","fips":"55089","name":"Ozaukee County","state_id":"WI"},{"zip":"53095","fips":"55131","name":"Washington County","state_id":"WI"},{"zip":"53097","fips":"55089","name":"Ozaukee County","state_id":"WI"},{"zip":"53098","fips":"55027","name":"Dodge County","state_id":"WI"},{"zip":"53098","fips":"55055","name":"Jefferson County","state_id":"WI"},{"zip":"53099","fips":"55027","name":"Dodge County","state_id":"WI"}]
