[{"zip":"53101","fips":"55059","name":"Kenosha County","state_id":"WI"},{"zip":"53102","fips":"55059","name":"Kenosha County","state_id":"WI"},{"zip":"53103","fips":"55133","name":"Waukesha County","state_id":"WI"},{"zip":"53104","fips":"55059","name":"Kenosha County","state_id":"WI"},{"zip":"53105","fips":"55059","name":"Kenosha County","state_id":"WI"},{"zip":"53105","fips":"55101","name":"Racine County","state_id":"WI"},{"zip":"53105","fips":"55127","name":"Walworth County","state_id":"WI"},{"zip":"53108","fips":"55101","name":"Racine County","state_id":"WI"},{"zip":"53108","fips":"55079","name":"Milwaukee County","state_id":"WI"},{"zip":"53109","fips":"55059","name":"Kenosha County","state_id":"WI"},{"zip":"53110","fips":"55079","name":"Milwaukee County","state_id":"WI"},{"zip":"53114","fips":"55105","name":"Rock County","state_id":"WI"},{"zip":"53114","fips":"55127","name":"Walworth County","state_id":"WI"},{"zip":"53115","fips":"55127","name":"Walworth County","state_id":"WI"},{"zip":"53118","fips":"55133","name":"Waukesha County","state_id":"WI"},{"zip":"53118","fips":"55055","name":"Jefferson County","state_id":"WI"},{"zip":"53119","fips":"55055","name":"Jefferson County","state_id":"WI"},{"zip":"53119","fips":"55127","name":"Walworth County","state_id":"WI"},{"zip":"53119","fips":"55133","name":"Waukesha County","state_id":"WI"},{"zip":"53120","fips":"55127","name":"Walworth County","state_id":"WI"},{"zip":"53120","fips":"55101","name":"Racine County","state_id":"WI"},{"zip":"53121","fips":"55127","name":"Walworth County","state_id":"WI"},{"zip":"53122","fips":"55133","name":"Waukesha County","state_id":"WI"},{"zip":"53125","fips":"55127","name":"Walworth County","state_id":"WI"},{"zip":"53126","fips":"55101","name":"Racine County","state_id":"WI"},{"zip":"53126","fips":"55079","name":"Milwaukee County","state_id":"WI"},{"zip":"53127","fips":"55133","name":"Waukesha County","state_id":"WI"},{"zip":"53128","fips":"55127","name":"Walworth County","state_id":"WI"},{"zip":"53128","fips":"55059","name":"Kenosha County","state_id":"WI"},{"zip":"53129","fips":"55079","name":"Milwaukee County","state_id":"WI"},{"zip":"53130","fips":"55079","name":"Milwaukee County","state_id":"WI"},{"zip":"53132","fips":"55133","name":"Waukesha County","state_id":"WI"},{"zip":"53132","fips":"55079","name":"Milwaukee County","state_id":"WI"},{"zip":"53137","fips":"55055","name":"Jefferson County","state_id":"WI"},{"zip":"53138","fips":"55101","name":"Racine County","state_id":"WI"},{"zip":"53139","fips":"55059","name":"Kenosha County","state_id":"WI"},{"zip":"53139","fips":"55101","name":"Racine County","state_id":"WI"},{"zip":"53140","fips":"55059","name":"Kenosha County","state_id":"WI"},{"zip":"53141","fips":"55059","name":"Kenosha County","state_id":"WI"},{"zip":"53142","fips":"55059","name":"Kenosha County","state_id":"WI"},{"zip":"53143","fips":"55059","name":"Kenosha County","state_id":"WI"},{"zip":"53144","fips":"55101","name":"Racine County","state_id":"WI"},{"zip":"53144","fips":"55059","name":"Kenosha County","state_id":"WI"},{"zip":"53146","fips":"55133","name":"Waukesha County","state_id":"WI"},{"zip":"53147","fips":"55127","name":"Walworth County","state_id":"WI"},{"zip":"53148","fips":"55127","name":"Walworth County","state_id":"WI"},{"zip":"53149","fips":"55127","name":"Walworth County","state_id":"WI"},{"zip":"53149","fips":"55133","name":"Waukesha County","state_id":"WI"},{"zip":"53149","fips":"55101","name":"Racine County","state_id":"WI"},{"zip":"53150","fips":"55101","name":"Racine County","state_id":"WI"},{"zip":"53150","fips":"55133","name":"Waukesha County","state_id":"WI"},{"zip":"53151","fips":"55133","name":"Waukesha County","state_id":"WI"},{"zip":"53152","fips":"55059","name":"Kenosha County","state_id":"WI"},{"zip":"53153","fips":"55133","name":"Waukesha County","state_id":"WI"},{"zip":"53154","fips":"55079","name":"Milwaukee County","state_id":"WI"},{"zip":"53156","fips":"55127","name":"Walworth County","state_id":"WI"},{"zip":"53156","fips":"55055","name":"Jefferson County","state_id":"WI"},{"zip":"53157","fips":"55127","name":"Walworth County","state_id":"WI"},{"zip":"53158","fips":"55059","name":"Kenosha County","state_id":"WI"},{"zip":"53159","fips":"55059","name":"Kenosha County","state_id":"WI"},{"zip":"53167","fips":"55101","name":"Racine County","state_id":"WI"},{"zip":"53168","fips":"55059","name":"Kenosha County","state_id":"WI"},{"zip":"53170","fips":"55059","name":"Kenosha County","state_id":"WI"},{"zip":"53171","fips":"55059","name":"Kenosha County","state_id":"WI"},{"zip":"53172","fips":"55079","name":"Milwaukee County","state_id":"WI"},{"zip":"53176","fips":"55127","name":"Walworth County","state_id":"WI"},{"zip":"53177","fips":"55059","name":"Kenosha County","state_id":"WI"},{"zip":"53177","fips":"55101","name":"Racine County","state_id":"WI"},{"zip":"53178","fips":"55055","name":"Jefferson County","state_id":"WI"},{"zip":"53178","fips":"55133","name":"Waukesha County","state_id":"WI"},{"zip":"53179","fips":"55059","name":"Kenosha County","state_id":"WI"},{"zip":"53181","fips":"55059","name":"Kenosha County","state_id":"WI"},{"zip":"53182","fips":"55101","name":"Racine County","state_id":"WI"},{"zip":"53182","fips":"55059","name":"Kenosha County","state_id":"WI"},{"zip":"53183","fips":"55133","name":"Waukesha County","state_id":"WI"},{"zip":"53184","fips":"55127","name":"Walworth County","state_id":"WI"},{"zip":"53185","fips":"55101","name":"Racine County","state_id":"WI"},{"zip":"53185","fips":"55133","name":"Waukesha County","state_id":"WI"},{"zip":"53186","fips":"55133","name":"Waukesha County","state_id":"WI"},{"zip":"53187","fips":"55133","name":"Waukesha County","state_id":"WI"},{"zip":"53188","fips":"55133","name":"Waukesha County","state_id":"WI"},{"zip":"53189","fips":"55133","name":"Waukesha County","state_id":"WI"},{"zip":"53190","fips":"55055","name":"Jefferson County","state_id":"WI"},{"zip":"53190","fips":"55105","name":"Rock County","state_id":"WI"},{"zip":"53190","fips":"55127","name":"Walworth County","state_id":"WI"},{"zip":"53191","fips":"55127","name":"Walworth County","state_id":"WI"},{"zip":"53192","fips":"55059","name":"Kenosha County","state_id":"WI"},{"zip":"53194","fips":"55059","name":"Kenosha County","state_id":"WI"},{"zip":"53195","fips":"55127","name":"Walworth County","state_id":"WI"}]
