[{"zip":"53201","fips":"55079","name":"Milwaukee County","state_id":"WI"},{"zip":"53202","fips":"55079","name":"Milwaukee County","state_id":"WI"},{"zip":"53203","fips":"55079","name":"Milwaukee County","state_id":"WI"},{"zip":"53204","fips":"55079","name":"Milwaukee County","state_id":"WI"},{"zip":"53205","fips":"55079","name":"Milwaukee County","state_id":"WI"},{"zip":"53206","fips":"55079","name":"Milwaukee County","state_id":"WI"},{"zip":"53207","fips":"55079","name":"Milwaukee County","state_id":"WI"},{"zip":"53208","fips":"55079","name":"Milwaukee County","state_id":"WI"},{"zip":"53209","fips":"55079","name":"Milwaukee County","state_id":"WI"},{"zip":"53210","fips":"55079","name":"Milwaukee County","state_id":"WI"},{"zip":"53211","fips":"55079","name":"Milwaukee County","state_id":"WI"},{"zip":"53212","fips":"55079","name":"Milwaukee County","state_id":"WI"},{"zip":"53213","fips":"55079","name":"Milwaukee County","state_id":"WI"},{"zip":"53214","fips":"55133","name":"Waukesha County","state_id":"WI"},{"zip":"53214","fips":"55079","name":"Milwaukee County","state_id":"WI"},{"zip":"53215","fips":"55079","name":"Milwaukee County","state_id":"WI"},{"zip":"53216","fips":"55079","name":"Milwaukee County","state_id":"WI"},{"zip":"53217","fips":"55089","name":"Ozaukee County","state_id":"WI"},{"zip":"53217","fips":"55079","name":"Milwaukee County","state_id":"WI"},{"zip":"53218","fips":"55079","name":"Milwaukee County","state_id":"WI"},{"zip":"53219","fips":"55079","name":"Milwaukee County","state_id":"WI"},{"zip":"53220","fips":"55079","name":"Milwaukee County","state_id":"WI"},{"zip":"53221","fips":"55079","name":"Milwaukee County","state_id":"WI"},{"zip":"53222","fips":"55079","name":"Milwaukee County","state_id":"WI"},{"zip":"53223","fips":"55089","name":"Ozaukee County","state_id":"WI"},{"zip":"53223","fips":"55079","name":"Milwaukee County","state_id":"WI"},{"zip":"53224","fips":"55079","name":"Milwaukee County","state_id":"WI"},{"zip":"53225","fips":"55133","name":"Waukesha County","state_id":"WI"},{"zip":"53225","fips":"55079","name":"Milwaukee County","state_id":"WI"},{"zip":"53226","fips":"55079","name":"Milwaukee County","state_id":"WI"},{"zip":"53227","fips":"55079","name":"Milwaukee County","state_id":"WI"},{"zip":"53227","fips":"55133","name":"Waukesha County","state_id":"WI"},{"zip":"53228","fips":"55133","name":"Waukesha County","state_id":"WI"},{"zip":"53228","fips":"55079","name":"Milwaukee County","state_id":"WI"},{"zip":"53233","fips":"55079","name":"Milwaukee County","state_id":"WI"},{"zip":"53234","fips":"55079","name":"Milwaukee County","state_id":"WI"},{"zip":"53235","fips":"55079","name":"Milwaukee County","state_id":"WI"},{"zip":"53237","fips":"55079","name":"Milwaukee County","state_id":"WI"},{"zip":"53259","fips":"55079","name":"Milwaukee County","state_id":"WI"},{"zip":"53263","fips":"55079","name":"Milwaukee County","state_id":"WI"},{"zip":"53274","fips":"55079","name":"Milwaukee County","state_id":"WI"},{"zip":"53278","fips":"55079","name":"Milwaukee County","state_id":"WI"},{"zip":"53293","fips":"55079","name":"Milwaukee County","state_id":"WI"},{"zip":"53295","fips":"55079","name":"Milwaukee County","state_id":"WI"}]
