[{"zip":"53501","fips":"55105","name":"Rock County","state_id":"WI"},{"zip":"53502","fips":"55105","name":"Rock County","state_id":"WI"},{"zip":"53502","fips":"55045","name":"Green County","state_id":"WI"},{"zip":"53503","fips":"55049","name":"Iowa County","state_id":"WI"},{"zip":"53504","fips":"55045","name":"Green County","state_id":"WI"},{"zip":"53504","fips":"55065","name":"Lafayette County","state_id":"WI"},{"zip":"53505","fips":"55105","name":"Rock County","state_id":"WI"},{"zip":"53505","fips":"55127","name":"Walworth County","state_id":"WI"},{"zip":"53506","fips":"55049","name":"Iowa County","state_id":"WI"},{"zip":"53507","fips":"55049","name":"Iowa County","state_id":"WI"},{"zip":"53507","fips":"55025","name":"Dane County","state_id":"WI"},{"zip":"53508","fips":"55045","name":"Green County","state_id":"WI"},{"zip":"53508","fips":"55025","name":"Dane County","state_id":"WI"},{"zip":"53510","fips":"55065","name":"Lafayette County","state_id":"WI"},{"zip":"53511","fips":"55105","name":"Rock County","state_id":"WI"},{"zip":"53512","fips":"55105","name":"Rock County","state_id":"WI"},{"zip":"53515","fips":"55049","name":"Iowa County","state_id":"WI"},{"zip":"53515","fips":"55025","name":"Dane County","state_id":"WI"},{"zip":"53516","fips":"55065","name":"Lafayette County","state_id":"WI"},{"zip":"53516","fips":"55025","name":"Dane County","state_id":"WI"},{"zip":"53516","fips":"55049","name":"Iowa County","state_id":"WI"},{"zip":"53516","fips":"55045","name":"Green County","state_id":"WI"},{"zip":"53517","fips":"55025","name":"Dane County","state_id":"WI"},{"zip":"53517","fips":"55049","name":"Iowa County","state_id":"WI"},{"zip":"53518","fips":"55023","name":"Crawford County","state_id":"WI"},{"zip":"53518","fips":"55043","name":"Grant County","state_id":"WI"},{"zip":"53518","fips":"55103","name":"Richland County","state_id":"WI"},{"zip":"53520","fips":"55045","name":"Green County","state_id":"WI"},{"zip":"53520","fips":"55105","name":"Rock County","state_id":"WI"},{"zip":"53521","fips":"55105","name":"Rock County","state_id":"WI"},{"zip":"53521","fips":"55045","name":"Green County","state_id":"WI"},{"zip":"53521","fips":"55025","name":"Dane County","state_id":"WI"},{"zip":"53522","fips":"55065","name":"Lafayette County","state_id":"WI"},{"zip":"53522","fips":"55045","name":"Green County","state_id":"WI"},{"zip":"53523","fips":"55055","name":"Jefferson County","state_id":"WI"},{"zip":"53523","fips":"55025","name":"Dane County","state_id":"WI"},{"zip":"53525","fips":"55127","name":"Walworth County","state_id":"WI"},{"zip":"53525","fips":"55105","name":"Rock County","state_id":"WI"},{"zip":"53526","fips":"55049","name":"Iowa County","state_id":"WI"},{"zip":"53527","fips":"55025","name":"Dane County","state_id":"WI"},{"zip":"53528","fips":"55025","name":"Dane County","state_id":"WI"},{"zip":"53529","fips":"55025","name":"Dane County","state_id":"WI"},{"zip":"53530","fips":"55065","name":"Lafayette County","state_id":"WI"},{"zip":"53531","fips":"55025","name":"Dane County","state_id":"WI"},{"zip":"53532","fips":"55021","name":"Columbia County","state_id":"WI"},{"zip":"53532","fips":"55025","name":"Dane County","state_id":"WI"},{"zip":"53533","fips":"55049","name":"Iowa County","state_id":"WI"},{"zip":"53534","fips":"55105","name":"Rock County","state_id":"WI"},{"zip":"53534","fips":"55025","name":"Dane County","state_id":"WI"},{"zip":"53534","fips":"55055","name":"Jefferson County","state_id":"WI"},{"zip":"53535","fips":"55049","name":"Iowa County","state_id":"WI"},{"zip":"53536","fips":"55105","name":"Rock County","state_id":"WI"},{"zip":"53536","fips":"55045","name":"Green County","state_id":"WI"},{"zip":"53537","fips":"55105","name":"Rock County","state_id":"WI"},{"zip":"53538","fips":"55055","name":"Jefferson County","state_id":"WI"},{"zip":"53538","fips":"55105","name":"Rock County","state_id":"WI"},{"zip":"53540","fips":"55103","name":"Richland County","state_id":"WI"},{"zip":"53541","fips":"55065","name":"Lafayette County","state_id":"WI"},{"zip":"53543","fips":"55043","name":"Grant County","state_id":"WI"},{"zip":"53543","fips":"55049","name":"Iowa County","state_id":"WI"},{"zip":"53544","fips":"55045","name":"Green County","state_id":"WI"},{"zip":"53544","fips":"55025","name":"Dane County","state_id":"WI"},{"zip":"53544","fips":"55049","name":"Iowa County","state_id":"WI"},{"zip":"53545","fips":"55105","name":"Rock County","state_id":"WI"},{"zip":"53546","fips":"55105","name":"Rock County","state_id":"WI"},{"zip":"53547","fips":"55105","name":"Rock County","state_id":"WI"},{"zip":"53548","fips":"55105","name":"Rock County","state_id":"WI"},{"zip":"53549","fips":"55055","name":"Jefferson County","state_id":"WI"},{"zip":"53550","fips":"55045","name":"Green County","state_id":"WI"},{"zip":"53551","fips":"55055","name":"Jefferson County","state_id":"WI"},{"zip":"53553","fips":"55049","name":"Iowa County","state_id":"WI"},{"zip":"53554","fips":"55049","name":"Iowa County","state_id":"WI"},{"zip":"53554","fips":"55043","name":"Grant County","state_id":"WI"},{"zip":"53555","fips":"55021","name":"Columbia County","state_id":"WI"},{"zip":"53555","fips":"55025","name":"Dane County","state_id":"WI"},{"zip":"53556","fips":"55103","name":"Richland County","state_id":"WI"},{"zip":"53556","fips":"55111","name":"Sauk County","state_id":"WI"},{"zip":"53557","fips":"55027","name":"Dodge County","state_id":"WI"},{"zip":"53558","fips":"55025","name":"Dane County","state_id":"WI"},{"zip":"53559","fips":"55055","name":"Jefferson County","state_id":"WI"},{"zip":"53559","fips":"55025","name":"Dane County","state_id":"WI"},{"zip":"53560","fips":"55049","name":"Iowa County","state_id":"WI"},{"zip":"53560","fips":"55025","name":"Dane County","state_id":"WI"},{"zip":"53561","fips":"55021","name":"Columbia County","state_id":"WI"},{"zip":"53561","fips":"55111","name":"Sauk County","state_id":"WI"},{"zip":"53562","fips":"55025","name":"Dane County","state_id":"WI"},{"zip":"53563","fips":"55105","name":"Rock County","state_id":"WI"},{"zip":"53563","fips":"55055","name":"Jefferson County","state_id":"WI"},{"zip":"53565","fips":"55049","name":"Iowa County","state_id":"WI"},{"zip":"53565","fips":"55065","name":"Lafayette County","state_id":"WI"},{"zip":"53566","fips":"55045","name":"Green County","state_id":"WI"},{"zip":"53569","fips":"55043","name":"Grant County","state_id":"WI"},{"zip":"53569","fips":"55049","name":"Iowa County","state_id":"WI"},{"zip":"53570","fips":"55045","name":"Green County","state_id":"WI"},{"zip":"53571","fips":"55021","name":"Columbia County","state_id":"WI"},{"zip":"53571","fips":"55025","name":"Dane County","state_id":"WI"},{"zip":"53572","fips":"55025","name":"Dane County","state_id":"WI"},{"zip":"53572","fips":"55049","name":"Iowa County","state_id":"WI"},{"zip":"53572","fips":"55045","name":"Green County","state_id":"WI"},{"zip":"53573","fips":"55103","name":"Richland County","state_id":"WI"},{"zip":"53573","fips":"55049","name":"Iowa County","state_id":"WI"},{"zip":"53573","fips":"55043","name":"Grant County","state_id":"WI"},{"zip":"53574","fips":"55045","name":"Green County","state_id":"WI"},{"zip":"53574","fips":"55025","name":"Dane County","state_id":"WI"},{"zip":"53575","fips":"55025","name":"Dane County","state_id":"WI"},{"zip":"53576","fips":"55105","name":"Rock County","state_id":"WI"},{"zip":"53577","fips":"55111","name":"Sauk County","state_id":"WI"},{"zip":"53578","fips":"55111","name":"Sauk County","state_id":"WI"},{"zip":"53578","fips":"55021","name":"Columbia County","state_id":"WI"},{"zip":"53579","fips":"55027","name":"Dodge County","state_id":"WI"},{"zip":"53580","fips":"55049","name":"Iowa County","state_id":"WI"},{"zip":"53581","fips":"55103","name":"Richland County","state_id":"WI"},{"zip":"53582","fips":"55049","name":"Iowa County","state_id":"WI"},{"zip":"53583","fips":"55025","name":"Dane County","state_id":"WI"},{"zip":"53583","fips":"55111","name":"Sauk County","state_id":"WI"},{"zip":"53583","fips":"55021","name":"Columbia County","state_id":"WI"},{"zip":"53584","fips":"55103","name":"Richland County","state_id":"WI"},{"zip":"53585","fips":"55105","name":"Rock County","state_id":"WI"},{"zip":"53585","fips":"55127","name":"Walworth County","state_id":"WI"},{"zip":"53586","fips":"55065","name":"Lafayette County","state_id":"WI"},{"zip":"53587","fips":"55065","name":"Lafayette County","state_id":"WI"},{"zip":"53588","fips":"55103","name":"Richland County","state_id":"WI"},{"zip":"53588","fips":"55111","name":"Sauk County","state_id":"WI"},{"zip":"53588","fips":"55049","name":"Iowa County","state_id":"WI"},{"zip":"53589","fips":"55105","name":"Rock County","state_id":"WI"},{"zip":"53589","fips":"55025","name":"Dane County","state_id":"WI"},{"zip":"53590","fips":"55025","name":"Dane County","state_id":"WI"},{"zip":"53593","fips":"55025","name":"Dane County","state_id":"WI"},{"zip":"53594","fips":"55027","name":"Dodge County","state_id":"WI"},{"zip":"53594","fips":"55025","name":"Dane County","state_id":"WI"},{"zip":"53594","fips":"55055","name":"Jefferson County","state_id":"WI"},{"zip":"53595","fips":"55049","name":"Iowa County","state_id":"WI"},{"zip":"53596","fips":"55025","name":"Dane County","state_id":"WI"},{"zip":"53597","fips":"55025","name":"Dane County","state_id":"WI"},{"zip":"53598","fips":"55025","name":"Dane County","state_id":"WI"},{"zip":"53599","fips":"55065","name":"Lafayette County","state_id":"WI"}]
