[{"zip":"53801","fips":"55043","name":"Grant County","state_id":"WI"},{"zip":"53802","fips":"55043","name":"Grant County","state_id":"WI"},{"zip":"53803","fips":"55065","name":"Lafayette County","state_id":"WI"},{"zip":"53804","fips":"55043","name":"Grant County","state_id":"WI"},{"zip":"53805","fips":"55103","name":"Richland County","state_id":"WI"},{"zip":"53805","fips":"55043","name":"Grant County","state_id":"WI"},{"zip":"53805","fips":"55023","name":"Crawford County","state_id":"WI"},{"zip":"53806","fips":"55043","name":"Grant County","state_id":"WI"},{"zip":"53807","fips":"55043","name":"Grant County","state_id":"WI"},{"zip":"53807","fips":"55065","name":"Lafayette County","state_id":"WI"},{"zip":"53808","fips":"55043","name":"Grant County","state_id":"WI"},{"zip":"53809","fips":"55043","name":"Grant County","state_id":"WI"},{"zip":"53810","fips":"55043","name":"Grant County","state_id":"WI"},{"zip":"53811","fips":"55043","name":"Grant County","state_id":"WI"},{"zip":"53811","fips":"55065","name":"Lafayette County","state_id":"WI"},{"zip":"53812","fips":"55043","name":"Grant County","state_id":"WI"},{"zip":"53813","fips":"55043","name":"Grant County","state_id":"WI"},{"zip":"53816","fips":"55043","name":"Grant County","state_id":"WI"},{"zip":"53817","fips":"55043","name":"Grant County","state_id":"WI"},{"zip":"53818","fips":"55043","name":"Grant County","state_id":"WI"},{"zip":"53818","fips":"55049","name":"Iowa County","state_id":"WI"},{"zip":"53818","fips":"55065","name":"Lafayette County","state_id":"WI"},{"zip":"53820","fips":"55043","name":"Grant County","state_id":"WI"},{"zip":"53821","fips":"55043","name":"Grant County","state_id":"WI"},{"zip":"53821","fips":"55023","name":"Crawford County","state_id":"WI"},{"zip":"53824","fips":"55043","name":"Grant County","state_id":"WI"},{"zip":"53825","fips":"55043","name":"Grant County","state_id":"WI"},{"zip":"53826","fips":"55023","name":"Crawford County","state_id":"WI"},{"zip":"53827","fips":"55043","name":"Grant County","state_id":"WI"}]
