[{"zip":"53901","fips":"55021","name":"Columbia County","state_id":"WI"},{"zip":"53901","fips":"55077","name":"Marquette County","state_id":"WI"},{"zip":"53901","fips":"55111","name":"Sauk County","state_id":"WI"},{"zip":"53910","fips":"55001","name":"Adams County","state_id":"WI"},{"zip":"53911","fips":"55021","name":"Columbia County","state_id":"WI"},{"zip":"53911","fips":"55025","name":"Dane County","state_id":"WI"},{"zip":"53913","fips":"55021","name":"Columbia County","state_id":"WI"},{"zip":"53913","fips":"55111","name":"Sauk County","state_id":"WI"},{"zip":"53916","fips":"55027","name":"Dodge County","state_id":"WI"},{"zip":"53919","fips":"55039","name":"Fond du Lac County","state_id":"WI"},{"zip":"53919","fips":"55047","name":"Green Lake County","state_id":"WI"},{"zip":"53920","fips":"55001","name":"Adams County","state_id":"WI"},{"zip":"53920","fips":"55077","name":"Marquette County","state_id":"WI"},{"zip":"53922","fips":"55027","name":"Dodge County","state_id":"WI"},{"zip":"53923","fips":"55047","name":"Green Lake County","state_id":"WI"},{"zip":"53923","fips":"55021","name":"Columbia County","state_id":"WI"},{"zip":"53924","fips":"55103","name":"Richland County","state_id":"WI"},{"zip":"53924","fips":"55111","name":"Sauk County","state_id":"WI"},{"zip":"53925","fips":"55025","name":"Dane County","state_id":"WI"},{"zip":"53925","fips":"55021","name":"Columbia County","state_id":"WI"},{"zip":"53925","fips":"55027","name":"Dodge County","state_id":"WI"},{"zip":"53926","fips":"55077","name":"Marquette County","state_id":"WI"},{"zip":"53926","fips":"55047","name":"Green Lake County","state_id":"WI"},{"zip":"53926","fips":"55021","name":"Columbia County","state_id":"WI"},{"zip":"53928","fips":"55021","name":"Columbia County","state_id":"WI"},{"zip":"53929","fips":"55081","name":"Monroe County","state_id":"WI"},{"zip":"53929","fips":"55057","name":"Juneau County","state_id":"WI"},{"zip":"53929","fips":"55123","name":"Vernon County","state_id":"WI"},{"zip":"53930","fips":"55077","name":"Marquette County","state_id":"WI"},{"zip":"53931","fips":"55039","name":"Fond du Lac County","state_id":"WI"},{"zip":"53932","fips":"55021","name":"Columbia County","state_id":"WI"},{"zip":"53932","fips":"55027","name":"Dodge County","state_id":"WI"},{"zip":"53933","fips":"55027","name":"Dodge County","state_id":"WI"},{"zip":"53934","fips":"55001","name":"Adams County","state_id":"WI"},{"zip":"53935","fips":"55021","name":"Columbia County","state_id":"WI"},{"zip":"53936","fips":"55001","name":"Adams County","state_id":"WI"},{"zip":"53937","fips":"55111","name":"Sauk County","state_id":"WI"},{"zip":"53937","fips":"55103","name":"Richland County","state_id":"WI"},{"zip":"53939","fips":"55047","name":"Green Lake County","state_id":"WI"},{"zip":"53940","fips":"55111","name":"Sauk County","state_id":"WI"},{"zip":"53941","fips":"55111","name":"Sauk County","state_id":"WI"},{"zip":"53941","fips":"55057","name":"Juneau County","state_id":"WI"},{"zip":"53941","fips":"55103","name":"Richland County","state_id":"WI"},{"zip":"53942","fips":"55111","name":"Sauk County","state_id":"WI"},{"zip":"53943","fips":"55111","name":"Sauk County","state_id":"WI"},{"zip":"53944","fips":"55111","name":"Sauk County","state_id":"WI"},{"zip":"53944","fips":"55057","name":"Juneau County","state_id":"WI"},{"zip":"53946","fips":"55047","name":"Green Lake County","state_id":"WI"},{"zip":"53946","fips":"55077","name":"Marquette County","state_id":"WI"},{"zip":"53946","fips":"55027","name":"Dodge County","state_id":"WI"},{"zip":"53946","fips":"55039","name":"Fond du Lac County","state_id":"WI"},{"zip":"53947","fips":"55047","name":"Green Lake County","state_id":"WI"},{"zip":"53948","fips":"55057","name":"Juneau County","state_id":"WI"},{"zip":"53949","fips":"55047","name":"Green Lake County","state_id":"WI"},{"zip":"53949","fips":"55077","name":"Marquette County","state_id":"WI"},{"zip":"53950","fips":"55057","name":"Juneau County","state_id":"WI"},{"zip":"53951","fips":"55111","name":"Sauk County","state_id":"WI"},{"zip":"53952","fips":"55001","name":"Adams County","state_id":"WI"},{"zip":"53952","fips":"55077","name":"Marquette County","state_id":"WI"},{"zip":"53953","fips":"55077","name":"Marquette County","state_id":"WI"},{"zip":"53954","fips":"55021","name":"Columbia County","state_id":"WI"},{"zip":"53954","fips":"55077","name":"Marquette County","state_id":"WI"},{"zip":"53955","fips":"55021","name":"Columbia County","state_id":"WI"},{"zip":"53956","fips":"55021","name":"Columbia County","state_id":"WI"},{"zip":"53956","fips":"55047","name":"Green Lake County","state_id":"WI"},{"zip":"53956","fips":"55027","name":"Dodge County","state_id":"WI"},{"zip":"53957","fips":"55021","name":"Columbia County","state_id":"WI"},{"zip":"53958","fips":"55111","name":"Sauk County","state_id":"WI"},{"zip":"53959","fips":"55111","name":"Sauk County","state_id":"WI"},{"zip":"53960","fips":"55021","name":"Columbia County","state_id":"WI"},{"zip":"53960","fips":"55025","name":"Dane County","state_id":"WI"},{"zip":"53961","fips":"55111","name":"Sauk County","state_id":"WI"},{"zip":"53962","fips":"55057","name":"Juneau County","state_id":"WI"},{"zip":"53963","fips":"55039","name":"Fond du Lac County","state_id":"WI"},{"zip":"53963","fips":"55027","name":"Dodge County","state_id":"WI"},{"zip":"53964","fips":"55001","name":"Adams County","state_id":"WI"},{"zip":"53964","fips":"55077","name":"Marquette County","state_id":"WI"},{"zip":"53964","fips":"55137","name":"Waushara County","state_id":"WI"},{"zip":"53965","fips":"55111","name":"Sauk County","state_id":"WI"},{"zip":"53965","fips":"55021","name":"Columbia County","state_id":"WI"},{"zip":"53965","fips":"55057","name":"Juneau County","state_id":"WI"},{"zip":"53965","fips":"55001","name":"Adams County","state_id":"WI"},{"zip":"53968","fips":"55103","name":"Richland County","state_id":"WI"},{"zip":"53968","fips":"55111","name":"Sauk County","state_id":"WI"},{"zip":"53968","fips":"55057","name":"Juneau County","state_id":"WI"},{"zip":"53968","fips":"55123","name":"Vernon County","state_id":"WI"},{"zip":"53969","fips":"55021","name":"Columbia County","state_id":"WI"}]
