[{"zip":"54001","fips":"55095","name":"Polk County","state_id":"WI"},{"zip":"54002","fips":"55109","name":"St. Croix County","state_id":"WI"},{"zip":"54002","fips":"55093","name":"Pierce County","state_id":"WI"},{"zip":"54003","fips":"55093","name":"Pierce County","state_id":"WI"},{"zip":"54004","fips":"55095","name":"Polk County","state_id":"WI"},{"zip":"54004","fips":"55005","name":"Barron County","state_id":"WI"},{"zip":"54005","fips":"55109","name":"St. Croix County","state_id":"WI"},{"zip":"54005","fips":"55005","name":"Barron County","state_id":"WI"},{"zip":"54005","fips":"55033","name":"Dunn County","state_id":"WI"},{"zip":"54005","fips":"55095","name":"Polk County","state_id":"WI"},{"zip":"54005","fips":"55093","name":"Pierce County","state_id":"WI"},{"zip":"54006","fips":"55095","name":"Polk County","state_id":"WI"},{"zip":"54007","fips":"55109","name":"St. Croix County","state_id":"WI"},{"zip":"54007","fips":"55095","name":"Polk County","state_id":"WI"},{"zip":"54009","fips":"55095","name":"Polk County","state_id":"WI"},{"zip":"54011","fips":"55093","name":"Pierce County","state_id":"WI"},{"zip":"54013","fips":"55033","name":"Dunn County","state_id":"WI"},{"zip":"54013","fips":"55109","name":"St. Croix County","state_id":"WI"},{"zip":"54014","fips":"55093","name":"Pierce County","state_id":"WI"},{"zip":"54015","fips":"55109","name":"St. Croix County","state_id":"WI"},{"zip":"54016","fips":"55109","name":"St. Croix County","state_id":"WI"},{"zip":"54017","fips":"55095","name":"Polk County","state_id":"WI"},{"zip":"54017","fips":"55109","name":"St. Croix County","state_id":"WI"},{"zip":"54020","fips":"55109","name":"St. Croix County","state_id":"WI"},{"zip":"54020","fips":"55095","name":"Polk County","state_id":"WI"},{"zip":"54021","fips":"55093","name":"Pierce County","state_id":"WI"},{"zip":"54022","fips":"55109","name":"St. Croix County","state_id":"WI"},{"zip":"54022","fips":"55093","name":"Pierce County","state_id":"WI"},{"zip":"54023","fips":"55109","name":"St. Croix County","state_id":"WI"},{"zip":"54024","fips":"55013","name":"Burnett County","state_id":"WI"},{"zip":"54024","fips":"55095","name":"Polk County","state_id":"WI"},{"zip":"54025","fips":"55109","name":"St. Croix County","state_id":"WI"},{"zip":"54025","fips":"55095","name":"Polk County","state_id":"WI"},{"zip":"54026","fips":"55109","name":"St. Croix County","state_id":"WI"},{"zip":"54026","fips":"55095","name":"Polk County","state_id":"WI"},{"zip":"54027","fips":"55033","name":"Dunn County","state_id":"WI"},{"zip":"54027","fips":"55109","name":"St. Croix County","state_id":"WI"},{"zip":"54028","fips":"55109","name":"St. Croix County","state_id":"WI"},{"zip":"54082","fips":"55109","name":"St. Croix County","state_id":"WI"}]
