[{"zip":"54101","fips":"55083","name":"Oconto County","state_id":"WI"},{"zip":"54102","fips":"55075","name":"Marinette County","state_id":"WI"},{"zip":"54103","fips":"55037","name":"Florence County","state_id":"WI"},{"zip":"54103","fips":"55041","name":"Forest County","state_id":"WI"},{"zip":"54103","fips":"55075","name":"Marinette County","state_id":"WI"},{"zip":"54104","fips":"55075","name":"Marinette County","state_id":"WI"},{"zip":"54104","fips":"55083","name":"Oconto County","state_id":"WI"},{"zip":"54104","fips":"55041","name":"Forest County","state_id":"WI"},{"zip":"54106","fips":"55115","name":"Shawano County","state_id":"WI"},{"zip":"54106","fips":"55087","name":"Outagamie County","state_id":"WI"},{"zip":"54107","fips":"55115","name":"Shawano County","state_id":"WI"},{"zip":"54107","fips":"55087","name":"Outagamie County","state_id":"WI"},{"zip":"54110","fips":"55071","name":"Manitowoc County","state_id":"WI"},{"zip":"54110","fips":"55009","name":"Brown County","state_id":"WI"},{"zip":"54110","fips":"55015","name":"Calumet County","state_id":"WI"},{"zip":"54111","fips":"55083","name":"Oconto County","state_id":"WI"},{"zip":"54111","fips":"55115","name":"Shawano County","state_id":"WI"},{"zip":"54112","fips":"55075","name":"Marinette County","state_id":"WI"},{"zip":"54112","fips":"55083","name":"Oconto County","state_id":"WI"},{"zip":"54113","fips":"55087","name":"Outagamie County","state_id":"WI"},{"zip":"54114","fips":"55083","name":"Oconto County","state_id":"WI"},{"zip":"54114","fips":"55075","name":"Marinette County","state_id":"WI"},{"zip":"54115","fips":"55009","name":"Brown County","state_id":"WI"},{"zip":"54115","fips":"55087","name":"Outagamie County","state_id":"WI"},{"zip":"54119","fips":"55075","name":"Marinette County","state_id":"WI"},{"zip":"54120","fips":"55037","name":"Florence County","state_id":"WI"},{"zip":"54120","fips":"55075","name":"Marinette County","state_id":"WI"},{"zip":"54121","fips":"55037","name":"Florence County","state_id":"WI"},{"zip":"54123","fips":"55015","name":"Calumet County","state_id":"WI"},{"zip":"54124","fips":"55083","name":"Oconto County","state_id":"WI"},{"zip":"54124","fips":"55115","name":"Shawano County","state_id":"WI"},{"zip":"54124","fips":"55078","name":"Menominee County","state_id":"WI"},{"zip":"54125","fips":"55075","name":"Marinette County","state_id":"WI"},{"zip":"54126","fips":"55009","name":"Brown County","state_id":"WI"},{"zip":"54126","fips":"55071","name":"Manitowoc County","state_id":"WI"},{"zip":"54127","fips":"55115","name":"Shawano County","state_id":"WI"},{"zip":"54128","fips":"55115","name":"Shawano County","state_id":"WI"},{"zip":"54129","fips":"55015","name":"Calumet County","state_id":"WI"},{"zip":"54130","fips":"55087","name":"Outagamie County","state_id":"WI"},{"zip":"54130","fips":"55009","name":"Brown County","state_id":"WI"},{"zip":"54130","fips":"55015","name":"Calumet County","state_id":"WI"},{"zip":"54135","fips":"55078","name":"Menominee County","state_id":"WI"},{"zip":"54136","fips":"55087","name":"Outagamie County","state_id":"WI"},{"zip":"54137","fips":"55083","name":"Oconto County","state_id":"WI"},{"zip":"54137","fips":"55115","name":"Shawano County","state_id":"WI"},{"zip":"54138","fips":"55083","name":"Oconto County","state_id":"WI"},{"zip":"54139","fips":"55075","name":"Marinette County","state_id":"WI"},{"zip":"54139","fips":"55083","name":"Oconto County","state_id":"WI"},{"zip":"54140","fips":"55087","name":"Outagamie County","state_id":"WI"},{"zip":"54141","fips":"55009","name":"Brown County","state_id":"WI"},{"zip":"54141","fips":"55083","name":"Oconto County","state_id":"WI"},{"zip":"54143","fips":"55075","name":"Marinette County","state_id":"WI"},{"zip":"54149","fips":"55083","name":"Oconto County","state_id":"WI"},{"zip":"54150","fips":"55078","name":"Menominee County","state_id":"WI"},{"zip":"54151","fips":"55075","name":"Marinette County","state_id":"WI"},{"zip":"54151","fips":"55037","name":"Florence County","state_id":"WI"},{"zip":"54152","fips":"55087","name":"Outagamie County","state_id":"WI"},{"zip":"54153","fips":"55083","name":"Oconto County","state_id":"WI"},{"zip":"54153","fips":"55075","name":"Marinette County","state_id":"WI"},{"zip":"54154","fips":"55083","name":"Oconto County","state_id":"WI"},{"zip":"54154","fips":"55115","name":"Shawano County","state_id":"WI"},{"zip":"54155","fips":"55009","name":"Brown County","state_id":"WI"},{"zip":"54155","fips":"55087","name":"Outagamie County","state_id":"WI"},{"zip":"54156","fips":"55075","name":"Marinette County","state_id":"WI"},{"zip":"54157","fips":"55083","name":"Oconto County","state_id":"WI"},{"zip":"54157","fips":"55075","name":"Marinette County","state_id":"WI"},{"zip":"54159","fips":"55075","name":"Marinette County","state_id":"WI"},{"zip":"54160","fips":"55015","name":"Calumet County","state_id":"WI"},{"zip":"54161","fips":"55075","name":"Marinette County","state_id":"WI"},{"zip":"54161","fips":"55083","name":"Oconto County","state_id":"WI"},{"zip":"54162","fips":"55115","name":"Shawano County","state_id":"WI"},{"zip":"54162","fips":"55009","name":"Brown County","state_id":"WI"},{"zip":"54162","fips":"55083","name":"Oconto County","state_id":"WI"},{"zip":"54165","fips":"55009","name":"Brown County","state_id":"WI"},{"zip":"54165","fips":"55087","name":"Outagamie County","state_id":"WI"},{"zip":"54165","fips":"55115","name":"Shawano County","state_id":"WI"},{"zip":"54166","fips":"55115","name":"Shawano County","state_id":"WI"},{"zip":"54166","fips":"55078","name":"Menominee County","state_id":"WI"},{"zip":"54169","fips":"55015","name":"Calumet County","state_id":"WI"},{"zip":"54170","fips":"55135","name":"Waupaca County","state_id":"WI"},{"zip":"54170","fips":"55115","name":"Shawano County","state_id":"WI"},{"zip":"54170","fips":"55087","name":"Outagamie County","state_id":"WI"},{"zip":"54171","fips":"55083","name":"Oconto County","state_id":"WI"},{"zip":"54173","fips":"55009","name":"Brown County","state_id":"WI"},{"zip":"54174","fips":"55083","name":"Oconto County","state_id":"WI"},{"zip":"54174","fips":"55078","name":"Menominee County","state_id":"WI"},{"zip":"54175","fips":"55083","name":"Oconto County","state_id":"WI"},{"zip":"54177","fips":"55075","name":"Marinette County","state_id":"WI"},{"zip":"54180","fips":"55087","name":"Outagamie County","state_id":"WI"},{"zip":"54180","fips":"55009","name":"Brown County","state_id":"WI"}]
