[{"zip":"54201","fips":"55029","name":"Door County","state_id":"WI"},{"zip":"54201","fips":"55061","name":"Kewaunee County","state_id":"WI"},{"zip":"54202","fips":"55029","name":"Door County","state_id":"WI"},{"zip":"54204","fips":"55029","name":"Door County","state_id":"WI"},{"zip":"54205","fips":"55061","name":"Kewaunee County","state_id":"WI"},{"zip":"54205","fips":"55029","name":"Door County","state_id":"WI"},{"zip":"54207","fips":"55071","name":"Manitowoc County","state_id":"WI"},{"zip":"54208","fips":"55061","name":"Kewaunee County","state_id":"WI"},{"zip":"54208","fips":"55009","name":"Brown County","state_id":"WI"},{"zip":"54208","fips":"55071","name":"Manitowoc County","state_id":"WI"},{"zip":"54209","fips":"55029","name":"Door County","state_id":"WI"},{"zip":"54210","fips":"55029","name":"Door County","state_id":"WI"},{"zip":"54211","fips":"55029","name":"Door County","state_id":"WI"},{"zip":"54212","fips":"55029","name":"Door County","state_id":"WI"},{"zip":"54213","fips":"55029","name":"Door County","state_id":"WI"},{"zip":"54213","fips":"55061","name":"Kewaunee County","state_id":"WI"},{"zip":"54214","fips":"55071","name":"Manitowoc County","state_id":"WI"},{"zip":"54215","fips":"55071","name":"Manitowoc County","state_id":"WI"},{"zip":"54216","fips":"55071","name":"Manitowoc County","state_id":"WI"},{"zip":"54216","fips":"55061","name":"Kewaunee County","state_id":"WI"},{"zip":"54217","fips":"55029","name":"Door County","state_id":"WI"},{"zip":"54217","fips":"55009","name":"Brown County","state_id":"WI"},{"zip":"54217","fips":"55061","name":"Kewaunee County","state_id":"WI"},{"zip":"54220","fips":"55071","name":"Manitowoc County","state_id":"WI"},{"zip":"54226","fips":"55029","name":"Door County","state_id":"WI"},{"zip":"54227","fips":"55009","name":"Brown County","state_id":"WI"},{"zip":"54227","fips":"55071","name":"Manitowoc County","state_id":"WI"},{"zip":"54228","fips":"55071","name":"Manitowoc County","state_id":"WI"},{"zip":"54229","fips":"55009","name":"Brown County","state_id":"WI"},{"zip":"54230","fips":"55009","name":"Brown County","state_id":"WI"},{"zip":"54230","fips":"55071","name":"Manitowoc County","state_id":"WI"},{"zip":"54232","fips":"55071","name":"Manitowoc County","state_id":"WI"},{"zip":"54234","fips":"55029","name":"Door County","state_id":"WI"},{"zip":"54235","fips":"55029","name":"Door County","state_id":"WI"},{"zip":"54240","fips":"55071","name":"Manitowoc County","state_id":"WI"},{"zip":"54241","fips":"55071","name":"Manitowoc County","state_id":"WI"},{"zip":"54241","fips":"55061","name":"Kewaunee County","state_id":"WI"},{"zip":"54245","fips":"55071","name":"Manitowoc County","state_id":"WI"},{"zip":"54246","fips":"55029","name":"Door County","state_id":"WI"},{"zip":"54247","fips":"55071","name":"Manitowoc County","state_id":"WI"}]
