[{"zip":"54401","fips":"55073","name":"Marathon County","state_id":"WI"},{"zip":"54402","fips":"55073","name":"Marathon County","state_id":"WI"},{"zip":"54403","fips":"55073","name":"Marathon County","state_id":"WI"},{"zip":"54405","fips":"55019","name":"Clark County","state_id":"WI"},{"zip":"54405","fips":"55073","name":"Marathon County","state_id":"WI"},{"zip":"54406","fips":"55097","name":"Portage County","state_id":"WI"},{"zip":"54407","fips":"55097","name":"Portage County","state_id":"WI"},{"zip":"54408","fips":"55067","name":"Langlade County","state_id":"WI"},{"zip":"54408","fips":"55115","name":"Shawano County","state_id":"WI"},{"zip":"54408","fips":"55073","name":"Marathon County","state_id":"WI"},{"zip":"54409","fips":"55073","name":"Marathon County","state_id":"WI"},{"zip":"54409","fips":"55115","name":"Shawano County","state_id":"WI"},{"zip":"54409","fips":"55067","name":"Langlade County","state_id":"WI"},{"zip":"54410","fips":"55141","name":"Wood County","state_id":"WI"},{"zip":"54411","fips":"55119","name":"Taylor County","state_id":"WI"},{"zip":"54411","fips":"55073","name":"Marathon County","state_id":"WI"},{"zip":"54412","fips":"55073","name":"Marathon County","state_id":"WI"},{"zip":"54412","fips":"55141","name":"Wood County","state_id":"WI"},{"zip":"54413","fips":"55057","name":"Juneau County","state_id":"WI"},{"zip":"54413","fips":"55141","name":"Wood County","state_id":"WI"},{"zip":"54414","fips":"55073","name":"Marathon County","state_id":"WI"},{"zip":"54414","fips":"55067","name":"Langlade County","state_id":"WI"},{"zip":"54414","fips":"55115","name":"Shawano County","state_id":"WI"},{"zip":"54415","fips":"55141","name":"Wood County","state_id":"WI"},{"zip":"54416","fips":"55115","name":"Shawano County","state_id":"WI"},{"zip":"54417","fips":"55073","name":"Marathon County","state_id":"WI"},{"zip":"54418","fips":"55067","name":"Langlade County","state_id":"WI"},{"zip":"54420","fips":"55019","name":"Clark County","state_id":"WI"},{"zip":"54420","fips":"55141","name":"Wood County","state_id":"WI"},{"zip":"54421","fips":"55073","name":"Marathon County","state_id":"WI"},{"zip":"54421","fips":"55019","name":"Clark County","state_id":"WI"},{"zip":"54422","fips":"55119","name":"Taylor County","state_id":"WI"},{"zip":"54422","fips":"55019","name":"Clark County","state_id":"WI"},{"zip":"54423","fips":"55073","name":"Marathon County","state_id":"WI"},{"zip":"54423","fips":"55097","name":"Portage County","state_id":"WI"},{"zip":"54424","fips":"55067","name":"Langlade County","state_id":"WI"},{"zip":"54425","fips":"55073","name":"Marathon County","state_id":"WI"},{"zip":"54425","fips":"55019","name":"Clark County","state_id":"WI"},{"zip":"54425","fips":"55119","name":"Taylor County","state_id":"WI"},{"zip":"54426","fips":"55073","name":"Marathon County","state_id":"WI"},{"zip":"54427","fips":"55115","name":"Shawano County","state_id":"WI"},{"zip":"54427","fips":"55073","name":"Marathon County","state_id":"WI"},{"zip":"54428","fips":"55085","name":"Oneida County","state_id":"WI"},{"zip":"54428","fips":"55067","name":"Langlade County","state_id":"WI"},{"zip":"54429","fips":"55073","name":"Marathon County","state_id":"WI"},{"zip":"54430","fips":"55067","name":"Langlade County","state_id":"WI"},{"zip":"54433","fips":"55017","name":"Chippewa County","state_id":"WI"},{"zip":"54433","fips":"55119","name":"Taylor County","state_id":"WI"},{"zip":"54435","fips":"55069","name":"Lincoln County","state_id":"WI"},{"zip":"54435","fips":"55067","name":"Langlade County","state_id":"WI"},{"zip":"54435","fips":"55085","name":"Oneida County","state_id":"WI"},{"zip":"54436","fips":"55019","name":"Clark County","state_id":"WI"},{"zip":"54437","fips":"55019","name":"Clark County","state_id":"WI"},{"zip":"54440","fips":"55073","name":"Marathon County","state_id":"WI"},{"zip":"54441","fips":"55141","name":"Wood County","state_id":"WI"},{"zip":"54442","fips":"55069","name":"Lincoln County","state_id":"WI"},{"zip":"54443","fips":"55073","name":"Marathon County","state_id":"WI"},{"zip":"54443","fips":"55097","name":"Portage County","state_id":"WI"},{"zip":"54443","fips":"55141","name":"Wood County","state_id":"WI"},{"zip":"54446","fips":"55019","name":"Clark County","state_id":"WI"},{"zip":"54447","fips":"55119","name":"Taylor County","state_id":"WI"},{"zip":"54448","fips":"55073","name":"Marathon County","state_id":"WI"},{"zip":"54449","fips":"55019","name":"Clark County","state_id":"WI"},{"zip":"54449","fips":"55073","name":"Marathon County","state_id":"WI"},{"zip":"54449","fips":"55141","name":"Wood County","state_id":"WI"},{"zip":"54450","fips":"55115","name":"Shawano County","state_id":"WI"},{"zip":"54451","fips":"55119","name":"Taylor County","state_id":"WI"},{"zip":"54451","fips":"55073","name":"Marathon County","state_id":"WI"},{"zip":"54452","fips":"55069","name":"Lincoln County","state_id":"WI"},{"zip":"54452","fips":"55067","name":"Langlade County","state_id":"WI"},{"zip":"54452","fips":"55073","name":"Marathon County","state_id":"WI"},{"zip":"54454","fips":"55073","name":"Marathon County","state_id":"WI"},{"zip":"54454","fips":"55141","name":"Wood County","state_id":"WI"},{"zip":"54454","fips":"55097","name":"Portage County","state_id":"WI"},{"zip":"54455","fips":"55097","name":"Portage County","state_id":"WI"},{"zip":"54455","fips":"55073","name":"Marathon County","state_id":"WI"},{"zip":"54456","fips":"55019","name":"Clark County","state_id":"WI"},{"zip":"54457","fips":"55141","name":"Wood County","state_id":"WI"},{"zip":"54457","fips":"55001","name":"Adams County","state_id":"WI"},{"zip":"54457","fips":"55057","name":"Juneau County","state_id":"WI"},{"zip":"54458","fips":"55097","name":"Portage County","state_id":"WI"},{"zip":"54459","fips":"55119","name":"Taylor County","state_id":"WI"},{"zip":"54459","fips":"55099","name":"Price County","state_id":"WI"},{"zip":"54459","fips":"55069","name":"Lincoln County","state_id":"WI"},{"zip":"54460","fips":"55119","name":"Taylor County","state_id":"WI"},{"zip":"54460","fips":"55019","name":"Clark County","state_id":"WI"},{"zip":"54462","fips":"55067","name":"Langlade County","state_id":"WI"},{"zip":"54463","fips":"55085","name":"Oneida County","state_id":"WI"},{"zip":"54463","fips":"55067","name":"Langlade County","state_id":"WI"},{"zip":"54464","fips":"55067","name":"Langlade County","state_id":"WI"},{"zip":"54465","fips":"55041","name":"Forest County","state_id":"WI"},{"zip":"54465","fips":"55067","name":"Langlade County","state_id":"WI"},{"zip":"54466","fips":"55019","name":"Clark County","state_id":"WI"},{"zip":"54466","fips":"55141","name":"Wood County","state_id":"WI"},{"zip":"54466","fips":"55053","name":"Jackson County","state_id":"WI"},{"zip":"54467","fips":"55097","name":"Portage County","state_id":"WI"},{"zip":"54469","fips":"55141","name":"Wood County","state_id":"WI"},{"zip":"54470","fips":"55119","name":"Taylor County","state_id":"WI"},{"zip":"54470","fips":"55099","name":"Price County","state_id":"WI"},{"zip":"54471","fips":"55073","name":"Marathon County","state_id":"WI"},{"zip":"54473","fips":"55097","name":"Portage County","state_id":"WI"},{"zip":"54473","fips":"55073","name":"Marathon County","state_id":"WI"},{"zip":"54474","fips":"55073","name":"Marathon County","state_id":"WI"},{"zip":"54475","fips":"55141","name":"Wood County","state_id":"WI"},{"zip":"54475","fips":"55097","name":"Portage County","state_id":"WI"},{"zip":"54476","fips":"55073","name":"Marathon County","state_id":"WI"},{"zip":"54479","fips":"55019","name":"Clark County","state_id":"WI"},{"zip":"54479","fips":"55073","name":"Marathon County","state_id":"WI"},{"zip":"54480","fips":"55073","name":"Marathon County","state_id":"WI"},{"zip":"54480","fips":"55119","name":"Taylor County","state_id":"WI"},{"zip":"54481","fips":"55097","name":"Portage County","state_id":"WI"},{"zip":"54482","fips":"55097","name":"Portage County","state_id":"WI"},{"zip":"54484","fips":"55073","name":"Marathon County","state_id":"WI"},{"zip":"54485","fips":"55067","name":"Langlade County","state_id":"WI"},{"zip":"54486","fips":"55115","name":"Shawano County","state_id":"WI"},{"zip":"54486","fips":"55135","name":"Waupaca County","state_id":"WI"},{"zip":"54487","fips":"55085","name":"Oneida County","state_id":"WI"},{"zip":"54487","fips":"55069","name":"Lincoln County","state_id":"WI"},{"zip":"54488","fips":"55073","name":"Marathon County","state_id":"WI"},{"zip":"54488","fips":"55019","name":"Clark County","state_id":"WI"},{"zip":"54489","fips":"55141","name":"Wood County","state_id":"WI"},{"zip":"54490","fips":"55099","name":"Price County","state_id":"WI"},{"zip":"54490","fips":"55119","name":"Taylor County","state_id":"WI"},{"zip":"54491","fips":"55083","name":"Oconto County","state_id":"WI"},{"zip":"54491","fips":"55067","name":"Langlade County","state_id":"WI"},{"zip":"54492","fips":"55097","name":"Portage County","state_id":"WI"},{"zip":"54493","fips":"55019","name":"Clark County","state_id":"WI"},{"zip":"54494","fips":"55141","name":"Wood County","state_id":"WI"},{"zip":"54494","fips":"55097","name":"Portage County","state_id":"WI"},{"zip":"54494","fips":"55001","name":"Adams County","state_id":"WI"},{"zip":"54495","fips":"55141","name":"Wood County","state_id":"WI"},{"zip":"54498","fips":"55119","name":"Taylor County","state_id":"WI"},{"zip":"54498","fips":"55019","name":"Clark County","state_id":"WI"},{"zip":"54499","fips":"55115","name":"Shawano County","state_id":"WI"},{"zip":"54499","fips":"55073","name":"Marathon County","state_id":"WI"},{"zip":"54499","fips":"55135","name":"Waupaca County","state_id":"WI"},{"zip":"54499","fips":"55097","name":"Portage County","state_id":"WI"}]
