[{"zip":"54501","fips":"55069","name":"Lincoln County","state_id":"WI"},{"zip":"54501","fips":"55085","name":"Oneida County","state_id":"WI"},{"zip":"54511","fips":"55041","name":"Forest County","state_id":"WI"},{"zip":"54512","fips":"55125","name":"Vilas County","state_id":"WI"},{"zip":"54513","fips":"55099","name":"Price County","state_id":"WI"},{"zip":"54514","fips":"55051","name":"Iron County","state_id":"WI"},{"zip":"54514","fips":"55003","name":"Ashland County","state_id":"WI"},{"zip":"54514","fips":"55099","name":"Price County","state_id":"WI"},{"zip":"54515","fips":"55099","name":"Price County","state_id":"WI"},{"zip":"54517","fips":"55003","name":"Ashland County","state_id":"WI"},{"zip":"54517","fips":"55007","name":"Bayfield County","state_id":"WI"},{"zip":"54519","fips":"55125","name":"Vilas County","state_id":"WI"},{"zip":"54520","fips":"55041","name":"Forest County","state_id":"WI"},{"zip":"54520","fips":"55085","name":"Oneida County","state_id":"WI"},{"zip":"54521","fips":"55041","name":"Forest County","state_id":"WI"},{"zip":"54521","fips":"55125","name":"Vilas County","state_id":"WI"},{"zip":"54521","fips":"55085","name":"Oneida County","state_id":"WI"},{"zip":"54524","fips":"55099","name":"Price County","state_id":"WI"},{"zip":"54525","fips":"55051","name":"Iron County","state_id":"WI"},{"zip":"54526","fips":"55107","name":"Rusk County","state_id":"WI"},{"zip":"54527","fips":"55003","name":"Ashland County","state_id":"WI"},{"zip":"54529","fips":"55085","name":"Oneida County","state_id":"WI"},{"zip":"54530","fips":"55099","name":"Price County","state_id":"WI"},{"zip":"54530","fips":"55107","name":"Rusk County","state_id":"WI"},{"zip":"54531","fips":"55085","name":"Oneida County","state_id":"WI"},{"zip":"54532","fips":"55069","name":"Lincoln County","state_id":"WI"},{"zip":"54534","fips":"55051","name":"Iron County","state_id":"WI"},{"zip":"54536","fips":"55051","name":"Iron County","state_id":"WI"},{"zip":"54537","fips":"55099","name":"Price County","state_id":"WI"},{"zip":"54538","fips":"55085","name":"Oneida County","state_id":"WI"},{"zip":"54538","fips":"55051","name":"Iron County","state_id":"WI"},{"zip":"54538","fips":"55099","name":"Price County","state_id":"WI"},{"zip":"54538","fips":"55125","name":"Vilas County","state_id":"WI"},{"zip":"54539","fips":"55085","name":"Oneida County","state_id":"WI"},{"zip":"54540","fips":"55125","name":"Vilas County","state_id":"WI"},{"zip":"54541","fips":"55041","name":"Forest County","state_id":"WI"},{"zip":"54542","fips":"55037","name":"Florence County","state_id":"WI"},{"zip":"54542","fips":"55041","name":"Forest County","state_id":"WI"},{"zip":"54543","fips":"55085","name":"Oneida County","state_id":"WI"},{"zip":"54545","fips":"55125","name":"Vilas County","state_id":"WI"},{"zip":"54546","fips":"55003","name":"Ashland County","state_id":"WI"},{"zip":"54546","fips":"55051","name":"Iron County","state_id":"WI"},{"zip":"54547","fips":"55051","name":"Iron County","state_id":"WI"},{"zip":"54548","fips":"55085","name":"Oneida County","state_id":"WI"},{"zip":"54548","fips":"55125","name":"Vilas County","state_id":"WI"},{"zip":"54550","fips":"55051","name":"Iron County","state_id":"WI"},{"zip":"54552","fips":"55051","name":"Iron County","state_id":"WI"},{"zip":"54552","fips":"55113","name":"Sawyer County","state_id":"WI"},{"zip":"54552","fips":"55099","name":"Price County","state_id":"WI"},{"zip":"54554","fips":"55125","name":"Vilas County","state_id":"WI"},{"zip":"54555","fips":"55099","name":"Price County","state_id":"WI"},{"zip":"54555","fips":"55113","name":"Sawyer County","state_id":"WI"},{"zip":"54556","fips":"55099","name":"Price County","state_id":"WI"},{"zip":"54557","fips":"55125","name":"Vilas County","state_id":"WI"},{"zip":"54558","fips":"55085","name":"Oneida County","state_id":"WI"},{"zip":"54558","fips":"55125","name":"Vilas County","state_id":"WI"},{"zip":"54559","fips":"55051","name":"Iron County","state_id":"WI"},{"zip":"54559","fips":"55003","name":"Ashland County","state_id":"WI"},{"zip":"54560","fips":"55125","name":"Vilas County","state_id":"WI"},{"zip":"54561","fips":"55125","name":"Vilas County","state_id":"WI"},{"zip":"54562","fips":"55085","name":"Oneida County","state_id":"WI"},{"zip":"54562","fips":"55041","name":"Forest County","state_id":"WI"},{"zip":"54563","fips":"55107","name":"Rusk County","state_id":"WI"},{"zip":"54564","fips":"55085","name":"Oneida County","state_id":"WI"},{"zip":"54564","fips":"55099","name":"Price County","state_id":"WI"},{"zip":"54564","fips":"55069","name":"Lincoln County","state_id":"WI"},{"zip":"54565","fips":"55051","name":"Iron County","state_id":"WI"},{"zip":"54566","fips":"55041","name":"Forest County","state_id":"WI"},{"zip":"54568","fips":"55085","name":"Oneida County","state_id":"WI"},{"zip":"54568","fips":"55125","name":"Vilas County","state_id":"WI"}]
