[{"zip":"54601","fips":"55063","name":"La Crosse County","state_id":"WI"},{"zip":"54602","fips":"55063","name":"La Crosse County","state_id":"WI"},{"zip":"54603","fips":"55063","name":"La Crosse County","state_id":"WI"},{"zip":"54610","fips":"55011","name":"Buffalo County","state_id":"WI"},{"zip":"54611","fips":"55053","name":"Jackson County","state_id":"WI"},{"zip":"54612","fips":"55121","name":"Trempealeau County","state_id":"WI"},{"zip":"54612","fips":"55011","name":"Buffalo County","state_id":"WI"},{"zip":"54613","fips":"55001","name":"Adams County","state_id":"WI"},{"zip":"54614","fips":"55081","name":"Monroe County","state_id":"WI"},{"zip":"54614","fips":"55063","name":"La Crosse County","state_id":"WI"},{"zip":"54615","fips":"55053","name":"Jackson County","state_id":"WI"},{"zip":"54615","fips":"55081","name":"Monroe County","state_id":"WI"},{"zip":"54616","fips":"55053","name":"Jackson County","state_id":"WI"},{"zip":"54616","fips":"55121","name":"Trempealeau County","state_id":"WI"},{"zip":"54618","fips":"55081","name":"Monroe County","state_id":"WI"},{"zip":"54618","fips":"55057","name":"Juneau County","state_id":"WI"},{"zip":"54619","fips":"55123","name":"Vernon County","state_id":"WI"},{"zip":"54619","fips":"55063","name":"La Crosse County","state_id":"WI"},{"zip":"54619","fips":"55081","name":"Monroe County","state_id":"WI"},{"zip":"54620","fips":"55081","name":"Monroe County","state_id":"WI"},{"zip":"54621","fips":"55123","name":"Vernon County","state_id":"WI"},{"zip":"54622","fips":"55011","name":"Buffalo County","state_id":"WI"},{"zip":"54623","fips":"55123","name":"Vernon County","state_id":"WI"},{"zip":"54623","fips":"55063","name":"La Crosse County","state_id":"WI"},{"zip":"54624","fips":"55123","name":"Vernon County","state_id":"WI"},{"zip":"54624","fips":"55023","name":"Crawford County","state_id":"WI"},{"zip":"54625","fips":"55121","name":"Trempealeau County","state_id":"WI"},{"zip":"54626","fips":"55023","name":"Crawford County","state_id":"WI"},{"zip":"54627","fips":"55121","name":"Trempealeau County","state_id":"WI"},{"zip":"54627","fips":"55053","name":"Jackson County","state_id":"WI"},{"zip":"54628","fips":"55123","name":"Vernon County","state_id":"WI"},{"zip":"54628","fips":"55023","name":"Crawford County","state_id":"WI"},{"zip":"54629","fips":"55011","name":"Buffalo County","state_id":"WI"},{"zip":"54630","fips":"55121","name":"Trempealeau County","state_id":"WI"},{"zip":"54631","fips":"55023","name":"Crawford County","state_id":"WI"},{"zip":"54632","fips":"55123","name":"Vernon County","state_id":"WI"},{"zip":"54634","fips":"55103","name":"Richland County","state_id":"WI"},{"zip":"54634","fips":"55057","name":"Juneau County","state_id":"WI"},{"zip":"54634","fips":"55123","name":"Vernon County","state_id":"WI"},{"zip":"54635","fips":"55053","name":"Jackson County","state_id":"WI"},{"zip":"54636","fips":"55063","name":"La Crosse County","state_id":"WI"},{"zip":"54637","fips":"55057","name":"Juneau County","state_id":"WI"},{"zip":"54638","fips":"55081","name":"Monroe County","state_id":"WI"},{"zip":"54638","fips":"55123","name":"Vernon County","state_id":"WI"},{"zip":"54638","fips":"55057","name":"Juneau County","state_id":"WI"},{"zip":"54639","fips":"55123","name":"Vernon County","state_id":"WI"},{"zip":"54639","fips":"55103","name":"Richland County","state_id":"WI"},{"zip":"54641","fips":"55057","name":"Juneau County","state_id":"WI"},{"zip":"54642","fips":"55121","name":"Trempealeau County","state_id":"WI"},{"zip":"54642","fips":"55053","name":"Jackson County","state_id":"WI"},{"zip":"54642","fips":"55063","name":"La Crosse County","state_id":"WI"},{"zip":"54643","fips":"55053","name":"Jackson County","state_id":"WI"},{"zip":"54644","fips":"55053","name":"Jackson County","state_id":"WI"},{"zip":"54644","fips":"55063","name":"La Crosse County","state_id":"WI"},{"zip":"54645","fips":"55023","name":"Crawford County","state_id":"WI"},{"zip":"54646","fips":"55001","name":"Adams County","state_id":"WI"},{"zip":"54646","fips":"55057","name":"Juneau County","state_id":"WI"},{"zip":"54648","fips":"55081","name":"Monroe County","state_id":"WI"},{"zip":"54649","fips":"55081","name":"Monroe County","state_id":"WI"},{"zip":"54650","fips":"55063","name":"La Crosse County","state_id":"WI"},{"zip":"54651","fips":"55081","name":"Monroe County","state_id":"WI"},{"zip":"54651","fips":"55123","name":"Vernon County","state_id":"WI"},{"zip":"54652","fips":"55123","name":"Vernon County","state_id":"WI"},{"zip":"54652","fips":"55023","name":"Crawford County","state_id":"WI"},{"zip":"54653","fips":"55063","name":"La Crosse County","state_id":"WI"},{"zip":"54653","fips":"55081","name":"Monroe County","state_id":"WI"},{"zip":"54654","fips":"55023","name":"Crawford County","state_id":"WI"},{"zip":"54655","fips":"55123","name":"Vernon County","state_id":"WI"},{"zip":"54655","fips":"55023","name":"Crawford County","state_id":"WI"},{"zip":"54655","fips":"55103","name":"Richland County","state_id":"WI"},{"zip":"54656","fips":"55063","name":"La Crosse County","state_id":"WI"},{"zip":"54656","fips":"55053","name":"Jackson County","state_id":"WI"},{"zip":"54656","fips":"55081","name":"Monroe County","state_id":"WI"},{"zip":"54657","fips":"55023","name":"Crawford County","state_id":"WI"},{"zip":"54658","fips":"55063","name":"La Crosse County","state_id":"WI"},{"zip":"54658","fips":"55123","name":"Vernon County","state_id":"WI"},{"zip":"54659","fips":"55053","name":"Jackson County","state_id":"WI"},{"zip":"54659","fips":"55121","name":"Trempealeau County","state_id":"WI"},{"zip":"54660","fips":"55081","name":"Monroe County","state_id":"WI"},{"zip":"54661","fips":"55121","name":"Trempealeau County","state_id":"WI"},{"zip":"54662","fips":"55081","name":"Monroe County","state_id":"WI"},{"zip":"54664","fips":"55103","name":"Richland County","state_id":"WI"},{"zip":"54664","fips":"55123","name":"Vernon County","state_id":"WI"},{"zip":"54665","fips":"55123","name":"Vernon County","state_id":"WI"},{"zip":"54665","fips":"55023","name":"Crawford County","state_id":"WI"},{"zip":"54666","fips":"55081","name":"Monroe County","state_id":"WI"},{"zip":"54666","fips":"55053","name":"Jackson County","state_id":"WI"},{"zip":"54666","fips":"55057","name":"Juneau County","state_id":"WI"},{"zip":"54667","fips":"55063","name":"La Crosse County","state_id":"WI"},{"zip":"54667","fips":"55123","name":"Vernon County","state_id":"WI"},{"zip":"54669","fips":"55063","name":"La Crosse County","state_id":"WI"},{"zip":"54670","fips":"55081","name":"Monroe County","state_id":"WI"}]
