[{"zip":"54701","fips":"55033","name":"Dunn County","state_id":"WI"},{"zip":"54701","fips":"55035","name":"Eau Claire County","state_id":"WI"},{"zip":"54702","fips":"55035","name":"Eau Claire County","state_id":"WI"},{"zip":"54703","fips":"55033","name":"Dunn County","state_id":"WI"},{"zip":"54703","fips":"55035","name":"Eau Claire County","state_id":"WI"},{"zip":"54703","fips":"55017","name":"Chippewa County","state_id":"WI"},{"zip":"54720","fips":"55035","name":"Eau Claire County","state_id":"WI"},{"zip":"54721","fips":"55033","name":"Dunn County","state_id":"WI"},{"zip":"54721","fips":"55093","name":"Pierce County","state_id":"WI"},{"zip":"54721","fips":"55091","name":"Pepin County","state_id":"WI"},{"zip":"54722","fips":"55035","name":"Eau Claire County","state_id":"WI"},{"zip":"54723","fips":"55093","name":"Pierce County","state_id":"WI"},{"zip":"54724","fips":"55033","name":"Dunn County","state_id":"WI"},{"zip":"54724","fips":"55017","name":"Chippewa County","state_id":"WI"},{"zip":"54725","fips":"55033","name":"Dunn County","state_id":"WI"},{"zip":"54726","fips":"55035","name":"Eau Claire County","state_id":"WI"},{"zip":"54726","fips":"55017","name":"Chippewa County","state_id":"WI"},{"zip":"54727","fips":"55035","name":"Eau Claire County","state_id":"WI"},{"zip":"54727","fips":"55017","name":"Chippewa County","state_id":"WI"},{"zip":"54728","fips":"55005","name":"Barron County","state_id":"WI"},{"zip":"54728","fips":"55107","name":"Rusk County","state_id":"WI"},{"zip":"54728","fips":"55033","name":"Dunn County","state_id":"WI"},{"zip":"54729","fips":"55017","name":"Chippewa County","state_id":"WI"},{"zip":"54729","fips":"55035","name":"Eau Claire County","state_id":"WI"},{"zip":"54730","fips":"55017","name":"Chippewa County","state_id":"WI"},{"zip":"54730","fips":"55033","name":"Dunn County","state_id":"WI"},{"zip":"54731","fips":"55107","name":"Rusk County","state_id":"WI"},{"zip":"54732","fips":"55017","name":"Chippewa County","state_id":"WI"},{"zip":"54733","fips":"55005","name":"Barron County","state_id":"WI"},{"zip":"54734","fips":"55033","name":"Dunn County","state_id":"WI"},{"zip":"54734","fips":"55109","name":"St. Croix County","state_id":"WI"},{"zip":"54735","fips":"55033","name":"Dunn County","state_id":"WI"},{"zip":"54736","fips":"55033","name":"Dunn County","state_id":"WI"},{"zip":"54736","fips":"55091","name":"Pepin County","state_id":"WI"},{"zip":"54736","fips":"55011","name":"Buffalo County","state_id":"WI"},{"zip":"54737","fips":"55033","name":"Dunn County","state_id":"WI"},{"zip":"54737","fips":"55091","name":"Pepin County","state_id":"WI"},{"zip":"54738","fips":"55011","name":"Buffalo County","state_id":"WI"},{"zip":"54738","fips":"55035","name":"Eau Claire County","state_id":"WI"},{"zip":"54738","fips":"55121","name":"Trempealeau County","state_id":"WI"},{"zip":"54739","fips":"55035","name":"Eau Claire County","state_id":"WI"},{"zip":"54739","fips":"55033","name":"Dunn County","state_id":"WI"},{"zip":"54739","fips":"55017","name":"Chippewa County","state_id":"WI"},{"zip":"54740","fips":"55033","name":"Dunn County","state_id":"WI"},{"zip":"54740","fips":"55093","name":"Pierce County","state_id":"WI"},{"zip":"54741","fips":"55035","name":"Eau Claire County","state_id":"WI"},{"zip":"54741","fips":"55053","name":"Jackson County","state_id":"WI"},{"zip":"54741","fips":"55019","name":"Clark County","state_id":"WI"},{"zip":"54742","fips":"55035","name":"Eau Claire County","state_id":"WI"},{"zip":"54743","fips":"55011","name":"Buffalo County","state_id":"WI"},{"zip":"54745","fips":"55017","name":"Chippewa County","state_id":"WI"},{"zip":"54745","fips":"55107","name":"Rusk County","state_id":"WI"},{"zip":"54746","fips":"55053","name":"Jackson County","state_id":"WI"},{"zip":"54746","fips":"55019","name":"Clark County","state_id":"WI"},{"zip":"54747","fips":"55121","name":"Trempealeau County","state_id":"WI"},{"zip":"54747","fips":"55011","name":"Buffalo County","state_id":"WI"},{"zip":"54748","fips":"55017","name":"Chippewa County","state_id":"WI"},{"zip":"54749","fips":"55033","name":"Dunn County","state_id":"WI"},{"zip":"54749","fips":"55109","name":"St. Croix County","state_id":"WI"},{"zip":"54750","fips":"55093","name":"Pierce County","state_id":"WI"},{"zip":"54751","fips":"55033","name":"Dunn County","state_id":"WI"},{"zip":"54751","fips":"55109","name":"St. Croix County","state_id":"WI"},{"zip":"54754","fips":"55053","name":"Jackson County","state_id":"WI"},{"zip":"54754","fips":"55019","name":"Clark County","state_id":"WI"},{"zip":"54755","fips":"55011","name":"Buffalo County","state_id":"WI"},{"zip":"54755","fips":"55091","name":"Pepin County","state_id":"WI"},{"zip":"54755","fips":"55035","name":"Eau Claire County","state_id":"WI"},{"zip":"54755","fips":"55033","name":"Dunn County","state_id":"WI"},{"zip":"54755","fips":"55121","name":"Trempealeau County","state_id":"WI"},{"zip":"54756","fips":"55011","name":"Buffalo County","state_id":"WI"},{"zip":"54757","fips":"55005","name":"Barron County","state_id":"WI"},{"zip":"54757","fips":"55107","name":"Rusk County","state_id":"WI"},{"zip":"54757","fips":"55017","name":"Chippewa County","state_id":"WI"},{"zip":"54757","fips":"55033","name":"Dunn County","state_id":"WI"},{"zip":"54758","fips":"55035","name":"Eau Claire County","state_id":"WI"},{"zip":"54758","fips":"55121","name":"Trempealeau County","state_id":"WI"},{"zip":"54758","fips":"55053","name":"Jackson County","state_id":"WI"},{"zip":"54759","fips":"55091","name":"Pepin County","state_id":"WI"},{"zip":"54759","fips":"55093","name":"Pierce County","state_id":"WI"},{"zip":"54760","fips":"55121","name":"Trempealeau County","state_id":"WI"},{"zip":"54761","fips":"55093","name":"Pierce County","state_id":"WI"},{"zip":"54761","fips":"55091","name":"Pepin County","state_id":"WI"},{"zip":"54761","fips":"55033","name":"Dunn County","state_id":"WI"},{"zip":"54762","fips":"55033","name":"Dunn County","state_id":"WI"},{"zip":"54762","fips":"55005","name":"Barron County","state_id":"WI"},{"zip":"54763","fips":"55033","name":"Dunn County","state_id":"WI"},{"zip":"54763","fips":"55005","name":"Barron County","state_id":"WI"},{"zip":"54764","fips":"55033","name":"Dunn County","state_id":"WI"},{"zip":"54765","fips":"55033","name":"Dunn County","state_id":"WI"},{"zip":"54766","fips":"55119","name":"Taylor County","state_id":"WI"},{"zip":"54766","fips":"55107","name":"Rusk County","state_id":"WI"},{"zip":"54766","fips":"55017","name":"Chippewa County","state_id":"WI"},{"zip":"54767","fips":"55093","name":"Pierce County","state_id":"WI"},{"zip":"54767","fips":"55109","name":"St. Croix County","state_id":"WI"},{"zip":"54767","fips":"55033","name":"Dunn County","state_id":"WI"},{"zip":"54768","fips":"55019","name":"Clark County","state_id":"WI"},{"zip":"54768","fips":"55119","name":"Taylor County","state_id":"WI"},{"zip":"54768","fips":"55035","name":"Eau Claire County","state_id":"WI"},{"zip":"54768","fips":"55017","name":"Chippewa County","state_id":"WI"},{"zip":"54769","fips":"55091","name":"Pepin County","state_id":"WI"},{"zip":"54769","fips":"55093","name":"Pierce County","state_id":"WI"},{"zip":"54770","fips":"55121","name":"Trempealeau County","state_id":"WI"},{"zip":"54770","fips":"55035","name":"Eau Claire County","state_id":"WI"},{"zip":"54771","fips":"55119","name":"Taylor County","state_id":"WI"},{"zip":"54771","fips":"55019","name":"Clark County","state_id":"WI"},{"zip":"54772","fips":"55033","name":"Dunn County","state_id":"WI"},{"zip":"54773","fips":"55121","name":"Trempealeau County","state_id":"WI"},{"zip":"54774","fips":"55017","name":"Chippewa County","state_id":"WI"}]
