[{"zip":"54801","fips":"55013","name":"Burnett County","state_id":"WI"},{"zip":"54801","fips":"55129","name":"Washburn County","state_id":"WI"},{"zip":"54805","fips":"55005","name":"Barron County","state_id":"WI"},{"zip":"54806","fips":"55003","name":"Ashland County","state_id":"WI"},{"zip":"54806","fips":"55007","name":"Bayfield County","state_id":"WI"},{"zip":"54810","fips":"55095","name":"Polk County","state_id":"WI"},{"zip":"54812","fips":"55005","name":"Barron County","state_id":"WI"},{"zip":"54813","fips":"55005","name":"Barron County","state_id":"WI"},{"zip":"54813","fips":"55013","name":"Burnett County","state_id":"WI"},{"zip":"54813","fips":"55129","name":"Washburn County","state_id":"WI"},{"zip":"54814","fips":"55007","name":"Bayfield County","state_id":"WI"},{"zip":"54816","fips":"55007","name":"Bayfield County","state_id":"WI"},{"zip":"54817","fips":"55113","name":"Sawyer County","state_id":"WI"},{"zip":"54817","fips":"55005","name":"Barron County","state_id":"WI"},{"zip":"54817","fips":"55129","name":"Washburn County","state_id":"WI"},{"zip":"54817","fips":"55107","name":"Rusk County","state_id":"WI"},{"zip":"54819","fips":"55107","name":"Rusk County","state_id":"WI"},{"zip":"54820","fips":"55007","name":"Bayfield County","state_id":"WI"},{"zip":"54820","fips":"55031","name":"Douglas County","state_id":"WI"},{"zip":"54821","fips":"55007","name":"Bayfield County","state_id":"WI"},{"zip":"54821","fips":"55113","name":"Sawyer County","state_id":"WI"},{"zip":"54822","fips":"55005","name":"Barron County","state_id":"WI"},{"zip":"54824","fips":"55095","name":"Polk County","state_id":"WI"},{"zip":"54826","fips":"55095","name":"Polk County","state_id":"WI"},{"zip":"54826","fips":"55005","name":"Barron County","state_id":"WI"},{"zip":"54827","fips":"55007","name":"Bayfield County","state_id":"WI"},{"zip":"54828","fips":"55113","name":"Sawyer County","state_id":"WI"},{"zip":"54829","fips":"55095","name":"Polk County","state_id":"WI"},{"zip":"54829","fips":"55005","name":"Barron County","state_id":"WI"},{"zip":"54830","fips":"55031","name":"Douglas County","state_id":"WI"},{"zip":"54830","fips":"55013","name":"Burnett County","state_id":"WI"},{"zip":"54830","fips":"55129","name":"Washburn County","state_id":"WI"},{"zip":"54832","fips":"55007","name":"Bayfield County","state_id":"WI"},{"zip":"54835","fips":"55113","name":"Sawyer County","state_id":"WI"},{"zip":"54835","fips":"55107","name":"Rusk County","state_id":"WI"},{"zip":"54836","fips":"55031","name":"Douglas County","state_id":"WI"},{"zip":"54837","fips":"55013","name":"Burnett County","state_id":"WI"},{"zip":"54837","fips":"55095","name":"Polk County","state_id":"WI"},{"zip":"54838","fips":"55007","name":"Bayfield County","state_id":"WI"},{"zip":"54838","fips":"55031","name":"Douglas County","state_id":"WI"},{"zip":"54839","fips":"55007","name":"Bayfield County","state_id":"WI"},{"zip":"54840","fips":"55013","name":"Burnett County","state_id":"WI"},{"zip":"54840","fips":"55095","name":"Polk County","state_id":"WI"},{"zip":"54841","fips":"55005","name":"Barron County","state_id":"WI"},{"zip":"54842","fips":"55031","name":"Douglas County","state_id":"WI"},{"zip":"54843","fips":"55113","name":"Sawyer County","state_id":"WI"},{"zip":"54843","fips":"55129","name":"Washburn County","state_id":"WI"},{"zip":"54844","fips":"55007","name":"Bayfield County","state_id":"WI"},{"zip":"54845","fips":"55013","name":"Burnett County","state_id":"WI"},{"zip":"54846","fips":"55003","name":"Ashland County","state_id":"WI"},{"zip":"54847","fips":"55007","name":"Bayfield County","state_id":"WI"},{"zip":"54848","fips":"55107","name":"Rusk County","state_id":"WI"},{"zip":"54849","fips":"55031","name":"Douglas County","state_id":"WI"},{"zip":"54850","fips":"55003","name":"Ashland County","state_id":"WI"},{"zip":"54853","fips":"55013","name":"Burnett County","state_id":"WI"},{"zip":"54853","fips":"55095","name":"Polk County","state_id":"WI"},{"zip":"54854","fips":"55031","name":"Douglas County","state_id":"WI"},{"zip":"54855","fips":"55003","name":"Ashland County","state_id":"WI"},{"zip":"54856","fips":"55007","name":"Bayfield County","state_id":"WI"},{"zip":"54856","fips":"55003","name":"Ashland County","state_id":"WI"},{"zip":"54857","fips":"55005","name":"Barron County","state_id":"WI"},{"zip":"54858","fips":"55095","name":"Polk County","state_id":"WI"},{"zip":"54859","fips":"55013","name":"Burnett County","state_id":"WI"},{"zip":"54859","fips":"55129","name":"Washburn County","state_id":"WI"},{"zip":"54859","fips":"55031","name":"Douglas County","state_id":"WI"},{"zip":"54861","fips":"55003","name":"Ashland County","state_id":"WI"},{"zip":"54862","fips":"55113","name":"Sawyer County","state_id":"WI"},{"zip":"54864","fips":"55031","name":"Douglas County","state_id":"WI"},{"zip":"54865","fips":"55007","name":"Bayfield County","state_id":"WI"},{"zip":"54867","fips":"55113","name":"Sawyer County","state_id":"WI"},{"zip":"54868","fips":"55107","name":"Rusk County","state_id":"WI"},{"zip":"54868","fips":"55129","name":"Washburn County","state_id":"WI"},{"zip":"54868","fips":"55005","name":"Barron County","state_id":"WI"},{"zip":"54870","fips":"55129","name":"Washburn County","state_id":"WI"},{"zip":"54870","fips":"55005","name":"Barron County","state_id":"WI"},{"zip":"54871","fips":"55013","name":"Burnett County","state_id":"WI"},{"zip":"54871","fips":"55129","name":"Washburn County","state_id":"WI"},{"zip":"54872","fips":"55095","name":"Polk County","state_id":"WI"},{"zip":"54872","fips":"55013","name":"Burnett County","state_id":"WI"},{"zip":"54873","fips":"55007","name":"Bayfield County","state_id":"WI"},{"zip":"54873","fips":"55031","name":"Douglas County","state_id":"WI"},{"zip":"54874","fips":"55031","name":"Douglas County","state_id":"WI"},{"zip":"54875","fips":"55129","name":"Washburn County","state_id":"WI"},{"zip":"54876","fips":"55129","name":"Washburn County","state_id":"WI"},{"zip":"54876","fips":"55113","name":"Sawyer County","state_id":"WI"},{"zip":"54880","fips":"55031","name":"Douglas County","state_id":"WI"},{"zip":"54888","fips":"55129","name":"Washburn County","state_id":"WI"},{"zip":"54889","fips":"55095","name":"Polk County","state_id":"WI"},{"zip":"54889","fips":"55005","name":"Barron County","state_id":"WI"},{"zip":"54890","fips":"55031","name":"Douglas County","state_id":"WI"},{"zip":"54891","fips":"55007","name":"Bayfield County","state_id":"WI"},{"zip":"54893","fips":"55013","name":"Burnett County","state_id":"WI"},{"zip":"54895","fips":"55107","name":"Rusk County","state_id":"WI"},{"zip":"54896","fips":"55113","name":"Sawyer County","state_id":"WI"}]
