[{"zip":"54901","fips":"55139","name":"Winnebago County","state_id":"WI"},{"zip":"54902","fips":"55139","name":"Winnebago County","state_id":"WI"},{"zip":"54903","fips":"55139","name":"Winnebago County","state_id":"WI"},{"zip":"54904","fips":"55139","name":"Winnebago County","state_id":"WI"},{"zip":"54904","fips":"55039","name":"Fond du Lac County","state_id":"WI"},{"zip":"54906","fips":"55139","name":"Winnebago County","state_id":"WI"},{"zip":"54909","fips":"55097","name":"Portage County","state_id":"WI"},{"zip":"54909","fips":"55137","name":"Waushara County","state_id":"WI"},{"zip":"54911","fips":"55087","name":"Outagamie County","state_id":"WI"},{"zip":"54912","fips":"55087","name":"Outagamie County","state_id":"WI"},{"zip":"54913","fips":"55087","name":"Outagamie County","state_id":"WI"},{"zip":"54914","fips":"55087","name":"Outagamie County","state_id":"WI"},{"zip":"54914","fips":"55139","name":"Winnebago County","state_id":"WI"},{"zip":"54915","fips":"55139","name":"Winnebago County","state_id":"WI"},{"zip":"54915","fips":"55015","name":"Calumet County","state_id":"WI"},{"zip":"54915","fips":"55087","name":"Outagamie County","state_id":"WI"},{"zip":"54919","fips":"55087","name":"Outagamie County","state_id":"WI"},{"zip":"54921","fips":"55001","name":"Adams County","state_id":"WI"},{"zip":"54921","fips":"55097","name":"Portage County","state_id":"WI"},{"zip":"54921","fips":"55137","name":"Waushara County","state_id":"WI"},{"zip":"54922","fips":"55087","name":"Outagamie County","state_id":"WI"},{"zip":"54922","fips":"55135","name":"Waupaca County","state_id":"WI"},{"zip":"54923","fips":"55047","name":"Green Lake County","state_id":"WI"},{"zip":"54923","fips":"55139","name":"Winnebago County","state_id":"WI"},{"zip":"54923","fips":"55137","name":"Waushara County","state_id":"WI"},{"zip":"54926","fips":"55135","name":"Waupaca County","state_id":"WI"},{"zip":"54927","fips":"55139","name":"Winnebago County","state_id":"WI"},{"zip":"54928","fips":"55115","name":"Shawano County","state_id":"WI"},{"zip":"54929","fips":"55115","name":"Shawano County","state_id":"WI"},{"zip":"54929","fips":"55135","name":"Waupaca County","state_id":"WI"},{"zip":"54929","fips":"55087","name":"Outagamie County","state_id":"WI"},{"zip":"54930","fips":"55137","name":"Waushara County","state_id":"WI"},{"zip":"54930","fips":"55001","name":"Adams County","state_id":"WI"},{"zip":"54930","fips":"55077","name":"Marquette County","state_id":"WI"},{"zip":"54931","fips":"55087","name":"Outagamie County","state_id":"WI"},{"zip":"54932","fips":"55039","name":"Fond du Lac County","state_id":"WI"},{"zip":"54933","fips":"55135","name":"Waupaca County","state_id":"WI"},{"zip":"54935","fips":"55039","name":"Fond du Lac County","state_id":"WI"},{"zip":"54936","fips":"55039","name":"Fond du Lac County","state_id":"WI"},{"zip":"54937","fips":"55039","name":"Fond du Lac County","state_id":"WI"},{"zip":"54940","fips":"55135","name":"Waupaca County","state_id":"WI"},{"zip":"54940","fips":"55137","name":"Waushara County","state_id":"WI"},{"zip":"54940","fips":"55087","name":"Outagamie County","state_id":"WI"},{"zip":"54940","fips":"55139","name":"Winnebago County","state_id":"WI"},{"zip":"54941","fips":"55047","name":"Green Lake County","state_id":"WI"},{"zip":"54942","fips":"55087","name":"Outagamie County","state_id":"WI"},{"zip":"54943","fips":"55137","name":"Waushara County","state_id":"WI"},{"zip":"54943","fips":"55001","name":"Adams County","state_id":"WI"},{"zip":"54944","fips":"55139","name":"Winnebago County","state_id":"WI"},{"zip":"54944","fips":"55087","name":"Outagamie County","state_id":"WI"},{"zip":"54945","fips":"55097","name":"Portage County","state_id":"WI"},{"zip":"54945","fips":"55135","name":"Waupaca County","state_id":"WI"},{"zip":"54946","fips":"55135","name":"Waupaca County","state_id":"WI"},{"zip":"54947","fips":"55139","name":"Winnebago County","state_id":"WI"},{"zip":"54948","fips":"55115","name":"Shawano County","state_id":"WI"},{"zip":"54949","fips":"55135","name":"Waupaca County","state_id":"WI"},{"zip":"54950","fips":"55135","name":"Waupaca County","state_id":"WI"},{"zip":"54950","fips":"55115","name":"Shawano County","state_id":"WI"},{"zip":"54952","fips":"55139","name":"Winnebago County","state_id":"WI"},{"zip":"54952","fips":"55015","name":"Calumet County","state_id":"WI"},{"zip":"54956","fips":"55139","name":"Winnebago County","state_id":"WI"},{"zip":"54956","fips":"55087","name":"Outagamie County","state_id":"WI"},{"zip":"54957","fips":"55139","name":"Winnebago County","state_id":"WI"},{"zip":"54960","fips":"55077","name":"Marquette County","state_id":"WI"},{"zip":"54960","fips":"55047","name":"Green Lake County","state_id":"WI"},{"zip":"54960","fips":"55137","name":"Waushara County","state_id":"WI"},{"zip":"54961","fips":"55135","name":"Waupaca County","state_id":"WI"},{"zip":"54961","fips":"55087","name":"Outagamie County","state_id":"WI"},{"zip":"54962","fips":"55135","name":"Waupaca County","state_id":"WI"},{"zip":"54963","fips":"55137","name":"Waushara County","state_id":"WI"},{"zip":"54963","fips":"55139","name":"Winnebago County","state_id":"WI"},{"zip":"54964","fips":"55139","name":"Winnebago County","state_id":"WI"},{"zip":"54964","fips":"55039","name":"Fond du Lac County","state_id":"WI"},{"zip":"54965","fips":"55137","name":"Waushara County","state_id":"WI"},{"zip":"54965","fips":"55135","name":"Waupaca County","state_id":"WI"},{"zip":"54966","fips":"55097","name":"Portage County","state_id":"WI"},{"zip":"54966","fips":"55001","name":"Adams County","state_id":"WI"},{"zip":"54966","fips":"55137","name":"Waushara County","state_id":"WI"},{"zip":"54967","fips":"55137","name":"Waushara County","state_id":"WI"},{"zip":"54968","fips":"55047","name":"Green Lake County","state_id":"WI"},{"zip":"54968","fips":"55077","name":"Marquette County","state_id":"WI"},{"zip":"54969","fips":"55135","name":"Waupaca County","state_id":"WI"},{"zip":"54970","fips":"55137","name":"Waushara County","state_id":"WI"},{"zip":"54971","fips":"55039","name":"Fond du Lac County","state_id":"WI"},{"zip":"54971","fips":"55047","name":"Green Lake County","state_id":"WI"},{"zip":"54971","fips":"55139","name":"Winnebago County","state_id":"WI"},{"zip":"54974","fips":"55039","name":"Fond du Lac County","state_id":"WI"},{"zip":"54976","fips":"55137","name":"Waushara County","state_id":"WI"},{"zip":"54977","fips":"55097","name":"Portage County","state_id":"WI"},{"zip":"54977","fips":"55135","name":"Waupaca County","state_id":"WI"},{"zip":"54978","fips":"55115","name":"Shawano County","state_id":"WI"},{"zip":"54979","fips":"55139","name":"Winnebago County","state_id":"WI"},{"zip":"54979","fips":"55039","name":"Fond du Lac County","state_id":"WI"},{"zip":"54980","fips":"55139","name":"Winnebago County","state_id":"WI"},{"zip":"54981","fips":"55137","name":"Waushara County","state_id":"WI"},{"zip":"54981","fips":"55135","name":"Waupaca County","state_id":"WI"},{"zip":"54981","fips":"55097","name":"Portage County","state_id":"WI"},{"zip":"54982","fips":"55137","name":"Waushara County","state_id":"WI"},{"zip":"54982","fips":"55077","name":"Marquette County","state_id":"WI"},{"zip":"54983","fips":"55137","name":"Waushara County","state_id":"WI"},{"zip":"54983","fips":"55135","name":"Waupaca County","state_id":"WI"},{"zip":"54984","fips":"55097","name":"Portage County","state_id":"WI"},{"zip":"54984","fips":"55137","name":"Waushara County","state_id":"WI"},{"zip":"54985","fips":"55139","name":"Winnebago County","state_id":"WI"},{"zip":"54986","fips":"55137","name":"Waushara County","state_id":"WI"},{"zip":"54986","fips":"55139","name":"Winnebago County","state_id":"WI"},{"zip":"54990","fips":"55135","name":"Waupaca County","state_id":"WI"}]
