[{"zip":"55001","fips":"27163","name":"Washington County","state_id":"MN"},{"zip":"55003","fips":"27163","name":"Washington County","state_id":"MN"},{"zip":"55005","fips":"27003","name":"Anoka County","state_id":"MN"},{"zip":"55005","fips":"27059","name":"Isanti County","state_id":"MN"},{"zip":"55006","fips":"27115","name":"Pine County","state_id":"MN"},{"zip":"55006","fips":"27059","name":"Isanti County","state_id":"MN"},{"zip":"55006","fips":"27025","name":"Chisago County","state_id":"MN"},{"zip":"55006","fips":"27065","name":"Kanabec County","state_id":"MN"},{"zip":"55007","fips":"27065","name":"Kanabec County","state_id":"MN"},{"zip":"55007","fips":"27115","name":"Pine County","state_id":"MN"},{"zip":"55008","fips":"27059","name":"Isanti County","state_id":"MN"},{"zip":"55008","fips":"27025","name":"Chisago County","state_id":"MN"},{"zip":"55009","fips":"27049","name":"Goodhue County","state_id":"MN"},{"zip":"55009","fips":"27037","name":"Dakota County","state_id":"MN"},{"zip":"55010","fips":"27037","name":"Dakota County","state_id":"MN"},{"zip":"55011","fips":"27003","name":"Anoka County","state_id":"MN"},{"zip":"55012","fips":"27025","name":"Chisago County","state_id":"MN"},{"zip":"55013","fips":"27163","name":"Washington County","state_id":"MN"},{"zip":"55013","fips":"27025","name":"Chisago County","state_id":"MN"},{"zip":"55014","fips":"27003","name":"Anoka County","state_id":"MN"},{"zip":"55016","fips":"27163","name":"Washington County","state_id":"MN"},{"zip":"55017","fips":"27059","name":"Isanti County","state_id":"MN"},{"zip":"55018","fips":"27131","name":"Rice County","state_id":"MN"},{"zip":"55018","fips":"27037","name":"Dakota County","state_id":"MN"},{"zip":"55018","fips":"27049","name":"Goodhue County","state_id":"MN"},{"zip":"55019","fips":"27131","name":"Rice County","state_id":"MN"},{"zip":"55020","fips":"27131","name":"Rice County","state_id":"MN"},{"zip":"55020","fips":"27139","name":"Scott County","state_id":"MN"},{"zip":"55021","fips":"27147","name":"Steele County","state_id":"MN"},{"zip":"55021","fips":"27131","name":"Rice County","state_id":"MN"},{"zip":"55024","fips":"27037","name":"Dakota County","state_id":"MN"},{"zip":"55025","fips":"27025","name":"Chisago County","state_id":"MN"},{"zip":"55025","fips":"27163","name":"Washington County","state_id":"MN"},{"zip":"55025","fips":"27003","name":"Anoka County","state_id":"MN"},{"zip":"55026","fips":"27049","name":"Goodhue County","state_id":"MN"},{"zip":"55027","fips":"27157","name":"Wabasha County","state_id":"MN"},{"zip":"55027","fips":"27049","name":"Goodhue County","state_id":"MN"},{"zip":"55029","fips":"27059","name":"Isanti County","state_id":"MN"},{"zip":"55030","fips":"27065","name":"Kanabec County","state_id":"MN"},{"zip":"55030","fips":"27115","name":"Pine County","state_id":"MN"},{"zip":"55031","fips":"27037","name":"Dakota County","state_id":"MN"},{"zip":"55032","fips":"27025","name":"Chisago County","state_id":"MN"},{"zip":"55032","fips":"27059","name":"Isanti County","state_id":"MN"},{"zip":"55033","fips":"27163","name":"Washington County","state_id":"MN"},{"zip":"55033","fips":"27037","name":"Dakota County","state_id":"MN"},{"zip":"55033","fips":"27049","name":"Goodhue County","state_id":"MN"},{"zip":"55036","fips":"27115","name":"Pine County","state_id":"MN"},{"zip":"55037","fips":"27115","name":"Pine County","state_id":"MN"},{"zip":"55037","fips":"27065","name":"Kanabec County","state_id":"MN"},{"zip":"55038","fips":"27003","name":"Anoka County","state_id":"MN"},{"zip":"55038","fips":"27123","name":"Ramsey County","state_id":"MN"},{"zip":"55038","fips":"27163","name":"Washington County","state_id":"MN"},{"zip":"55040","fips":"27059","name":"Isanti County","state_id":"MN"},{"zip":"55040","fips":"27003","name":"Anoka County","state_id":"MN"},{"zip":"55041","fips":"27049","name":"Goodhue County","state_id":"MN"},{"zip":"55041","fips":"27157","name":"Wabasha County","state_id":"MN"},{"zip":"55042","fips":"27163","name":"Washington County","state_id":"MN"},{"zip":"55043","fips":"27163","name":"Washington County","state_id":"MN"},{"zip":"55044","fips":"27037","name":"Dakota County","state_id":"MN"},{"zip":"55044","fips":"27139","name":"Scott County","state_id":"MN"},{"zip":"55045","fips":"27025","name":"Chisago County","state_id":"MN"},{"zip":"55046","fips":"27131","name":"Rice County","state_id":"MN"},{"zip":"55047","fips":"27163","name":"Washington County","state_id":"MN"},{"zip":"55049","fips":"27147","name":"Steele County","state_id":"MN"},{"zip":"55049","fips":"27131","name":"Rice County","state_id":"MN"},{"zip":"55051","fips":"27065","name":"Kanabec County","state_id":"MN"},{"zip":"55051","fips":"27095","name":"Mille Lacs County","state_id":"MN"},{"zip":"55051","fips":"27115","name":"Pine County","state_id":"MN"},{"zip":"55052","fips":"27147","name":"Steele County","state_id":"MN"},{"zip":"55052","fips":"27131","name":"Rice County","state_id":"MN"},{"zip":"55052","fips":"27161","name":"Waseca County","state_id":"MN"},{"zip":"55053","fips":"27131","name":"Rice County","state_id":"MN"},{"zip":"55053","fips":"27049","name":"Goodhue County","state_id":"MN"},{"zip":"55054","fips":"27139","name":"Scott County","state_id":"MN"},{"zip":"55055","fips":"27163","name":"Washington County","state_id":"MN"},{"zip":"55056","fips":"27059","name":"Isanti County","state_id":"MN"},{"zip":"55056","fips":"27025","name":"Chisago County","state_id":"MN"},{"zip":"55057","fips":"27131","name":"Rice County","state_id":"MN"},{"zip":"55057","fips":"27037","name":"Dakota County","state_id":"MN"},{"zip":"55057","fips":"27049","name":"Goodhue County","state_id":"MN"},{"zip":"55060","fips":"27147","name":"Steele County","state_id":"MN"},{"zip":"55063","fips":"27115","name":"Pine County","state_id":"MN"},{"zip":"55065","fips":"27037","name":"Dakota County","state_id":"MN"},{"zip":"55065","fips":"27049","name":"Goodhue County","state_id":"MN"},{"zip":"55066","fips":"27049","name":"Goodhue County","state_id":"MN"},{"zip":"55068","fips":"27037","name":"Dakota County","state_id":"MN"},{"zip":"55069","fips":"27115","name":"Pine County","state_id":"MN"},{"zip":"55069","fips":"27025","name":"Chisago County","state_id":"MN"},{"zip":"55070","fips":"27003","name":"Anoka County","state_id":"MN"},{"zip":"55070","fips":"27059","name":"Isanti County","state_id":"MN"},{"zip":"55071","fips":"27163","name":"Washington County","state_id":"MN"},{"zip":"55072","fips":"27115","name":"Pine County","state_id":"MN"},{"zip":"55072","fips":"27065","name":"Kanabec County","state_id":"MN"},{"zip":"55072","fips":"27001","name":"Aitkin County","state_id":"MN"},{"zip":"55073","fips":"27163","name":"Washington County","state_id":"MN"},{"zip":"55073","fips":"27025","name":"Chisago County","state_id":"MN"},{"zip":"55074","fips":"27025","name":"Chisago County","state_id":"MN"},{"zip":"55075","fips":"27037","name":"Dakota County","state_id":"MN"},{"zip":"55076","fips":"27037","name":"Dakota County","state_id":"MN"},{"zip":"55077","fips":"27037","name":"Dakota County","state_id":"MN"},{"zip":"55079","fips":"27059","name":"Isanti County","state_id":"MN"},{"zip":"55079","fips":"27003","name":"Anoka County","state_id":"MN"},{"zip":"55079","fips":"27025","name":"Chisago County","state_id":"MN"},{"zip":"55080","fips":"27059","name":"Isanti County","state_id":"MN"},{"zip":"55080","fips":"27025","name":"Chisago County","state_id":"MN"},{"zip":"55082","fips":"27163","name":"Washington County","state_id":"MN"},{"zip":"55083","fips":"27163","name":"Washington County","state_id":"MN"},{"zip":"55084","fips":"27025","name":"Chisago County","state_id":"MN"},{"zip":"55085","fips":"27037","name":"Dakota County","state_id":"MN"},{"zip":"55087","fips":"27131","name":"Rice County","state_id":"MN"},{"zip":"55088","fips":"27139","name":"Scott County","state_id":"MN"},{"zip":"55088","fips":"27131","name":"Rice County","state_id":"MN"},{"zip":"55089","fips":"27037","name":"Dakota County","state_id":"MN"},{"zip":"55089","fips":"27049","name":"Goodhue County","state_id":"MN"},{"zip":"55090","fips":"27163","name":"Washington County","state_id":"MN"},{"zip":"55092","fips":"27025","name":"Chisago County","state_id":"MN"},{"zip":"55092","fips":"27003","name":"Anoka County","state_id":"MN"}]
