[{"zip":"55101","fips":"27123","name":"Ramsey County","state_id":"MN"},{"zip":"55102","fips":"27123","name":"Ramsey County","state_id":"MN"},{"zip":"55103","fips":"27123","name":"Ramsey County","state_id":"MN"},{"zip":"55104","fips":"27123","name":"Ramsey County","state_id":"MN"},{"zip":"55105","fips":"27123","name":"Ramsey County","state_id":"MN"},{"zip":"55106","fips":"27123","name":"Ramsey County","state_id":"MN"},{"zip":"55107","fips":"27123","name":"Ramsey County","state_id":"MN"},{"zip":"55107","fips":"27053","name":"Hennepin County","state_id":"MN"},{"zip":"55108","fips":"27123","name":"Ramsey County","state_id":"MN"},{"zip":"55109","fips":"27037","name":"Dakota County","state_id":"MN"},{"zip":"55109","fips":"27123","name":"Ramsey County","state_id":"MN"},{"zip":"55109","fips":"27163","name":"Washington County","state_id":"MN"},{"zip":"55110","fips":"27123","name":"Ramsey County","state_id":"MN"},{"zip":"55110","fips":"27163","name":"Washington County","state_id":"MN"},{"zip":"55110","fips":"27003","name":"Anoka County","state_id":"MN"},{"zip":"55111","fips":"27053","name":"Hennepin County","state_id":"MN"},{"zip":"55112","fips":"27003","name":"Anoka County","state_id":"MN"},{"zip":"55112","fips":"27123","name":"Ramsey County","state_id":"MN"},{"zip":"55113","fips":"27123","name":"Ramsey County","state_id":"MN"},{"zip":"55113","fips":"27053","name":"Hennepin County","state_id":"MN"},{"zip":"55114","fips":"27123","name":"Ramsey County","state_id":"MN"},{"zip":"55115","fips":"27163","name":"Washington County","state_id":"MN"},{"zip":"55116","fips":"27123","name":"Ramsey County","state_id":"MN"},{"zip":"55117","fips":"27123","name":"Ramsey County","state_id":"MN"},{"zip":"55118","fips":"27123","name":"Ramsey County","state_id":"MN"},{"zip":"55118","fips":"27037","name":"Dakota County","state_id":"MN"},{"zip":"55119","fips":"27163","name":"Washington County","state_id":"MN"},{"zip":"55119","fips":"27123","name":"Ramsey County","state_id":"MN"},{"zip":"55120","fips":"27037","name":"Dakota County","state_id":"MN"},{"zip":"55121","fips":"27037","name":"Dakota County","state_id":"MN"},{"zip":"55122","fips":"27037","name":"Dakota County","state_id":"MN"},{"zip":"55123","fips":"27037","name":"Dakota County","state_id":"MN"},{"zip":"55124","fips":"27037","name":"Dakota County","state_id":"MN"},{"zip":"55125","fips":"27123","name":"Ramsey County","state_id":"MN"},{"zip":"55125","fips":"27163","name":"Washington County","state_id":"MN"},{"zip":"55126","fips":"27003","name":"Anoka County","state_id":"MN"},{"zip":"55126","fips":"27123","name":"Ramsey County","state_id":"MN"},{"zip":"55127","fips":"27123","name":"Ramsey County","state_id":"MN"},{"zip":"55128","fips":"27123","name":"Ramsey County","state_id":"MN"},{"zip":"55128","fips":"27163","name":"Washington County","state_id":"MN"},{"zip":"55129","fips":"27163","name":"Washington County","state_id":"MN"},{"zip":"55130","fips":"27123","name":"Ramsey County","state_id":"MN"},{"zip":"55144","fips":"27123","name":"Ramsey County","state_id":"MN"},{"zip":"55146","fips":"27123","name":"Ramsey County","state_id":"MN"},{"zip":"55150","fips":"27037","name":"Dakota County","state_id":"MN"},{"zip":"55155","fips":"27123","name":"Ramsey County","state_id":"MN"}]
