[{"zip":"55301","fips":"27171","name":"Wright County","state_id":"MN"},{"zip":"55302","fips":"27171","name":"Wright County","state_id":"MN"},{"zip":"55303","fips":"27003","name":"Anoka County","state_id":"MN"},{"zip":"55304","fips":"27003","name":"Anoka County","state_id":"MN"},{"zip":"55305","fips":"27053","name":"Hennepin County","state_id":"MN"},{"zip":"55306","fips":"27037","name":"Dakota County","state_id":"MN"},{"zip":"55307","fips":"27143","name":"Sibley County","state_id":"MN"},{"zip":"55308","fips":"27141","name":"Sherburne County","state_id":"MN"},{"zip":"55309","fips":"27141","name":"Sherburne County","state_id":"MN"},{"zip":"55310","fips":"27129","name":"Renville County","state_id":"MN"},{"zip":"55311","fips":"27053","name":"Hennepin County","state_id":"MN"},{"zip":"55312","fips":"27085","name":"McLeod County","state_id":"MN"},{"zip":"55312","fips":"27143","name":"Sibley County","state_id":"MN"},{"zip":"55313","fips":"27171","name":"Wright County","state_id":"MN"},{"zip":"55314","fips":"27129","name":"Renville County","state_id":"MN"},{"zip":"55314","fips":"27143","name":"Sibley County","state_id":"MN"},{"zip":"55315","fips":"27019","name":"Carver County","state_id":"MN"},{"zip":"55316","fips":"27053","name":"Hennepin County","state_id":"MN"},{"zip":"55317","fips":"27019","name":"Carver County","state_id":"MN"},{"zip":"55317","fips":"27053","name":"Hennepin County","state_id":"MN"},{"zip":"55318","fips":"27019","name":"Carver County","state_id":"MN"},{"zip":"55319","fips":"27141","name":"Sherburne County","state_id":"MN"},{"zip":"55320","fips":"27171","name":"Wright County","state_id":"MN"},{"zip":"55320","fips":"27145","name":"Stearns County","state_id":"MN"},{"zip":"55321","fips":"27171","name":"Wright County","state_id":"MN"},{"zip":"55321","fips":"27093","name":"Meeker County","state_id":"MN"},{"zip":"55321","fips":"27085","name":"McLeod County","state_id":"MN"},{"zip":"55322","fips":"27019","name":"Carver County","state_id":"MN"},{"zip":"55323","fips":"27053","name":"Hennepin County","state_id":"MN"},{"zip":"55324","fips":"27093","name":"Meeker County","state_id":"MN"},{"zip":"55325","fips":"27171","name":"Wright County","state_id":"MN"},{"zip":"55325","fips":"27093","name":"Meeker County","state_id":"MN"},{"zip":"55327","fips":"27053","name":"Hennepin County","state_id":"MN"},{"zip":"55327","fips":"27171","name":"Wright County","state_id":"MN"},{"zip":"55328","fips":"27171","name":"Wright County","state_id":"MN"},{"zip":"55328","fips":"27053","name":"Hennepin County","state_id":"MN"},{"zip":"55328","fips":"27019","name":"Carver County","state_id":"MN"},{"zip":"55329","fips":"27093","name":"Meeker County","state_id":"MN"},{"zip":"55329","fips":"27145","name":"Stearns County","state_id":"MN"},{"zip":"55330","fips":"27003","name":"Anoka County","state_id":"MN"},{"zip":"55330","fips":"27171","name":"Wright County","state_id":"MN"},{"zip":"55330","fips":"27141","name":"Sherburne County","state_id":"MN"},{"zip":"55331","fips":"27053","name":"Hennepin County","state_id":"MN"},{"zip":"55331","fips":"27019","name":"Carver County","state_id":"MN"},{"zip":"55332","fips":"27103","name":"Nicollet County","state_id":"MN"},{"zip":"55332","fips":"27143","name":"Sibley County","state_id":"MN"},{"zip":"55332","fips":"27129","name":"Renville County","state_id":"MN"},{"zip":"55333","fips":"27015","name":"Brown County","state_id":"MN"},{"zip":"55333","fips":"27127","name":"Redwood County","state_id":"MN"},{"zip":"55333","fips":"27129","name":"Renville County","state_id":"MN"},{"zip":"55334","fips":"27143","name":"Sibley County","state_id":"MN"},{"zip":"55334","fips":"27103","name":"Nicollet County","state_id":"MN"},{"zip":"55335","fips":"27103","name":"Nicollet County","state_id":"MN"},{"zip":"55335","fips":"27143","name":"Sibley County","state_id":"MN"},{"zip":"55335","fips":"27085","name":"McLeod County","state_id":"MN"},{"zip":"55336","fips":"27143","name":"Sibley County","state_id":"MN"},{"zip":"55336","fips":"27085","name":"McLeod County","state_id":"MN"},{"zip":"55337","fips":"27037","name":"Dakota County","state_id":"MN"},{"zip":"55337","fips":"27139","name":"Scott County","state_id":"MN"},{"zip":"55338","fips":"27019","name":"Carver County","state_id":"MN"},{"zip":"55338","fips":"27085","name":"McLeod County","state_id":"MN"},{"zip":"55338","fips":"27143","name":"Sibley County","state_id":"MN"},{"zip":"55339","fips":"27019","name":"Carver County","state_id":"MN"},{"zip":"55339","fips":"27085","name":"McLeod County","state_id":"MN"},{"zip":"55339","fips":"27143","name":"Sibley County","state_id":"MN"},{"zip":"55340","fips":"27053","name":"Hennepin County","state_id":"MN"},{"zip":"55341","fips":"27171","name":"Wright County","state_id":"MN"},{"zip":"55341","fips":"27053","name":"Hennepin County","state_id":"MN"},{"zip":"55342","fips":"27093","name":"Meeker County","state_id":"MN"},{"zip":"55342","fips":"27129","name":"Renville County","state_id":"MN"},{"zip":"55343","fips":"27053","name":"Hennepin County","state_id":"MN"},{"zip":"55344","fips":"27053","name":"Hennepin County","state_id":"MN"},{"zip":"55345","fips":"27053","name":"Hennepin County","state_id":"MN"},{"zip":"55346","fips":"27053","name":"Hennepin County","state_id":"MN"},{"zip":"55347","fips":"27053","name":"Hennepin County","state_id":"MN"},{"zip":"55349","fips":"27171","name":"Wright County","state_id":"MN"},{"zip":"55350","fips":"27085","name":"McLeod County","state_id":"MN"},{"zip":"55350","fips":"27129","name":"Renville County","state_id":"MN"},{"zip":"55350","fips":"27093","name":"Meeker County","state_id":"MN"},{"zip":"55352","fips":"27139","name":"Scott County","state_id":"MN"},{"zip":"55353","fips":"27145","name":"Stearns County","state_id":"MN"},{"zip":"55353","fips":"27093","name":"Meeker County","state_id":"MN"},{"zip":"55354","fips":"27085","name":"McLeod County","state_id":"MN"},{"zip":"55355","fips":"27093","name":"Meeker County","state_id":"MN"},{"zip":"55355","fips":"27085","name":"McLeod County","state_id":"MN"},{"zip":"55356","fips":"27053","name":"Hennepin County","state_id":"MN"},{"zip":"55357","fips":"27053","name":"Hennepin County","state_id":"MN"},{"zip":"55358","fips":"27171","name":"Wright County","state_id":"MN"},{"zip":"55359","fips":"27053","name":"Hennepin County","state_id":"MN"},{"zip":"55360","fips":"27019","name":"Carver County","state_id":"MN"},{"zip":"55361","fips":"27053","name":"Hennepin County","state_id":"MN"},{"zip":"55362","fips":"27171","name":"Wright County","state_id":"MN"},{"zip":"55363","fips":"27019","name":"Carver County","state_id":"MN"},{"zip":"55363","fips":"27171","name":"Wright County","state_id":"MN"},{"zip":"55364","fips":"27053","name":"Hennepin County","state_id":"MN"},{"zip":"55366","fips":"27143","name":"Sibley County","state_id":"MN"},{"zip":"55367","fips":"27019","name":"Carver County","state_id":"MN"},{"zip":"55367","fips":"27085","name":"McLeod County","state_id":"MN"},{"zip":"55368","fips":"27019","name":"Carver County","state_id":"MN"},{"zip":"55368","fips":"27085","name":"McLeod County","state_id":"MN"},{"zip":"55369","fips":"27053","name":"Hennepin County","state_id":"MN"},{"zip":"55370","fips":"27085","name":"McLeod County","state_id":"MN"},{"zip":"55371","fips":"27059","name":"Isanti County","state_id":"MN"},{"zip":"55371","fips":"27141","name":"Sherburne County","state_id":"MN"},{"zip":"55371","fips":"27095","name":"Mille Lacs County","state_id":"MN"},{"zip":"55371","fips":"27009","name":"Benton County","state_id":"MN"},{"zip":"55372","fips":"27139","name":"Scott County","state_id":"MN"},{"zip":"55372","fips":"27037","name":"Dakota County","state_id":"MN"},{"zip":"55373","fips":"27053","name":"Hennepin County","state_id":"MN"},{"zip":"55373","fips":"27171","name":"Wright County","state_id":"MN"},{"zip":"55374","fips":"27171","name":"Wright County","state_id":"MN"},{"zip":"55374","fips":"27053","name":"Hennepin County","state_id":"MN"},{"zip":"55375","fips":"27019","name":"Carver County","state_id":"MN"},{"zip":"55375","fips":"27053","name":"Hennepin County","state_id":"MN"},{"zip":"55376","fips":"27171","name":"Wright County","state_id":"MN"},{"zip":"55377","fips":"27141","name":"Sherburne County","state_id":"MN"},{"zip":"55378","fips":"27037","name":"Dakota County","state_id":"MN"},{"zip":"55378","fips":"27139","name":"Scott County","state_id":"MN"},{"zip":"55379","fips":"27139","name":"Scott County","state_id":"MN"},{"zip":"55381","fips":"27171","name":"Wright County","state_id":"MN"},{"zip":"55381","fips":"27085","name":"McLeod County","state_id":"MN"},{"zip":"55382","fips":"27171","name":"Wright County","state_id":"MN"},{"zip":"55382","fips":"27093","name":"Meeker County","state_id":"MN"},{"zip":"55382","fips":"27145","name":"Stearns County","state_id":"MN"},{"zip":"55384","fips":"27053","name":"Hennepin County","state_id":"MN"},{"zip":"55385","fips":"27143","name":"Sibley County","state_id":"MN"},{"zip":"55385","fips":"27129","name":"Renville County","state_id":"MN"},{"zip":"55385","fips":"27085","name":"McLeod County","state_id":"MN"},{"zip":"55386","fips":"27019","name":"Carver County","state_id":"MN"},{"zip":"55386","fips":"27053","name":"Hennepin County","state_id":"MN"},{"zip":"55387","fips":"27053","name":"Hennepin County","state_id":"MN"},{"zip":"55387","fips":"27019","name":"Carver County","state_id":"MN"},{"zip":"55388","fips":"27019","name":"Carver County","state_id":"MN"},{"zip":"55388","fips":"27171","name":"Wright County","state_id":"MN"},{"zip":"55388","fips":"27053","name":"Hennepin County","state_id":"MN"},{"zip":"55389","fips":"27145","name":"Stearns County","state_id":"MN"},{"zip":"55389","fips":"27093","name":"Meeker County","state_id":"MN"},{"zip":"55390","fips":"27171","name":"Wright County","state_id":"MN"},{"zip":"55391","fips":"27053","name":"Hennepin County","state_id":"MN"},{"zip":"55395","fips":"27019","name":"Carver County","state_id":"MN"},{"zip":"55395","fips":"27171","name":"Wright County","state_id":"MN"},{"zip":"55395","fips":"27085","name":"McLeod County","state_id":"MN"},{"zip":"55396","fips":"27143","name":"Sibley County","state_id":"MN"},{"zip":"55396","fips":"27085","name":"McLeod County","state_id":"MN"},{"zip":"55397","fips":"27019","name":"Carver County","state_id":"MN"},{"zip":"55397","fips":"27085","name":"McLeod County","state_id":"MN"},{"zip":"55398","fips":"27059","name":"Isanti County","state_id":"MN"},{"zip":"55398","fips":"27003","name":"Anoka County","state_id":"MN"},{"zip":"55398","fips":"27141","name":"Sherburne County","state_id":"MN"}]
