[{"zip":"55401","fips":"27053","name":"Hennepin County","state_id":"MN"},{"zip":"55402","fips":"27053","name":"Hennepin County","state_id":"MN"},{"zip":"55403","fips":"27053","name":"Hennepin County","state_id":"MN"},{"zip":"55404","fips":"27053","name":"Hennepin County","state_id":"MN"},{"zip":"55405","fips":"27053","name":"Hennepin County","state_id":"MN"},{"zip":"55406","fips":"27053","name":"Hennepin County","state_id":"MN"},{"zip":"55407","fips":"27053","name":"Hennepin County","state_id":"MN"},{"zip":"55408","fips":"27053","name":"Hennepin County","state_id":"MN"},{"zip":"55409","fips":"27053","name":"Hennepin County","state_id":"MN"},{"zip":"55410","fips":"27053","name":"Hennepin County","state_id":"MN"},{"zip":"55411","fips":"27053","name":"Hennepin County","state_id":"MN"},{"zip":"55412","fips":"27053","name":"Hennepin County","state_id":"MN"},{"zip":"55413","fips":"27053","name":"Hennepin County","state_id":"MN"},{"zip":"55414","fips":"27053","name":"Hennepin County","state_id":"MN"},{"zip":"55415","fips":"27053","name":"Hennepin County","state_id":"MN"},{"zip":"55416","fips":"27053","name":"Hennepin County","state_id":"MN"},{"zip":"55417","fips":"27053","name":"Hennepin County","state_id":"MN"},{"zip":"55418","fips":"27123","name":"Ramsey County","state_id":"MN"},{"zip":"55418","fips":"27053","name":"Hennepin County","state_id":"MN"},{"zip":"55419","fips":"27053","name":"Hennepin County","state_id":"MN"},{"zip":"55420","fips":"27053","name":"Hennepin County","state_id":"MN"},{"zip":"55421","fips":"27003","name":"Anoka County","state_id":"MN"},{"zip":"55421","fips":"27053","name":"Hennepin County","state_id":"MN"},{"zip":"55421","fips":"27123","name":"Ramsey County","state_id":"MN"},{"zip":"55422","fips":"27053","name":"Hennepin County","state_id":"MN"},{"zip":"55423","fips":"27053","name":"Hennepin County","state_id":"MN"},{"zip":"55424","fips":"27053","name":"Hennepin County","state_id":"MN"},{"zip":"55425","fips":"27053","name":"Hennepin County","state_id":"MN"},{"zip":"55426","fips":"27053","name":"Hennepin County","state_id":"MN"},{"zip":"55427","fips":"27053","name":"Hennepin County","state_id":"MN"},{"zip":"55428","fips":"27053","name":"Hennepin County","state_id":"MN"},{"zip":"55429","fips":"27053","name":"Hennepin County","state_id":"MN"},{"zip":"55430","fips":"27053","name":"Hennepin County","state_id":"MN"},{"zip":"55431","fips":"27053","name":"Hennepin County","state_id":"MN"},{"zip":"55432","fips":"27123","name":"Ramsey County","state_id":"MN"},{"zip":"55432","fips":"27003","name":"Anoka County","state_id":"MN"},{"zip":"55433","fips":"27003","name":"Anoka County","state_id":"MN"},{"zip":"55434","fips":"27003","name":"Anoka County","state_id":"MN"},{"zip":"55435","fips":"27053","name":"Hennepin County","state_id":"MN"},{"zip":"55436","fips":"27053","name":"Hennepin County","state_id":"MN"},{"zip":"55437","fips":"27053","name":"Hennepin County","state_id":"MN"},{"zip":"55438","fips":"27053","name":"Hennepin County","state_id":"MN"},{"zip":"55439","fips":"27053","name":"Hennepin County","state_id":"MN"},{"zip":"55440","fips":"27053","name":"Hennepin County","state_id":"MN"},{"zip":"55441","fips":"27053","name":"Hennepin County","state_id":"MN"},{"zip":"55442","fips":"27053","name":"Hennepin County","state_id":"MN"},{"zip":"55443","fips":"27053","name":"Hennepin County","state_id":"MN"},{"zip":"55444","fips":"27053","name":"Hennepin County","state_id":"MN"},{"zip":"55445","fips":"27053","name":"Hennepin County","state_id":"MN"},{"zip":"55446","fips":"27053","name":"Hennepin County","state_id":"MN"},{"zip":"55447","fips":"27053","name":"Hennepin County","state_id":"MN"},{"zip":"55448","fips":"27003","name":"Anoka County","state_id":"MN"},{"zip":"55449","fips":"27123","name":"Ramsey County","state_id":"MN"},{"zip":"55449","fips":"27003","name":"Anoka County","state_id":"MN"},{"zip":"55450","fips":"27053","name":"Hennepin County","state_id":"MN"},{"zip":"55454","fips":"27053","name":"Hennepin County","state_id":"MN"},{"zip":"55455","fips":"27053","name":"Hennepin County","state_id":"MN"},{"zip":"55458","fips":"27053","name":"Hennepin County","state_id":"MN"},{"zip":"55467","fips":"27053","name":"Hennepin County","state_id":"MN"},{"zip":"55474","fips":"27053","name":"Hennepin County","state_id":"MN"},{"zip":"55479","fips":"27053","name":"Hennepin County","state_id":"MN"},{"zip":"55480","fips":"27053","name":"Hennepin County","state_id":"MN"},{"zip":"55487","fips":"27053","name":"Hennepin County","state_id":"MN"},{"zip":"55488","fips":"27053","name":"Hennepin County","state_id":"MN"}]
