[{"zip":"55601","fips":"27075","name":"Lake County","state_id":"MN"},{"zip":"55602","fips":"27137","name":"St. Louis County","state_id":"MN"},{"zip":"55602","fips":"27075","name":"Lake County","state_id":"MN"},{"zip":"55603","fips":"27075","name":"Lake County","state_id":"MN"},{"zip":"55604","fips":"27031","name":"Cook County","state_id":"MN"},{"zip":"55605","fips":"27031","name":"Cook County","state_id":"MN"},{"zip":"55606","fips":"27031","name":"Cook County","state_id":"MN"},{"zip":"55607","fips":"27075","name":"Lake County","state_id":"MN"},{"zip":"55609","fips":"27075","name":"Lake County","state_id":"MN"},{"zip":"55612","fips":"27031","name":"Cook County","state_id":"MN"},{"zip":"55613","fips":"27031","name":"Cook County","state_id":"MN"},{"zip":"55614","fips":"27075","name":"Lake County","state_id":"MN"},{"zip":"55615","fips":"27031","name":"Cook County","state_id":"MN"},{"zip":"55616","fips":"27137","name":"St. Louis County","state_id":"MN"},{"zip":"55616","fips":"27075","name":"Lake County","state_id":"MN"}]
