[{"zip":"55702","fips":"27137","name":"St. Louis County","state_id":"MN"},{"zip":"55703","fips":"27137","name":"St. Louis County","state_id":"MN"},{"zip":"55704","fips":"27115","name":"Pine County","state_id":"MN"},{"zip":"55705","fips":"27137","name":"St. Louis County","state_id":"MN"},{"zip":"55706","fips":"27137","name":"St. Louis County","state_id":"MN"},{"zip":"55707","fips":"27017","name":"Carlton County","state_id":"MN"},{"zip":"55708","fips":"27137","name":"St. Louis County","state_id":"MN"},{"zip":"55709","fips":"27061","name":"Itasca County","state_id":"MN"},{"zip":"55710","fips":"27137","name":"St. Louis County","state_id":"MN"},{"zip":"55711","fips":"27137","name":"St. Louis County","state_id":"MN"},{"zip":"55712","fips":"27115","name":"Pine County","state_id":"MN"},{"zip":"55713","fips":"27137","name":"St. Louis County","state_id":"MN"},{"zip":"55716","fips":"27061","name":"Itasca County","state_id":"MN"},{"zip":"55717","fips":"27137","name":"St. Louis County","state_id":"MN"},{"zip":"55718","fips":"27017","name":"Carlton County","state_id":"MN"},{"zip":"55719","fips":"27137","name":"St. Louis County","state_id":"MN"},{"zip":"55720","fips":"27137","name":"St. Louis County","state_id":"MN"},{"zip":"55720","fips":"27017","name":"Carlton County","state_id":"MN"},{"zip":"55721","fips":"27061","name":"Itasca County","state_id":"MN"},{"zip":"55722","fips":"27061","name":"Itasca County","state_id":"MN"},{"zip":"55723","fips":"27137","name":"St. Louis County","state_id":"MN"},{"zip":"55723","fips":"27061","name":"Itasca County","state_id":"MN"},{"zip":"55724","fips":"27137","name":"St. Louis County","state_id":"MN"},{"zip":"55725","fips":"27137","name":"St. Louis County","state_id":"MN"},{"zip":"55726","fips":"27017","name":"Carlton County","state_id":"MN"},{"zip":"55731","fips":"27137","name":"St. Louis County","state_id":"MN"},{"zip":"55731","fips":"27075","name":"Lake County","state_id":"MN"},{"zip":"55732","fips":"27137","name":"St. Louis County","state_id":"MN"},{"zip":"55733","fips":"27017","name":"Carlton County","state_id":"MN"},{"zip":"55733","fips":"27137","name":"St. Louis County","state_id":"MN"},{"zip":"55734","fips":"27137","name":"St. Louis County","state_id":"MN"},{"zip":"55735","fips":"27115","name":"Pine County","state_id":"MN"},{"zip":"55735","fips":"27001","name":"Aitkin County","state_id":"MN"},{"zip":"55736","fips":"27017","name":"Carlton County","state_id":"MN"},{"zip":"55736","fips":"27137","name":"St. Louis County","state_id":"MN"},{"zip":"55736","fips":"27061","name":"Itasca County","state_id":"MN"},{"zip":"55738","fips":"27137","name":"St. Louis County","state_id":"MN"},{"zip":"55741","fips":"27137","name":"St. Louis County","state_id":"MN"},{"zip":"55742","fips":"27061","name":"Itasca County","state_id":"MN"},{"zip":"55744","fips":"27061","name":"Itasca County","state_id":"MN"},{"zip":"55745","fips":"27061","name":"Itasca County","state_id":"MN"},{"zip":"55746","fips":"27061","name":"Itasca County","state_id":"MN"},{"zip":"55746","fips":"27137","name":"St. Louis County","state_id":"MN"},{"zip":"55748","fips":"27001","name":"Aitkin County","state_id":"MN"},{"zip":"55748","fips":"27061","name":"Itasca County","state_id":"MN"},{"zip":"55749","fips":"27115","name":"Pine County","state_id":"MN"},{"zip":"55749","fips":"27017","name":"Carlton County","state_id":"MN"},{"zip":"55750","fips":"27137","name":"St. Louis County","state_id":"MN"},{"zip":"55751","fips":"27137","name":"St. Louis County","state_id":"MN"},{"zip":"55752","fips":"27001","name":"Aitkin County","state_id":"MN"},{"zip":"55752","fips":"27061","name":"Itasca County","state_id":"MN"},{"zip":"55753","fips":"27061","name":"Itasca County","state_id":"MN"},{"zip":"55756","fips":"27115","name":"Pine County","state_id":"MN"},{"zip":"55756","fips":"27017","name":"Carlton County","state_id":"MN"},{"zip":"55757","fips":"27017","name":"Carlton County","state_id":"MN"},{"zip":"55758","fips":"27137","name":"St. Louis County","state_id":"MN"},{"zip":"55760","fips":"27001","name":"Aitkin County","state_id":"MN"},{"zip":"55763","fips":"27137","name":"St. Louis County","state_id":"MN"},{"zip":"55764","fips":"27061","name":"Itasca County","state_id":"MN"},{"zip":"55765","fips":"27137","name":"St. Louis County","state_id":"MN"},{"zip":"55767","fips":"27017","name":"Carlton County","state_id":"MN"},{"zip":"55767","fips":"27115","name":"Pine County","state_id":"MN"},{"zip":"55768","fips":"27137","name":"St. Louis County","state_id":"MN"},{"zip":"55769","fips":"27061","name":"Itasca County","state_id":"MN"},{"zip":"55769","fips":"27137","name":"St. Louis County","state_id":"MN"},{"zip":"55771","fips":"27137","name":"St. Louis County","state_id":"MN"},{"zip":"55771","fips":"27071","name":"Koochiching County","state_id":"MN"},{"zip":"55771","fips":"27061","name":"Itasca County","state_id":"MN"},{"zip":"55772","fips":"27071","name":"Koochiching County","state_id":"MN"},{"zip":"55775","fips":"27061","name":"Itasca County","state_id":"MN"},{"zip":"55779","fips":"27137","name":"St. Louis County","state_id":"MN"},{"zip":"55780","fips":"27017","name":"Carlton County","state_id":"MN"},{"zip":"55781","fips":"27061","name":"Itasca County","state_id":"MN"},{"zip":"55781","fips":"27137","name":"St. Louis County","state_id":"MN"},{"zip":"55782","fips":"27137","name":"St. Louis County","state_id":"MN"},{"zip":"55783","fips":"27115","name":"Pine County","state_id":"MN"},{"zip":"55783","fips":"27001","name":"Aitkin County","state_id":"MN"},{"zip":"55783","fips":"27017","name":"Carlton County","state_id":"MN"},{"zip":"55784","fips":"27061","name":"Itasca County","state_id":"MN"},{"zip":"55785","fips":"27021","name":"Cass County","state_id":"MN"},{"zip":"55785","fips":"27001","name":"Aitkin County","state_id":"MN"},{"zip":"55786","fips":"27061","name":"Itasca County","state_id":"MN"},{"zip":"55787","fips":"27001","name":"Aitkin County","state_id":"MN"},{"zip":"55787","fips":"27017","name":"Carlton County","state_id":"MN"},{"zip":"55790","fips":"27137","name":"St. Louis County","state_id":"MN"},{"zip":"55791","fips":"27137","name":"St. Louis County","state_id":"MN"},{"zip":"55792","fips":"27137","name":"St. Louis County","state_id":"MN"},{"zip":"55793","fips":"27061","name":"Itasca County","state_id":"MN"},{"zip":"55795","fips":"27115","name":"Pine County","state_id":"MN"},{"zip":"55796","fips":"27137","name":"St. Louis County","state_id":"MN"},{"zip":"55797","fips":"27017","name":"Carlton County","state_id":"MN"},{"zip":"55798","fips":"27137","name":"St. Louis County","state_id":"MN"},{"zip":"55798","fips":"27001","name":"Aitkin County","state_id":"MN"},{"zip":"55798","fips":"27017","name":"Carlton County","state_id":"MN"}]
