[{"zip":"55901","fips":"27109","name":"Olmsted County","state_id":"MN"},{"zip":"55902","fips":"27109","name":"Olmsted County","state_id":"MN"},{"zip":"55903","fips":"27109","name":"Olmsted County","state_id":"MN"},{"zip":"55904","fips":"27109","name":"Olmsted County","state_id":"MN"},{"zip":"55905","fips":"27109","name":"Olmsted County","state_id":"MN"},{"zip":"55906","fips":"27157","name":"Wabasha County","state_id":"MN"},{"zip":"55906","fips":"27109","name":"Olmsted County","state_id":"MN"},{"zip":"55909","fips":"27099","name":"Mower County","state_id":"MN"},{"zip":"55910","fips":"27157","name":"Wabasha County","state_id":"MN"},{"zip":"55910","fips":"27169","name":"Winona County","state_id":"MN"},{"zip":"55912","fips":"27047","name":"Freeborn County","state_id":"MN"},{"zip":"55912","fips":"27099","name":"Mower County","state_id":"MN"},{"zip":"55917","fips":"27047","name":"Freeborn County","state_id":"MN"},{"zip":"55917","fips":"27039","name":"Dodge County","state_id":"MN"},{"zip":"55917","fips":"27099","name":"Mower County","state_id":"MN"},{"zip":"55917","fips":"27147","name":"Steele County","state_id":"MN"},{"zip":"55918","fips":"27099","name":"Mower County","state_id":"MN"},{"zip":"55919","fips":"27055","name":"Houston County","state_id":"MN"},{"zip":"55920","fips":"27039","name":"Dodge County","state_id":"MN"},{"zip":"55920","fips":"27109","name":"Olmsted County","state_id":"MN"},{"zip":"55921","fips":"27055","name":"Houston County","state_id":"MN"},{"zip":"55922","fips":"27045","name":"Fillmore County","state_id":"MN"},{"zip":"55923","fips":"27109","name":"Olmsted County","state_id":"MN"},{"zip":"55923","fips":"27045","name":"Fillmore County","state_id":"MN"},{"zip":"55923","fips":"27169","name":"Winona County","state_id":"MN"},{"zip":"55924","fips":"27147","name":"Steele County","state_id":"MN"},{"zip":"55924","fips":"27039","name":"Dodge County","state_id":"MN"},{"zip":"55925","fips":"27169","name":"Winona County","state_id":"MN"},{"zip":"55926","fips":"27099","name":"Mower County","state_id":"MN"},{"zip":"55927","fips":"27039","name":"Dodge County","state_id":"MN"},{"zip":"55929","fips":"27109","name":"Olmsted County","state_id":"MN"},{"zip":"55931","fips":"27055","name":"Houston County","state_id":"MN"},{"zip":"55932","fips":"27157","name":"Wabasha County","state_id":"MN"},{"zip":"55932","fips":"27109","name":"Olmsted County","state_id":"MN"},{"zip":"55933","fips":"27099","name":"Mower County","state_id":"MN"},{"zip":"55934","fips":"27109","name":"Olmsted County","state_id":"MN"},{"zip":"55935","fips":"27045","name":"Fillmore County","state_id":"MN"},{"zip":"55936","fips":"27099","name":"Mower County","state_id":"MN"},{"zip":"55939","fips":"27045","name":"Fillmore County","state_id":"MN"},{"zip":"55940","fips":"27039","name":"Dodge County","state_id":"MN"},{"zip":"55940","fips":"27109","name":"Olmsted County","state_id":"MN"},{"zip":"55940","fips":"27099","name":"Mower County","state_id":"MN"},{"zip":"55941","fips":"27055","name":"Houston County","state_id":"MN"},{"zip":"55943","fips":"27169","name":"Winona County","state_id":"MN"},{"zip":"55943","fips":"27055","name":"Houston County","state_id":"MN"},{"zip":"55944","fips":"27039","name":"Dodge County","state_id":"MN"},{"zip":"55944","fips":"27109","name":"Olmsted County","state_id":"MN"},{"zip":"55945","fips":"27157","name":"Wabasha County","state_id":"MN"},{"zip":"55946","fips":"27131","name":"Rice County","state_id":"MN"},{"zip":"55946","fips":"27147","name":"Steele County","state_id":"MN"},{"zip":"55946","fips":"27039","name":"Dodge County","state_id":"MN"},{"zip":"55946","fips":"27049","name":"Goodhue County","state_id":"MN"},{"zip":"55947","fips":"27055","name":"Houston County","state_id":"MN"},{"zip":"55947","fips":"27169","name":"Winona County","state_id":"MN"},{"zip":"55949","fips":"27045","name":"Fillmore County","state_id":"MN"},{"zip":"55950","fips":"27099","name":"Mower County","state_id":"MN"},{"zip":"55951","fips":"27099","name":"Mower County","state_id":"MN"},{"zip":"55951","fips":"27045","name":"Fillmore County","state_id":"MN"},{"zip":"55952","fips":"27169","name":"Winona County","state_id":"MN"},{"zip":"55953","fips":"27099","name":"Mower County","state_id":"MN"},{"zip":"55953","fips":"27047","name":"Freeborn County","state_id":"MN"},{"zip":"55954","fips":"27045","name":"Fillmore County","state_id":"MN"},{"zip":"55954","fips":"27055","name":"Houston County","state_id":"MN"},{"zip":"55955","fips":"27109","name":"Olmsted County","state_id":"MN"},{"zip":"55955","fips":"27039","name":"Dodge County","state_id":"MN"},{"zip":"55956","fips":"27157","name":"Wabasha County","state_id":"MN"},{"zip":"55956","fips":"27109","name":"Olmsted County","state_id":"MN"},{"zip":"55956","fips":"27049","name":"Goodhue County","state_id":"MN"},{"zip":"55957","fips":"27157","name":"Wabasha County","state_id":"MN"},{"zip":"55959","fips":"27169","name":"Winona County","state_id":"MN"},{"zip":"55960","fips":"27109","name":"Olmsted County","state_id":"MN"},{"zip":"55960","fips":"27157","name":"Wabasha County","state_id":"MN"},{"zip":"55961","fips":"27099","name":"Mower County","state_id":"MN"},{"zip":"55961","fips":"27045","name":"Fillmore County","state_id":"MN"},{"zip":"55962","fips":"27169","name":"Winona County","state_id":"MN"},{"zip":"55962","fips":"27045","name":"Fillmore County","state_id":"MN"},{"zip":"55963","fips":"27039","name":"Dodge County","state_id":"MN"},{"zip":"55963","fips":"27049","name":"Goodhue County","state_id":"MN"},{"zip":"55963","fips":"27109","name":"Olmsted County","state_id":"MN"},{"zip":"55964","fips":"27109","name":"Olmsted County","state_id":"MN"},{"zip":"55964","fips":"27169","name":"Winona County","state_id":"MN"},{"zip":"55964","fips":"27157","name":"Wabasha County","state_id":"MN"},{"zip":"55965","fips":"27045","name":"Fillmore County","state_id":"MN"},{"zip":"55967","fips":"27099","name":"Mower County","state_id":"MN"},{"zip":"55967","fips":"27045","name":"Fillmore County","state_id":"MN"},{"zip":"55968","fips":"27157","name":"Wabasha County","state_id":"MN"},{"zip":"55969","fips":"27169","name":"Winona County","state_id":"MN"},{"zip":"55970","fips":"27099","name":"Mower County","state_id":"MN"},{"zip":"55971","fips":"27055","name":"Houston County","state_id":"MN"},{"zip":"55971","fips":"27169","name":"Winona County","state_id":"MN"},{"zip":"55971","fips":"27045","name":"Fillmore County","state_id":"MN"},{"zip":"55972","fips":"27109","name":"Olmsted County","state_id":"MN"},{"zip":"55972","fips":"27169","name":"Winona County","state_id":"MN"},{"zip":"55973","fips":"27039","name":"Dodge County","state_id":"MN"},{"zip":"55973","fips":"27099","name":"Mower County","state_id":"MN"},{"zip":"55973","fips":"27109","name":"Olmsted County","state_id":"MN"},{"zip":"55974","fips":"27055","name":"Houston County","state_id":"MN"},{"zip":"55974","fips":"27045","name":"Fillmore County","state_id":"MN"},{"zip":"55975","fips":"27045","name":"Fillmore County","state_id":"MN"},{"zip":"55975","fips":"27099","name":"Mower County","state_id":"MN"},{"zip":"55976","fips":"27099","name":"Mower County","state_id":"MN"},{"zip":"55976","fips":"27045","name":"Fillmore County","state_id":"MN"},{"zip":"55976","fips":"27109","name":"Olmsted County","state_id":"MN"},{"zip":"55977","fips":"27099","name":"Mower County","state_id":"MN"},{"zip":"55979","fips":"27045","name":"Fillmore County","state_id":"MN"},{"zip":"55979","fips":"27169","name":"Winona County","state_id":"MN"},{"zip":"55981","fips":"27157","name":"Wabasha County","state_id":"MN"},{"zip":"55982","fips":"27099","name":"Mower County","state_id":"MN"},{"zip":"55982","fips":"27039","name":"Dodge County","state_id":"MN"},{"zip":"55983","fips":"27049","name":"Goodhue County","state_id":"MN"},{"zip":"55985","fips":"27147","name":"Steele County","state_id":"MN"},{"zip":"55985","fips":"27049","name":"Goodhue County","state_id":"MN"},{"zip":"55985","fips":"27039","name":"Dodge County","state_id":"MN"},{"zip":"55987","fips":"27169","name":"Winona County","state_id":"MN"},{"zip":"55990","fips":"27045","name":"Fillmore County","state_id":"MN"},{"zip":"55991","fips":"27109","name":"Olmsted County","state_id":"MN"},{"zip":"55991","fips":"27157","name":"Wabasha County","state_id":"MN"},{"zip":"55992","fips":"27049","name":"Goodhue County","state_id":"MN"}]
