[{"zip":"56001","fips":"27013","name":"Blue Earth County","state_id":"MN"},{"zip":"56001","fips":"27103","name":"Nicollet County","state_id":"MN"},{"zip":"56003","fips":"27103","name":"Nicollet County","state_id":"MN"},{"zip":"56003","fips":"27013","name":"Blue Earth County","state_id":"MN"},{"zip":"56007","fips":"27047","name":"Freeborn County","state_id":"MN"},{"zip":"56009","fips":"27043","name":"Faribault County","state_id":"MN"},{"zip":"56009","fips":"27047","name":"Freeborn County","state_id":"MN"},{"zip":"56010","fips":"27013","name":"Blue Earth County","state_id":"MN"},{"zip":"56010","fips":"27043","name":"Faribault County","state_id":"MN"},{"zip":"56011","fips":"27143","name":"Sibley County","state_id":"MN"},{"zip":"56011","fips":"27139","name":"Scott County","state_id":"MN"},{"zip":"56011","fips":"27079","name":"Le Sueur County","state_id":"MN"},{"zip":"56011","fips":"27019","name":"Carver County","state_id":"MN"},{"zip":"56013","fips":"27091","name":"Martin County","state_id":"MN"},{"zip":"56013","fips":"27043","name":"Faribault County","state_id":"MN"},{"zip":"56014","fips":"27043","name":"Faribault County","state_id":"MN"},{"zip":"56016","fips":"27047","name":"Freeborn County","state_id":"MN"},{"zip":"56017","fips":"27079","name":"Le Sueur County","state_id":"MN"},{"zip":"56019","fips":"27033","name":"Cottonwood County","state_id":"MN"},{"zip":"56019","fips":"27015","name":"Brown County","state_id":"MN"},{"zip":"56019","fips":"27165","name":"Watonwan County","state_id":"MN"},{"zip":"56020","fips":"27047","name":"Freeborn County","state_id":"MN"},{"zip":"56021","fips":"27103","name":"Nicollet County","state_id":"MN"},{"zip":"56022","fips":"27165","name":"Watonwan County","state_id":"MN"},{"zip":"56023","fips":"27043","name":"Faribault County","state_id":"MN"},{"zip":"56024","fips":"27013","name":"Blue Earth County","state_id":"MN"},{"zip":"56025","fips":"27013","name":"Blue Earth County","state_id":"MN"},{"zip":"56025","fips":"27043","name":"Faribault County","state_id":"MN"},{"zip":"56026","fips":"27161","name":"Waseca County","state_id":"MN"},{"zip":"56026","fips":"27147","name":"Steele County","state_id":"MN"},{"zip":"56026","fips":"27047","name":"Freeborn County","state_id":"MN"},{"zip":"56027","fips":"27091","name":"Martin County","state_id":"MN"},{"zip":"56027","fips":"27043","name":"Faribault County","state_id":"MN"},{"zip":"56028","fips":"27161","name":"Waseca County","state_id":"MN"},{"zip":"56028","fips":"27079","name":"Le Sueur County","state_id":"MN"},{"zip":"56029","fips":"27047","name":"Freeborn County","state_id":"MN"},{"zip":"56031","fips":"27091","name":"Martin County","state_id":"MN"},{"zip":"56032","fips":"27047","name":"Freeborn County","state_id":"MN"},{"zip":"56033","fips":"27043","name":"Faribault County","state_id":"MN"},{"zip":"56034","fips":"27013","name":"Blue Earth County","state_id":"MN"},{"zip":"56035","fips":"27147","name":"Steele County","state_id":"MN"},{"zip":"56035","fips":"27047","name":"Freeborn County","state_id":"MN"},{"zip":"56036","fips":"27047","name":"Freeborn County","state_id":"MN"},{"zip":"56037","fips":"27013","name":"Blue Earth County","state_id":"MN"},{"zip":"56039","fips":"27091","name":"Martin County","state_id":"MN"},{"zip":"56039","fips":"27043","name":"Faribault County","state_id":"MN"},{"zip":"56041","fips":"27013","name":"Blue Earth County","state_id":"MN"},{"zip":"56041","fips":"27015","name":"Brown County","state_id":"MN"},{"zip":"56041","fips":"27165","name":"Watonwan County","state_id":"MN"},{"zip":"56042","fips":"27047","name":"Freeborn County","state_id":"MN"},{"zip":"56042","fips":"27161","name":"Waseca County","state_id":"MN"},{"zip":"56042","fips":"27147","name":"Steele County","state_id":"MN"},{"zip":"56043","fips":"27047","name":"Freeborn County","state_id":"MN"},{"zip":"56044","fips":"27143","name":"Sibley County","state_id":"MN"},{"zip":"56044","fips":"27139","name":"Scott County","state_id":"MN"},{"zip":"56044","fips":"27079","name":"Le Sueur County","state_id":"MN"},{"zip":"56045","fips":"27047","name":"Freeborn County","state_id":"MN"},{"zip":"56046","fips":"27147","name":"Steele County","state_id":"MN"},{"zip":"56047","fips":"27043","name":"Faribault County","state_id":"MN"},{"zip":"56048","fips":"27161","name":"Waseca County","state_id":"MN"},{"zip":"56048","fips":"27013","name":"Blue Earth County","state_id":"MN"},{"zip":"56050","fips":"27013","name":"Blue Earth County","state_id":"MN"},{"zip":"56050","fips":"27079","name":"Le Sueur County","state_id":"MN"},{"zip":"56051","fips":"27043","name":"Faribault County","state_id":"MN"},{"zip":"56051","fips":"27047","name":"Freeborn County","state_id":"MN"},{"zip":"56052","fips":"27131","name":"Rice County","state_id":"MN"},{"zip":"56052","fips":"27079","name":"Le Sueur County","state_id":"MN"},{"zip":"56054","fips":"27143","name":"Sibley County","state_id":"MN"},{"zip":"56054","fips":"27103","name":"Nicollet County","state_id":"MN"},{"zip":"56055","fips":"27013","name":"Blue Earth County","state_id":"MN"},{"zip":"56056","fips":"27165","name":"Watonwan County","state_id":"MN"},{"zip":"56057","fips":"27079","name":"Le Sueur County","state_id":"MN"},{"zip":"56058","fips":"27079","name":"Le Sueur County","state_id":"MN"},{"zip":"56058","fips":"27143","name":"Sibley County","state_id":"MN"},{"zip":"56058","fips":"27103","name":"Nicollet County","state_id":"MN"},{"zip":"56060","fips":"27165","name":"Watonwan County","state_id":"MN"},{"zip":"56060","fips":"27013","name":"Blue Earth County","state_id":"MN"},{"zip":"56062","fips":"27165","name":"Watonwan County","state_id":"MN"},{"zip":"56062","fips":"27013","name":"Blue Earth County","state_id":"MN"},{"zip":"56062","fips":"27015","name":"Brown County","state_id":"MN"},{"zip":"56063","fips":"27079","name":"Le Sueur County","state_id":"MN"},{"zip":"56063","fips":"27161","name":"Waseca County","state_id":"MN"},{"zip":"56063","fips":"27013","name":"Blue Earth County","state_id":"MN"},{"zip":"56065","fips":"27043","name":"Faribault County","state_id":"MN"},{"zip":"56065","fips":"27013","name":"Blue Earth County","state_id":"MN"},{"zip":"56065","fips":"27161","name":"Waseca County","state_id":"MN"},{"zip":"56068","fips":"27161","name":"Waseca County","state_id":"MN"},{"zip":"56068","fips":"27043","name":"Faribault County","state_id":"MN"},{"zip":"56068","fips":"27013","name":"Blue Earth County","state_id":"MN"},{"zip":"56069","fips":"27131","name":"Rice County","state_id":"MN"},{"zip":"56069","fips":"27079","name":"Le Sueur County","state_id":"MN"},{"zip":"56071","fips":"27079","name":"Le Sueur County","state_id":"MN"},{"zip":"56071","fips":"27139","name":"Scott County","state_id":"MN"},{"zip":"56071","fips":"27131","name":"Rice County","state_id":"MN"},{"zip":"56072","fips":"27147","name":"Steele County","state_id":"MN"},{"zip":"56072","fips":"27043","name":"Faribault County","state_id":"MN"},{"zip":"56072","fips":"27161","name":"Waseca County","state_id":"MN"},{"zip":"56072","fips":"27047","name":"Freeborn County","state_id":"MN"},{"zip":"56073","fips":"27013","name":"Blue Earth County","state_id":"MN"},{"zip":"56073","fips":"27103","name":"Nicollet County","state_id":"MN"},{"zip":"56073","fips":"27015","name":"Brown County","state_id":"MN"},{"zip":"56074","fips":"27103","name":"Nicollet County","state_id":"MN"},{"zip":"56075","fips":"27091","name":"Martin County","state_id":"MN"},{"zip":"56078","fips":"27161","name":"Waseca County","state_id":"MN"},{"zip":"56078","fips":"27013","name":"Blue Earth County","state_id":"MN"},{"zip":"56080","fips":"27013","name":"Blue Earth County","state_id":"MN"},{"zip":"56081","fips":"27165","name":"Watonwan County","state_id":"MN"},{"zip":"56081","fips":"27015","name":"Brown County","state_id":"MN"},{"zip":"56082","fips":"27103","name":"Nicollet County","state_id":"MN"},{"zip":"56082","fips":"27079","name":"Le Sueur County","state_id":"MN"},{"zip":"56083","fips":"27015","name":"Brown County","state_id":"MN"},{"zip":"56083","fips":"27033","name":"Cottonwood County","state_id":"MN"},{"zip":"56083","fips":"27127","name":"Redwood County","state_id":"MN"},{"zip":"56084","fips":"27015","name":"Brown County","state_id":"MN"},{"zip":"56085","fips":"27127","name":"Redwood County","state_id":"MN"},{"zip":"56085","fips":"27015","name":"Brown County","state_id":"MN"},{"zip":"56087","fips":"27127","name":"Redwood County","state_id":"MN"},{"zip":"56087","fips":"27033","name":"Cottonwood County","state_id":"MN"},{"zip":"56087","fips":"27015","name":"Brown County","state_id":"MN"},{"zip":"56088","fips":"27091","name":"Martin County","state_id":"MN"},{"zip":"56088","fips":"27013","name":"Blue Earth County","state_id":"MN"},{"zip":"56088","fips":"27165","name":"Watonwan County","state_id":"MN"},{"zip":"56089","fips":"27047","name":"Freeborn County","state_id":"MN"},{"zip":"56090","fips":"27013","name":"Blue Earth County","state_id":"MN"},{"zip":"56091","fips":"27161","name":"Waseca County","state_id":"MN"},{"zip":"56093","fips":"27147","name":"Steele County","state_id":"MN"},{"zip":"56093","fips":"27161","name":"Waseca County","state_id":"MN"},{"zip":"56096","fips":"27079","name":"Le Sueur County","state_id":"MN"},{"zip":"56096","fips":"27131","name":"Rice County","state_id":"MN"},{"zip":"56096","fips":"27161","name":"Waseca County","state_id":"MN"},{"zip":"56097","fips":"27161","name":"Waseca County","state_id":"MN"},{"zip":"56097","fips":"27043","name":"Faribault County","state_id":"MN"},{"zip":"56097","fips":"27047","name":"Freeborn County","state_id":"MN"},{"zip":"56098","fips":"27091","name":"Martin County","state_id":"MN"},{"zip":"56098","fips":"27043","name":"Faribault County","state_id":"MN"}]
