[{"zip":"56101","fips":"27063","name":"Jackson County","state_id":"MN"},{"zip":"56101","fips":"27033","name":"Cottonwood County","state_id":"MN"},{"zip":"56110","fips":"27105","name":"Nobles County","state_id":"MN"},{"zip":"56111","fips":"27091","name":"Martin County","state_id":"MN"},{"zip":"56111","fips":"27063","name":"Jackson County","state_id":"MN"},{"zip":"56113","fips":"27083","name":"Lyon County","state_id":"MN"},{"zip":"56113","fips":"27081","name":"Lincoln County","state_id":"MN"},{"zip":"56114","fips":"27101","name":"Murray County","state_id":"MN"},{"zip":"56115","fips":"27101","name":"Murray County","state_id":"MN"},{"zip":"56115","fips":"27083","name":"Lyon County","state_id":"MN"},{"zip":"56116","fips":"27133","name":"Rock County","state_id":"MN"},{"zip":"56117","fips":"27105","name":"Nobles County","state_id":"MN"},{"zip":"56118","fips":"27033","name":"Cottonwood County","state_id":"MN"},{"zip":"56118","fips":"27063","name":"Jackson County","state_id":"MN"},{"zip":"56119","fips":"27063","name":"Jackson County","state_id":"MN"},{"zip":"56119","fips":"27105","name":"Nobles County","state_id":"MN"},{"zip":"56120","fips":"27165","name":"Watonwan County","state_id":"MN"},{"zip":"56121","fips":"27091","name":"Martin County","state_id":"MN"},{"zip":"56122","fips":"27101","name":"Murray County","state_id":"MN"},{"zip":"56122","fips":"27105","name":"Nobles County","state_id":"MN"},{"zip":"56123","fips":"27101","name":"Murray County","state_id":"MN"},{"zip":"56125","fips":"27101","name":"Murray County","state_id":"MN"},{"zip":"56127","fips":"27063","name":"Jackson County","state_id":"MN"},{"zip":"56127","fips":"27091","name":"Martin County","state_id":"MN"},{"zip":"56128","fips":"27133","name":"Rock County","state_id":"MN"},{"zip":"56128","fips":"27101","name":"Murray County","state_id":"MN"},{"zip":"56128","fips":"27105","name":"Nobles County","state_id":"MN"},{"zip":"56128","fips":"27117","name":"Pipestone County","state_id":"MN"},{"zip":"56129","fips":"27105","name":"Nobles County","state_id":"MN"},{"zip":"56129","fips":"27133","name":"Rock County","state_id":"MN"},{"zip":"56131","fips":"27063","name":"Jackson County","state_id":"MN"},{"zip":"56131","fips":"27101","name":"Murray County","state_id":"MN"},{"zip":"56131","fips":"27105","name":"Nobles County","state_id":"MN"},{"zip":"56131","fips":"27033","name":"Cottonwood County","state_id":"MN"},{"zip":"56132","fips":"27101","name":"Murray County","state_id":"MN"},{"zip":"56132","fips":"27083","name":"Lyon County","state_id":"MN"},{"zip":"56134","fips":"27133","name":"Rock County","state_id":"MN"},{"zip":"56136","fips":"27081","name":"Lincoln County","state_id":"MN"},{"zip":"56137","fips":"27033","name":"Cottonwood County","state_id":"MN"},{"zip":"56137","fips":"27105","name":"Nobles County","state_id":"MN"},{"zip":"56137","fips":"27063","name":"Jackson County","state_id":"MN"},{"zip":"56138","fips":"27133","name":"Rock County","state_id":"MN"},{"zip":"56139","fips":"27117","name":"Pipestone County","state_id":"MN"},{"zip":"56141","fips":"27105","name":"Nobles County","state_id":"MN"},{"zip":"56141","fips":"27101","name":"Murray County","state_id":"MN"},{"zip":"56142","fips":"27081","name":"Lincoln County","state_id":"MN"},{"zip":"56142","fips":"27173","name":"Yellow Medicine County","state_id":"MN"},{"zip":"56143","fips":"27063","name":"Jackson County","state_id":"MN"},{"zip":"56144","fips":"27133","name":"Rock County","state_id":"MN"},{"zip":"56144","fips":"27117","name":"Pipestone County","state_id":"MN"},{"zip":"56145","fips":"27033","name":"Cottonwood County","state_id":"MN"},{"zip":"56146","fips":"27133","name":"Rock County","state_id":"MN"},{"zip":"56147","fips":"27133","name":"Rock County","state_id":"MN"},{"zip":"56147","fips":"27105","name":"Nobles County","state_id":"MN"},{"zip":"56149","fips":"27081","name":"Lincoln County","state_id":"MN"},{"zip":"56149","fips":"27117","name":"Pipestone County","state_id":"MN"},{"zip":"56149","fips":"27101","name":"Murray County","state_id":"MN"},{"zip":"56150","fips":"27063","name":"Jackson County","state_id":"MN"},{"zip":"56151","fips":"27101","name":"Murray County","state_id":"MN"},{"zip":"56152","fips":"27127","name":"Redwood County","state_id":"MN"},{"zip":"56152","fips":"27033","name":"Cottonwood County","state_id":"MN"},{"zip":"56153","fips":"27105","name":"Nobles County","state_id":"MN"},{"zip":"56155","fips":"27105","name":"Nobles County","state_id":"MN"},{"zip":"56156","fips":"27117","name":"Pipestone County","state_id":"MN"},{"zip":"56156","fips":"27133","name":"Rock County","state_id":"MN"},{"zip":"56157","fips":"27083","name":"Lyon County","state_id":"MN"},{"zip":"56158","fips":"27133","name":"Rock County","state_id":"MN"},{"zip":"56158","fips":"27105","name":"Nobles County","state_id":"MN"},{"zip":"56159","fips":"27165","name":"Watonwan County","state_id":"MN"},{"zip":"56159","fips":"27033","name":"Cottonwood County","state_id":"MN"},{"zip":"56159","fips":"27063","name":"Jackson County","state_id":"MN"},{"zip":"56160","fips":"27165","name":"Watonwan County","state_id":"MN"},{"zip":"56160","fips":"27063","name":"Jackson County","state_id":"MN"},{"zip":"56160","fips":"27091","name":"Martin County","state_id":"MN"},{"zip":"56161","fips":"27063","name":"Jackson County","state_id":"MN"},{"zip":"56162","fips":"27091","name":"Martin County","state_id":"MN"},{"zip":"56162","fips":"27165","name":"Watonwan County","state_id":"MN"},{"zip":"56164","fips":"27081","name":"Lincoln County","state_id":"MN"},{"zip":"56164","fips":"27117","name":"Pipestone County","state_id":"MN"},{"zip":"56165","fips":"27105","name":"Nobles County","state_id":"MN"},{"zip":"56166","fips":"27127","name":"Redwood County","state_id":"MN"},{"zip":"56166","fips":"27033","name":"Cottonwood County","state_id":"MN"},{"zip":"56167","fips":"27063","name":"Jackson County","state_id":"MN"},{"zip":"56167","fips":"27105","name":"Nobles County","state_id":"MN"},{"zip":"56168","fips":"27105","name":"Nobles County","state_id":"MN"},{"zip":"56169","fips":"27083","name":"Lyon County","state_id":"MN"},{"zip":"56170","fips":"27117","name":"Pipestone County","state_id":"MN"},{"zip":"56170","fips":"27081","name":"Lincoln County","state_id":"MN"},{"zip":"56170","fips":"27101","name":"Murray County","state_id":"MN"},{"zip":"56170","fips":"27083","name":"Lyon County","state_id":"MN"},{"zip":"56171","fips":"27091","name":"Martin County","state_id":"MN"},{"zip":"56172","fips":"27101","name":"Murray County","state_id":"MN"},{"zip":"56173","fips":"27133","name":"Rock County","state_id":"MN"},{"zip":"56174","fips":"27033","name":"Cottonwood County","state_id":"MN"},{"zip":"56175","fips":"27127","name":"Redwood County","state_id":"MN"},{"zip":"56175","fips":"27101","name":"Murray County","state_id":"MN"},{"zip":"56175","fips":"27083","name":"Lyon County","state_id":"MN"},{"zip":"56176","fips":"27091","name":"Martin County","state_id":"MN"},{"zip":"56178","fips":"27083","name":"Lyon County","state_id":"MN"},{"zip":"56178","fips":"27081","name":"Lincoln County","state_id":"MN"},{"zip":"56180","fips":"27033","name":"Cottonwood County","state_id":"MN"},{"zip":"56180","fips":"27101","name":"Murray County","state_id":"MN"},{"zip":"56180","fips":"27127","name":"Redwood County","state_id":"MN"},{"zip":"56181","fips":"27091","name":"Martin County","state_id":"MN"},{"zip":"56183","fips":"27033","name":"Cottonwood County","state_id":"MN"},{"zip":"56183","fips":"27101","name":"Murray County","state_id":"MN"},{"zip":"56185","fips":"27101","name":"Murray County","state_id":"MN"},{"zip":"56185","fips":"27105","name":"Nobles County","state_id":"MN"},{"zip":"56186","fips":"27117","name":"Pipestone County","state_id":"MN"},{"zip":"56186","fips":"27101","name":"Murray County","state_id":"MN"},{"zip":"56187","fips":"27063","name":"Jackson County","state_id":"MN"},{"zip":"56187","fips":"27105","name":"Nobles County","state_id":"MN"}]
