[{"zip":"56201","fips":"27067","name":"Kandiyohi County","state_id":"MN"},{"zip":"56207","fips":"27149","name":"Stevens County","state_id":"MN"},{"zip":"56208","fips":"27073","name":"Lac qui Parle County","state_id":"MN"},{"zip":"56208","fips":"27023","name":"Chippewa County","state_id":"MN"},{"zip":"56208","fips":"27011","name":"Big Stone County","state_id":"MN"},{"zip":"56208","fips":"27151","name":"Swift County","state_id":"MN"},{"zip":"56209","fips":"27067","name":"Kandiyohi County","state_id":"MN"},{"zip":"56209","fips":"27093","name":"Meeker County","state_id":"MN"},{"zip":"56210","fips":"27011","name":"Big Stone County","state_id":"MN"},{"zip":"56211","fips":"27011","name":"Big Stone County","state_id":"MN"},{"zip":"56211","fips":"27155","name":"Traverse County","state_id":"MN"},{"zip":"56212","fips":"27073","name":"Lac qui Parle County","state_id":"MN"},{"zip":"56214","fips":"27127","name":"Redwood County","state_id":"MN"},{"zip":"56214","fips":"27173","name":"Yellow Medicine County","state_id":"MN"},{"zip":"56215","fips":"27121","name":"Pope County","state_id":"MN"},{"zip":"56215","fips":"27151","name":"Swift County","state_id":"MN"},{"zip":"56215","fips":"27023","name":"Chippewa County","state_id":"MN"},{"zip":"56216","fips":"27067","name":"Kandiyohi County","state_id":"MN"},{"zip":"56218","fips":"27173","name":"Yellow Medicine County","state_id":"MN"},{"zip":"56218","fips":"27073","name":"Lac qui Parle County","state_id":"MN"},{"zip":"56219","fips":"27155","name":"Traverse County","state_id":"MN"},{"zip":"56219","fips":"27011","name":"Big Stone County","state_id":"MN"},{"zip":"56220","fips":"27073","name":"Lac qui Parle County","state_id":"MN"},{"zip":"56220","fips":"27173","name":"Yellow Medicine County","state_id":"MN"},{"zip":"56220","fips":"27081","name":"Lincoln County","state_id":"MN"},{"zip":"56220","fips":"27083","name":"Lyon County","state_id":"MN"},{"zip":"56221","fips":"27149","name":"Stevens County","state_id":"MN"},{"zip":"56221","fips":"27155","name":"Traverse County","state_id":"MN"},{"zip":"56221","fips":"27011","name":"Big Stone County","state_id":"MN"},{"zip":"56222","fips":"27067","name":"Kandiyohi County","state_id":"MN"},{"zip":"56222","fips":"27023","name":"Chippewa County","state_id":"MN"},{"zip":"56223","fips":"27173","name":"Yellow Medicine County","state_id":"MN"},{"zip":"56223","fips":"27073","name":"Lac qui Parle County","state_id":"MN"},{"zip":"56224","fips":"27127","name":"Redwood County","state_id":"MN"},{"zip":"56225","fips":"27011","name":"Big Stone County","state_id":"MN"},{"zip":"56226","fips":"27121","name":"Pope County","state_id":"MN"},{"zip":"56226","fips":"27151","name":"Swift County","state_id":"MN"},{"zip":"56227","fips":"27011","name":"Big Stone County","state_id":"MN"},{"zip":"56227","fips":"27151","name":"Swift County","state_id":"MN"},{"zip":"56228","fips":"27129","name":"Renville County","state_id":"MN"},{"zip":"56228","fips":"27093","name":"Meeker County","state_id":"MN"},{"zip":"56229","fips":"27173","name":"Yellow Medicine County","state_id":"MN"},{"zip":"56229","fips":"27083","name":"Lyon County","state_id":"MN"},{"zip":"56230","fips":"27129","name":"Renville County","state_id":"MN"},{"zip":"56231","fips":"27151","name":"Swift County","state_id":"MN"},{"zip":"56232","fips":"27073","name":"Lac qui Parle County","state_id":"MN"},{"zip":"56235","fips":"27051","name":"Grant County","state_id":"MN"},{"zip":"56235","fips":"27149","name":"Stevens County","state_id":"MN"},{"zip":"56236","fips":"27011","name":"Big Stone County","state_id":"MN"},{"zip":"56236","fips":"27155","name":"Traverse County","state_id":"MN"},{"zip":"56237","fips":"27173","name":"Yellow Medicine County","state_id":"MN"},{"zip":"56237","fips":"27127","name":"Redwood County","state_id":"MN"},{"zip":"56239","fips":"27083","name":"Lyon County","state_id":"MN"},{"zip":"56240","fips":"27155","name":"Traverse County","state_id":"MN"},{"zip":"56240","fips":"27011","name":"Big Stone County","state_id":"MN"},{"zip":"56241","fips":"27173","name":"Yellow Medicine County","state_id":"MN"},{"zip":"56241","fips":"27129","name":"Renville County","state_id":"MN"},{"zip":"56241","fips":"27023","name":"Chippewa County","state_id":"MN"},{"zip":"56243","fips":"27067","name":"Kandiyohi County","state_id":"MN"},{"zip":"56243","fips":"27093","name":"Meeker County","state_id":"MN"},{"zip":"56244","fips":"27151","name":"Swift County","state_id":"MN"},{"zip":"56244","fips":"27149","name":"Stevens County","state_id":"MN"},{"zip":"56244","fips":"27121","name":"Pope County","state_id":"MN"},{"zip":"56245","fips":"27173","name":"Yellow Medicine County","state_id":"MN"},{"zip":"56248","fips":"27155","name":"Traverse County","state_id":"MN"},{"zip":"56248","fips":"27149","name":"Stevens County","state_id":"MN"},{"zip":"56248","fips":"27051","name":"Grant County","state_id":"MN"},{"zip":"56249","fips":"27151","name":"Swift County","state_id":"MN"},{"zip":"56251","fips":"27067","name":"Kandiyohi County","state_id":"MN"},{"zip":"56252","fips":"27023","name":"Chippewa County","state_id":"MN"},{"zip":"56252","fips":"27151","name":"Swift County","state_id":"MN"},{"zip":"56252","fips":"27067","name":"Kandiyohi County","state_id":"MN"},{"zip":"56253","fips":"27067","name":"Kandiyohi County","state_id":"MN"},{"zip":"56255","fips":"27127","name":"Redwood County","state_id":"MN"},{"zip":"56256","fips":"27173","name":"Yellow Medicine County","state_id":"MN"},{"zip":"56256","fips":"27073","name":"Lac qui Parle County","state_id":"MN"},{"zip":"56257","fips":"27073","name":"Lac qui Parle County","state_id":"MN"},{"zip":"56258","fips":"27083","name":"Lyon County","state_id":"MN"},{"zip":"56258","fips":"27127","name":"Redwood County","state_id":"MN"},{"zip":"56260","fips":"27023","name":"Chippewa County","state_id":"MN"},{"zip":"56260","fips":"27129","name":"Renville County","state_id":"MN"},{"zip":"56262","fips":"27023","name":"Chippewa County","state_id":"MN"},{"zip":"56262","fips":"27151","name":"Swift County","state_id":"MN"},{"zip":"56263","fips":"27083","name":"Lyon County","state_id":"MN"},{"zip":"56263","fips":"27127","name":"Redwood County","state_id":"MN"},{"zip":"56264","fips":"27173","name":"Yellow Medicine County","state_id":"MN"},{"zip":"56264","fips":"27083","name":"Lyon County","state_id":"MN"},{"zip":"56264","fips":"27081","name":"Lincoln County","state_id":"MN"},{"zip":"56265","fips":"27023","name":"Chippewa County","state_id":"MN"},{"zip":"56265","fips":"27073","name":"Lac qui Parle County","state_id":"MN"},{"zip":"56265","fips":"27173","name":"Yellow Medicine County","state_id":"MN"},{"zip":"56266","fips":"27015","name":"Brown County","state_id":"MN"},{"zip":"56266","fips":"27127","name":"Redwood County","state_id":"MN"},{"zip":"56267","fips":"27149","name":"Stevens County","state_id":"MN"},{"zip":"56270","fips":"27129","name":"Renville County","state_id":"MN"},{"zip":"56270","fips":"27127","name":"Redwood County","state_id":"MN"},{"zip":"56271","fips":"27151","name":"Swift County","state_id":"MN"},{"zip":"56271","fips":"27023","name":"Chippewa County","state_id":"MN"},{"zip":"56273","fips":"27067","name":"Kandiyohi County","state_id":"MN"},{"zip":"56274","fips":"27155","name":"Traverse County","state_id":"MN"},{"zip":"56274","fips":"27051","name":"Grant County","state_id":"MN"},{"zip":"56276","fips":"27011","name":"Big Stone County","state_id":"MN"},{"zip":"56276","fips":"27073","name":"Lac qui Parle County","state_id":"MN"},{"zip":"56277","fips":"27067","name":"Kandiyohi County","state_id":"MN"},{"zip":"56277","fips":"27129","name":"Renville County","state_id":"MN"},{"zip":"56278","fips":"27073","name":"Lac qui Parle County","state_id":"MN"},{"zip":"56278","fips":"27011","name":"Big Stone County","state_id":"MN"},{"zip":"56278","fips":"27149","name":"Stevens County","state_id":"MN"},{"zip":"56279","fips":"27067","name":"Kandiyohi County","state_id":"MN"},{"zip":"56280","fips":"27081","name":"Lincoln County","state_id":"MN"},{"zip":"56280","fips":"27173","name":"Yellow Medicine County","state_id":"MN"},{"zip":"56281","fips":"27067","name":"Kandiyohi County","state_id":"MN"},{"zip":"56282","fips":"27067","name":"Kandiyohi County","state_id":"MN"},{"zip":"56282","fips":"27023","name":"Chippewa County","state_id":"MN"},{"zip":"56283","fips":"27129","name":"Renville County","state_id":"MN"},{"zip":"56283","fips":"27127","name":"Redwood County","state_id":"MN"},{"zip":"56284","fips":"27067","name":"Kandiyohi County","state_id":"MN"},{"zip":"56284","fips":"27127","name":"Redwood County","state_id":"MN"},{"zip":"56284","fips":"27129","name":"Renville County","state_id":"MN"},{"zip":"56285","fips":"27023","name":"Chippewa County","state_id":"MN"},{"zip":"56285","fips":"27129","name":"Renville County","state_id":"MN"},{"zip":"56287","fips":"27127","name":"Redwood County","state_id":"MN"},{"zip":"56288","fips":"27067","name":"Kandiyohi County","state_id":"MN"},{"zip":"56289","fips":"27067","name":"Kandiyohi County","state_id":"MN"},{"zip":"56289","fips":"27121","name":"Pope County","state_id":"MN"},{"zip":"56289","fips":"27151","name":"Swift County","state_id":"MN"},{"zip":"56291","fips":"27173","name":"Yellow Medicine County","state_id":"MN"},{"zip":"56291","fips":"27083","name":"Lyon County","state_id":"MN"},{"zip":"56291","fips":"27081","name":"Lincoln County","state_id":"MN"},{"zip":"56292","fips":"27173","name":"Yellow Medicine County","state_id":"MN"},{"zip":"56292","fips":"27127","name":"Redwood County","state_id":"MN"},{"zip":"56293","fips":"27127","name":"Redwood County","state_id":"MN"},{"zip":"56294","fips":"27127","name":"Redwood County","state_id":"MN"},{"zip":"56295","fips":"27023","name":"Chippewa County","state_id":"MN"},{"zip":"56296","fips":"27155","name":"Traverse County","state_id":"MN"},{"zip":"56297","fips":"27173","name":"Yellow Medicine County","state_id":"MN"},{"zip":"56297","fips":"27083","name":"Lyon County","state_id":"MN"},{"zip":"56297","fips":"27127","name":"Redwood County","state_id":"MN"}]
