[{"zip":"56301","fips":"27145","name":"Stearns County","state_id":"MN"},{"zip":"56302","fips":"27145","name":"Stearns County","state_id":"MN"},{"zip":"56303","fips":"27145","name":"Stearns County","state_id":"MN"},{"zip":"56303","fips":"27009","name":"Benton County","state_id":"MN"},{"zip":"56304","fips":"27141","name":"Sherburne County","state_id":"MN"},{"zip":"56304","fips":"27009","name":"Benton County","state_id":"MN"},{"zip":"56307","fips":"27097","name":"Morrison County","state_id":"MN"},{"zip":"56307","fips":"27145","name":"Stearns County","state_id":"MN"},{"zip":"56308","fips":"27121","name":"Pope County","state_id":"MN"},{"zip":"56308","fips":"27041","name":"Douglas County","state_id":"MN"},{"zip":"56309","fips":"27111","name":"Otter Tail County","state_id":"MN"},{"zip":"56309","fips":"27051","name":"Grant County","state_id":"MN"},{"zip":"56309","fips":"27041","name":"Douglas County","state_id":"MN"},{"zip":"56310","fips":"27145","name":"Stearns County","state_id":"MN"},{"zip":"56311","fips":"27051","name":"Grant County","state_id":"MN"},{"zip":"56312","fips":"27067","name":"Kandiyohi County","state_id":"MN"},{"zip":"56312","fips":"27145","name":"Stearns County","state_id":"MN"},{"zip":"56313","fips":"27095","name":"Mille Lacs County","state_id":"MN"},{"zip":"56314","fips":"27097","name":"Morrison County","state_id":"MN"},{"zip":"56314","fips":"27145","name":"Stearns County","state_id":"MN"},{"zip":"56315","fips":"27111","name":"Otter Tail County","state_id":"MN"},{"zip":"56315","fips":"27041","name":"Douglas County","state_id":"MN"},{"zip":"56316","fips":"27145","name":"Stearns County","state_id":"MN"},{"zip":"56316","fips":"27121","name":"Pope County","state_id":"MN"},{"zip":"56316","fips":"27067","name":"Kandiyohi County","state_id":"MN"},{"zip":"56318","fips":"27097","name":"Morrison County","state_id":"MN"},{"zip":"56318","fips":"27153","name":"Todd County","state_id":"MN"},{"zip":"56319","fips":"27153","name":"Todd County","state_id":"MN"},{"zip":"56319","fips":"27041","name":"Douglas County","state_id":"MN"},{"zip":"56320","fips":"27145","name":"Stearns County","state_id":"MN"},{"zip":"56321","fips":"27145","name":"Stearns County","state_id":"MN"},{"zip":"56323","fips":"27121","name":"Pope County","state_id":"MN"},{"zip":"56323","fips":"27149","name":"Stevens County","state_id":"MN"},{"zip":"56324","fips":"27051","name":"Grant County","state_id":"MN"},{"zip":"56324","fips":"27111","name":"Otter Tail County","state_id":"MN"},{"zip":"56325","fips":"27145","name":"Stearns County","state_id":"MN"},{"zip":"56326","fips":"27111","name":"Otter Tail County","state_id":"MN"},{"zip":"56326","fips":"27051","name":"Grant County","state_id":"MN"},{"zip":"56326","fips":"27041","name":"Douglas County","state_id":"MN"},{"zip":"56327","fips":"27041","name":"Douglas County","state_id":"MN"},{"zip":"56327","fips":"27121","name":"Pope County","state_id":"MN"},{"zip":"56328","fips":"27097","name":"Morrison County","state_id":"MN"},{"zip":"56329","fips":"27097","name":"Morrison County","state_id":"MN"},{"zip":"56329","fips":"27141","name":"Sherburne County","state_id":"MN"},{"zip":"56329","fips":"27009","name":"Benton County","state_id":"MN"},{"zip":"56330","fips":"27095","name":"Mille Lacs County","state_id":"MN"},{"zip":"56330","fips":"27009","name":"Benton County","state_id":"MN"},{"zip":"56331","fips":"27153","name":"Todd County","state_id":"MN"},{"zip":"56331","fips":"27145","name":"Stearns County","state_id":"MN"},{"zip":"56331","fips":"27097","name":"Morrison County","state_id":"MN"},{"zip":"56332","fips":"27041","name":"Douglas County","state_id":"MN"},{"zip":"56333","fips":"27009","name":"Benton County","state_id":"MN"},{"zip":"56334","fips":"27121","name":"Pope County","state_id":"MN"},{"zip":"56334","fips":"27041","name":"Douglas County","state_id":"MN"},{"zip":"56335","fips":"27145","name":"Stearns County","state_id":"MN"},{"zip":"56336","fips":"27145","name":"Stearns County","state_id":"MN"},{"zip":"56336","fips":"27097","name":"Morrison County","state_id":"MN"},{"zip":"56336","fips":"27153","name":"Todd County","state_id":"MN"},{"zip":"56338","fips":"27035","name":"Crow Wing County","state_id":"MN"},{"zip":"56338","fips":"27095","name":"Mille Lacs County","state_id":"MN"},{"zip":"56338","fips":"27097","name":"Morrison County","state_id":"MN"},{"zip":"56339","fips":"27041","name":"Douglas County","state_id":"MN"},{"zip":"56339","fips":"27051","name":"Grant County","state_id":"MN"},{"zip":"56340","fips":"27145","name":"Stearns County","state_id":"MN"},{"zip":"56340","fips":"27097","name":"Morrison County","state_id":"MN"},{"zip":"56341","fips":"27041","name":"Douglas County","state_id":"MN"},{"zip":"56342","fips":"27065","name":"Kanabec County","state_id":"MN"},{"zip":"56342","fips":"27095","name":"Mille Lacs County","state_id":"MN"},{"zip":"56342","fips":"27001","name":"Aitkin County","state_id":"MN"},{"zip":"56343","fips":"27121","name":"Pope County","state_id":"MN"},{"zip":"56343","fips":"27041","name":"Douglas County","state_id":"MN"},{"zip":"56343","fips":"27149","name":"Stevens County","state_id":"MN"},{"zip":"56344","fips":"27097","name":"Morrison County","state_id":"MN"},{"zip":"56345","fips":"27097","name":"Morrison County","state_id":"MN"},{"zip":"56347","fips":"27153","name":"Todd County","state_id":"MN"},{"zip":"56347","fips":"27097","name":"Morrison County","state_id":"MN"},{"zip":"56349","fips":"27121","name":"Pope County","state_id":"MN"},{"zip":"56349","fips":"27041","name":"Douglas County","state_id":"MN"},{"zip":"56350","fips":"27001","name":"Aitkin County","state_id":"MN"},{"zip":"56350","fips":"27115","name":"Pine County","state_id":"MN"},{"zip":"56352","fips":"27145","name":"Stearns County","state_id":"MN"},{"zip":"56353","fips":"27097","name":"Morrison County","state_id":"MN"},{"zip":"56353","fips":"27065","name":"Kanabec County","state_id":"MN"},{"zip":"56353","fips":"27095","name":"Mille Lacs County","state_id":"MN"},{"zip":"56353","fips":"27059","name":"Isanti County","state_id":"MN"},{"zip":"56354","fips":"27041","name":"Douglas County","state_id":"MN"},{"zip":"56354","fips":"27111","name":"Otter Tail County","state_id":"MN"},{"zip":"56355","fips":"27041","name":"Douglas County","state_id":"MN"},{"zip":"56356","fips":"27145","name":"Stearns County","state_id":"MN"},{"zip":"56357","fips":"27009","name":"Benton County","state_id":"MN"},{"zip":"56357","fips":"27095","name":"Mille Lacs County","state_id":"MN"},{"zip":"56358","fips":"27065","name":"Kanabec County","state_id":"MN"},{"zip":"56358","fips":"27059","name":"Isanti County","state_id":"MN"},{"zip":"56358","fips":"27095","name":"Mille Lacs County","state_id":"MN"},{"zip":"56359","fips":"27097","name":"Morrison County","state_id":"MN"},{"zip":"56359","fips":"27095","name":"Mille Lacs County","state_id":"MN"},{"zip":"56360","fips":"27153","name":"Todd County","state_id":"MN"},{"zip":"56360","fips":"27041","name":"Douglas County","state_id":"MN"},{"zip":"56360","fips":"27121","name":"Pope County","state_id":"MN"},{"zip":"56361","fips":"27041","name":"Douglas County","state_id":"MN"},{"zip":"56361","fips":"27111","name":"Otter Tail County","state_id":"MN"},{"zip":"56362","fips":"27093","name":"Meeker County","state_id":"MN"},{"zip":"56362","fips":"27145","name":"Stearns County","state_id":"MN"},{"zip":"56362","fips":"27067","name":"Kandiyohi County","state_id":"MN"},{"zip":"56363","fips":"27095","name":"Mille Lacs County","state_id":"MN"},{"zip":"56364","fips":"27097","name":"Morrison County","state_id":"MN"},{"zip":"56364","fips":"27035","name":"Crow Wing County","state_id":"MN"},{"zip":"56367","fips":"27009","name":"Benton County","state_id":"MN"},{"zip":"56367","fips":"27145","name":"Stearns County","state_id":"MN"},{"zip":"56367","fips":"27097","name":"Morrison County","state_id":"MN"},{"zip":"56368","fips":"27145","name":"Stearns County","state_id":"MN"},{"zip":"56369","fips":"27145","name":"Stearns County","state_id":"MN"},{"zip":"56371","fips":"27145","name":"Stearns County","state_id":"MN"},{"zip":"56373","fips":"27097","name":"Morrison County","state_id":"MN"},{"zip":"56373","fips":"27009","name":"Benton County","state_id":"MN"},{"zip":"56374","fips":"27145","name":"Stearns County","state_id":"MN"},{"zip":"56375","fips":"27145","name":"Stearns County","state_id":"MN"},{"zip":"56376","fips":"27145","name":"Stearns County","state_id":"MN"},{"zip":"56377","fips":"27145","name":"Stearns County","state_id":"MN"},{"zip":"56377","fips":"27009","name":"Benton County","state_id":"MN"},{"zip":"56378","fips":"27145","name":"Stearns County","state_id":"MN"},{"zip":"56378","fips":"27121","name":"Pope County","state_id":"MN"},{"zip":"56378","fips":"27153","name":"Todd County","state_id":"MN"},{"zip":"56379","fips":"27141","name":"Sherburne County","state_id":"MN"},{"zip":"56379","fips":"27145","name":"Stearns County","state_id":"MN"},{"zip":"56379","fips":"27009","name":"Benton County","state_id":"MN"},{"zip":"56381","fips":"27121","name":"Pope County","state_id":"MN"},{"zip":"56382","fips":"27097","name":"Morrison County","state_id":"MN"},{"zip":"56382","fips":"27153","name":"Todd County","state_id":"MN"},{"zip":"56384","fips":"27097","name":"Morrison County","state_id":"MN"},{"zip":"56385","fips":"27041","name":"Douglas County","state_id":"MN"},{"zip":"56385","fips":"27121","name":"Pope County","state_id":"MN"},{"zip":"56385","fips":"27145","name":"Stearns County","state_id":"MN"},{"zip":"56386","fips":"27095","name":"Mille Lacs County","state_id":"MN"},{"zip":"56387","fips":"27009","name":"Benton County","state_id":"MN"},{"zip":"56387","fips":"27145","name":"Stearns County","state_id":"MN"},{"zip":"56388","fips":"27145","name":"Stearns County","state_id":"MN"},{"zip":"56389","fips":"27153","name":"Todd County","state_id":"MN"},{"zip":"56393","fips":"27145","name":"Stearns County","state_id":"MN"},{"zip":"56395","fips":"27145","name":"Stearns County","state_id":"MN"},{"zip":"56398","fips":"27145","name":"Stearns County","state_id":"MN"},{"zip":"56399","fips":"27145","name":"Stearns County","state_id":"MN"}]
