[{"zip":"56401","fips":"27021","name":"Cass County","state_id":"MN"},{"zip":"56401","fips":"27035","name":"Crow Wing County","state_id":"MN"},{"zip":"56425","fips":"27035","name":"Crow Wing County","state_id":"MN"},{"zip":"56431","fips":"27001","name":"Aitkin County","state_id":"MN"},{"zip":"56431","fips":"27035","name":"Crow Wing County","state_id":"MN"},{"zip":"56433","fips":"27057","name":"Hubbard County","state_id":"MN"},{"zip":"56433","fips":"27021","name":"Cass County","state_id":"MN"},{"zip":"56434","fips":"27153","name":"Todd County","state_id":"MN"},{"zip":"56434","fips":"27159","name":"Wadena County","state_id":"MN"},{"zip":"56435","fips":"27057","name":"Hubbard County","state_id":"MN"},{"zip":"56435","fips":"27021","name":"Cass County","state_id":"MN"},{"zip":"56435","fips":"27035","name":"Crow Wing County","state_id":"MN"},{"zip":"56436","fips":"27057","name":"Hubbard County","state_id":"MN"},{"zip":"56437","fips":"27111","name":"Otter Tail County","state_id":"MN"},{"zip":"56437","fips":"27153","name":"Todd County","state_id":"MN"},{"zip":"56438","fips":"27153","name":"Todd County","state_id":"MN"},{"zip":"56438","fips":"27097","name":"Morrison County","state_id":"MN"},{"zip":"56440","fips":"27153","name":"Todd County","state_id":"MN"},{"zip":"56441","fips":"27035","name":"Crow Wing County","state_id":"MN"},{"zip":"56442","fips":"27035","name":"Crow Wing County","state_id":"MN"},{"zip":"56443","fips":"27097","name":"Morrison County","state_id":"MN"},{"zip":"56443","fips":"27153","name":"Todd County","state_id":"MN"},{"zip":"56444","fips":"27035","name":"Crow Wing County","state_id":"MN"},{"zip":"56444","fips":"27001","name":"Aitkin County","state_id":"MN"},{"zip":"56446","fips":"27111","name":"Otter Tail County","state_id":"MN"},{"zip":"56446","fips":"27153","name":"Todd County","state_id":"MN"},{"zip":"56446","fips":"27041","name":"Douglas County","state_id":"MN"},{"zip":"56447","fips":"27035","name":"Crow Wing County","state_id":"MN"},{"zip":"56448","fips":"27035","name":"Crow Wing County","state_id":"MN"},{"zip":"56448","fips":"27021","name":"Cass County","state_id":"MN"},{"zip":"56449","fips":"27097","name":"Morrison County","state_id":"MN"},{"zip":"56449","fips":"27035","name":"Crow Wing County","state_id":"MN"},{"zip":"56450","fips":"27035","name":"Crow Wing County","state_id":"MN"},{"zip":"56450","fips":"27095","name":"Mille Lacs County","state_id":"MN"},{"zip":"56452","fips":"27021","name":"Cass County","state_id":"MN"},{"zip":"56453","fips":"27111","name":"Otter Tail County","state_id":"MN"},{"zip":"56453","fips":"27153","name":"Todd County","state_id":"MN"},{"zip":"56455","fips":"27035","name":"Crow Wing County","state_id":"MN"},{"zip":"56458","fips":"27057","name":"Hubbard County","state_id":"MN"},{"zip":"56461","fips":"27021","name":"Cass County","state_id":"MN"},{"zip":"56461","fips":"27057","name":"Hubbard County","state_id":"MN"},{"zip":"56464","fips":"27021","name":"Cass County","state_id":"MN"},{"zip":"56464","fips":"27005","name":"Becker County","state_id":"MN"},{"zip":"56464","fips":"27159","name":"Wadena County","state_id":"MN"},{"zip":"56464","fips":"27111","name":"Otter Tail County","state_id":"MN"},{"zip":"56464","fips":"27057","name":"Hubbard County","state_id":"MN"},{"zip":"56465","fips":"27035","name":"Crow Wing County","state_id":"MN"},{"zip":"56466","fips":"27097","name":"Morrison County","state_id":"MN"},{"zip":"56466","fips":"27153","name":"Todd County","state_id":"MN"},{"zip":"56466","fips":"27021","name":"Cass County","state_id":"MN"},{"zip":"56467","fips":"27057","name":"Hubbard County","state_id":"MN"},{"zip":"56468","fips":"27021","name":"Cass County","state_id":"MN"},{"zip":"56468","fips":"27035","name":"Crow Wing County","state_id":"MN"},{"zip":"56469","fips":"27001","name":"Aitkin County","state_id":"MN"},{"zip":"56470","fips":"27029","name":"Clearwater County","state_id":"MN"},{"zip":"56470","fips":"27057","name":"Hubbard County","state_id":"MN"},{"zip":"56470","fips":"27005","name":"Becker County","state_id":"MN"},{"zip":"56470","fips":"27159","name":"Wadena County","state_id":"MN"},{"zip":"56472","fips":"27021","name":"Cass County","state_id":"MN"},{"zip":"56472","fips":"27035","name":"Crow Wing County","state_id":"MN"},{"zip":"56473","fips":"27021","name":"Cass County","state_id":"MN"},{"zip":"56473","fips":"27097","name":"Morrison County","state_id":"MN"},{"zip":"56474","fips":"27021","name":"Cass County","state_id":"MN"},{"zip":"56474","fips":"27035","name":"Crow Wing County","state_id":"MN"},{"zip":"56475","fips":"27153","name":"Todd County","state_id":"MN"},{"zip":"56475","fips":"27097","name":"Morrison County","state_id":"MN"},{"zip":"56477","fips":"27005","name":"Becker County","state_id":"MN"},{"zip":"56477","fips":"27021","name":"Cass County","state_id":"MN"},{"zip":"56477","fips":"27159","name":"Wadena County","state_id":"MN"},{"zip":"56477","fips":"27111","name":"Otter Tail County","state_id":"MN"},{"zip":"56479","fips":"27159","name":"Wadena County","state_id":"MN"},{"zip":"56479","fips":"27021","name":"Cass County","state_id":"MN"},{"zip":"56479","fips":"27153","name":"Todd County","state_id":"MN"},{"zip":"56481","fips":"27159","name":"Wadena County","state_id":"MN"},{"zip":"56481","fips":"27021","name":"Cass County","state_id":"MN"},{"zip":"56481","fips":"27153","name":"Todd County","state_id":"MN"},{"zip":"56482","fips":"27111","name":"Otter Tail County","state_id":"MN"},{"zip":"56482","fips":"27159","name":"Wadena County","state_id":"MN"},{"zip":"56482","fips":"27153","name":"Todd County","state_id":"MN"},{"zip":"56484","fips":"27057","name":"Hubbard County","state_id":"MN"},{"zip":"56484","fips":"27021","name":"Cass County","state_id":"MN"}]
