[{"zip":"56501","fips":"27111","name":"Otter Tail County","state_id":"MN"},{"zip":"56501","fips":"27005","name":"Becker County","state_id":"MN"},{"zip":"56502","fips":"27005","name":"Becker County","state_id":"MN"},{"zip":"56510","fips":"27107","name":"Norman County","state_id":"MN"},{"zip":"56511","fips":"27005","name":"Becker County","state_id":"MN"},{"zip":"56514","fips":"27111","name":"Otter Tail County","state_id":"MN"},{"zip":"56514","fips":"27027","name":"Clay County","state_id":"MN"},{"zip":"56514","fips":"27167","name":"Wilkin County","state_id":"MN"},{"zip":"56515","fips":"27111","name":"Otter Tail County","state_id":"MN"},{"zip":"56516","fips":"27087","name":"Mahnomen County","state_id":"MN"},{"zip":"56516","fips":"27107","name":"Norman County","state_id":"MN"},{"zip":"56517","fips":"27119","name":"Polk County","state_id":"MN"},{"zip":"56518","fips":"27111","name":"Otter Tail County","state_id":"MN"},{"zip":"56519","fips":"27027","name":"Clay County","state_id":"MN"},{"zip":"56519","fips":"27107","name":"Norman County","state_id":"MN"},{"zip":"56520","fips":"27167","name":"Wilkin County","state_id":"MN"},{"zip":"56521","fips":"27005","name":"Becker County","state_id":"MN"},{"zip":"56522","fips":"27051","name":"Grant County","state_id":"MN"},{"zip":"56522","fips":"27167","name":"Wilkin County","state_id":"MN"},{"zip":"56522","fips":"27111","name":"Otter Tail County","state_id":"MN"},{"zip":"56523","fips":"27119","name":"Polk County","state_id":"MN"},{"zip":"56524","fips":"27111","name":"Otter Tail County","state_id":"MN"},{"zip":"56525","fips":"27027","name":"Clay County","state_id":"MN"},{"zip":"56527","fips":"27111","name":"Otter Tail County","state_id":"MN"},{"zip":"56528","fips":"27111","name":"Otter Tail County","state_id":"MN"},{"zip":"56529","fips":"27027","name":"Clay County","state_id":"MN"},{"zip":"56531","fips":"27111","name":"Otter Tail County","state_id":"MN"},{"zip":"56531","fips":"27051","name":"Grant County","state_id":"MN"},{"zip":"56533","fips":"27111","name":"Otter Tail County","state_id":"MN"},{"zip":"56534","fips":"27111","name":"Otter Tail County","state_id":"MN"},{"zip":"56535","fips":"27119","name":"Polk County","state_id":"MN"},{"zip":"56535","fips":"27125","name":"Red Lake County","state_id":"MN"},{"zip":"56536","fips":"27027","name":"Clay County","state_id":"MN"},{"zip":"56537","fips":"27051","name":"Grant County","state_id":"MN"},{"zip":"56537","fips":"27111","name":"Otter Tail County","state_id":"MN"},{"zip":"56540","fips":"27107","name":"Norman County","state_id":"MN"},{"zip":"56540","fips":"27119","name":"Polk County","state_id":"MN"},{"zip":"56540","fips":"27087","name":"Mahnomen County","state_id":"MN"},{"zip":"56541","fips":"27107","name":"Norman County","state_id":"MN"},{"zip":"56542","fips":"27087","name":"Mahnomen County","state_id":"MN"},{"zip":"56542","fips":"27119","name":"Polk County","state_id":"MN"},{"zip":"56543","fips":"27167","name":"Wilkin County","state_id":"MN"},{"zip":"56544","fips":"27005","name":"Becker County","state_id":"MN"},{"zip":"56544","fips":"27111","name":"Otter Tail County","state_id":"MN"},{"zip":"56545","fips":"27107","name":"Norman County","state_id":"MN"},{"zip":"56546","fips":"27107","name":"Norman County","state_id":"MN"},{"zip":"56546","fips":"27027","name":"Clay County","state_id":"MN"},{"zip":"56547","fips":"27027","name":"Clay County","state_id":"MN"},{"zip":"56548","fips":"27107","name":"Norman County","state_id":"MN"},{"zip":"56549","fips":"27027","name":"Clay County","state_id":"MN"},{"zip":"56549","fips":"27005","name":"Becker County","state_id":"MN"},{"zip":"56550","fips":"27107","name":"Norman County","state_id":"MN"},{"zip":"56551","fips":"27111","name":"Otter Tail County","state_id":"MN"},{"zip":"56552","fips":"27005","name":"Becker County","state_id":"MN"},{"zip":"56552","fips":"27027","name":"Clay County","state_id":"MN"},{"zip":"56553","fips":"27167","name":"Wilkin County","state_id":"MN"},{"zip":"56554","fips":"27027","name":"Clay County","state_id":"MN"},{"zip":"56554","fips":"27005","name":"Becker County","state_id":"MN"},{"zip":"56556","fips":"27119","name":"Polk County","state_id":"MN"},{"zip":"56557","fips":"27029","name":"Clearwater County","state_id":"MN"},{"zip":"56557","fips":"27087","name":"Mahnomen County","state_id":"MN"},{"zip":"56557","fips":"27107","name":"Norman County","state_id":"MN"},{"zip":"56560","fips":"27027","name":"Clay County","state_id":"MN"},{"zip":"56561","fips":"27027","name":"Clay County","state_id":"MN"},{"zip":"56562","fips":"27027","name":"Clay County","state_id":"MN"},{"zip":"56563","fips":"27027","name":"Clay County","state_id":"MN"},{"zip":"56565","fips":"27155","name":"Traverse County","state_id":"MN"},{"zip":"56565","fips":"27167","name":"Wilkin County","state_id":"MN"},{"zip":"56566","fips":"27087","name":"Mahnomen County","state_id":"MN"},{"zip":"56567","fips":"27111","name":"Otter Tail County","state_id":"MN"},{"zip":"56568","fips":"27119","name":"Polk County","state_id":"MN"},{"zip":"56568","fips":"27107","name":"Norman County","state_id":"MN"},{"zip":"56569","fips":"27005","name":"Becker County","state_id":"MN"},{"zip":"56570","fips":"27005","name":"Becker County","state_id":"MN"},{"zip":"56571","fips":"27111","name":"Otter Tail County","state_id":"MN"},{"zip":"56572","fips":"27167","name":"Wilkin County","state_id":"MN"},{"zip":"56572","fips":"27005","name":"Becker County","state_id":"MN"},{"zip":"56572","fips":"27027","name":"Clay County","state_id":"MN"},{"zip":"56572","fips":"27111","name":"Otter Tail County","state_id":"MN"},{"zip":"56573","fips":"27111","name":"Otter Tail County","state_id":"MN"},{"zip":"56574","fips":"27107","name":"Norman County","state_id":"MN"},{"zip":"56574","fips":"27027","name":"Clay County","state_id":"MN"},{"zip":"56575","fips":"27005","name":"Becker County","state_id":"MN"},{"zip":"56576","fips":"27111","name":"Otter Tail County","state_id":"MN"},{"zip":"56577","fips":"27005","name":"Becker County","state_id":"MN"},{"zip":"56578","fips":"27005","name":"Becker County","state_id":"MN"},{"zip":"56579","fips":"27167","name":"Wilkin County","state_id":"MN"},{"zip":"56579","fips":"27111","name":"Otter Tail County","state_id":"MN"},{"zip":"56580","fips":"27027","name":"Clay County","state_id":"MN"},{"zip":"56581","fips":"27107","name":"Norman County","state_id":"MN"},{"zip":"56583","fips":"27155","name":"Traverse County","state_id":"MN"},{"zip":"56583","fips":"27167","name":"Wilkin County","state_id":"MN"},{"zip":"56583","fips":"27111","name":"Otter Tail County","state_id":"MN"},{"zip":"56584","fips":"27107","name":"Norman County","state_id":"MN"},{"zip":"56584","fips":"27027","name":"Clay County","state_id":"MN"},{"zip":"56585","fips":"27005","name":"Becker County","state_id":"MN"},{"zip":"56585","fips":"27027","name":"Clay County","state_id":"MN"},{"zip":"56585","fips":"27107","name":"Norman County","state_id":"MN"},{"zip":"56586","fips":"27111","name":"Otter Tail County","state_id":"MN"},{"zip":"56587","fips":"27111","name":"Otter Tail County","state_id":"MN"},{"zip":"56588","fips":"27111","name":"Otter Tail County","state_id":"MN"},{"zip":"56589","fips":"27087","name":"Mahnomen County","state_id":"MN"},{"zip":"56589","fips":"27005","name":"Becker County","state_id":"MN"},{"zip":"56589","fips":"27107","name":"Norman County","state_id":"MN"},{"zip":"56590","fips":"27051","name":"Grant County","state_id":"MN"},{"zip":"56591","fips":"27005","name":"Becker County","state_id":"MN"},{"zip":"56592","fips":"27119","name":"Polk County","state_id":"MN"},{"zip":"56592","fips":"27087","name":"Mahnomen County","state_id":"MN"},{"zip":"56593","fips":"27005","name":"Becker County","state_id":"MN"},{"zip":"56594","fips":"27167","name":"Wilkin County","state_id":"MN"},{"zip":"56594","fips":"27027","name":"Clay County","state_id":"MN"}]
