[{"zip":"56601","fips":"27057","name":"Hubbard County","state_id":"MN"},{"zip":"56601","fips":"27007","name":"Beltrami County","state_id":"MN"},{"zip":"56619","fips":"27007","name":"Beltrami County","state_id":"MN"},{"zip":"56621","fips":"27087","name":"Mahnomen County","state_id":"MN"},{"zip":"56621","fips":"27029","name":"Clearwater County","state_id":"MN"},{"zip":"56621","fips":"27119","name":"Polk County","state_id":"MN"},{"zip":"56623","fips":"27077","name":"Lake of the Woods County","state_id":"MN"},{"zip":"56623","fips":"27071","name":"Koochiching County","state_id":"MN"},{"zip":"56626","fips":"27021","name":"Cass County","state_id":"MN"},{"zip":"56627","fips":"27071","name":"Koochiching County","state_id":"MN"},{"zip":"56628","fips":"27061","name":"Itasca County","state_id":"MN"},{"zip":"56629","fips":"27071","name":"Koochiching County","state_id":"MN"},{"zip":"56630","fips":"27061","name":"Itasca County","state_id":"MN"},{"zip":"56630","fips":"27007","name":"Beltrami County","state_id":"MN"},{"zip":"56631","fips":"27061","name":"Itasca County","state_id":"MN"},{"zip":"56633","fips":"27007","name":"Beltrami County","state_id":"MN"},{"zip":"56633","fips":"27057","name":"Hubbard County","state_id":"MN"},{"zip":"56633","fips":"27021","name":"Cass County","state_id":"MN"},{"zip":"56634","fips":"27029","name":"Clearwater County","state_id":"MN"},{"zip":"56636","fips":"27061","name":"Itasca County","state_id":"MN"},{"zip":"56636","fips":"27021","name":"Cass County","state_id":"MN"},{"zip":"56637","fips":"27061","name":"Itasca County","state_id":"MN"},{"zip":"56639","fips":"27071","name":"Koochiching County","state_id":"MN"},{"zip":"56639","fips":"27061","name":"Itasca County","state_id":"MN"},{"zip":"56641","fips":"27021","name":"Cass County","state_id":"MN"},{"zip":"56644","fips":"27029","name":"Clearwater County","state_id":"MN"},{"zip":"56644","fips":"27119","name":"Polk County","state_id":"MN"},{"zip":"56646","fips":"27119","name":"Polk County","state_id":"MN"},{"zip":"56646","fips":"27029","name":"Clearwater County","state_id":"MN"},{"zip":"56647","fips":"27007","name":"Beltrami County","state_id":"MN"},{"zip":"56649","fips":"27071","name":"Koochiching County","state_id":"MN"},{"zip":"56650","fips":"27007","name":"Beltrami County","state_id":"MN"},{"zip":"56651","fips":"27119","name":"Polk County","state_id":"MN"},{"zip":"56651","fips":"27087","name":"Mahnomen County","state_id":"MN"},{"zip":"56652","fips":"27007","name":"Beltrami County","state_id":"MN"},{"zip":"56652","fips":"27029","name":"Clearwater County","state_id":"MN"},{"zip":"56653","fips":"27071","name":"Koochiching County","state_id":"MN"},{"zip":"56654","fips":"27071","name":"Koochiching County","state_id":"MN"},{"zip":"56655","fips":"27021","name":"Cass County","state_id":"MN"},{"zip":"56657","fips":"27061","name":"Itasca County","state_id":"MN"},{"zip":"56658","fips":"27071","name":"Koochiching County","state_id":"MN"},{"zip":"56659","fips":"27061","name":"Itasca County","state_id":"MN"},{"zip":"56660","fips":"27071","name":"Koochiching County","state_id":"MN"},{"zip":"56661","fips":"27071","name":"Koochiching County","state_id":"MN"},{"zip":"56661","fips":"27007","name":"Beltrami County","state_id":"MN"},{"zip":"56661","fips":"27061","name":"Itasca County","state_id":"MN"},{"zip":"56662","fips":"27021","name":"Cass County","state_id":"MN"},{"zip":"56662","fips":"27035","name":"Crow Wing County","state_id":"MN"},{"zip":"56663","fips":"27007","name":"Beltrami County","state_id":"MN"},{"zip":"56666","fips":"27007","name":"Beltrami County","state_id":"MN"},{"zip":"56667","fips":"27007","name":"Beltrami County","state_id":"MN"},{"zip":"56668","fips":"27071","name":"Koochiching County","state_id":"MN"},{"zip":"56669","fips":"27071","name":"Koochiching County","state_id":"MN"},{"zip":"56669","fips":"27137","name":"St. Louis County","state_id":"MN"},{"zip":"56670","fips":"27007","name":"Beltrami County","state_id":"MN"},{"zip":"56671","fips":"27007","name":"Beltrami County","state_id":"MN"},{"zip":"56672","fips":"27021","name":"Cass County","state_id":"MN"},{"zip":"56673","fips":"27135","name":"Roseau County","state_id":"MN"},{"zip":"56673","fips":"27077","name":"Lake of the Woods County","state_id":"MN"},{"zip":"56676","fips":"27029","name":"Clearwater County","state_id":"MN"},{"zip":"56676","fips":"27007","name":"Beltrami County","state_id":"MN"},{"zip":"56678","fips":"27057","name":"Hubbard County","state_id":"MN"},{"zip":"56678","fips":"27029","name":"Clearwater County","state_id":"MN"},{"zip":"56678","fips":"27007","name":"Beltrami County","state_id":"MN"},{"zip":"56679","fips":"27071","name":"Koochiching County","state_id":"MN"},{"zip":"56680","fips":"27061","name":"Itasca County","state_id":"MN"},{"zip":"56681","fips":"27061","name":"Itasca County","state_id":"MN"},{"zip":"56683","fips":"27007","name":"Beltrami County","state_id":"MN"},{"zip":"56684","fips":"27119","name":"Polk County","state_id":"MN"},{"zip":"56685","fips":"27007","name":"Beltrami County","state_id":"MN"},{"zip":"56686","fips":"27077","name":"Lake of the Woods County","state_id":"MN"},{"zip":"56688","fips":"27061","name":"Itasca County","state_id":"MN"}]
