[{"zip":"56701","fips":"27113","name":"Pennington County","state_id":"MN"},{"zip":"56701","fips":"27089","name":"Marshall County","state_id":"MN"},{"zip":"56710","fips":"27119","name":"Polk County","state_id":"MN"},{"zip":"56710","fips":"27089","name":"Marshall County","state_id":"MN"},{"zip":"56711","fips":"27077","name":"Lake of the Woods County","state_id":"MN"},{"zip":"56713","fips":"27089","name":"Marshall County","state_id":"MN"},{"zip":"56714","fips":"27135","name":"Roseau County","state_id":"MN"},{"zip":"56715","fips":"27125","name":"Red Lake County","state_id":"MN"},{"zip":"56716","fips":"27119","name":"Polk County","state_id":"MN"},{"zip":"56716","fips":"27125","name":"Red Lake County","state_id":"MN"},{"zip":"56720","fips":"27069","name":"Kittson County","state_id":"MN"},{"zip":"56721","fips":"27119","name":"Polk County","state_id":"MN"},{"zip":"56722","fips":"27119","name":"Polk County","state_id":"MN"},{"zip":"56723","fips":"27119","name":"Polk County","state_id":"MN"},{"zip":"56724","fips":"27089","name":"Marshall County","state_id":"MN"},{"zip":"56725","fips":"27113","name":"Pennington County","state_id":"MN"},{"zip":"56725","fips":"27089","name":"Marshall County","state_id":"MN"},{"zip":"56726","fips":"27135","name":"Roseau County","state_id":"MN"},{"zip":"56727","fips":"27089","name":"Marshall County","state_id":"MN"},{"zip":"56727","fips":"27007","name":"Beltrami County","state_id":"MN"},{"zip":"56728","fips":"27069","name":"Kittson County","state_id":"MN"},{"zip":"56729","fips":"27069","name":"Kittson County","state_id":"MN"},{"zip":"56731","fips":"27069","name":"Kittson County","state_id":"MN"},{"zip":"56732","fips":"27089","name":"Marshall County","state_id":"MN"},{"zip":"56732","fips":"27069","name":"Kittson County","state_id":"MN"},{"zip":"56732","fips":"27135","name":"Roseau County","state_id":"MN"},{"zip":"56733","fips":"27069","name":"Kittson County","state_id":"MN"},{"zip":"56734","fips":"27069","name":"Kittson County","state_id":"MN"},{"zip":"56735","fips":"27069","name":"Kittson County","state_id":"MN"},{"zip":"56735","fips":"27135","name":"Roseau County","state_id":"MN"},{"zip":"56736","fips":"27119","name":"Polk County","state_id":"MN"},{"zip":"56736","fips":"27125","name":"Red Lake County","state_id":"MN"},{"zip":"56737","fips":"27089","name":"Marshall County","state_id":"MN"},{"zip":"56738","fips":"27089","name":"Marshall County","state_id":"MN"},{"zip":"56740","fips":"27069","name":"Kittson County","state_id":"MN"},{"zip":"56741","fips":"27077","name":"Lake of the Woods County","state_id":"MN"},{"zip":"56742","fips":"27125","name":"Red Lake County","state_id":"MN"},{"zip":"56742","fips":"27119","name":"Polk County","state_id":"MN"},{"zip":"56744","fips":"27119","name":"Polk County","state_id":"MN"},{"zip":"56744","fips":"27089","name":"Marshall County","state_id":"MN"},{"zip":"56748","fips":"27125","name":"Red Lake County","state_id":"MN"},{"zip":"56748","fips":"27113","name":"Pennington County","state_id":"MN"},{"zip":"56750","fips":"27125","name":"Red Lake County","state_id":"MN"},{"zip":"56750","fips":"27113","name":"Pennington County","state_id":"MN"},{"zip":"56750","fips":"27119","name":"Polk County","state_id":"MN"},{"zip":"56751","fips":"27135","name":"Roseau County","state_id":"MN"},{"zip":"56754","fips":"27113","name":"Pennington County","state_id":"MN"},{"zip":"56754","fips":"27125","name":"Red Lake County","state_id":"MN"},{"zip":"56755","fips":"27069","name":"Kittson County","state_id":"MN"},{"zip":"56756","fips":"27135","name":"Roseau County","state_id":"MN"},{"zip":"56757","fips":"27089","name":"Marshall County","state_id":"MN"},{"zip":"56758","fips":"27089","name":"Marshall County","state_id":"MN"},{"zip":"56759","fips":"27135","name":"Roseau County","state_id":"MN"},{"zip":"56759","fips":"27089","name":"Marshall County","state_id":"MN"},{"zip":"56760","fips":"27113","name":"Pennington County","state_id":"MN"},{"zip":"56760","fips":"27089","name":"Marshall County","state_id":"MN"},{"zip":"56761","fips":"27135","name":"Roseau County","state_id":"MN"},{"zip":"56762","fips":"27089","name":"Marshall County","state_id":"MN"},{"zip":"56762","fips":"27119","name":"Polk County","state_id":"MN"},{"zip":"56763","fips":"27135","name":"Roseau County","state_id":"MN"}]
