[{"zip":"57001","fips":"46127","name":"Union County","state_id":"SD"},{"zip":"57001","fips":"46083","name":"Lincoln County","state_id":"SD"},{"zip":"57002","fips":"46011","name":"Brookings County","state_id":"SD"},{"zip":"57002","fips":"46101","name":"Moody County","state_id":"SD"},{"zip":"57003","fips":"46099","name":"Minnehaha County","state_id":"SD"},{"zip":"57004","fips":"46027","name":"Clay County","state_id":"SD"},{"zip":"57004","fips":"46083","name":"Lincoln County","state_id":"SD"},{"zip":"57004","fips":"46127","name":"Union County","state_id":"SD"},{"zip":"57005","fips":"46099","name":"Minnehaha County","state_id":"SD"},{"zip":"57006","fips":"46101","name":"Moody County","state_id":"SD"},{"zip":"57006","fips":"46011","name":"Brookings County","state_id":"SD"},{"zip":"57007","fips":"46011","name":"Brookings County","state_id":"SD"},{"zip":"57010","fips":"46027","name":"Clay County","state_id":"SD"},{"zip":"57010","fips":"46127","name":"Union County","state_id":"SD"},{"zip":"57012","fips":"46087","name":"McCook County","state_id":"SD"},{"zip":"57013","fips":"46083","name":"Lincoln County","state_id":"SD"},{"zip":"57014","fips":"46027","name":"Clay County","state_id":"SD"},{"zip":"57014","fips":"46125","name":"Turner County","state_id":"SD"},{"zip":"57014","fips":"46083","name":"Lincoln County","state_id":"SD"},{"zip":"57015","fips":"46125","name":"Turner County","state_id":"SD"},{"zip":"57015","fips":"46099","name":"Minnehaha County","state_id":"SD"},{"zip":"57016","fips":"46079","name":"Lake County","state_id":"SD"},{"zip":"57016","fips":"46099","name":"Minnehaha County","state_id":"SD"},{"zip":"57017","fips":"46079","name":"Lake County","state_id":"SD"},{"zip":"57017","fips":"46101","name":"Moody County","state_id":"SD"},{"zip":"57018","fips":"46099","name":"Minnehaha County","state_id":"SD"},{"zip":"57018","fips":"46079","name":"Lake County","state_id":"SD"},{"zip":"57020","fips":"46099","name":"Minnehaha County","state_id":"SD"},{"zip":"57021","fips":"46083","name":"Lincoln County","state_id":"SD"},{"zip":"57021","fips":"46125","name":"Turner County","state_id":"SD"},{"zip":"57022","fips":"46099","name":"Minnehaha County","state_id":"SD"},{"zip":"57022","fips":"46101","name":"Moody County","state_id":"SD"},{"zip":"57022","fips":"46079","name":"Lake County","state_id":"SD"},{"zip":"57024","fips":"46101","name":"Moody County","state_id":"SD"},{"zip":"57025","fips":"46127","name":"Union County","state_id":"SD"},{"zip":"57026","fips":"46011","name":"Brookings County","state_id":"SD"},{"zip":"57026","fips":"46101","name":"Moody County","state_id":"SD"},{"zip":"57027","fips":"46083","name":"Lincoln County","state_id":"SD"},{"zip":"57028","fips":"46101","name":"Moody County","state_id":"SD"},{"zip":"57029","fips":"46125","name":"Turner County","state_id":"SD"},{"zip":"57029","fips":"46067","name":"Hutchinson County","state_id":"SD"},{"zip":"57030","fips":"46099","name":"Minnehaha County","state_id":"SD"},{"zip":"57031","fips":"46027","name":"Clay County","state_id":"SD"},{"zip":"57031","fips":"46135","name":"Yankton County","state_id":"SD"},{"zip":"57032","fips":"46083","name":"Lincoln County","state_id":"SD"},{"zip":"57033","fips":"46099","name":"Minnehaha County","state_id":"SD"},{"zip":"57034","fips":"46127","name":"Union County","state_id":"SD"},{"zip":"57034","fips":"46083","name":"Lincoln County","state_id":"SD"},{"zip":"57035","fips":"46087","name":"McCook County","state_id":"SD"},{"zip":"57035","fips":"46099","name":"Minnehaha County","state_id":"SD"},{"zip":"57036","fips":"46125","name":"Turner County","state_id":"SD"},{"zip":"57037","fips":"46125","name":"Turner County","state_id":"SD"},{"zip":"57037","fips":"46027","name":"Clay County","state_id":"SD"},{"zip":"57037","fips":"46135","name":"Yankton County","state_id":"SD"},{"zip":"57038","fips":"46127","name":"Union County","state_id":"SD"},{"zip":"57039","fips":"46125","name":"Turner County","state_id":"SD"},{"zip":"57039","fips":"46083","name":"Lincoln County","state_id":"SD"},{"zip":"57040","fips":"46009","name":"Bon Homme County","state_id":"SD"},{"zip":"57040","fips":"46135","name":"Yankton County","state_id":"SD"},{"zip":"57041","fips":"46099","name":"Minnehaha County","state_id":"SD"},{"zip":"57042","fips":"46099","name":"Minnehaha County","state_id":"SD"},{"zip":"57042","fips":"46087","name":"McCook County","state_id":"SD"},{"zip":"57042","fips":"46079","name":"Lake County","state_id":"SD"},{"zip":"57043","fips":"46067","name":"Hutchinson County","state_id":"SD"},{"zip":"57043","fips":"46087","name":"McCook County","state_id":"SD"},{"zip":"57043","fips":"46125","name":"Turner County","state_id":"SD"},{"zip":"57045","fips":"46125","name":"Turner County","state_id":"SD"},{"zip":"57045","fips":"46135","name":"Yankton County","state_id":"SD"},{"zip":"57045","fips":"46067","name":"Hutchinson County","state_id":"SD"},{"zip":"57046","fips":"46135","name":"Yankton County","state_id":"SD"},{"zip":"57047","fips":"46125","name":"Turner County","state_id":"SD"},{"zip":"57047","fips":"46087","name":"McCook County","state_id":"SD"},{"zip":"57048","fips":"46099","name":"Minnehaha County","state_id":"SD"},{"zip":"57048","fips":"46087","name":"McCook County","state_id":"SD"},{"zip":"57048","fips":"46079","name":"Lake County","state_id":"SD"},{"zip":"57049","fips":"46127","name":"Union County","state_id":"SD"},{"zip":"57050","fips":"46079","name":"Lake County","state_id":"SD"},{"zip":"57051","fips":"46079","name":"Lake County","state_id":"SD"},{"zip":"57051","fips":"46097","name":"Miner County","state_id":"SD"},{"zip":"57051","fips":"46077","name":"Kingsbury County","state_id":"SD"},{"zip":"57052","fips":"46067","name":"Hutchinson County","state_id":"SD"},{"zip":"57053","fips":"46099","name":"Minnehaha County","state_id":"SD"},{"zip":"57053","fips":"46125","name":"Turner County","state_id":"SD"},{"zip":"57053","fips":"46087","name":"McCook County","state_id":"SD"},{"zip":"57054","fips":"46097","name":"Miner County","state_id":"SD"},{"zip":"57054","fips":"46079","name":"Lake County","state_id":"SD"},{"zip":"57054","fips":"46077","name":"Kingsbury County","state_id":"SD"},{"zip":"57055","fips":"46099","name":"Minnehaha County","state_id":"SD"},{"zip":"57057","fips":"46079","name":"Lake County","state_id":"SD"},{"zip":"57057","fips":"46101","name":"Moody County","state_id":"SD"},{"zip":"57058","fips":"46079","name":"Lake County","state_id":"SD"},{"zip":"57058","fips":"46097","name":"Miner County","state_id":"SD"},{"zip":"57058","fips":"46087","name":"McCook County","state_id":"SD"},{"zip":"57059","fips":"46135","name":"Yankton County","state_id":"SD"},{"zip":"57059","fips":"46067","name":"Hutchinson County","state_id":"SD"},{"zip":"57059","fips":"46009","name":"Bon Homme County","state_id":"SD"},{"zip":"57061","fips":"46011","name":"Brookings County","state_id":"SD"},{"zip":"57062","fips":"46009","name":"Bon Homme County","state_id":"SD"},{"zip":"57063","fips":"46009","name":"Bon Homme County","state_id":"SD"},{"zip":"57063","fips":"46135","name":"Yankton County","state_id":"SD"},{"zip":"57064","fips":"46099","name":"Minnehaha County","state_id":"SD"},{"zip":"57064","fips":"46083","name":"Lincoln County","state_id":"SD"},{"zip":"57064","fips":"46125","name":"Turner County","state_id":"SD"},{"zip":"57065","fips":"46101","name":"Moody County","state_id":"SD"},{"zip":"57066","fips":"46009","name":"Bon Homme County","state_id":"SD"},{"zip":"57067","fips":"46135","name":"Yankton County","state_id":"SD"},{"zip":"57068","fips":"46099","name":"Minnehaha County","state_id":"SD"},{"zip":"57069","fips":"46027","name":"Clay County","state_id":"SD"},{"zip":"57070","fips":"46135","name":"Yankton County","state_id":"SD"},{"zip":"57070","fips":"46125","name":"Turner County","state_id":"SD"},{"zip":"57071","fips":"46101","name":"Moody County","state_id":"SD"},{"zip":"57071","fips":"46079","name":"Lake County","state_id":"SD"},{"zip":"57071","fips":"46011","name":"Brookings County","state_id":"SD"},{"zip":"57072","fips":"46135","name":"Yankton County","state_id":"SD"},{"zip":"57072","fips":"46027","name":"Clay County","state_id":"SD"},{"zip":"57073","fips":"46125","name":"Turner County","state_id":"SD"},{"zip":"57073","fips":"46027","name":"Clay County","state_id":"SD"},{"zip":"57075","fips":"46079","name":"Lake County","state_id":"SD"},{"zip":"57075","fips":"46101","name":"Moody County","state_id":"SD"},{"zip":"57076","fips":"46097","name":"Miner County","state_id":"SD"},{"zip":"57076","fips":"46079","name":"Lake County","state_id":"SD"},{"zip":"57077","fips":"46083","name":"Lincoln County","state_id":"SD"},{"zip":"57078","fips":"46135","name":"Yankton County","state_id":"SD"}]
