[{"zip":"57101","fips":"46099","name":"Minnehaha County","state_id":"SD"},{"zip":"57103","fips":"46099","name":"Minnehaha County","state_id":"SD"},{"zip":"57104","fips":"46099","name":"Minnehaha County","state_id":"SD"},{"zip":"57105","fips":"46099","name":"Minnehaha County","state_id":"SD"},{"zip":"57106","fips":"46083","name":"Lincoln County","state_id":"SD"},{"zip":"57106","fips":"46099","name":"Minnehaha County","state_id":"SD"},{"zip":"57107","fips":"46099","name":"Minnehaha County","state_id":"SD"},{"zip":"57108","fips":"46099","name":"Minnehaha County","state_id":"SD"},{"zip":"57108","fips":"46083","name":"Lincoln County","state_id":"SD"},{"zip":"57109","fips":"46099","name":"Minnehaha County","state_id":"SD"},{"zip":"57110","fips":"46099","name":"Minnehaha County","state_id":"SD"},{"zip":"57118","fips":"46099","name":"Minnehaha County","state_id":"SD"},{"zip":"57186","fips":"46099","name":"Minnehaha County","state_id":"SD"},{"zip":"57193","fips":"46099","name":"Minnehaha County","state_id":"SD"},{"zip":"57197","fips":"46099","name":"Minnehaha County","state_id":"SD"},{"zip":"57198","fips":"46099","name":"Minnehaha County","state_id":"SD"}]
