[{"zip":"57201","fips":"46057","name":"Hamlin County","state_id":"SD"},{"zip":"57201","fips":"46029","name":"Codington County","state_id":"SD"},{"zip":"57212","fips":"46079","name":"Lake County","state_id":"SD"},{"zip":"57212","fips":"46011","name":"Brookings County","state_id":"SD"},{"zip":"57212","fips":"46077","name":"Kingsbury County","state_id":"SD"},{"zip":"57212","fips":"46057","name":"Hamlin County","state_id":"SD"},{"zip":"57213","fips":"46039","name":"Deuel County","state_id":"SD"},{"zip":"57213","fips":"46011","name":"Brookings County","state_id":"SD"},{"zip":"57214","fips":"46077","name":"Kingsbury County","state_id":"SD"},{"zip":"57216","fips":"46051","name":"Grant County","state_id":"SD"},{"zip":"57216","fips":"46109","name":"Roberts County","state_id":"SD"},{"zip":"57217","fips":"46029","name":"Codington County","state_id":"SD"},{"zip":"57217","fips":"46025","name":"Clark County","state_id":"SD"},{"zip":"57218","fips":"46039","name":"Deuel County","state_id":"SD"},{"zip":"57219","fips":"46037","name":"Day County","state_id":"SD"},{"zip":"57220","fips":"46011","name":"Brookings County","state_id":"SD"},{"zip":"57221","fips":"46077","name":"Kingsbury County","state_id":"SD"},{"zip":"57221","fips":"46025","name":"Clark County","state_id":"SD"},{"zip":"57221","fips":"46057","name":"Hamlin County","state_id":"SD"},{"zip":"57223","fips":"46039","name":"Deuel County","state_id":"SD"},{"zip":"57223","fips":"46057","name":"Hamlin County","state_id":"SD"},{"zip":"57224","fips":"46109","name":"Roberts County","state_id":"SD"},{"zip":"57225","fips":"46025","name":"Clark County","state_id":"SD"},{"zip":"57226","fips":"46057","name":"Hamlin County","state_id":"SD"},{"zip":"57226","fips":"46039","name":"Deuel County","state_id":"SD"},{"zip":"57227","fips":"46051","name":"Grant County","state_id":"SD"},{"zip":"57227","fips":"46109","name":"Roberts County","state_id":"SD"},{"zip":"57231","fips":"46077","name":"Kingsbury County","state_id":"SD"},{"zip":"57232","fips":"46091","name":"Marshall County","state_id":"SD"},{"zip":"57232","fips":"46037","name":"Day County","state_id":"SD"},{"zip":"57233","fips":"46077","name":"Kingsbury County","state_id":"SD"},{"zip":"57233","fips":"46057","name":"Hamlin County","state_id":"SD"},{"zip":"57234","fips":"46011","name":"Brookings County","state_id":"SD"},{"zip":"57234","fips":"46057","name":"Hamlin County","state_id":"SD"},{"zip":"57234","fips":"46039","name":"Deuel County","state_id":"SD"},{"zip":"57235","fips":"46029","name":"Codington County","state_id":"SD"},{"zip":"57235","fips":"46037","name":"Day County","state_id":"SD"},{"zip":"57236","fips":"46025","name":"Clark County","state_id":"SD"},{"zip":"57237","fips":"46039","name":"Deuel County","state_id":"SD"},{"zip":"57238","fips":"46051","name":"Grant County","state_id":"SD"},{"zip":"57238","fips":"46057","name":"Hamlin County","state_id":"SD"},{"zip":"57238","fips":"46029","name":"Codington County","state_id":"SD"},{"zip":"57238","fips":"46039","name":"Deuel County","state_id":"SD"},{"zip":"57239","fips":"46037","name":"Day County","state_id":"SD"},{"zip":"57241","fips":"46057","name":"Hamlin County","state_id":"SD"},{"zip":"57242","fips":"46029","name":"Codington County","state_id":"SD"},{"zip":"57242","fips":"46057","name":"Hamlin County","state_id":"SD"},{"zip":"57243","fips":"46029","name":"Codington County","state_id":"SD"},{"zip":"57243","fips":"46025","name":"Clark County","state_id":"SD"},{"zip":"57243","fips":"46057","name":"Hamlin County","state_id":"SD"},{"zip":"57245","fips":"46029","name":"Codington County","state_id":"SD"},{"zip":"57246","fips":"46051","name":"Grant County","state_id":"SD"},{"zip":"57247","fips":"46091","name":"Marshall County","state_id":"SD"},{"zip":"57248","fips":"46057","name":"Hamlin County","state_id":"SD"},{"zip":"57248","fips":"46077","name":"Kingsbury County","state_id":"SD"},{"zip":"57249","fips":"46077","name":"Kingsbury County","state_id":"SD"},{"zip":"57251","fips":"46051","name":"Grant County","state_id":"SD"},{"zip":"57252","fips":"46051","name":"Grant County","state_id":"SD"},{"zip":"57252","fips":"46109","name":"Roberts County","state_id":"SD"},{"zip":"57255","fips":"46109","name":"Roberts County","state_id":"SD"},{"zip":"57256","fips":"46109","name":"Roberts County","state_id":"SD"},{"zip":"57256","fips":"46029","name":"Codington County","state_id":"SD"},{"zip":"57256","fips":"46037","name":"Day County","state_id":"SD"},{"zip":"57256","fips":"46051","name":"Grant County","state_id":"SD"},{"zip":"57257","fips":"46109","name":"Roberts County","state_id":"SD"},{"zip":"57258","fips":"46025","name":"Clark County","state_id":"SD"},{"zip":"57258","fips":"46115","name":"Spink County","state_id":"SD"},{"zip":"57259","fips":"46039","name":"Deuel County","state_id":"SD"},{"zip":"57259","fips":"46051","name":"Grant County","state_id":"SD"},{"zip":"57260","fips":"46109","name":"Roberts County","state_id":"SD"},{"zip":"57261","fips":"46037","name":"Day County","state_id":"SD"},{"zip":"57262","fips":"46091","name":"Marshall County","state_id":"SD"},{"zip":"57262","fips":"46109","name":"Roberts County","state_id":"SD"},{"zip":"57263","fips":"46051","name":"Grant County","state_id":"SD"},{"zip":"57263","fips":"46029","name":"Codington County","state_id":"SD"},{"zip":"57264","fips":"46051","name":"Grant County","state_id":"SD"},{"zip":"57264","fips":"46029","name":"Codington County","state_id":"SD"},{"zip":"57265","fips":"46051","name":"Grant County","state_id":"SD"},{"zip":"57265","fips":"46039","name":"Deuel County","state_id":"SD"},{"zip":"57265","fips":"46029","name":"Codington County","state_id":"SD"},{"zip":"57266","fips":"46051","name":"Grant County","state_id":"SD"},{"zip":"57266","fips":"46109","name":"Roberts County","state_id":"SD"},{"zip":"57268","fips":"46011","name":"Brookings County","state_id":"SD"},{"zip":"57268","fips":"46039","name":"Deuel County","state_id":"SD"},{"zip":"57269","fips":"46051","name":"Grant County","state_id":"SD"},{"zip":"57270","fips":"46091","name":"Marshall County","state_id":"SD"},{"zip":"57270","fips":"46109","name":"Roberts County","state_id":"SD"},{"zip":"57271","fips":"46057","name":"Hamlin County","state_id":"SD"},{"zip":"57271","fips":"46025","name":"Clark County","state_id":"SD"},{"zip":"57272","fips":"46029","name":"Codington County","state_id":"SD"},{"zip":"57272","fips":"46025","name":"Clark County","state_id":"SD"},{"zip":"57273","fips":"46109","name":"Roberts County","state_id":"SD"},{"zip":"57273","fips":"46051","name":"Grant County","state_id":"SD"},{"zip":"57273","fips":"46037","name":"Day County","state_id":"SD"},{"zip":"57274","fips":"46037","name":"Day County","state_id":"SD"},{"zip":"57274","fips":"46025","name":"Clark County","state_id":"SD"},{"zip":"57276","fips":"46011","name":"Brookings County","state_id":"SD"},{"zip":"57278","fips":"46025","name":"Clark County","state_id":"SD"},{"zip":"57279","fips":"46109","name":"Roberts County","state_id":"SD"},{"zip":"57279","fips":"46051","name":"Grant County","state_id":"SD"}]
