[{"zip":"57301","fips":"46061","name":"Hanson County","state_id":"SD"},{"zip":"57301","fips":"46035","name":"Davison County","state_id":"SD"},{"zip":"57311","fips":"46067","name":"Hutchinson County","state_id":"SD"},{"zip":"57311","fips":"46061","name":"Hanson County","state_id":"SD"},{"zip":"57312","fips":"46005","name":"Beadle County","state_id":"SD"},{"zip":"57312","fips":"46073","name":"Jerauld County","state_id":"SD"},{"zip":"57312","fips":"46111","name":"Sanborn County","state_id":"SD"},{"zip":"57313","fips":"46023","name":"Charles Mix County","state_id":"SD"},{"zip":"57313","fips":"46043","name":"Douglas County","state_id":"SD"},{"zip":"57314","fips":"46005","name":"Beadle County","state_id":"SD"},{"zip":"57314","fips":"46111","name":"Sanborn County","state_id":"SD"},{"zip":"57315","fips":"46009","name":"Bon Homme County","state_id":"SD"},{"zip":"57315","fips":"46023","name":"Charles Mix County","state_id":"SD"},{"zip":"57317","fips":"46053","name":"Gregory County","state_id":"SD"},{"zip":"57319","fips":"46061","name":"Hanson County","state_id":"SD"},{"zip":"57319","fips":"46087","name":"McCook County","state_id":"SD"},{"zip":"57319","fips":"46125","name":"Turner County","state_id":"SD"},{"zip":"57319","fips":"46067","name":"Hutchinson County","state_id":"SD"},{"zip":"57321","fips":"46061","name":"Hanson County","state_id":"SD"},{"zip":"57321","fips":"46097","name":"Miner County","state_id":"SD"},{"zip":"57321","fips":"46087","name":"McCook County","state_id":"SD"},{"zip":"57322","fips":"46025","name":"Clark County","state_id":"SD"},{"zip":"57322","fips":"46115","name":"Spink County","state_id":"SD"},{"zip":"57322","fips":"46005","name":"Beadle County","state_id":"SD"},{"zip":"57323","fips":"46077","name":"Kingsbury County","state_id":"SD"},{"zip":"57323","fips":"46097","name":"Miner County","state_id":"SD"},{"zip":"57323","fips":"46111","name":"Sanborn County","state_id":"SD"},{"zip":"57324","fips":"46005","name":"Beadle County","state_id":"SD"},{"zip":"57325","fips":"46017","name":"Buffalo County","state_id":"SD"},{"zip":"57325","fips":"46015","name":"Brule County","state_id":"SD"},{"zip":"57328","fips":"46035","name":"Davison County","state_id":"SD"},{"zip":"57328","fips":"46003","name":"Aurora County","state_id":"SD"},{"zip":"57328","fips":"46043","name":"Douglas County","state_id":"SD"},{"zip":"57329","fips":"46023","name":"Charles Mix County","state_id":"SD"},{"zip":"57330","fips":"46023","name":"Charles Mix County","state_id":"SD"},{"zip":"57330","fips":"46043","name":"Douglas County","state_id":"SD"},{"zip":"57330","fips":"46067","name":"Hutchinson County","state_id":"SD"},{"zip":"57331","fips":"46043","name":"Douglas County","state_id":"SD"},{"zip":"57331","fips":"46035","name":"Davison County","state_id":"SD"},{"zip":"57331","fips":"46067","name":"Hutchinson County","state_id":"SD"},{"zip":"57332","fips":"46067","name":"Hutchinson County","state_id":"SD"},{"zip":"57332","fips":"46061","name":"Hanson County","state_id":"SD"},{"zip":"57332","fips":"46087","name":"McCook County","state_id":"SD"},{"zip":"57334","fips":"46061","name":"Hanson County","state_id":"SD"},{"zip":"57334","fips":"46035","name":"Davison County","state_id":"SD"},{"zip":"57334","fips":"46067","name":"Hutchinson County","state_id":"SD"},{"zip":"57335","fips":"46053","name":"Gregory County","state_id":"SD"},{"zip":"57337","fips":"46111","name":"Sanborn County","state_id":"SD"},{"zip":"57337","fips":"46097","name":"Miner County","state_id":"SD"},{"zip":"57339","fips":"46017","name":"Buffalo County","state_id":"SD"},{"zip":"57340","fips":"46097","name":"Miner County","state_id":"SD"},{"zip":"57340","fips":"46061","name":"Hanson County","state_id":"SD"},{"zip":"57341","fips":"46017","name":"Buffalo County","state_id":"SD"},{"zip":"57342","fips":"46023","name":"Charles Mix County","state_id":"SD"},{"zip":"57342","fips":"46043","name":"Douglas County","state_id":"SD"},{"zip":"57344","fips":"46043","name":"Douglas County","state_id":"SD"},{"zip":"57345","fips":"46049","name":"Faulk County","state_id":"SD"},{"zip":"57345","fips":"46059","name":"Hand County","state_id":"SD"},{"zip":"57345","fips":"46069","name":"Hyde County","state_id":"SD"},{"zip":"57346","fips":"46069","name":"Hyde County","state_id":"SD"},{"zip":"57348","fips":"46115","name":"Spink County","state_id":"SD"},{"zip":"57348","fips":"46005","name":"Beadle County","state_id":"SD"},{"zip":"57349","fips":"46097","name":"Miner County","state_id":"SD"},{"zip":"57350","fips":"46111","name":"Sanborn County","state_id":"SD"},{"zip":"57350","fips":"46005","name":"Beadle County","state_id":"SD"},{"zip":"57353","fips":"46025","name":"Clark County","state_id":"SD"},{"zip":"57353","fips":"46005","name":"Beadle County","state_id":"SD"},{"zip":"57353","fips":"46077","name":"Kingsbury County","state_id":"SD"},{"zip":"57354","fips":"46067","name":"Hutchinson County","state_id":"SD"},{"zip":"57355","fips":"46015","name":"Brule County","state_id":"SD"},{"zip":"57355","fips":"46073","name":"Jerauld County","state_id":"SD"},{"zip":"57356","fips":"46023","name":"Charles Mix County","state_id":"SD"},{"zip":"57358","fips":"46111","name":"Sanborn County","state_id":"SD"},{"zip":"57359","fips":"46003","name":"Aurora County","state_id":"SD"},{"zip":"57359","fips":"46035","name":"Davison County","state_id":"SD"},{"zip":"57359","fips":"46111","name":"Sanborn County","state_id":"SD"},{"zip":"57361","fips":"46023","name":"Charles Mix County","state_id":"SD"},{"zip":"57362","fips":"46017","name":"Buffalo County","state_id":"SD"},{"zip":"57362","fips":"46059","name":"Hand County","state_id":"SD"},{"zip":"57363","fips":"46035","name":"Davison County","state_id":"SD"},{"zip":"57363","fips":"46003","name":"Aurora County","state_id":"SD"},{"zip":"57363","fips":"46111","name":"Sanborn County","state_id":"SD"},{"zip":"57364","fips":"46043","name":"Douglas County","state_id":"SD"},{"zip":"57365","fips":"46085","name":"Lyman County","state_id":"SD"},{"zip":"57366","fips":"46061","name":"Hanson County","state_id":"SD"},{"zip":"57366","fips":"46043","name":"Douglas County","state_id":"SD"},{"zip":"57366","fips":"46067","name":"Hutchinson County","state_id":"SD"},{"zip":"57367","fips":"46023","name":"Charles Mix County","state_id":"SD"},{"zip":"57368","fips":"46003","name":"Aurora County","state_id":"SD"},{"zip":"57369","fips":"46015","name":"Brule County","state_id":"SD"},{"zip":"57369","fips":"46003","name":"Aurora County","state_id":"SD"},{"zip":"57369","fips":"46043","name":"Douglas County","state_id":"SD"},{"zip":"57369","fips":"46023","name":"Charles Mix County","state_id":"SD"},{"zip":"57370","fips":"46015","name":"Brule County","state_id":"SD"},{"zip":"57370","fips":"46017","name":"Buffalo County","state_id":"SD"},{"zip":"57371","fips":"46059","name":"Hand County","state_id":"SD"},{"zip":"57373","fips":"46059","name":"Hand County","state_id":"SD"},{"zip":"57374","fips":"46061","name":"Hanson County","state_id":"SD"},{"zip":"57374","fips":"46087","name":"McCook County","state_id":"SD"},{"zip":"57375","fips":"46035","name":"Davison County","state_id":"SD"},{"zip":"57375","fips":"46043","name":"Douglas County","state_id":"SD"},{"zip":"57375","fips":"46003","name":"Aurora County","state_id":"SD"},{"zip":"57376","fips":"46009","name":"Bon Homme County","state_id":"SD"},{"zip":"57376","fips":"46067","name":"Hutchinson County","state_id":"SD"},{"zip":"57376","fips":"46023","name":"Charles Mix County","state_id":"SD"},{"zip":"57379","fips":"46005","name":"Beadle County","state_id":"SD"},{"zip":"57380","fips":"46023","name":"Charles Mix County","state_id":"SD"},{"zip":"57381","fips":"46005","name":"Beadle County","state_id":"SD"},{"zip":"57381","fips":"46059","name":"Hand County","state_id":"SD"},{"zip":"57382","fips":"46003","name":"Aurora County","state_id":"SD"},{"zip":"57382","fips":"46059","name":"Hand County","state_id":"SD"},{"zip":"57382","fips":"46073","name":"Jerauld County","state_id":"SD"},{"zip":"57382","fips":"46005","name":"Beadle County","state_id":"SD"},{"zip":"57383","fips":"46003","name":"Aurora County","state_id":"SD"},{"zip":"57383","fips":"46015","name":"Brule County","state_id":"SD"},{"zip":"57384","fips":"46005","name":"Beadle County","state_id":"SD"},{"zip":"57385","fips":"46003","name":"Aurora County","state_id":"SD"},{"zip":"57385","fips":"46073","name":"Jerauld County","state_id":"SD"},{"zip":"57385","fips":"46111","name":"Sanborn County","state_id":"SD"},{"zip":"57386","fips":"46005","name":"Beadle County","state_id":"SD"},{"zip":"57386","fips":"46077","name":"Kingsbury County","state_id":"SD"},{"zip":"57399","fips":"46005","name":"Beadle County","state_id":"SD"}]
