[{"zip":"57401","fips":"46013","name":"Brown County","state_id":"SD"},{"zip":"57402","fips":"46013","name":"Brown County","state_id":"SD"},{"zip":"57420","fips":"46129","name":"Walworth County","state_id":"SD"},{"zip":"57421","fips":"46091","name":"Marshall County","state_id":"SD"},{"zip":"57422","fips":"46013","name":"Brown County","state_id":"SD"},{"zip":"57422","fips":"46037","name":"Day County","state_id":"SD"},{"zip":"57424","fips":"46115","name":"Spink County","state_id":"SD"},{"zip":"57424","fips":"46049","name":"Faulk County","state_id":"SD"},{"zip":"57426","fips":"46013","name":"Brown County","state_id":"SD"},{"zip":"57427","fips":"46013","name":"Brown County","state_id":"SD"},{"zip":"57428","fips":"46045","name":"Edmunds County","state_id":"SD"},{"zip":"57428","fips":"46129","name":"Walworth County","state_id":"SD"},{"zip":"57428","fips":"46089","name":"McPherson County","state_id":"SD"},{"zip":"57429","fips":"46115","name":"Spink County","state_id":"SD"},{"zip":"57430","fips":"46091","name":"Marshall County","state_id":"SD"},{"zip":"57432","fips":"46091","name":"Marshall County","state_id":"SD"},{"zip":"57432","fips":"46013","name":"Brown County","state_id":"SD"},{"zip":"57433","fips":"46013","name":"Brown County","state_id":"SD"},{"zip":"57434","fips":"46013","name":"Brown County","state_id":"SD"},{"zip":"57434","fips":"46037","name":"Day County","state_id":"SD"},{"zip":"57434","fips":"46115","name":"Spink County","state_id":"SD"},{"zip":"57434","fips":"46025","name":"Clark County","state_id":"SD"},{"zip":"57435","fips":"46045","name":"Edmunds County","state_id":"SD"},{"zip":"57435","fips":"46049","name":"Faulk County","state_id":"SD"},{"zip":"57436","fips":"46115","name":"Spink County","state_id":"SD"},{"zip":"57437","fips":"46021","name":"Campbell County","state_id":"SD"},{"zip":"57437","fips":"46089","name":"McPherson County","state_id":"SD"},{"zip":"57438","fips":"46049","name":"Faulk County","state_id":"SD"},{"zip":"57439","fips":"46013","name":"Brown County","state_id":"SD"},{"zip":"57440","fips":"46115","name":"Spink County","state_id":"SD"},{"zip":"57441","fips":"46013","name":"Brown County","state_id":"SD"},{"zip":"57442","fips":"46119","name":"Sully County","state_id":"SD"},{"zip":"57442","fips":"46107","name":"Potter County","state_id":"SD"},{"zip":"57445","fips":"46037","name":"Day County","state_id":"SD"},{"zip":"57445","fips":"46013","name":"Brown County","state_id":"SD"},{"zip":"57446","fips":"46013","name":"Brown County","state_id":"SD"},{"zip":"57448","fips":"46089","name":"McPherson County","state_id":"SD"},{"zip":"57448","fips":"46045","name":"Edmunds County","state_id":"SD"},{"zip":"57449","fips":"46013","name":"Brown County","state_id":"SD"},{"zip":"57450","fips":"46129","name":"Walworth County","state_id":"SD"},{"zip":"57450","fips":"46107","name":"Potter County","state_id":"SD"},{"zip":"57451","fips":"46013","name":"Brown County","state_id":"SD"},{"zip":"57451","fips":"46045","name":"Edmunds County","state_id":"SD"},{"zip":"57452","fips":"46021","name":"Campbell County","state_id":"SD"},{"zip":"57452","fips":"46129","name":"Walworth County","state_id":"SD"},{"zip":"57454","fips":"46037","name":"Day County","state_id":"SD"},{"zip":"57454","fips":"46091","name":"Marshall County","state_id":"SD"},{"zip":"57455","fips":"46107","name":"Potter County","state_id":"SD"},{"zip":"57456","fips":"46045","name":"Edmunds County","state_id":"SD"},{"zip":"57456","fips":"46089","name":"McPherson County","state_id":"SD"},{"zip":"57457","fips":"46089","name":"McPherson County","state_id":"SD"},{"zip":"57460","fips":"46049","name":"Faulk County","state_id":"SD"},{"zip":"57460","fips":"46115","name":"Spink County","state_id":"SD"},{"zip":"57460","fips":"46013","name":"Brown County","state_id":"SD"},{"zip":"57460","fips":"46045","name":"Edmunds County","state_id":"SD"},{"zip":"57461","fips":"46013","name":"Brown County","state_id":"SD"},{"zip":"57461","fips":"46115","name":"Spink County","state_id":"SD"},{"zip":"57465","fips":"46115","name":"Spink County","state_id":"SD"},{"zip":"57465","fips":"46049","name":"Faulk County","state_id":"SD"},{"zip":"57466","fips":"46045","name":"Edmunds County","state_id":"SD"},{"zip":"57466","fips":"46049","name":"Faulk County","state_id":"SD"},{"zip":"57467","fips":"46049","name":"Faulk County","state_id":"SD"},{"zip":"57467","fips":"46059","name":"Hand County","state_id":"SD"},{"zip":"57468","fips":"46037","name":"Day County","state_id":"SD"},{"zip":"57469","fips":"46059","name":"Hand County","state_id":"SD"},{"zip":"57469","fips":"46115","name":"Spink County","state_id":"SD"},{"zip":"57469","fips":"46049","name":"Faulk County","state_id":"SD"},{"zip":"57470","fips":"46049","name":"Faulk County","state_id":"SD"},{"zip":"57470","fips":"46059","name":"Hand County","state_id":"SD"},{"zip":"57471","fips":"46045","name":"Edmunds County","state_id":"SD"},{"zip":"57471","fips":"46089","name":"McPherson County","state_id":"SD"},{"zip":"57472","fips":"46129","name":"Walworth County","state_id":"SD"},{"zip":"57472","fips":"46021","name":"Campbell County","state_id":"SD"},{"zip":"57473","fips":"46107","name":"Potter County","state_id":"SD"},{"zip":"57473","fips":"46049","name":"Faulk County","state_id":"SD"},{"zip":"57474","fips":"46013","name":"Brown County","state_id":"SD"},{"zip":"57474","fips":"46115","name":"Spink County","state_id":"SD"},{"zip":"57475","fips":"46107","name":"Potter County","state_id":"SD"},{"zip":"57475","fips":"46045","name":"Edmunds County","state_id":"SD"},{"zip":"57476","fips":"46059","name":"Hand County","state_id":"SD"},{"zip":"57476","fips":"46115","name":"Spink County","state_id":"SD"},{"zip":"57477","fips":"46115","name":"Spink County","state_id":"SD"},{"zip":"57479","fips":"46013","name":"Brown County","state_id":"SD"},{"zip":"57481","fips":"46045","name":"Edmunds County","state_id":"SD"},{"zip":"57481","fips":"46089","name":"McPherson County","state_id":"SD"},{"zip":"57481","fips":"46013","name":"Brown County","state_id":"SD"}]
