[{"zip":"57501","fips":"46065","name":"Hughes County","state_id":"SD"},{"zip":"57501","fips":"46119","name":"Sully County","state_id":"SD"},{"zip":"57520","fips":"46119","name":"Sully County","state_id":"SD"},{"zip":"57521","fips":"46071","name":"Jackson County","state_id":"SD"},{"zip":"57522","fips":"46065","name":"Hughes County","state_id":"SD"},{"zip":"57522","fips":"46119","name":"Sully County","state_id":"SD"},{"zip":"57523","fips":"46015","name":"Brule County","state_id":"SD"},{"zip":"57523","fips":"46053","name":"Gregory County","state_id":"SD"},{"zip":"57528","fips":"46123","name":"Tripp County","state_id":"SD"},{"zip":"57529","fips":"46123","name":"Tripp County","state_id":"SD"},{"zip":"57529","fips":"46053","name":"Gregory County","state_id":"SD"},{"zip":"57531","fips":"46075","name":"Jones County","state_id":"SD"},{"zip":"57532","fips":"46117","name":"Stanley County","state_id":"SD"},{"zip":"57532","fips":"46085","name":"Lyman County","state_id":"SD"},{"zip":"57533","fips":"46053","name":"Gregory County","state_id":"SD"},{"zip":"57533","fips":"46085","name":"Lyman County","state_id":"SD"},{"zip":"57533","fips":"46123","name":"Tripp County","state_id":"SD"},{"zip":"57534","fips":"46123","name":"Tripp County","state_id":"SD"},{"zip":"57534","fips":"46085","name":"Lyman County","state_id":"SD"},{"zip":"57536","fips":"46119","name":"Sully County","state_id":"SD"},{"zip":"57536","fips":"46069","name":"Hyde County","state_id":"SD"},{"zip":"57536","fips":"46065","name":"Hughes County","state_id":"SD"},{"zip":"57537","fips":"46117","name":"Stanley County","state_id":"SD"},{"zip":"57538","fips":"46053","name":"Gregory County","state_id":"SD"},{"zip":"57540","fips":"46069","name":"Hyde County","state_id":"SD"},{"zip":"57541","fips":"46123","name":"Tripp County","state_id":"SD"},{"zip":"57543","fips":"46055","name":"Haakon County","state_id":"SD"},{"zip":"57543","fips":"46071","name":"Jackson County","state_id":"SD"},{"zip":"57544","fips":"46085","name":"Lyman County","state_id":"SD"},{"zip":"57547","fips":"46071","name":"Jackson County","state_id":"SD"},{"zip":"57548","fips":"46085","name":"Lyman County","state_id":"SD"},{"zip":"57551","fips":"46007","name":"Bennett County","state_id":"SD"},{"zip":"57552","fips":"46117","name":"Stanley County","state_id":"SD"},{"zip":"57552","fips":"46055","name":"Haakon County","state_id":"SD"},{"zip":"57553","fips":"46055","name":"Haakon County","state_id":"SD"},{"zip":"57553","fips":"46103","name":"Pennington County","state_id":"SD"},{"zip":"57555","fips":"46121","name":"Todd County","state_id":"SD"},{"zip":"57559","fips":"46075","name":"Jones County","state_id":"SD"},{"zip":"57560","fips":"46095","name":"Mellette County","state_id":"SD"},{"zip":"57560","fips":"46007","name":"Bennett County","state_id":"SD"},{"zip":"57562","fips":"46075","name":"Jones County","state_id":"SD"},{"zip":"57563","fips":"46121","name":"Todd County","state_id":"SD"},{"zip":"57564","fips":"46065","name":"Hughes County","state_id":"SD"},{"zip":"57564","fips":"46119","name":"Sully County","state_id":"SD"},{"zip":"57564","fips":"46069","name":"Hyde County","state_id":"SD"},{"zip":"57566","fips":"46121","name":"Todd County","state_id":"SD"},{"zip":"57566","fips":"46007","name":"Bennett County","state_id":"SD"},{"zip":"57567","fips":"46055","name":"Haakon County","state_id":"SD"},{"zip":"57567","fips":"46071","name":"Jackson County","state_id":"SD"},{"zip":"57568","fips":"46085","name":"Lyman County","state_id":"SD"},{"zip":"57569","fips":"46085","name":"Lyman County","state_id":"SD"},{"zip":"57570","fips":"46121","name":"Todd County","state_id":"SD"},{"zip":"57571","fips":"46053","name":"Gregory County","state_id":"SD"},{"zip":"57572","fips":"46121","name":"Todd County","state_id":"SD"},{"zip":"57574","fips":"46007","name":"Bennett County","state_id":"SD"},{"zip":"57576","fips":"46085","name":"Lyman County","state_id":"SD"},{"zip":"57577","fips":"46071","name":"Jackson County","state_id":"SD"},{"zip":"57579","fips":"46095","name":"Mellette County","state_id":"SD"},{"zip":"57580","fips":"46123","name":"Tripp County","state_id":"SD"},{"zip":"57580","fips":"46121","name":"Todd County","state_id":"SD"},{"zip":"57584","fips":"46123","name":"Tripp County","state_id":"SD"},{"zip":"57585","fips":"46095","name":"Mellette County","state_id":"SD"}]
