[{"zip":"57601","fips":"46021","name":"Campbell County","state_id":"SD"},{"zip":"57601","fips":"46129","name":"Walworth County","state_id":"SD"},{"zip":"57620","fips":"46105","name":"Perkins County","state_id":"SD"},{"zip":"57621","fips":"46031","name":"Corson County","state_id":"SD"},{"zip":"57622","fips":"46137","name":"Ziebach County","state_id":"SD"},{"zip":"57623","fips":"46041","name":"Dewey County","state_id":"SD"},{"zip":"57623","fips":"46137","name":"Ziebach County","state_id":"SD"},{"zip":"57625","fips":"46041","name":"Dewey County","state_id":"SD"},{"zip":"57625","fips":"46137","name":"Ziebach County","state_id":"SD"},{"zip":"57626","fips":"46105","name":"Perkins County","state_id":"SD"},{"zip":"57626","fips":"46093","name":"Meade County","state_id":"SD"},{"zip":"57630","fips":"46041","name":"Dewey County","state_id":"SD"},{"zip":"57631","fips":"46021","name":"Campbell County","state_id":"SD"},{"zip":"57631","fips":"46129","name":"Walworth County","state_id":"SD"},{"zip":"57632","fips":"46021","name":"Campbell County","state_id":"SD"},{"zip":"57633","fips":"46041","name":"Dewey County","state_id":"SD"},{"zip":"57634","fips":"46031","name":"Corson County","state_id":"SD"},{"zip":"57636","fips":"46041","name":"Dewey County","state_id":"SD"},{"zip":"57638","fips":"46105","name":"Perkins County","state_id":"SD"},{"zip":"57638","fips":"46031","name":"Corson County","state_id":"SD"},{"zip":"57639","fips":"46031","name":"Corson County","state_id":"SD"},{"zip":"57640","fips":"46105","name":"Perkins County","state_id":"SD"},{"zip":"57641","fips":"46031","name":"Corson County","state_id":"SD"},{"zip":"57642","fips":"46031","name":"Corson County","state_id":"SD"},{"zip":"57644","fips":"46031","name":"Corson County","state_id":"SD"},{"zip":"57644","fips":"46105","name":"Perkins County","state_id":"SD"},{"zip":"57645","fips":"46031","name":"Corson County","state_id":"SD"},{"zip":"57646","fips":"46021","name":"Campbell County","state_id":"SD"},{"zip":"57648","fips":"46021","name":"Campbell County","state_id":"SD"},{"zip":"57649","fips":"46105","name":"Perkins County","state_id":"SD"},{"zip":"57649","fips":"46063","name":"Harding County","state_id":"SD"},{"zip":"57650","fips":"46063","name":"Harding County","state_id":"SD"},{"zip":"57651","fips":"46105","name":"Perkins County","state_id":"SD"},{"zip":"57651","fips":"46063","name":"Harding County","state_id":"SD"},{"zip":"57652","fips":"46041","name":"Dewey County","state_id":"SD"},{"zip":"57656","fips":"46041","name":"Dewey County","state_id":"SD"},{"zip":"57657","fips":"46041","name":"Dewey County","state_id":"SD"},{"zip":"57657","fips":"46031","name":"Corson County","state_id":"SD"},{"zip":"57658","fips":"46031","name":"Corson County","state_id":"SD"},{"zip":"57659","fips":"46031","name":"Corson County","state_id":"SD"},{"zip":"57660","fips":"46031","name":"Corson County","state_id":"SD"},{"zip":"57661","fips":"46041","name":"Dewey County","state_id":"SD"}]
