[{"zip":"57701","fips":"46093","name":"Meade County","state_id":"SD"},{"zip":"57701","fips":"46103","name":"Pennington County","state_id":"SD"},{"zip":"57702","fips":"46103","name":"Pennington County","state_id":"SD"},{"zip":"57702","fips":"46093","name":"Meade County","state_id":"SD"},{"zip":"57703","fips":"46103","name":"Pennington County","state_id":"SD"},{"zip":"57706","fips":"46103","name":"Pennington County","state_id":"SD"},{"zip":"57706","fips":"46093","name":"Meade County","state_id":"SD"},{"zip":"57709","fips":"46103","name":"Pennington County","state_id":"SD"},{"zip":"57714","fips":"46007","name":"Bennett County","state_id":"SD"},{"zip":"57716","fips":"46007","name":"Bennett County","state_id":"SD"},{"zip":"57717","fips":"46019","name":"Butte County","state_id":"SD"},{"zip":"57717","fips":"46081","name":"Lawrence County","state_id":"SD"},{"zip":"57717","fips":"46063","name":"Harding County","state_id":"SD"},{"zip":"57718","fips":"46103","name":"Pennington County","state_id":"SD"},{"zip":"57718","fips":"46093","name":"Meade County","state_id":"SD"},{"zip":"57719","fips":"46093","name":"Meade County","state_id":"SD"},{"zip":"57719","fips":"46103","name":"Pennington County","state_id":"SD"},{"zip":"57720","fips":"46063","name":"Harding County","state_id":"SD"},{"zip":"57722","fips":"46033","name":"Custer County","state_id":"SD"},{"zip":"57722","fips":"46047","name":"Fall River County","state_id":"SD"},{"zip":"57724","fips":"46063","name":"Harding County","state_id":"SD"},{"zip":"57725","fips":"46103","name":"Pennington County","state_id":"SD"},{"zip":"57730","fips":"46033","name":"Custer County","state_id":"SD"},{"zip":"57730","fips":"46103","name":"Pennington County","state_id":"SD"},{"zip":"57732","fips":"46081","name":"Lawrence County","state_id":"SD"},{"zip":"57732","fips":"46103","name":"Pennington County","state_id":"SD"},{"zip":"57735","fips":"46047","name":"Fall River County","state_id":"SD"},{"zip":"57735","fips":"46033","name":"Custer County","state_id":"SD"},{"zip":"57737","fips":"46093","name":"Meade County","state_id":"SD"},{"zip":"57738","fips":"46033","name":"Custer County","state_id":"SD"},{"zip":"57741","fips":"46093","name":"Meade County","state_id":"SD"},{"zip":"57744","fips":"46033","name":"Custer County","state_id":"SD"},{"zip":"57744","fips":"46103","name":"Pennington County","state_id":"SD"},{"zip":"57745","fips":"46103","name":"Pennington County","state_id":"SD"},{"zip":"57747","fips":"46047","name":"Fall River County","state_id":"SD"},{"zip":"57747","fips":"46033","name":"Custer County","state_id":"SD"},{"zip":"57748","fips":"46093","name":"Meade County","state_id":"SD"},{"zip":"57750","fips":"46103","name":"Pennington County","state_id":"SD"},{"zip":"57750","fips":"46071","name":"Jackson County","state_id":"SD"},{"zip":"57751","fips":"46033","name":"Custer County","state_id":"SD"},{"zip":"57751","fips":"46103","name":"Pennington County","state_id":"SD"},{"zip":"57754","fips":"46103","name":"Pennington County","state_id":"SD"},{"zip":"57754","fips":"46081","name":"Lawrence County","state_id":"SD"},{"zip":"57755","fips":"46063","name":"Harding County","state_id":"SD"},{"zip":"57758","fips":"46093","name":"Meade County","state_id":"SD"},{"zip":"57758","fips":"46105","name":"Perkins County","state_id":"SD"},{"zip":"57758","fips":"46019","name":"Butte County","state_id":"SD"},{"zip":"57759","fips":"46081","name":"Lawrence County","state_id":"SD"},{"zip":"57760","fips":"46063","name":"Harding County","state_id":"SD"},{"zip":"57760","fips":"46019","name":"Butte County","state_id":"SD"},{"zip":"57761","fips":"46103","name":"Pennington County","state_id":"SD"},{"zip":"57761","fips":"46093","name":"Meade County","state_id":"SD"},{"zip":"57762","fips":"46019","name":"Butte County","state_id":"SD"},{"zip":"57763","fips":"46047","name":"Fall River County","state_id":"SD"},{"zip":"57766","fips":"46047","name":"Fall River County","state_id":"SD"},{"zip":"57767","fips":"46093","name":"Meade County","state_id":"SD"},{"zip":"57767","fips":"46103","name":"Pennington County","state_id":"SD"},{"zip":"57769","fips":"46093","name":"Meade County","state_id":"SD"},{"zip":"57773","fips":"46033","name":"Custer County","state_id":"SD"},{"zip":"57775","fips":"46103","name":"Pennington County","state_id":"SD"},{"zip":"57775","fips":"46055","name":"Haakon County","state_id":"SD"},{"zip":"57776","fips":"46063","name":"Harding County","state_id":"SD"},{"zip":"57779","fips":"46081","name":"Lawrence County","state_id":"SD"},{"zip":"57779","fips":"46019","name":"Butte County","state_id":"SD"},{"zip":"57780","fips":"46103","name":"Pennington County","state_id":"SD"},{"zip":"57782","fips":"46047","name":"Fall River County","state_id":"SD"},{"zip":"57783","fips":"46081","name":"Lawrence County","state_id":"SD"},{"zip":"57783","fips":"46019","name":"Butte County","state_id":"SD"},{"zip":"57785","fips":"46093","name":"Meade County","state_id":"SD"},{"zip":"57785","fips":"46081","name":"Lawrence County","state_id":"SD"},{"zip":"57787","fips":"46093","name":"Meade County","state_id":"SD"},{"zip":"57788","fips":"46093","name":"Meade County","state_id":"SD"},{"zip":"57788","fips":"46019","name":"Butte County","state_id":"SD"},{"zip":"57790","fips":"46103","name":"Pennington County","state_id":"SD"},{"zip":"57791","fips":"46093","name":"Meade County","state_id":"SD"},{"zip":"57791","fips":"46103","name":"Pennington County","state_id":"SD"},{"zip":"57792","fips":"46093","name":"Meade County","state_id":"SD"},{"zip":"57793","fips":"46093","name":"Meade County","state_id":"SD"},{"zip":"57793","fips":"46081","name":"Lawrence County","state_id":"SD"},{"zip":"57799","fips":"46081","name":"Lawrence County","state_id":"SD"}]
