[{"zip":"58001","fips":"38077","name":"Richland County","state_id":"ND"},{"zip":"58002","fips":"38017","name":"Cass County","state_id":"ND"},{"zip":"58004","fips":"38017","name":"Cass County","state_id":"ND"},{"zip":"58005","fips":"38017","name":"Cass County","state_id":"ND"},{"zip":"58006","fips":"38017","name":"Cass County","state_id":"ND"},{"zip":"58007","fips":"38017","name":"Cass County","state_id":"ND"},{"zip":"58008","fips":"38077","name":"Richland County","state_id":"ND"},{"zip":"58009","fips":"38097","name":"Traill County","state_id":"ND"},{"zip":"58011","fips":"38017","name":"Cass County","state_id":"ND"},{"zip":"58012","fips":"38017","name":"Cass County","state_id":"ND"},{"zip":"58013","fips":"38081","name":"Sargent County","state_id":"ND"},{"zip":"58015","fips":"38017","name":"Cass County","state_id":"ND"},{"zip":"58015","fips":"38077","name":"Richland County","state_id":"ND"},{"zip":"58016","fips":"38097","name":"Traill County","state_id":"ND"},{"zip":"58016","fips":"38091","name":"Steele County","state_id":"ND"},{"zip":"58017","fips":"38081","name":"Sargent County","state_id":"ND"},{"zip":"58018","fips":"38077","name":"Richland County","state_id":"ND"},{"zip":"58021","fips":"38017","name":"Cass County","state_id":"ND"},{"zip":"58027","fips":"38003","name":"Barnes County","state_id":"ND"},{"zip":"58027","fips":"38073","name":"Ransom County","state_id":"ND"},{"zip":"58027","fips":"38017","name":"Cass County","state_id":"ND"},{"zip":"58029","fips":"38017","name":"Cass County","state_id":"ND"},{"zip":"58030","fips":"38077","name":"Richland County","state_id":"ND"},{"zip":"58031","fips":"38003","name":"Barnes County","state_id":"ND"},{"zip":"58031","fips":"38017","name":"Cass County","state_id":"ND"},{"zip":"58032","fips":"38081","name":"Sargent County","state_id":"ND"},{"zip":"58033","fips":"38073","name":"Ransom County","state_id":"ND"},{"zip":"58033","fips":"38045","name":"LaMoure County","state_id":"ND"},{"zip":"58035","fips":"38091","name":"Steele County","state_id":"ND"},{"zip":"58035","fips":"38017","name":"Cass County","state_id":"ND"},{"zip":"58035","fips":"38097","name":"Traill County","state_id":"ND"},{"zip":"58036","fips":"38017","name":"Cass County","state_id":"ND"},{"zip":"58038","fips":"38097","name":"Traill County","state_id":"ND"},{"zip":"58038","fips":"38017","name":"Cass County","state_id":"ND"},{"zip":"58040","fips":"38021","name":"Dickey County","state_id":"ND"},{"zip":"58040","fips":"38081","name":"Sargent County","state_id":"ND"},{"zip":"58041","fips":"38077","name":"Richland County","state_id":"ND"},{"zip":"58042","fips":"38017","name":"Cass County","state_id":"ND"},{"zip":"58043","fips":"38081","name":"Sargent County","state_id":"ND"},{"zip":"58045","fips":"38097","name":"Traill County","state_id":"ND"},{"zip":"58046","fips":"38017","name":"Cass County","state_id":"ND"},{"zip":"58046","fips":"38091","name":"Steele County","state_id":"ND"},{"zip":"58046","fips":"38003","name":"Barnes County","state_id":"ND"},{"zip":"58047","fips":"38077","name":"Richland County","state_id":"ND"},{"zip":"58047","fips":"38017","name":"Cass County","state_id":"ND"},{"zip":"58048","fips":"38017","name":"Cass County","state_id":"ND"},{"zip":"58048","fips":"38097","name":"Traill County","state_id":"ND"},{"zip":"58049","fips":"38073","name":"Ransom County","state_id":"ND"},{"zip":"58049","fips":"38003","name":"Barnes County","state_id":"ND"},{"zip":"58049","fips":"38045","name":"LaMoure County","state_id":"ND"},{"zip":"58051","fips":"38077","name":"Richland County","state_id":"ND"},{"zip":"58051","fips":"38017","name":"Cass County","state_id":"ND"},{"zip":"58052","fips":"38073","name":"Ransom County","state_id":"ND"},{"zip":"58052","fips":"38017","name":"Cass County","state_id":"ND"},{"zip":"58052","fips":"38077","name":"Richland County","state_id":"ND"},{"zip":"58053","fips":"38081","name":"Sargent County","state_id":"ND"},{"zip":"58053","fips":"38077","name":"Richland County","state_id":"ND"},{"zip":"58054","fips":"38081","name":"Sargent County","state_id":"ND"},{"zip":"58054","fips":"38073","name":"Ransom County","state_id":"ND"},{"zip":"58056","fips":"38039","name":"Griggs County","state_id":"ND"},{"zip":"58056","fips":"38003","name":"Barnes County","state_id":"ND"},{"zip":"58056","fips":"38091","name":"Steele County","state_id":"ND"},{"zip":"58057","fips":"38073","name":"Ransom County","state_id":"ND"},{"zip":"58057","fips":"38077","name":"Richland County","state_id":"ND"},{"zip":"58058","fips":"38077","name":"Richland County","state_id":"ND"},{"zip":"58059","fips":"38017","name":"Cass County","state_id":"ND"},{"zip":"58060","fips":"38081","name":"Sargent County","state_id":"ND"},{"zip":"58060","fips":"38077","name":"Richland County","state_id":"ND"},{"zip":"58060","fips":"38073","name":"Ransom County","state_id":"ND"},{"zip":"58061","fips":"38077","name":"Richland County","state_id":"ND"},{"zip":"58062","fips":"38073","name":"Ransom County","state_id":"ND"},{"zip":"58062","fips":"38003","name":"Barnes County","state_id":"ND"},{"zip":"58063","fips":"38003","name":"Barnes County","state_id":"ND"},{"zip":"58064","fips":"38003","name":"Barnes County","state_id":"ND"},{"zip":"58064","fips":"38091","name":"Steele County","state_id":"ND"},{"zip":"58064","fips":"38017","name":"Cass County","state_id":"ND"},{"zip":"58065","fips":"38003","name":"Barnes County","state_id":"ND"},{"zip":"58067","fips":"38081","name":"Sargent County","state_id":"ND"},{"zip":"58068","fips":"38017","name":"Cass County","state_id":"ND"},{"zip":"58068","fips":"38073","name":"Ransom County","state_id":"ND"},{"zip":"58069","fips":"38073","name":"Ransom County","state_id":"ND"},{"zip":"58069","fips":"38081","name":"Sargent County","state_id":"ND"},{"zip":"58071","fips":"38003","name":"Barnes County","state_id":"ND"},{"zip":"58071","fips":"38017","name":"Cass County","state_id":"ND"},{"zip":"58072","fips":"38003","name":"Barnes County","state_id":"ND"},{"zip":"58075","fips":"38077","name":"Richland County","state_id":"ND"},{"zip":"58076","fips":"38077","name":"Richland County","state_id":"ND"},{"zip":"58077","fips":"38077","name":"Richland County","state_id":"ND"},{"zip":"58078","fips":"38017","name":"Cass County","state_id":"ND"},{"zip":"58079","fips":"38017","name":"Cass County","state_id":"ND"},{"zip":"58081","fips":"38077","name":"Richland County","state_id":"ND"}]
