[{"zip":"58201","fips":"38035","name":"Grand Forks County","state_id":"ND"},{"zip":"58202","fips":"38035","name":"Grand Forks County","state_id":"ND"},{"zip":"58203","fips":"38035","name":"Grand Forks County","state_id":"ND"},{"zip":"58204","fips":"38035","name":"Grand Forks County","state_id":"ND"},{"zip":"58205","fips":"38035","name":"Grand Forks County","state_id":"ND"},{"zip":"58206","fips":"38035","name":"Grand Forks County","state_id":"ND"},{"zip":"58207","fips":"38035","name":"Grand Forks County","state_id":"ND"},{"zip":"58208","fips":"38035","name":"Grand Forks County","state_id":"ND"},{"zip":"58210","fips":"38099","name":"Walsh County","state_id":"ND"},{"zip":"58212","fips":"38035","name":"Grand Forks County","state_id":"ND"},{"zip":"58212","fips":"38039","name":"Griggs County","state_id":"ND"},{"zip":"58212","fips":"38063","name":"Nelson County","state_id":"ND"},{"zip":"58214","fips":"38035","name":"Grand Forks County","state_id":"ND"},{"zip":"58216","fips":"38067","name":"Pembina County","state_id":"ND"},{"zip":"58218","fips":"38097","name":"Traill County","state_id":"ND"},{"zip":"58219","fips":"38097","name":"Traill County","state_id":"ND"},{"zip":"58220","fips":"38067","name":"Pembina County","state_id":"ND"},{"zip":"58222","fips":"38067","name":"Pembina County","state_id":"ND"},{"zip":"58223","fips":"38097","name":"Traill County","state_id":"ND"},{"zip":"58224","fips":"38063","name":"Nelson County","state_id":"ND"},{"zip":"58224","fips":"38099","name":"Walsh County","state_id":"ND"},{"zip":"58225","fips":"38067","name":"Pembina County","state_id":"ND"},{"zip":"58225","fips":"38099","name":"Walsh County","state_id":"ND"},{"zip":"58227","fips":"38019","name":"Cavalier County","state_id":"ND"},{"zip":"58227","fips":"38067","name":"Pembina County","state_id":"ND"},{"zip":"58227","fips":"38099","name":"Walsh County","state_id":"ND"},{"zip":"58228","fips":"38035","name":"Grand Forks County","state_id":"ND"},{"zip":"58229","fips":"38099","name":"Walsh County","state_id":"ND"},{"zip":"58229","fips":"38019","name":"Cavalier County","state_id":"ND"},{"zip":"58229","fips":"38071","name":"Ramsey County","state_id":"ND"},{"zip":"58230","fips":"38091","name":"Steele County","state_id":"ND"},{"zip":"58231","fips":"38035","name":"Grand Forks County","state_id":"ND"},{"zip":"58231","fips":"38099","name":"Walsh County","state_id":"ND"},{"zip":"58233","fips":"38099","name":"Walsh County","state_id":"ND"},{"zip":"58233","fips":"38035","name":"Grand Forks County","state_id":"ND"},{"zip":"58235","fips":"38035","name":"Grand Forks County","state_id":"ND"},{"zip":"58236","fips":"38067","name":"Pembina County","state_id":"ND"},{"zip":"58237","fips":"38099","name":"Walsh County","state_id":"ND"},{"zip":"58238","fips":"38067","name":"Pembina County","state_id":"ND"},{"zip":"58239","fips":"38019","name":"Cavalier County","state_id":"ND"},{"zip":"58240","fips":"38097","name":"Traill County","state_id":"ND"},{"zip":"58240","fips":"38035","name":"Grand Forks County","state_id":"ND"},{"zip":"58240","fips":"38091","name":"Steele County","state_id":"ND"},{"zip":"58241","fips":"38067","name":"Pembina County","state_id":"ND"},{"zip":"58243","fips":"38099","name":"Walsh County","state_id":"ND"},{"zip":"58243","fips":"38067","name":"Pembina County","state_id":"ND"},{"zip":"58244","fips":"38035","name":"Grand Forks County","state_id":"ND"},{"zip":"58249","fips":"38019","name":"Cavalier County","state_id":"ND"},{"zip":"58250","fips":"38099","name":"Walsh County","state_id":"ND"},{"zip":"58251","fips":"38035","name":"Grand Forks County","state_id":"ND"},{"zip":"58254","fips":"38063","name":"Nelson County","state_id":"ND"},{"zip":"58255","fips":"38019","name":"Cavalier County","state_id":"ND"},{"zip":"58256","fips":"38035","name":"Grand Forks County","state_id":"ND"},{"zip":"58257","fips":"38097","name":"Traill County","state_id":"ND"},{"zip":"58258","fips":"38035","name":"Grand Forks County","state_id":"ND"},{"zip":"58259","fips":"38063","name":"Nelson County","state_id":"ND"},{"zip":"58259","fips":"38099","name":"Walsh County","state_id":"ND"},{"zip":"58260","fips":"38019","name":"Cavalier County","state_id":"ND"},{"zip":"58260","fips":"38099","name":"Walsh County","state_id":"ND"},{"zip":"58261","fips":"38035","name":"Grand Forks County","state_id":"ND"},{"zip":"58261","fips":"38099","name":"Walsh County","state_id":"ND"},{"zip":"58262","fips":"38019","name":"Cavalier County","state_id":"ND"},{"zip":"58262","fips":"38067","name":"Pembina County","state_id":"ND"},{"zip":"58265","fips":"38067","name":"Pembina County","state_id":"ND"},{"zip":"58266","fips":"38035","name":"Grand Forks County","state_id":"ND"},{"zip":"58266","fips":"38063","name":"Nelson County","state_id":"ND"},{"zip":"58267","fips":"38091","name":"Steele County","state_id":"ND"},{"zip":"58267","fips":"38035","name":"Grand Forks County","state_id":"ND"},{"zip":"58269","fips":"38019","name":"Cavalier County","state_id":"ND"},{"zip":"58270","fips":"38099","name":"Walsh County","state_id":"ND"},{"zip":"58271","fips":"38067","name":"Pembina County","state_id":"ND"},{"zip":"58272","fips":"38063","name":"Nelson County","state_id":"ND"},{"zip":"58273","fips":"38099","name":"Walsh County","state_id":"ND"},{"zip":"58274","fips":"38097","name":"Traill County","state_id":"ND"},{"zip":"58274","fips":"38091","name":"Steele County","state_id":"ND"},{"zip":"58275","fips":"38097","name":"Traill County","state_id":"ND"},{"zip":"58275","fips":"38035","name":"Grand Forks County","state_id":"ND"},{"zip":"58276","fips":"38067","name":"Pembina County","state_id":"ND"},{"zip":"58277","fips":"38091","name":"Steele County","state_id":"ND"},{"zip":"58278","fips":"38035","name":"Grand Forks County","state_id":"ND"},{"zip":"58281","fips":"38019","name":"Cavalier County","state_id":"ND"},{"zip":"58282","fips":"38067","name":"Pembina County","state_id":"ND"},{"zip":"58282","fips":"38019","name":"Cavalier County","state_id":"ND"}]
