[{"zip":"58301","fips":"38005","name":"Benson County","state_id":"ND"},{"zip":"58301","fips":"38071","name":"Ramsey County","state_id":"ND"},{"zip":"58310","fips":"38095","name":"Towner County","state_id":"ND"},{"zip":"58310","fips":"38079","name":"Rolette County","state_id":"ND"},{"zip":"58311","fips":"38019","name":"Cavalier County","state_id":"ND"},{"zip":"58313","fips":"38069","name":"Pierce County","state_id":"ND"},{"zip":"58316","fips":"38079","name":"Rolette County","state_id":"ND"},{"zip":"58317","fips":"38095","name":"Towner County","state_id":"ND"},{"zip":"58317","fips":"38079","name":"Rolette County","state_id":"ND"},{"zip":"58318","fips":"38009","name":"Bottineau County","state_id":"ND"},{"zip":"58321","fips":"38099","name":"Walsh County","state_id":"ND"},{"zip":"58321","fips":"38063","name":"Nelson County","state_id":"ND"},{"zip":"58321","fips":"38071","name":"Ramsey County","state_id":"ND"},{"zip":"58323","fips":"38019","name":"Cavalier County","state_id":"ND"},{"zip":"58323","fips":"38095","name":"Towner County","state_id":"ND"},{"zip":"58324","fips":"38095","name":"Towner County","state_id":"ND"},{"zip":"58324","fips":"38071","name":"Ramsey County","state_id":"ND"},{"zip":"58325","fips":"38095","name":"Towner County","state_id":"ND"},{"zip":"58325","fips":"38005","name":"Benson County","state_id":"ND"},{"zip":"58325","fips":"38071","name":"Ramsey County","state_id":"ND"},{"zip":"58327","fips":"38071","name":"Ramsey County","state_id":"ND"},{"zip":"58327","fips":"38063","name":"Nelson County","state_id":"ND"},{"zip":"58329","fips":"38079","name":"Rolette County","state_id":"ND"},{"zip":"58329","fips":"38009","name":"Bottineau County","state_id":"ND"},{"zip":"58330","fips":"38019","name":"Cavalier County","state_id":"ND"},{"zip":"58330","fips":"38099","name":"Walsh County","state_id":"ND"},{"zip":"58330","fips":"38071","name":"Ramsey County","state_id":"ND"},{"zip":"58331","fips":"38095","name":"Towner County","state_id":"ND"},{"zip":"58332","fips":"38005","name":"Benson County","state_id":"ND"},{"zip":"58332","fips":"38069","name":"Pierce County","state_id":"ND"},{"zip":"58335","fips":"38005","name":"Benson County","state_id":"ND"},{"zip":"58338","fips":"38019","name":"Cavalier County","state_id":"ND"},{"zip":"58338","fips":"38071","name":"Ramsey County","state_id":"ND"},{"zip":"58339","fips":"38095","name":"Towner County","state_id":"ND"},{"zip":"58341","fips":"38083","name":"Sheridan County","state_id":"ND"},{"zip":"58341","fips":"38005","name":"Benson County","state_id":"ND"},{"zip":"58341","fips":"38103","name":"Wells County","state_id":"ND"},{"zip":"58341","fips":"38069","name":"Pierce County","state_id":"ND"},{"zip":"58343","fips":"38005","name":"Benson County","state_id":"ND"},{"zip":"58344","fips":"38071","name":"Ramsey County","state_id":"ND"},{"zip":"58344","fips":"38063","name":"Nelson County","state_id":"ND"},{"zip":"58345","fips":"38099","name":"Walsh County","state_id":"ND"},{"zip":"58345","fips":"38071","name":"Ramsey County","state_id":"ND"},{"zip":"58346","fips":"38069","name":"Pierce County","state_id":"ND"},{"zip":"58346","fips":"38095","name":"Towner County","state_id":"ND"},{"zip":"58346","fips":"38005","name":"Benson County","state_id":"ND"},{"zip":"58348","fips":"38005","name":"Benson County","state_id":"ND"},{"zip":"58348","fips":"38103","name":"Wells County","state_id":"ND"},{"zip":"58351","fips":"38005","name":"Benson County","state_id":"ND"},{"zip":"58352","fips":"38019","name":"Cavalier County","state_id":"ND"},{"zip":"58352","fips":"38095","name":"Towner County","state_id":"ND"},{"zip":"58353","fips":"38079","name":"Rolette County","state_id":"ND"},{"zip":"58355","fips":"38071","name":"Ramsey County","state_id":"ND"},{"zip":"58355","fips":"38019","name":"Cavalier County","state_id":"ND"},{"zip":"58356","fips":"38031","name":"Foster County","state_id":"ND"},{"zip":"58356","fips":"38027","name":"Eddy County","state_id":"ND"},{"zip":"58356","fips":"38103","name":"Wells County","state_id":"ND"},{"zip":"58357","fips":"38005","name":"Benson County","state_id":"ND"},{"zip":"58361","fips":"38063","name":"Nelson County","state_id":"ND"},{"zip":"58362","fips":"38071","name":"Ramsey County","state_id":"ND"},{"zip":"58363","fips":"38079","name":"Rolette County","state_id":"ND"},{"zip":"58363","fips":"38095","name":"Towner County","state_id":"ND"},{"zip":"58365","fips":"38095","name":"Towner County","state_id":"ND"},{"zip":"58366","fips":"38079","name":"Rolette County","state_id":"ND"},{"zip":"58366","fips":"38069","name":"Pierce County","state_id":"ND"},{"zip":"58367","fips":"38079","name":"Rolette County","state_id":"ND"},{"zip":"58367","fips":"38095","name":"Towner County","state_id":"ND"},{"zip":"58368","fips":"38005","name":"Benson County","state_id":"ND"},{"zip":"58368","fips":"38069","name":"Pierce County","state_id":"ND"},{"zip":"58368","fips":"38049","name":"McHenry County","state_id":"ND"},{"zip":"58369","fips":"38079","name":"Rolette County","state_id":"ND"},{"zip":"58370","fips":"38005","name":"Benson County","state_id":"ND"},{"zip":"58372","fips":"38019","name":"Cavalier County","state_id":"ND"},{"zip":"58372","fips":"38095","name":"Towner County","state_id":"ND"},{"zip":"58374","fips":"38027","name":"Eddy County","state_id":"ND"},{"zip":"58374","fips":"38005","name":"Benson County","state_id":"ND"},{"zip":"58374","fips":"38103","name":"Wells County","state_id":"ND"},{"zip":"58377","fips":"38071","name":"Ramsey County","state_id":"ND"},{"zip":"58377","fips":"38095","name":"Towner County","state_id":"ND"},{"zip":"58377","fips":"38019","name":"Cavalier County","state_id":"ND"},{"zip":"58379","fips":"38005","name":"Benson County","state_id":"ND"},{"zip":"58380","fips":"38071","name":"Ramsey County","state_id":"ND"},{"zip":"58380","fips":"38027","name":"Eddy County","state_id":"ND"},{"zip":"58380","fips":"38063","name":"Nelson County","state_id":"ND"},{"zip":"58380","fips":"38005","name":"Benson County","state_id":"ND"},{"zip":"58381","fips":"38005","name":"Benson County","state_id":"ND"},{"zip":"58381","fips":"38027","name":"Eddy County","state_id":"ND"},{"zip":"58381","fips":"38071","name":"Ramsey County","state_id":"ND"},{"zip":"58382","fips":"38071","name":"Ramsey County","state_id":"ND"},{"zip":"58384","fips":"38009","name":"Bottineau County","state_id":"ND"},{"zip":"58384","fips":"38049","name":"McHenry County","state_id":"ND"},{"zip":"58384","fips":"38069","name":"Pierce County","state_id":"ND"},{"zip":"58384","fips":"38079","name":"Rolette County","state_id":"ND"},{"zip":"58385","fips":"38079","name":"Rolette County","state_id":"ND"},{"zip":"58385","fips":"38069","name":"Pierce County","state_id":"ND"},{"zip":"58386","fips":"38005","name":"Benson County","state_id":"ND"},{"zip":"58386","fips":"38069","name":"Pierce County","state_id":"ND"}]
