[{"zip":"58401","fips":"38093","name":"Stutsman County","state_id":"ND"},{"zip":"58402","fips":"38093","name":"Stutsman County","state_id":"ND"},{"zip":"58405","fips":"38093","name":"Stutsman County","state_id":"ND"},{"zip":"58413","fips":"38051","name":"McIntosh County","state_id":"ND"},{"zip":"58413","fips":"38021","name":"Dickey County","state_id":"ND"},{"zip":"58415","fips":"38045","name":"LaMoure County","state_id":"ND"},{"zip":"58415","fips":"38021","name":"Dickey County","state_id":"ND"},{"zip":"58416","fips":"38039","name":"Griggs County","state_id":"ND"},{"zip":"58418","fips":"38103","name":"Wells County","state_id":"ND"},{"zip":"58418","fips":"38043","name":"Kidder County","state_id":"ND"},{"zip":"58420","fips":"38093","name":"Stutsman County","state_id":"ND"},{"zip":"58421","fips":"38031","name":"Foster County","state_id":"ND"},{"zip":"58421","fips":"38103","name":"Wells County","state_id":"ND"},{"zip":"58421","fips":"38093","name":"Stutsman County","state_id":"ND"},{"zip":"58421","fips":"38027","name":"Eddy County","state_id":"ND"},{"zip":"58422","fips":"38103","name":"Wells County","state_id":"ND"},{"zip":"58423","fips":"38043","name":"Kidder County","state_id":"ND"},{"zip":"58423","fips":"38103","name":"Wells County","state_id":"ND"},{"zip":"58424","fips":"38093","name":"Stutsman County","state_id":"ND"},{"zip":"58425","fips":"38039","name":"Griggs County","state_id":"ND"},{"zip":"58425","fips":"38091","name":"Steele County","state_id":"ND"},{"zip":"58426","fips":"38093","name":"Stutsman County","state_id":"ND"},{"zip":"58428","fips":"38043","name":"Kidder County","state_id":"ND"},{"zip":"58429","fips":"38039","name":"Griggs County","state_id":"ND"},{"zip":"58429","fips":"38003","name":"Barnes County","state_id":"ND"},{"zip":"58430","fips":"38083","name":"Sheridan County","state_id":"ND"},{"zip":"58431","fips":"38045","name":"LaMoure County","state_id":"ND"},{"zip":"58433","fips":"38045","name":"LaMoure County","state_id":"ND"},{"zip":"58433","fips":"38021","name":"Dickey County","state_id":"ND"},{"zip":"58436","fips":"38021","name":"Dickey County","state_id":"ND"},{"zip":"58438","fips":"38103","name":"Wells County","state_id":"ND"},{"zip":"58439","fips":"38021","name":"Dickey County","state_id":"ND"},{"zip":"58440","fips":"38051","name":"McIntosh County","state_id":"ND"},{"zip":"58440","fips":"38047","name":"Logan County","state_id":"ND"},{"zip":"58441","fips":"38021","name":"Dickey County","state_id":"ND"},{"zip":"58442","fips":"38093","name":"Stutsman County","state_id":"ND"},{"zip":"58442","fips":"38047","name":"Logan County","state_id":"ND"},{"zip":"58443","fips":"38031","name":"Foster County","state_id":"ND"},{"zip":"58444","fips":"38083","name":"Sheridan County","state_id":"ND"},{"zip":"58445","fips":"38031","name":"Foster County","state_id":"ND"},{"zip":"58445","fips":"38027","name":"Eddy County","state_id":"ND"},{"zip":"58448","fips":"38039","name":"Griggs County","state_id":"ND"},{"zip":"58451","fips":"38103","name":"Wells County","state_id":"ND"},{"zip":"58452","fips":"38039","name":"Griggs County","state_id":"ND"},{"zip":"58454","fips":"38045","name":"LaMoure County","state_id":"ND"},{"zip":"58454","fips":"38093","name":"Stutsman County","state_id":"ND"},{"zip":"58454","fips":"38047","name":"Logan County","state_id":"ND"},{"zip":"58455","fips":"38093","name":"Stutsman County","state_id":"ND"},{"zip":"58455","fips":"38031","name":"Foster County","state_id":"ND"},{"zip":"58456","fips":"38021","name":"Dickey County","state_id":"ND"},{"zip":"58456","fips":"38045","name":"LaMoure County","state_id":"ND"},{"zip":"58456","fips":"38051","name":"McIntosh County","state_id":"ND"},{"zip":"58458","fips":"38021","name":"Dickey County","state_id":"ND"},{"zip":"58458","fips":"38045","name":"LaMoure County","state_id":"ND"},{"zip":"58460","fips":"38051","name":"McIntosh County","state_id":"ND"},{"zip":"58460","fips":"38047","name":"Logan County","state_id":"ND"},{"zip":"58461","fips":"38045","name":"LaMoure County","state_id":"ND"},{"zip":"58461","fips":"38003","name":"Barnes County","state_id":"ND"},{"zip":"58463","fips":"38083","name":"Sheridan County","state_id":"ND"},{"zip":"58464","fips":"38027","name":"Eddy County","state_id":"ND"},{"zip":"58464","fips":"38031","name":"Foster County","state_id":"ND"},{"zip":"58464","fips":"38039","name":"Griggs County","state_id":"ND"},{"zip":"58466","fips":"38093","name":"Stutsman County","state_id":"ND"},{"zip":"58466","fips":"38045","name":"LaMoure County","state_id":"ND"},{"zip":"58466","fips":"38003","name":"Barnes County","state_id":"ND"},{"zip":"58467","fips":"38043","name":"Kidder County","state_id":"ND"},{"zip":"58467","fips":"38093","name":"Stutsman County","state_id":"ND"},{"zip":"58472","fips":"38045","name":"LaMoure County","state_id":"ND"},{"zip":"58472","fips":"38093","name":"Stutsman County","state_id":"ND"},{"zip":"58474","fips":"38081","name":"Sargent County","state_id":"ND"},{"zip":"58474","fips":"38045","name":"LaMoure County","state_id":"ND"},{"zip":"58474","fips":"38021","name":"Dickey County","state_id":"ND"},{"zip":"58475","fips":"38043","name":"Kidder County","state_id":"ND"},{"zip":"58475","fips":"38093","name":"Stutsman County","state_id":"ND"},{"zip":"58476","fips":"38093","name":"Stutsman County","state_id":"ND"},{"zip":"58477","fips":"38015","name":"Burleigh County","state_id":"ND"},{"zip":"58478","fips":"38043","name":"Kidder County","state_id":"ND"},{"zip":"58479","fips":"38003","name":"Barnes County","state_id":"ND"},{"zip":"58480","fips":"38003","name":"Barnes County","state_id":"ND"},{"zip":"58481","fips":"38093","name":"Stutsman County","state_id":"ND"},{"zip":"58481","fips":"38003","name":"Barnes County","state_id":"ND"},{"zip":"58482","fips":"38043","name":"Kidder County","state_id":"ND"},{"zip":"58483","fips":"38047","name":"Logan County","state_id":"ND"},{"zip":"58483","fips":"38043","name":"Kidder County","state_id":"ND"},{"zip":"58483","fips":"38093","name":"Stutsman County","state_id":"ND"},{"zip":"58484","fips":"38039","name":"Griggs County","state_id":"ND"},{"zip":"58484","fips":"38031","name":"Foster County","state_id":"ND"},{"zip":"58486","fips":"38093","name":"Stutsman County","state_id":"ND"},{"zip":"58486","fips":"38103","name":"Wells County","state_id":"ND"},{"zip":"58487","fips":"38043","name":"Kidder County","state_id":"ND"},{"zip":"58488","fips":"38043","name":"Kidder County","state_id":"ND"},{"zip":"58490","fips":"38073","name":"Ransom County","state_id":"ND"},{"zip":"58490","fips":"38045","name":"LaMoure County","state_id":"ND"},{"zip":"58492","fips":"38039","name":"Griggs County","state_id":"ND"},{"zip":"58492","fips":"38093","name":"Stutsman County","state_id":"ND"},{"zip":"58492","fips":"38003","name":"Barnes County","state_id":"ND"},{"zip":"58494","fips":"38015","name":"Burleigh County","state_id":"ND"},{"zip":"58495","fips":"38047","name":"Logan County","state_id":"ND"},{"zip":"58495","fips":"38029","name":"Emmons County","state_id":"ND"},{"zip":"58495","fips":"38051","name":"McIntosh County","state_id":"ND"},{"zip":"58496","fips":"38093","name":"Stutsman County","state_id":"ND"},{"zip":"58496","fips":"38043","name":"Kidder County","state_id":"ND"},{"zip":"58497","fips":"38003","name":"Barnes County","state_id":"ND"},{"zip":"58497","fips":"38093","name":"Stutsman County","state_id":"ND"}]
