[{"zip":"58501","fips":"38015","name":"Burleigh County","state_id":"ND"},{"zip":"58502","fips":"38015","name":"Burleigh County","state_id":"ND"},{"zip":"58503","fips":"38015","name":"Burleigh County","state_id":"ND"},{"zip":"58504","fips":"38029","name":"Emmons County","state_id":"ND"},{"zip":"58504","fips":"38015","name":"Burleigh County","state_id":"ND"},{"zip":"58505","fips":"38015","name":"Burleigh County","state_id":"ND"},{"zip":"58506","fips":"38015","name":"Burleigh County","state_id":"ND"},{"zip":"58507","fips":"38015","name":"Burleigh County","state_id":"ND"},{"zip":"58520","fips":"38037","name":"Grant County","state_id":"ND"},{"zip":"58520","fips":"38059","name":"Morton County","state_id":"ND"},{"zip":"58521","fips":"38015","name":"Burleigh County","state_id":"ND"},{"zip":"58523","fips":"38065","name":"Oliver County","state_id":"ND"},{"zip":"58523","fips":"38057","name":"Mercer County","state_id":"ND"},{"zip":"58524","fips":"38029","name":"Emmons County","state_id":"ND"},{"zip":"58524","fips":"38015","name":"Burleigh County","state_id":"ND"},{"zip":"58524","fips":"38043","name":"Kidder County","state_id":"ND"},{"zip":"58528","fips":"38085","name":"Sioux County","state_id":"ND"},{"zip":"58529","fips":"38037","name":"Grant County","state_id":"ND"},{"zip":"58529","fips":"38085","name":"Sioux County","state_id":"ND"},{"zip":"58530","fips":"38065","name":"Oliver County","state_id":"ND"},{"zip":"58530","fips":"38057","name":"Mercer County","state_id":"ND"},{"zip":"58531","fips":"38055","name":"McLean County","state_id":"ND"},{"zip":"58532","fips":"38043","name":"Kidder County","state_id":"ND"},{"zip":"58532","fips":"38015","name":"Burleigh County","state_id":"ND"},{"zip":"58533","fips":"38037","name":"Grant County","state_id":"ND"},{"zip":"58535","fips":"38059","name":"Morton County","state_id":"ND"},{"zip":"58535","fips":"38037","name":"Grant County","state_id":"ND"},{"zip":"58538","fips":"38085","name":"Sioux County","state_id":"ND"},{"zip":"58540","fips":"38055","name":"McLean County","state_id":"ND"},{"zip":"58541","fips":"38057","name":"Mercer County","state_id":"ND"},{"zip":"58542","fips":"38029","name":"Emmons County","state_id":"ND"},{"zip":"58544","fips":"38029","name":"Emmons County","state_id":"ND"},{"zip":"58545","fips":"38057","name":"Mercer County","state_id":"ND"},{"zip":"58545","fips":"38065","name":"Oliver County","state_id":"ND"},{"zip":"58549","fips":"38047","name":"Logan County","state_id":"ND"},{"zip":"58549","fips":"38029","name":"Emmons County","state_id":"ND"},{"zip":"58549","fips":"38043","name":"Kidder County","state_id":"ND"},{"zip":"58552","fips":"38029","name":"Emmons County","state_id":"ND"},{"zip":"58554","fips":"38059","name":"Morton County","state_id":"ND"},{"zip":"58558","fips":"38015","name":"Burleigh County","state_id":"ND"},{"zip":"58559","fips":"38055","name":"McLean County","state_id":"ND"},{"zip":"58559","fips":"38083","name":"Sheridan County","state_id":"ND"},{"zip":"58560","fips":"38015","name":"Burleigh County","state_id":"ND"},{"zip":"58560","fips":"38029","name":"Emmons County","state_id":"ND"},{"zip":"58561","fips":"38043","name":"Kidder County","state_id":"ND"},{"zip":"58561","fips":"38047","name":"Logan County","state_id":"ND"},{"zip":"58562","fips":"38041","name":"Hettinger County","state_id":"ND"},{"zip":"58562","fips":"38001","name":"Adams County","state_id":"ND"},{"zip":"58562","fips":"38037","name":"Grant County","state_id":"ND"},{"zip":"58563","fips":"38059","name":"Morton County","state_id":"ND"},{"zip":"58563","fips":"38065","name":"Oliver County","state_id":"ND"},{"zip":"58563","fips":"38037","name":"Grant County","state_id":"ND"},{"zip":"58564","fips":"38037","name":"Grant County","state_id":"ND"},{"zip":"58565","fips":"38055","name":"McLean County","state_id":"ND"},{"zip":"58566","fips":"38059","name":"Morton County","state_id":"ND"},{"zip":"58568","fips":"38085","name":"Sioux County","state_id":"ND"},{"zip":"58569","fips":"38037","name":"Grant County","state_id":"ND"},{"zip":"58569","fips":"38059","name":"Morton County","state_id":"ND"},{"zip":"58570","fips":"38085","name":"Sioux County","state_id":"ND"},{"zip":"58570","fips":"38059","name":"Morton County","state_id":"ND"},{"zip":"58571","fips":"38065","name":"Oliver County","state_id":"ND"},{"zip":"58571","fips":"38057","name":"Mercer County","state_id":"ND"},{"zip":"58572","fips":"38015","name":"Burleigh County","state_id":"ND"},{"zip":"58573","fips":"38029","name":"Emmons County","state_id":"ND"},{"zip":"58575","fips":"38055","name":"McLean County","state_id":"ND"},{"zip":"58576","fips":"38055","name":"McLean County","state_id":"ND"},{"zip":"58577","fips":"38055","name":"McLean County","state_id":"ND"},{"zip":"58579","fips":"38015","name":"Burleigh County","state_id":"ND"},{"zip":"58579","fips":"38055","name":"McLean County","state_id":"ND"},{"zip":"58580","fips":"38057","name":"Mercer County","state_id":"ND"},{"zip":"58581","fips":"38051","name":"McIntosh County","state_id":"ND"},{"zip":"58581","fips":"38029","name":"Emmons County","state_id":"ND"}]
