[{"zip":"58601","fips":"38025","name":"Dunn County","state_id":"ND"},{"zip":"58601","fips":"38089","name":"Stark County","state_id":"ND"},{"zip":"58602","fips":"38089","name":"Stark County","state_id":"ND"},{"zip":"58620","fips":"38087","name":"Slope County","state_id":"ND"},{"zip":"58620","fips":"38007","name":"Billings County","state_id":"ND"},{"zip":"58621","fips":"38053","name":"McKenzie County","state_id":"ND"},{"zip":"58621","fips":"38033","name":"Golden Valley County","state_id":"ND"},{"zip":"58622","fips":"38025","name":"Dunn County","state_id":"ND"},{"zip":"58622","fips":"38007","name":"Billings County","state_id":"ND"},{"zip":"58622","fips":"38089","name":"Stark County","state_id":"ND"},{"zip":"58623","fips":"38087","name":"Slope County","state_id":"ND"},{"zip":"58623","fips":"38011","name":"Bowman County","state_id":"ND"},{"zip":"58625","fips":"38057","name":"Mercer County","state_id":"ND"},{"zip":"58625","fips":"38025","name":"Dunn County","state_id":"ND"},{"zip":"58626","fips":"38025","name":"Dunn County","state_id":"ND"},{"zip":"58627","fips":"38007","name":"Billings County","state_id":"ND"},{"zip":"58630","fips":"38089","name":"Stark County","state_id":"ND"},{"zip":"58630","fips":"38025","name":"Dunn County","state_id":"ND"},{"zip":"58631","fips":"38059","name":"Morton County","state_id":"ND"},{"zip":"58631","fips":"38057","name":"Mercer County","state_id":"ND"},{"zip":"58631","fips":"38037","name":"Grant County","state_id":"ND"},{"zip":"58632","fips":"38033","name":"Golden Valley County","state_id":"ND"},{"zip":"58634","fips":"38053","name":"McKenzie County","state_id":"ND"},{"zip":"58634","fips":"38007","name":"Billings County","state_id":"ND"},{"zip":"58636","fips":"38025","name":"Dunn County","state_id":"ND"},{"zip":"58638","fips":"38089","name":"Stark County","state_id":"ND"},{"zip":"58638","fips":"38057","name":"Mercer County","state_id":"ND"},{"zip":"58638","fips":"38059","name":"Morton County","state_id":"ND"},{"zip":"58638","fips":"38025","name":"Dunn County","state_id":"ND"},{"zip":"58638","fips":"38037","name":"Grant County","state_id":"ND"},{"zip":"58639","fips":"38001","name":"Adams County","state_id":"ND"},{"zip":"58640","fips":"38025","name":"Dunn County","state_id":"ND"},{"zip":"58640","fips":"38053","name":"McKenzie County","state_id":"ND"},{"zip":"58640","fips":"38007","name":"Billings County","state_id":"ND"},{"zip":"58641","fips":"38089","name":"Stark County","state_id":"ND"},{"zip":"58642","fips":"38007","name":"Billings County","state_id":"ND"},{"zip":"58642","fips":"38025","name":"Dunn County","state_id":"ND"},{"zip":"58643","fips":"38011","name":"Bowman County","state_id":"ND"},{"zip":"58643","fips":"38087","name":"Slope County","state_id":"ND"},{"zip":"58644","fips":"38025","name":"Dunn County","state_id":"ND"},{"zip":"58645","fips":"38033","name":"Golden Valley County","state_id":"ND"},{"zip":"58645","fips":"38007","name":"Billings County","state_id":"ND"},{"zip":"58646","fips":"38041","name":"Hettinger County","state_id":"ND"},{"zip":"58646","fips":"38001","name":"Adams County","state_id":"ND"},{"zip":"58647","fips":"38087","name":"Slope County","state_id":"ND"},{"zip":"58647","fips":"38041","name":"Hettinger County","state_id":"ND"},{"zip":"58647","fips":"38089","name":"Stark County","state_id":"ND"},{"zip":"58649","fips":"38001","name":"Adams County","state_id":"ND"},{"zip":"58649","fips":"38087","name":"Slope County","state_id":"ND"},{"zip":"58649","fips":"38011","name":"Bowman County","state_id":"ND"},{"zip":"58650","fips":"38041","name":"Hettinger County","state_id":"ND"},{"zip":"58650","fips":"38001","name":"Adams County","state_id":"ND"},{"zip":"58651","fips":"38087","name":"Slope County","state_id":"ND"},{"zip":"58651","fips":"38011","name":"Bowman County","state_id":"ND"},{"zip":"58652","fips":"38089","name":"Stark County","state_id":"ND"},{"zip":"58652","fips":"38025","name":"Dunn County","state_id":"ND"},{"zip":"58653","fips":"38011","name":"Bowman County","state_id":"ND"},{"zip":"58653","fips":"38087","name":"Slope County","state_id":"ND"},{"zip":"58654","fips":"38033","name":"Golden Valley County","state_id":"ND"},{"zip":"58655","fips":"38089","name":"Stark County","state_id":"ND"},{"zip":"58656","fips":"38025","name":"Dunn County","state_id":"ND"},{"zip":"58656","fips":"38089","name":"Stark County","state_id":"ND"}]
