[{"zip":"58701","fips":"38101","name":"Ward County","state_id":"ND"},{"zip":"58702","fips":"38101","name":"Ward County","state_id":"ND"},{"zip":"58703","fips":"38101","name":"Ward County","state_id":"ND"},{"zip":"58704","fips":"38101","name":"Ward County","state_id":"ND"},{"zip":"58705","fips":"38101","name":"Ward County","state_id":"ND"},{"zip":"58707","fips":"38101","name":"Ward County","state_id":"ND"},{"zip":"58710","fips":"38049","name":"McHenry County","state_id":"ND"},{"zip":"58710","fips":"38083","name":"Sheridan County","state_id":"ND"},{"zip":"58710","fips":"38069","name":"Pierce County","state_id":"ND"},{"zip":"58711","fips":"38009","name":"Bottineau County","state_id":"ND"},{"zip":"58712","fips":"38049","name":"McHenry County","state_id":"ND"},{"zip":"58713","fips":"38049","name":"McHenry County","state_id":"ND"},{"zip":"58716","fips":"38055","name":"McLean County","state_id":"ND"},{"zip":"58716","fips":"38101","name":"Ward County","state_id":"ND"},{"zip":"58718","fips":"38075","name":"Renville County","state_id":"ND"},{"zip":"58718","fips":"38101","name":"Ward County","state_id":"ND"},{"zip":"58718","fips":"38061","name":"Mountrail County","state_id":"ND"},{"zip":"58721","fips":"38013","name":"Burke County","state_id":"ND"},{"zip":"58721","fips":"38101","name":"Ward County","state_id":"ND"},{"zip":"58722","fips":"38101","name":"Ward County","state_id":"ND"},{"zip":"58723","fips":"38055","name":"McLean County","state_id":"ND"},{"zip":"58723","fips":"38083","name":"Sheridan County","state_id":"ND"},{"zip":"58723","fips":"38049","name":"McHenry County","state_id":"ND"},{"zip":"58725","fips":"38075","name":"Renville County","state_id":"ND"},{"zip":"58725","fips":"38101","name":"Ward County","state_id":"ND"},{"zip":"58727","fips":"38013","name":"Burke County","state_id":"ND"},{"zip":"58730","fips":"38023","name":"Divide County","state_id":"ND"},{"zip":"58731","fips":"38049","name":"McHenry County","state_id":"ND"},{"zip":"58731","fips":"38101","name":"Ward County","state_id":"ND"},{"zip":"58733","fips":"38101","name":"Ward County","state_id":"ND"},{"zip":"58734","fips":"38075","name":"Renville County","state_id":"ND"},{"zip":"58734","fips":"38101","name":"Ward County","state_id":"ND"},{"zip":"58734","fips":"38061","name":"Mountrail County","state_id":"ND"},{"zip":"58735","fips":"38101","name":"Ward County","state_id":"ND"},{"zip":"58735","fips":"38055","name":"McLean County","state_id":"ND"},{"zip":"58736","fips":"38049","name":"McHenry County","state_id":"ND"},{"zip":"58736","fips":"38083","name":"Sheridan County","state_id":"ND"},{"zip":"58737","fips":"38013","name":"Burke County","state_id":"ND"},{"zip":"58740","fips":"38075","name":"Renville County","state_id":"ND"},{"zip":"58740","fips":"38009","name":"Bottineau County","state_id":"ND"},{"zip":"58740","fips":"38049","name":"McHenry County","state_id":"ND"},{"zip":"58740","fips":"38101","name":"Ward County","state_id":"ND"},{"zip":"58741","fips":"38049","name":"McHenry County","state_id":"ND"},{"zip":"58744","fips":"38049","name":"McHenry County","state_id":"ND"},{"zip":"58746","fips":"38061","name":"Mountrail County","state_id":"ND"},{"zip":"58746","fips":"38013","name":"Burke County","state_id":"ND"},{"zip":"58746","fips":"38101","name":"Ward County","state_id":"ND"},{"zip":"58746","fips":"38075","name":"Renville County","state_id":"ND"},{"zip":"58748","fips":"38049","name":"McHenry County","state_id":"ND"},{"zip":"58748","fips":"38009","name":"Bottineau County","state_id":"ND"},{"zip":"58750","fips":"38009","name":"Bottineau County","state_id":"ND"},{"zip":"58750","fips":"38075","name":"Renville County","state_id":"ND"},{"zip":"58752","fips":"38013","name":"Burke County","state_id":"ND"},{"zip":"58755","fips":"38023","name":"Divide County","state_id":"ND"},{"zip":"58755","fips":"38013","name":"Burke County","state_id":"ND"},{"zip":"58755","fips":"38105","name":"Williams County","state_id":"ND"},{"zip":"58756","fips":"38055","name":"McLean County","state_id":"ND"},{"zip":"58756","fips":"38061","name":"Mountrail County","state_id":"ND"},{"zip":"58756","fips":"38101","name":"Ward County","state_id":"ND"},{"zip":"58757","fips":"38025","name":"Dunn County","state_id":"ND"},{"zip":"58757","fips":"38053","name":"McKenzie County","state_id":"ND"},{"zip":"58758","fips":"38083","name":"Sheridan County","state_id":"ND"},{"zip":"58758","fips":"38103","name":"Wells County","state_id":"ND"},{"zip":"58758","fips":"38049","name":"McHenry County","state_id":"ND"},{"zip":"58758","fips":"38069","name":"Pierce County","state_id":"ND"},{"zip":"58759","fips":"38101","name":"Ward County","state_id":"ND"},{"zip":"58759","fips":"38055","name":"McLean County","state_id":"ND"},{"zip":"58760","fips":"38009","name":"Bottineau County","state_id":"ND"},{"zip":"58761","fips":"38009","name":"Bottineau County","state_id":"ND"},{"zip":"58761","fips":"38075","name":"Renville County","state_id":"ND"},{"zip":"58762","fips":"38009","name":"Bottineau County","state_id":"ND"},{"zip":"58762","fips":"38049","name":"McHenry County","state_id":"ND"},{"zip":"58763","fips":"38053","name":"McKenzie County","state_id":"ND"},{"zip":"58763","fips":"38061","name":"Mountrail County","state_id":"ND"},{"zip":"58765","fips":"38023","name":"Divide County","state_id":"ND"},{"zip":"58768","fips":"38049","name":"McHenry County","state_id":"ND"},{"zip":"58768","fips":"38101","name":"Ward County","state_id":"ND"},{"zip":"58769","fips":"38061","name":"Mountrail County","state_id":"ND"},{"zip":"58770","fips":"38055","name":"McLean County","state_id":"ND"},{"zip":"58770","fips":"38061","name":"Mountrail County","state_id":"ND"},{"zip":"58771","fips":"38101","name":"Ward County","state_id":"ND"},{"zip":"58771","fips":"38061","name":"Mountrail County","state_id":"ND"},{"zip":"58771","fips":"38055","name":"McLean County","state_id":"ND"},{"zip":"58772","fips":"38013","name":"Burke County","state_id":"ND"},{"zip":"58773","fips":"38061","name":"Mountrail County","state_id":"ND"},{"zip":"58773","fips":"38013","name":"Burke County","state_id":"ND"},{"zip":"58775","fips":"38055","name":"McLean County","state_id":"ND"},{"zip":"58776","fips":"38061","name":"Mountrail County","state_id":"ND"},{"zip":"58778","fips":"38055","name":"McLean County","state_id":"ND"},{"zip":"58778","fips":"38049","name":"McHenry County","state_id":"ND"},{"zip":"58779","fips":"38101","name":"Ward County","state_id":"ND"},{"zip":"58779","fips":"38055","name":"McLean County","state_id":"ND"},{"zip":"58781","fips":"38101","name":"Ward County","state_id":"ND"},{"zip":"58782","fips":"38075","name":"Renville County","state_id":"ND"},{"zip":"58782","fips":"38009","name":"Bottineau County","state_id":"ND"},{"zip":"58783","fips":"38009","name":"Bottineau County","state_id":"ND"},{"zip":"58784","fips":"38061","name":"Mountrail County","state_id":"ND"},{"zip":"58784","fips":"38013","name":"Burke County","state_id":"ND"},{"zip":"58785","fips":"38101","name":"Ward County","state_id":"ND"},{"zip":"58787","fips":"38101","name":"Ward County","state_id":"ND"},{"zip":"58787","fips":"38075","name":"Renville County","state_id":"ND"},{"zip":"58788","fips":"38069","name":"Pierce County","state_id":"ND"},{"zip":"58788","fips":"38049","name":"McHenry County","state_id":"ND"},{"zip":"58789","fips":"38049","name":"McHenry County","state_id":"ND"},{"zip":"58789","fips":"38009","name":"Bottineau County","state_id":"ND"},{"zip":"58790","fips":"38049","name":"McHenry County","state_id":"ND"},{"zip":"58790","fips":"38101","name":"Ward County","state_id":"ND"},{"zip":"58792","fips":"38049","name":"McHenry County","state_id":"ND"},{"zip":"58793","fips":"38009","name":"Bottineau County","state_id":"ND"},{"zip":"58794","fips":"38105","name":"Williams County","state_id":"ND"},{"zip":"58794","fips":"38061","name":"Mountrail County","state_id":"ND"},{"zip":"58795","fips":"38023","name":"Divide County","state_id":"ND"},{"zip":"58795","fips":"38105","name":"Williams County","state_id":"ND"}]
