[{"zip":"58801","fips":"38105","name":"Williams County","state_id":"ND"},{"zip":"58802","fips":"38105","name":"Williams County","state_id":"ND"},{"zip":"58803","fips":"38105","name":"Williams County","state_id":"ND"},{"zip":"58830","fips":"38105","name":"Williams County","state_id":"ND"},{"zip":"58830","fips":"38023","name":"Divide County","state_id":"ND"},{"zip":"58831","fips":"38053","name":"McKenzie County","state_id":"ND"},{"zip":"58833","fips":"38023","name":"Divide County","state_id":"ND"},{"zip":"58835","fips":"38053","name":"McKenzie County","state_id":"ND"},{"zip":"58838","fips":"38053","name":"McKenzie County","state_id":"ND"},{"zip":"58843","fips":"38105","name":"Williams County","state_id":"ND"},{"zip":"58844","fips":"38023","name":"Divide County","state_id":"ND"},{"zip":"58845","fips":"38023","name":"Divide County","state_id":"ND"},{"zip":"58845","fips":"38105","name":"Williams County","state_id":"ND"},{"zip":"58847","fips":"38053","name":"McKenzie County","state_id":"ND"},{"zip":"58849","fips":"38105","name":"Williams County","state_id":"ND"},{"zip":"58852","fips":"38105","name":"Williams County","state_id":"ND"},{"zip":"58852","fips":"38061","name":"Mountrail County","state_id":"ND"},{"zip":"58853","fips":"38105","name":"Williams County","state_id":"ND"},{"zip":"58854","fips":"38053","name":"McKenzie County","state_id":"ND"},{"zip":"58854","fips":"38025","name":"Dunn County","state_id":"ND"},{"zip":"58856","fips":"38023","name":"Divide County","state_id":"ND"},{"zip":"58856","fips":"38105","name":"Williams County","state_id":"ND"}]
