[{"zip":"59001","fips":"30009","name":"Carbon County","state_id":"MT"},{"zip":"59001","fips":"30095","name":"Stillwater County","state_id":"MT"},{"zip":"59002","fips":"30111","name":"Yellowstone County","state_id":"MT"},{"zip":"59003","fips":"30087","name":"Rosebud County","state_id":"MT"},{"zip":"59004","fips":"30087","name":"Rosebud County","state_id":"MT"},{"zip":"59006","fips":"30111","name":"Yellowstone County","state_id":"MT"},{"zip":"59007","fips":"30009","name":"Carbon County","state_id":"MT"},{"zip":"59008","fips":"30009","name":"Carbon County","state_id":"MT"},{"zip":"59010","fips":"30103","name":"Treasure County","state_id":"MT"},{"zip":"59010","fips":"30003","name":"Big Horn County","state_id":"MT"},{"zip":"59011","fips":"30097","name":"Sweet Grass County","state_id":"MT"},{"zip":"59011","fips":"30095","name":"Stillwater County","state_id":"MT"},{"zip":"59012","fips":"30087","name":"Rosebud County","state_id":"MT"},{"zip":"59013","fips":"30009","name":"Carbon County","state_id":"MT"},{"zip":"59014","fips":"30009","name":"Carbon County","state_id":"MT"},{"zip":"59015","fips":"30037","name":"Golden Valley County","state_id":"MT"},{"zip":"59015","fips":"30065","name":"Musselshell County","state_id":"MT"},{"zip":"59015","fips":"30111","name":"Yellowstone County","state_id":"MT"},{"zip":"59015","fips":"30095","name":"Stillwater County","state_id":"MT"},{"zip":"59016","fips":"30003","name":"Big Horn County","state_id":"MT"},{"zip":"59018","fips":"30067","name":"Park County","state_id":"MT"},{"zip":"59019","fips":"30095","name":"Stillwater County","state_id":"MT"},{"zip":"59019","fips":"30009","name":"Carbon County","state_id":"MT"},{"zip":"59020","fips":"30067","name":"Park County","state_id":"MT"},{"zip":"59022","fips":"30003","name":"Big Horn County","state_id":"MT"},{"zip":"59024","fips":"30003","name":"Big Horn County","state_id":"MT"},{"zip":"59024","fips":"30111","name":"Yellowstone County","state_id":"MT"},{"zip":"59025","fips":"30003","name":"Big Horn County","state_id":"MT"},{"zip":"59026","fips":"30009","name":"Carbon County","state_id":"MT"},{"zip":"59027","fips":"30067","name":"Park County","state_id":"MT"},{"zip":"59028","fips":"30095","name":"Stillwater County","state_id":"MT"},{"zip":"59029","fips":"30009","name":"Carbon County","state_id":"MT"},{"zip":"59030","fips":"30067","name":"Park County","state_id":"MT"},{"zip":"59031","fips":"30003","name":"Big Horn County","state_id":"MT"},{"zip":"59032","fips":"30027","name":"Fergus County","state_id":"MT"},{"zip":"59032","fips":"30069","name":"Petroleum County","state_id":"MT"},{"zip":"59033","fips":"30097","name":"Sweet Grass County","state_id":"MT"},{"zip":"59034","fips":"30003","name":"Big Horn County","state_id":"MT"},{"zip":"59035","fips":"30003","name":"Big Horn County","state_id":"MT"},{"zip":"59036","fips":"30107","name":"Wheatland County","state_id":"MT"},{"zip":"59037","fips":"30111","name":"Yellowstone County","state_id":"MT"},{"zip":"59038","fips":"30103","name":"Treasure County","state_id":"MT"},{"zip":"59039","fips":"30087","name":"Rosebud County","state_id":"MT"},{"zip":"59041","fips":"30111","name":"Yellowstone County","state_id":"MT"},{"zip":"59041","fips":"30009","name":"Carbon County","state_id":"MT"},{"zip":"59043","fips":"30087","name":"Rosebud County","state_id":"MT"},{"zip":"59044","fips":"30111","name":"Yellowstone County","state_id":"MT"},{"zip":"59044","fips":"30095","name":"Stillwater County","state_id":"MT"},{"zip":"59044","fips":"30009","name":"Carbon County","state_id":"MT"},{"zip":"59046","fips":"30095","name":"Stillwater County","state_id":"MT"},{"zip":"59046","fips":"30037","name":"Golden Valley County","state_id":"MT"},{"zip":"59046","fips":"30065","name":"Musselshell County","state_id":"MT"},{"zip":"59047","fips":"30067","name":"Park County","state_id":"MT"},{"zip":"59050","fips":"30003","name":"Big Horn County","state_id":"MT"},{"zip":"59052","fips":"30067","name":"Park County","state_id":"MT"},{"zip":"59052","fips":"30097","name":"Sweet Grass County","state_id":"MT"},{"zip":"59053","fips":"30059","name":"Meagher County","state_id":"MT"},{"zip":"59054","fips":"30065","name":"Musselshell County","state_id":"MT"},{"zip":"59055","fips":"30097","name":"Sweet Grass County","state_id":"MT"},{"zip":"59057","fips":"30095","name":"Stillwater County","state_id":"MT"},{"zip":"59057","fips":"30111","name":"Yellowstone County","state_id":"MT"},{"zip":"59058","fips":"30033","name":"Garfield County","state_id":"MT"},{"zip":"59058","fips":"30069","name":"Petroleum County","state_id":"MT"},{"zip":"59059","fips":"30065","name":"Musselshell County","state_id":"MT"},{"zip":"59061","fips":"30095","name":"Stillwater County","state_id":"MT"},{"zip":"59062","fips":"30075","name":"Powder River County","state_id":"MT"},{"zip":"59063","fips":"30111","name":"Yellowstone County","state_id":"MT"},{"zip":"59063","fips":"30095","name":"Stillwater County","state_id":"MT"},{"zip":"59064","fips":"30003","name":"Big Horn County","state_id":"MT"},{"zip":"59064","fips":"30111","name":"Yellowstone County","state_id":"MT"},{"zip":"59065","fips":"30067","name":"Park County","state_id":"MT"},{"zip":"59066","fips":"30003","name":"Big Horn County","state_id":"MT"},{"zip":"59067","fips":"30095","name":"Stillwater County","state_id":"MT"},{"zip":"59068","fips":"30009","name":"Carbon County","state_id":"MT"},{"zip":"59069","fips":"30095","name":"Stillwater County","state_id":"MT"},{"zip":"59069","fips":"30097","name":"Sweet Grass County","state_id":"MT"},{"zip":"59070","fips":"30097","name":"Sweet Grass County","state_id":"MT"},{"zip":"59070","fips":"30009","name":"Carbon County","state_id":"MT"},{"zip":"59071","fips":"30009","name":"Carbon County","state_id":"MT"},{"zip":"59072","fips":"30037","name":"Golden Valley County","state_id":"MT"},{"zip":"59072","fips":"30065","name":"Musselshell County","state_id":"MT"},{"zip":"59072","fips":"30027","name":"Fergus County","state_id":"MT"},{"zip":"59074","fips":"30095","name":"Stillwater County","state_id":"MT"},{"zip":"59074","fips":"30037","name":"Golden Valley County","state_id":"MT"},{"zip":"59074","fips":"30107","name":"Wheatland County","state_id":"MT"},{"zip":"59075","fips":"30003","name":"Big Horn County","state_id":"MT"},{"zip":"59076","fips":"30103","name":"Treasure County","state_id":"MT"},{"zip":"59077","fips":"30033","name":"Garfield County","state_id":"MT"},{"zip":"59078","fips":"30037","name":"Golden Valley County","state_id":"MT"},{"zip":"59078","fips":"30107","name":"Wheatland County","state_id":"MT"},{"zip":"59079","fips":"30111","name":"Yellowstone County","state_id":"MT"},{"zip":"59081","fips":"30067","name":"Park County","state_id":"MT"},{"zip":"59082","fips":"30067","name":"Park County","state_id":"MT"},{"zip":"59082","fips":"30097","name":"Sweet Grass County","state_id":"MT"},{"zip":"59083","fips":"30087","name":"Rosebud County","state_id":"MT"},{"zip":"59084","fips":"30069","name":"Petroleum County","state_id":"MT"},{"zip":"59085","fips":"30107","name":"Wheatland County","state_id":"MT"},{"zip":"59086","fips":"30067","name":"Park County","state_id":"MT"},{"zip":"59086","fips":"30031","name":"Gallatin County","state_id":"MT"},{"zip":"59086","fips":"30059","name":"Meagher County","state_id":"MT"},{"zip":"59087","fips":"30069","name":"Petroleum County","state_id":"MT"},{"zip":"59087","fips":"30027","name":"Fergus County","state_id":"MT"},{"zip":"59088","fips":"30111","name":"Yellowstone County","state_id":"MT"},{"zip":"59089","fips":"30003","name":"Big Horn County","state_id":"MT"}]
