[{"zip":"59201","fips":"30019","name":"Daniels County","state_id":"MT"},{"zip":"59201","fips":"30085","name":"Roosevelt County","state_id":"MT"},{"zip":"59201","fips":"30105","name":"Valley County","state_id":"MT"},{"zip":"59201","fips":"30055","name":"McCone County","state_id":"MT"},{"zip":"59211","fips":"30091","name":"Sheridan County","state_id":"MT"},{"zip":"59212","fips":"30085","name":"Roosevelt County","state_id":"MT"},{"zip":"59213","fips":"30083","name":"Richland County","state_id":"MT"},{"zip":"59213","fips":"30085","name":"Roosevelt County","state_id":"MT"},{"zip":"59214","fips":"30055","name":"McCone County","state_id":"MT"},{"zip":"59214","fips":"30079","name":"Prairie County","state_id":"MT"},{"zip":"59215","fips":"30055","name":"McCone County","state_id":"MT"},{"zip":"59215","fips":"30021","name":"Dawson County","state_id":"MT"},{"zip":"59217","fips":"30083","name":"Richland County","state_id":"MT"},{"zip":"59218","fips":"30083","name":"Richland County","state_id":"MT"},{"zip":"59218","fips":"30085","name":"Roosevelt County","state_id":"MT"},{"zip":"59219","fips":"30091","name":"Sheridan County","state_id":"MT"},{"zip":"59221","fips":"30083","name":"Richland County","state_id":"MT"},{"zip":"59222","fips":"30019","name":"Daniels County","state_id":"MT"},{"zip":"59223","fips":"30055","name":"McCone County","state_id":"MT"},{"zip":"59223","fips":"30105","name":"Valley County","state_id":"MT"},{"zip":"59225","fips":"30105","name":"Valley County","state_id":"MT"},{"zip":"59226","fips":"30085","name":"Roosevelt County","state_id":"MT"},{"zip":"59230","fips":"30105","name":"Valley County","state_id":"MT"},{"zip":"59231","fips":"30105","name":"Valley County","state_id":"MT"},{"zip":"59240","fips":"30105","name":"Valley County","state_id":"MT"},{"zip":"59241","fips":"30105","name":"Valley County","state_id":"MT"},{"zip":"59241","fips":"30071","name":"Phillips County","state_id":"MT"},{"zip":"59242","fips":"30085","name":"Roosevelt County","state_id":"MT"},{"zip":"59242","fips":"30091","name":"Sheridan County","state_id":"MT"},{"zip":"59243","fips":"30083","name":"Richland County","state_id":"MT"},{"zip":"59244","fips":"30105","name":"Valley County","state_id":"MT"},{"zip":"59247","fips":"30091","name":"Sheridan County","state_id":"MT"},{"zip":"59248","fips":"30105","name":"Valley County","state_id":"MT"},{"zip":"59250","fips":"30105","name":"Valley County","state_id":"MT"},{"zip":"59252","fips":"30091","name":"Sheridan County","state_id":"MT"},{"zip":"59253","fips":"30019","name":"Daniels County","state_id":"MT"},{"zip":"59253","fips":"30105","name":"Valley County","state_id":"MT"},{"zip":"59254","fips":"30091","name":"Sheridan County","state_id":"MT"},{"zip":"59255","fips":"30085","name":"Roosevelt County","state_id":"MT"},{"zip":"59255","fips":"30083","name":"Richland County","state_id":"MT"},{"zip":"59255","fips":"30055","name":"McCone County","state_id":"MT"},{"zip":"59256","fips":"30091","name":"Sheridan County","state_id":"MT"},{"zip":"59257","fips":"30091","name":"Sheridan County","state_id":"MT"},{"zip":"59257","fips":"30019","name":"Daniels County","state_id":"MT"},{"zip":"59258","fips":"30085","name":"Roosevelt County","state_id":"MT"},{"zip":"59258","fips":"30091","name":"Sheridan County","state_id":"MT"},{"zip":"59259","fips":"30021","name":"Dawson County","state_id":"MT"},{"zip":"59259","fips":"30083","name":"Richland County","state_id":"MT"},{"zip":"59260","fips":"30019","name":"Daniels County","state_id":"MT"},{"zip":"59260","fips":"30105","name":"Valley County","state_id":"MT"},{"zip":"59261","fips":"30071","name":"Phillips County","state_id":"MT"},{"zip":"59261","fips":"30105","name":"Valley County","state_id":"MT"},{"zip":"59262","fips":"30083","name":"Richland County","state_id":"MT"},{"zip":"59262","fips":"30021","name":"Dawson County","state_id":"MT"},{"zip":"59263","fips":"30019","name":"Daniels County","state_id":"MT"},{"zip":"59270","fips":"30083","name":"Richland County","state_id":"MT"},{"zip":"59273","fips":"30105","name":"Valley County","state_id":"MT"},{"zip":"59274","fips":"30055","name":"McCone County","state_id":"MT"},{"zip":"59275","fips":"30091","name":"Sheridan County","state_id":"MT"},{"zip":"59276","fips":"30019","name":"Daniels County","state_id":"MT"}]
