[{"zip":"59301","fips":"30017","name":"Custer County","state_id":"MT"},{"zip":"59311","fips":"30011","name":"Carter County","state_id":"MT"},{"zip":"59312","fips":"30087","name":"Rosebud County","state_id":"MT"},{"zip":"59313","fips":"30025","name":"Fallon County","state_id":"MT"},{"zip":"59314","fips":"30075","name":"Powder River County","state_id":"MT"},{"zip":"59315","fips":"30021","name":"Dawson County","state_id":"MT"},{"zip":"59316","fips":"30011","name":"Carter County","state_id":"MT"},{"zip":"59317","fips":"30075","name":"Powder River County","state_id":"MT"},{"zip":"59318","fips":"30033","name":"Garfield County","state_id":"MT"},{"zip":"59319","fips":"30011","name":"Carter County","state_id":"MT"},{"zip":"59322","fips":"30033","name":"Garfield County","state_id":"MT"},{"zip":"59323","fips":"30087","name":"Rosebud County","state_id":"MT"},{"zip":"59324","fips":"30011","name":"Carter County","state_id":"MT"},{"zip":"59326","fips":"30079","name":"Prairie County","state_id":"MT"},{"zip":"59326","fips":"30021","name":"Dawson County","state_id":"MT"},{"zip":"59327","fips":"30087","name":"Rosebud County","state_id":"MT"},{"zip":"59327","fips":"30103","name":"Treasure County","state_id":"MT"},{"zip":"59330","fips":"30079","name":"Prairie County","state_id":"MT"},{"zip":"59330","fips":"30021","name":"Dawson County","state_id":"MT"},{"zip":"59332","fips":"30011","name":"Carter County","state_id":"MT"},{"zip":"59333","fips":"30087","name":"Rosebud County","state_id":"MT"},{"zip":"59336","fips":"30025","name":"Fallon County","state_id":"MT"},{"zip":"59336","fips":"30079","name":"Prairie County","state_id":"MT"},{"zip":"59336","fips":"30017","name":"Custer County","state_id":"MT"},{"zip":"59337","fips":"30033","name":"Garfield County","state_id":"MT"},{"zip":"59338","fips":"30017","name":"Custer County","state_id":"MT"},{"zip":"59339","fips":"30079","name":"Prairie County","state_id":"MT"},{"zip":"59339","fips":"30021","name":"Dawson County","state_id":"MT"},{"zip":"59341","fips":"30079","name":"Prairie County","state_id":"MT"},{"zip":"59343","fips":"30075","name":"Powder River County","state_id":"MT"},{"zip":"59344","fips":"30025","name":"Fallon County","state_id":"MT"},{"zip":"59345","fips":"30075","name":"Powder River County","state_id":"MT"},{"zip":"59347","fips":"30087","name":"Rosebud County","state_id":"MT"},{"zip":"59349","fips":"30017","name":"Custer County","state_id":"MT"},{"zip":"59349","fips":"30079","name":"Prairie County","state_id":"MT"},{"zip":"59351","fips":"30017","name":"Custer County","state_id":"MT"},{"zip":"59351","fips":"30075","name":"Powder River County","state_id":"MT"},{"zip":"59353","fips":"30109","name":"Wibaux County","state_id":"MT"},{"zip":"59353","fips":"30021","name":"Dawson County","state_id":"MT"},{"zip":"59354","fips":"30025","name":"Fallon County","state_id":"MT"}]
