[{"zip":"59401","fips":"30013","name":"Cascade County","state_id":"MT"},{"zip":"59402","fips":"30013","name":"Cascade County","state_id":"MT"},{"zip":"59403","fips":"30013","name":"Cascade County","state_id":"MT"},{"zip":"59404","fips":"30015","name":"Chouteau County","state_id":"MT"},{"zip":"59404","fips":"30013","name":"Cascade County","state_id":"MT"},{"zip":"59405","fips":"30013","name":"Cascade County","state_id":"MT"},{"zip":"59406","fips":"30013","name":"Cascade County","state_id":"MT"},{"zip":"59410","fips":"30049","name":"Lewis and Clark County","state_id":"MT"},{"zip":"59411","fips":"30035","name":"Glacier County","state_id":"MT"},{"zip":"59412","fips":"30013","name":"Cascade County","state_id":"MT"},{"zip":"59412","fips":"30015","name":"Chouteau County","state_id":"MT"},{"zip":"59414","fips":"30013","name":"Cascade County","state_id":"MT"},{"zip":"59416","fips":"30015","name":"Chouteau County","state_id":"MT"},{"zip":"59416","fips":"30073","name":"Pondera County","state_id":"MT"},{"zip":"59417","fips":"30035","name":"Glacier County","state_id":"MT"},{"zip":"59418","fips":"30027","name":"Fergus County","state_id":"MT"},{"zip":"59418","fips":"30045","name":"Judith Basin County","state_id":"MT"},{"zip":"59419","fips":"30099","name":"Teton County","state_id":"MT"},{"zip":"59420","fips":"30015","name":"Chouteau County","state_id":"MT"},{"zip":"59421","fips":"30049","name":"Lewis and Clark County","state_id":"MT"},{"zip":"59421","fips":"30013","name":"Cascade County","state_id":"MT"},{"zip":"59422","fips":"30099","name":"Teton County","state_id":"MT"},{"zip":"59424","fips":"30027","name":"Fergus County","state_id":"MT"},{"zip":"59424","fips":"30045","name":"Judith Basin County","state_id":"MT"},{"zip":"59425","fips":"30073","name":"Pondera County","state_id":"MT"},{"zip":"59425","fips":"30099","name":"Teton County","state_id":"MT"},{"zip":"59427","fips":"30101","name":"Toole County","state_id":"MT"},{"zip":"59427","fips":"30035","name":"Glacier County","state_id":"MT"},{"zip":"59430","fips":"30027","name":"Fergus County","state_id":"MT"},{"zip":"59430","fips":"30045","name":"Judith Basin County","state_id":"MT"},{"zip":"59432","fips":"30073","name":"Pondera County","state_id":"MT"},{"zip":"59433","fips":"30015","name":"Chouteau County","state_id":"MT"},{"zip":"59433","fips":"30099","name":"Teton County","state_id":"MT"},{"zip":"59434","fips":"30035","name":"Glacier County","state_id":"MT"},{"zip":"59435","fips":"30101","name":"Toole County","state_id":"MT"},{"zip":"59436","fips":"30013","name":"Cascade County","state_id":"MT"},{"zip":"59436","fips":"30099","name":"Teton County","state_id":"MT"},{"zip":"59440","fips":"30015","name":"Chouteau County","state_id":"MT"},{"zip":"59440","fips":"30013","name":"Cascade County","state_id":"MT"},{"zip":"59441","fips":"30027","name":"Fergus County","state_id":"MT"},{"zip":"59442","fips":"30015","name":"Chouteau County","state_id":"MT"},{"zip":"59443","fips":"30013","name":"Cascade County","state_id":"MT"},{"zip":"59443","fips":"30099","name":"Teton County","state_id":"MT"},{"zip":"59444","fips":"30101","name":"Toole County","state_id":"MT"},{"zip":"59444","fips":"30051","name":"Liberty County","state_id":"MT"},{"zip":"59446","fips":"30015","name":"Chouteau County","state_id":"MT"},{"zip":"59447","fips":"30015","name":"Chouteau County","state_id":"MT"},{"zip":"59447","fips":"30045","name":"Judith Basin County","state_id":"MT"},{"zip":"59448","fips":"30073","name":"Pondera County","state_id":"MT"},{"zip":"59450","fips":"30015","name":"Chouteau County","state_id":"MT"},{"zip":"59451","fips":"30027","name":"Fergus County","state_id":"MT"},{"zip":"59452","fips":"30045","name":"Judith Basin County","state_id":"MT"},{"zip":"59453","fips":"30107","name":"Wheatland County","state_id":"MT"},{"zip":"59453","fips":"30027","name":"Fergus County","state_id":"MT"},{"zip":"59454","fips":"30101","name":"Toole County","state_id":"MT"},{"zip":"59456","fips":"30073","name":"Pondera County","state_id":"MT"},{"zip":"59456","fips":"30051","name":"Liberty County","state_id":"MT"},{"zip":"59456","fips":"30101","name":"Toole County","state_id":"MT"},{"zip":"59457","fips":"30027","name":"Fergus County","state_id":"MT"},{"zip":"59460","fips":"30015","name":"Chouteau County","state_id":"MT"},{"zip":"59461","fips":"30101","name":"Toole County","state_id":"MT"},{"zip":"59461","fips":"30051","name":"Liberty County","state_id":"MT"},{"zip":"59462","fips":"30045","name":"Judith Basin County","state_id":"MT"},{"zip":"59462","fips":"30027","name":"Fergus County","state_id":"MT"},{"zip":"59463","fips":"30013","name":"Cascade County","state_id":"MT"},{"zip":"59464","fips":"30027","name":"Fergus County","state_id":"MT"},{"zip":"59464","fips":"30045","name":"Judith Basin County","state_id":"MT"},{"zip":"59465","fips":"30013","name":"Cascade County","state_id":"MT"},{"zip":"59466","fips":"30101","name":"Toole County","state_id":"MT"},{"zip":"59467","fips":"30099","name":"Teton County","state_id":"MT"},{"zip":"59468","fips":"30099","name":"Teton County","state_id":"MT"},{"zip":"59468","fips":"30013","name":"Cascade County","state_id":"MT"},{"zip":"59469","fips":"30045","name":"Judith Basin County","state_id":"MT"},{"zip":"59471","fips":"30027","name":"Fergus County","state_id":"MT"},{"zip":"59472","fips":"30013","name":"Cascade County","state_id":"MT"},{"zip":"59474","fips":"30101","name":"Toole County","state_id":"MT"},{"zip":"59477","fips":"30013","name":"Cascade County","state_id":"MT"},{"zip":"59479","fips":"30045","name":"Judith Basin County","state_id":"MT"},{"zip":"59480","fips":"30013","name":"Cascade County","state_id":"MT"},{"zip":"59482","fips":"30101","name":"Toole County","state_id":"MT"},{"zip":"59483","fips":"30013","name":"Cascade County","state_id":"MT"},{"zip":"59484","fips":"30101","name":"Toole County","state_id":"MT"},{"zip":"59485","fips":"30013","name":"Cascade County","state_id":"MT"},{"zip":"59486","fips":"30073","name":"Pondera County","state_id":"MT"},{"zip":"59486","fips":"30035","name":"Glacier County","state_id":"MT"},{"zip":"59487","fips":"30099","name":"Teton County","state_id":"MT"},{"zip":"59487","fips":"30013","name":"Cascade County","state_id":"MT"},{"zip":"59489","fips":"30027","name":"Fergus County","state_id":"MT"}]
