[{"zip":"59501","fips":"30005","name":"Blaine County","state_id":"MT"},{"zip":"59501","fips":"30041","name":"Hill County","state_id":"MT"},{"zip":"59520","fips":"30005","name":"Blaine County","state_id":"MT"},{"zip":"59520","fips":"30015","name":"Chouteau County","state_id":"MT"},{"zip":"59520","fips":"30041","name":"Hill County","state_id":"MT"},{"zip":"59521","fips":"30041","name":"Hill County","state_id":"MT"},{"zip":"59521","fips":"30015","name":"Chouteau County","state_id":"MT"},{"zip":"59522","fips":"30051","name":"Liberty County","state_id":"MT"},{"zip":"59523","fips":"30041","name":"Hill County","state_id":"MT"},{"zip":"59523","fips":"30005","name":"Blaine County","state_id":"MT"},{"zip":"59524","fips":"30071","name":"Phillips County","state_id":"MT"},{"zip":"59524","fips":"30005","name":"Blaine County","state_id":"MT"},{"zip":"59525","fips":"30041","name":"Hill County","state_id":"MT"},{"zip":"59526","fips":"30005","name":"Blaine County","state_id":"MT"},{"zip":"59527","fips":"30005","name":"Blaine County","state_id":"MT"},{"zip":"59528","fips":"30041","name":"Hill County","state_id":"MT"},{"zip":"59529","fips":"30005","name":"Blaine County","state_id":"MT"},{"zip":"59530","fips":"30041","name":"Hill County","state_id":"MT"},{"zip":"59531","fips":"30041","name":"Hill County","state_id":"MT"},{"zip":"59531","fips":"30051","name":"Liberty County","state_id":"MT"},{"zip":"59532","fips":"30041","name":"Hill County","state_id":"MT"},{"zip":"59535","fips":"30005","name":"Blaine County","state_id":"MT"},{"zip":"59537","fips":"30071","name":"Phillips County","state_id":"MT"},{"zip":"59538","fips":"30071","name":"Phillips County","state_id":"MT"},{"zip":"59540","fips":"30015","name":"Chouteau County","state_id":"MT"},{"zip":"59540","fips":"30041","name":"Hill County","state_id":"MT"},{"zip":"59542","fips":"30005","name":"Blaine County","state_id":"MT"},{"zip":"59544","fips":"30071","name":"Phillips County","state_id":"MT"},{"zip":"59545","fips":"30101","name":"Toole County","state_id":"MT"},{"zip":"59545","fips":"30051","name":"Liberty County","state_id":"MT"},{"zip":"59546","fips":"30071","name":"Phillips County","state_id":"MT"},{"zip":"59547","fips":"30005","name":"Blaine County","state_id":"MT"}]
