[{"zip":"59601","fips":"30043","name":"Jefferson County","state_id":"MT"},{"zip":"59601","fips":"30049","name":"Lewis and Clark County","state_id":"MT"},{"zip":"59602","fips":"30049","name":"Lewis and Clark County","state_id":"MT"},{"zip":"59604","fips":"30049","name":"Lewis and Clark County","state_id":"MT"},{"zip":"59620","fips":"30049","name":"Lewis and Clark County","state_id":"MT"},{"zip":"59623","fips":"30049","name":"Lewis and Clark County","state_id":"MT"},{"zip":"59624","fips":"30049","name":"Lewis and Clark County","state_id":"MT"},{"zip":"59625","fips":"30049","name":"Lewis and Clark County","state_id":"MT"},{"zip":"59626","fips":"30049","name":"Lewis and Clark County","state_id":"MT"},{"zip":"59631","fips":"30043","name":"Jefferson County","state_id":"MT"},{"zip":"59632","fips":"30043","name":"Jefferson County","state_id":"MT"},{"zip":"59633","fips":"30049","name":"Lewis and Clark County","state_id":"MT"},{"zip":"59634","fips":"30049","name":"Lewis and Clark County","state_id":"MT"},{"zip":"59634","fips":"30043","name":"Jefferson County","state_id":"MT"},{"zip":"59635","fips":"30043","name":"Jefferson County","state_id":"MT"},{"zip":"59635","fips":"30049","name":"Lewis and Clark County","state_id":"MT"},{"zip":"59635","fips":"30007","name":"Broadwater County","state_id":"MT"},{"zip":"59636","fips":"30049","name":"Lewis and Clark County","state_id":"MT"},{"zip":"59638","fips":"30043","name":"Jefferson County","state_id":"MT"},{"zip":"59639","fips":"30049","name":"Lewis and Clark County","state_id":"MT"},{"zip":"59640","fips":"30049","name":"Lewis and Clark County","state_id":"MT"},{"zip":"59641","fips":"30007","name":"Broadwater County","state_id":"MT"},{"zip":"59642","fips":"30059","name":"Meagher County","state_id":"MT"},{"zip":"59643","fips":"30007","name":"Broadwater County","state_id":"MT"},{"zip":"59644","fips":"30007","name":"Broadwater County","state_id":"MT"},{"zip":"59645","fips":"30007","name":"Broadwater County","state_id":"MT"},{"zip":"59645","fips":"30059","name":"Meagher County","state_id":"MT"},{"zip":"59647","fips":"30007","name":"Broadwater County","state_id":"MT"},{"zip":"59648","fips":"30049","name":"Lewis and Clark County","state_id":"MT"}]
