[{"zip":"59701","fips":"30093","name":"Silver Bow County","state_id":"MT"},{"zip":"59701","fips":"30023","name":"Deer Lodge County","state_id":"MT"},{"zip":"59701","fips":"30043","name":"Jefferson County","state_id":"MT"},{"zip":"59702","fips":"30093","name":"Silver Bow County","state_id":"MT"},{"zip":"59703","fips":"30093","name":"Silver Bow County","state_id":"MT"},{"zip":"59710","fips":"30057","name":"Madison County","state_id":"MT"},{"zip":"59711","fips":"30039","name":"Granite County","state_id":"MT"},{"zip":"59711","fips":"30023","name":"Deer Lodge County","state_id":"MT"},{"zip":"59711","fips":"30093","name":"Silver Bow County","state_id":"MT"},{"zip":"59711","fips":"30077","name":"Powell County","state_id":"MT"},{"zip":"59713","fips":"30077","name":"Powell County","state_id":"MT"},{"zip":"59714","fips":"30031","name":"Gallatin County","state_id":"MT"},{"zip":"59715","fips":"30067","name":"Park County","state_id":"MT"},{"zip":"59715","fips":"30031","name":"Gallatin County","state_id":"MT"},{"zip":"59716","fips":"30057","name":"Madison County","state_id":"MT"},{"zip":"59716","fips":"30031","name":"Gallatin County","state_id":"MT"},{"zip":"59717","fips":"30031","name":"Gallatin County","state_id":"MT"},{"zip":"59718","fips":"30057","name":"Madison County","state_id":"MT"},{"zip":"59718","fips":"30031","name":"Gallatin County","state_id":"MT"},{"zip":"59719","fips":"30031","name":"Gallatin County","state_id":"MT"},{"zip":"59720","fips":"30057","name":"Madison County","state_id":"MT"},{"zip":"59721","fips":"30043","name":"Jefferson County","state_id":"MT"},{"zip":"59721","fips":"30057","name":"Madison County","state_id":"MT"},{"zip":"59722","fips":"30023","name":"Deer Lodge County","state_id":"MT"},{"zip":"59722","fips":"30077","name":"Powell County","state_id":"MT"},{"zip":"59724","fips":"30001","name":"Beaverhead County","state_id":"MT"},{"zip":"59725","fips":"30057","name":"Madison County","state_id":"MT"},{"zip":"59725","fips":"30001","name":"Beaverhead County","state_id":"MT"},{"zip":"59727","fips":"30001","name":"Beaverhead County","state_id":"MT"},{"zip":"59727","fips":"30093","name":"Silver Bow County","state_id":"MT"},{"zip":"59728","fips":"30077","name":"Powell County","state_id":"MT"},{"zip":"59729","fips":"30057","name":"Madison County","state_id":"MT"},{"zip":"59730","fips":"30031","name":"Gallatin County","state_id":"MT"},{"zip":"59731","fips":"30077","name":"Powell County","state_id":"MT"},{"zip":"59732","fips":"30001","name":"Beaverhead County","state_id":"MT"},{"zip":"59733","fips":"30077","name":"Powell County","state_id":"MT"},{"zip":"59735","fips":"30057","name":"Madison County","state_id":"MT"},{"zip":"59736","fips":"30001","name":"Beaverhead County","state_id":"MT"},{"zip":"59739","fips":"30001","name":"Beaverhead County","state_id":"MT"},{"zip":"59740","fips":"30057","name":"Madison County","state_id":"MT"},{"zip":"59741","fips":"30031","name":"Gallatin County","state_id":"MT"},{"zip":"59741","fips":"30057","name":"Madison County","state_id":"MT"},{"zip":"59743","fips":"30093","name":"Silver Bow County","state_id":"MT"},{"zip":"59745","fips":"30057","name":"Madison County","state_id":"MT"},{"zip":"59746","fips":"30001","name":"Beaverhead County","state_id":"MT"},{"zip":"59747","fips":"30057","name":"Madison County","state_id":"MT"},{"zip":"59748","fips":"30093","name":"Silver Bow County","state_id":"MT"},{"zip":"59749","fips":"30057","name":"Madison County","state_id":"MT"},{"zip":"59750","fips":"30093","name":"Silver Bow County","state_id":"MT"},{"zip":"59751","fips":"30057","name":"Madison County","state_id":"MT"},{"zip":"59752","fips":"30007","name":"Broadwater County","state_id":"MT"},{"zip":"59752","fips":"30043","name":"Jefferson County","state_id":"MT"},{"zip":"59752","fips":"30031","name":"Gallatin County","state_id":"MT"},{"zip":"59754","fips":"30057","name":"Madison County","state_id":"MT"},{"zip":"59755","fips":"30057","name":"Madison County","state_id":"MT"},{"zip":"59756","fips":"30023","name":"Deer Lodge County","state_id":"MT"},{"zip":"59758","fips":"30031","name":"Gallatin County","state_id":"MT"},{"zip":"59759","fips":"30057","name":"Madison County","state_id":"MT"},{"zip":"59759","fips":"30093","name":"Silver Bow County","state_id":"MT"},{"zip":"59759","fips":"30043","name":"Jefferson County","state_id":"MT"},{"zip":"59760","fips":"30031","name":"Gallatin County","state_id":"MT"},{"zip":"59761","fips":"30001","name":"Beaverhead County","state_id":"MT"},{"zip":"59762","fips":"30093","name":"Silver Bow County","state_id":"MT"},{"zip":"59762","fips":"30023","name":"Deer Lodge County","state_id":"MT"},{"zip":"59762","fips":"30001","name":"Beaverhead County","state_id":"MT"},{"zip":"59771","fips":"30031","name":"Gallatin County","state_id":"MT"},{"zip":"59772","fips":"30031","name":"Gallatin County","state_id":"MT"}]
