[{"zip":"59801","fips":"30063","name":"Missoula County","state_id":"MT"},{"zip":"59802","fips":"30063","name":"Missoula County","state_id":"MT"},{"zip":"59803","fips":"30063","name":"Missoula County","state_id":"MT"},{"zip":"59804","fips":"30063","name":"Missoula County","state_id":"MT"},{"zip":"59806","fips":"30063","name":"Missoula County","state_id":"MT"},{"zip":"59807","fips":"30063","name":"Missoula County","state_id":"MT"},{"zip":"59808","fips":"30063","name":"Missoula County","state_id":"MT"},{"zip":"59812","fips":"30063","name":"Missoula County","state_id":"MT"},{"zip":"59820","fips":"30061","name":"Mineral County","state_id":"MT"},{"zip":"59820","fips":"30063","name":"Missoula County","state_id":"MT"},{"zip":"59821","fips":"30089","name":"Sanders County","state_id":"MT"},{"zip":"59821","fips":"30047","name":"Lake County","state_id":"MT"},{"zip":"59821","fips":"30063","name":"Missoula County","state_id":"MT"},{"zip":"59823","fips":"30063","name":"Missoula County","state_id":"MT"},{"zip":"59824","fips":"30047","name":"Lake County","state_id":"MT"},{"zip":"59825","fips":"30039","name":"Granite County","state_id":"MT"},{"zip":"59825","fips":"30063","name":"Missoula County","state_id":"MT"},{"zip":"59826","fips":"30047","name":"Lake County","state_id":"MT"},{"zip":"59826","fips":"30063","name":"Missoula County","state_id":"MT"},{"zip":"59827","fips":"30081","name":"Ravalli County","state_id":"MT"},{"zip":"59828","fips":"30081","name":"Ravalli County","state_id":"MT"},{"zip":"59829","fips":"30081","name":"Ravalli County","state_id":"MT"},{"zip":"59830","fips":"30061","name":"Mineral County","state_id":"MT"},{"zip":"59831","fips":"30089","name":"Sanders County","state_id":"MT"},{"zip":"59832","fips":"30039","name":"Granite County","state_id":"MT"},{"zip":"59832","fips":"30077","name":"Powell County","state_id":"MT"},{"zip":"59833","fips":"30081","name":"Ravalli County","state_id":"MT"},{"zip":"59833","fips":"30063","name":"Missoula County","state_id":"MT"},{"zip":"59834","fips":"30063","name":"Missoula County","state_id":"MT"},{"zip":"59835","fips":"30081","name":"Ravalli County","state_id":"MT"},{"zip":"59837","fips":"30039","name":"Granite County","state_id":"MT"},{"zip":"59840","fips":"30081","name":"Ravalli County","state_id":"MT"},{"zip":"59841","fips":"30081","name":"Ravalli County","state_id":"MT"},{"zip":"59842","fips":"30061","name":"Mineral County","state_id":"MT"},{"zip":"59843","fips":"30077","name":"Powell County","state_id":"MT"},{"zip":"59844","fips":"30089","name":"Sanders County","state_id":"MT"},{"zip":"59845","fips":"30047","name":"Lake County","state_id":"MT"},{"zip":"59845","fips":"30089","name":"Sanders County","state_id":"MT"},{"zip":"59845","fips":"30029","name":"Flathead County","state_id":"MT"},{"zip":"59846","fips":"30063","name":"Missoula County","state_id":"MT"},{"zip":"59847","fips":"30063","name":"Missoula County","state_id":"MT"},{"zip":"59848","fips":"30089","name":"Sanders County","state_id":"MT"},{"zip":"59851","fips":"30063","name":"Missoula County","state_id":"MT"},{"zip":"59853","fips":"30089","name":"Sanders County","state_id":"MT"},{"zip":"59854","fips":"30077","name":"Powell County","state_id":"MT"},{"zip":"59855","fips":"30047","name":"Lake County","state_id":"MT"},{"zip":"59856","fips":"30089","name":"Sanders County","state_id":"MT"},{"zip":"59858","fips":"30039","name":"Granite County","state_id":"MT"},{"zip":"59859","fips":"30061","name":"Mineral County","state_id":"MT"},{"zip":"59859","fips":"30089","name":"Sanders County","state_id":"MT"},{"zip":"59860","fips":"30047","name":"Lake County","state_id":"MT"},{"zip":"59863","fips":"30047","name":"Lake County","state_id":"MT"},{"zip":"59864","fips":"30047","name":"Lake County","state_id":"MT"},{"zip":"59865","fips":"30047","name":"Lake County","state_id":"MT"},{"zip":"59866","fips":"30089","name":"Sanders County","state_id":"MT"},{"zip":"59866","fips":"30061","name":"Mineral County","state_id":"MT"},{"zip":"59867","fips":"30061","name":"Mineral County","state_id":"MT"},{"zip":"59868","fips":"30063","name":"Missoula County","state_id":"MT"},{"zip":"59870","fips":"30081","name":"Ravalli County","state_id":"MT"},{"zip":"59871","fips":"30081","name":"Ravalli County","state_id":"MT"},{"zip":"59872","fips":"30061","name":"Mineral County","state_id":"MT"},{"zip":"59873","fips":"30089","name":"Sanders County","state_id":"MT"},{"zip":"59874","fips":"30089","name":"Sanders County","state_id":"MT"},{"zip":"59875","fips":"30081","name":"Ravalli County","state_id":"MT"}]
