[{"zip":"40003","fips":"21073","name":"Franklin County","state_id":"KY"},{"zip":"40003","fips":"21211","name":"Shelby County","state_id":"KY"},{"zip":"40004","fips":"21179","name":"Nelson County","state_id":"KY"},{"zip":"40006","fips":"21223","name":"Trimble County","state_id":"KY"},{"zip":"40006","fips":"21041","name":"Carroll County","state_id":"KY"},{"zip":"40006","fips":"21103","name":"Henry County","state_id":"KY"},{"zip":"40007","fips":"21103","name":"Henry County","state_id":"KY"},{"zip":"40008","fips":"21179","name":"Nelson County","state_id":"KY"},{"zip":"40008","fips":"21215","name":"Spencer County","state_id":"KY"},{"zip":"40008","fips":"21229","name":"Washington County","state_id":"KY"},{"zip":"40009","fips":"21087","name":"Green County","state_id":"KY"},{"zip":"40009","fips":"21217","name":"Taylor County","state_id":"KY"},{"zip":"40009","fips":"21155","name":"Marion County","state_id":"KY"},{"zip":"40009","fips":"21045","name":"Casey County","state_id":"KY"},{"zip":"40010","fips":"21185","name":"Oldham County","state_id":"KY"},{"zip":"40011","fips":"21223","name":"Trimble County","state_id":"KY"},{"zip":"40011","fips":"21041","name":"Carroll County","state_id":"KY"},{"zip":"40011","fips":"21103","name":"Henry County","state_id":"KY"},{"zip":"40012","fips":"21179","name":"Nelson County","state_id":"KY"},{"zip":"40012","fips":"21005","name":"Anderson County","state_id":"KY"},{"zip":"40013","fips":"21179","name":"Nelson County","state_id":"KY"},{"zip":"40013","fips":"21029","name":"Bullitt County","state_id":"KY"},{"zip":"40013","fips":"21215","name":"Spencer County","state_id":"KY"},{"zip":"40014","fips":"21111","name":"Jefferson County","state_id":"KY"},{"zip":"40014","fips":"21185","name":"Oldham County","state_id":"KY"},{"zip":"40014","fips":"21211","name":"Shelby County","state_id":"KY"},{"zip":"40018","fips":"21111","name":"Jefferson County","state_id":"KY"},{"zip":"40019","fips":"21103","name":"Henry County","state_id":"KY"},{"zip":"40019","fips":"21211","name":"Shelby County","state_id":"KY"},{"zip":"40020","fips":"21179","name":"Nelson County","state_id":"KY"},{"zip":"40022","fips":"21211","name":"Shelby County","state_id":"KY"},{"zip":"40023","fips":"21111","name":"Jefferson County","state_id":"KY"},{"zip":"40023","fips":"21215","name":"Spencer County","state_id":"KY"},{"zip":"40023","fips":"21211","name":"Shelby County","state_id":"KY"},{"zip":"40025","fips":"21111","name":"Jefferson County","state_id":"KY"},{"zip":"40026","fips":"21185","name":"Oldham County","state_id":"KY"},{"zip":"40027","fips":"21111","name":"Jefferson County","state_id":"KY"},{"zip":"40031","fips":"21185","name":"Oldham County","state_id":"KY"},{"zip":"40031","fips":"21103","name":"Henry County","state_id":"KY"},{"zip":"40032","fips":"21185","name":"Oldham County","state_id":"KY"},{"zip":"40033","fips":"21217","name":"Taylor County","state_id":"KY"},{"zip":"40033","fips":"21229","name":"Washington County","state_id":"KY"},{"zip":"40033","fips":"21155","name":"Marion County","state_id":"KY"},{"zip":"40036","fips":"21103","name":"Henry County","state_id":"KY"},{"zip":"40037","fips":"21179","name":"Nelson County","state_id":"KY"},{"zip":"40037","fips":"21155","name":"Marion County","state_id":"KY"},{"zip":"40037","fips":"21229","name":"Washington County","state_id":"KY"},{"zip":"40040","fips":"21229","name":"Washington County","state_id":"KY"},{"zip":"40041","fips":"21111","name":"Jefferson County","state_id":"KY"},{"zip":"40045","fips":"21223","name":"Trimble County","state_id":"KY"},{"zip":"40045","fips":"21041","name":"Carroll County","state_id":"KY"},{"zip":"40046","fips":"21211","name":"Shelby County","state_id":"KY"},{"zip":"40046","fips":"21005","name":"Anderson County","state_id":"KY"},{"zip":"40046","fips":"21215","name":"Spencer County","state_id":"KY"},{"zip":"40047","fips":"21215","name":"Spencer County","state_id":"KY"},{"zip":"40047","fips":"21111","name":"Jefferson County","state_id":"KY"},{"zip":"40047","fips":"21029","name":"Bullitt County","state_id":"KY"},{"zip":"40048","fips":"21179","name":"Nelson County","state_id":"KY"},{"zip":"40049","fips":"21155","name":"Marion County","state_id":"KY"},{"zip":"40050","fips":"21103","name":"Henry County","state_id":"KY"},{"zip":"40051","fips":"21123","name":"Larue County","state_id":"KY"},{"zip":"40051","fips":"21179","name":"Nelson County","state_id":"KY"},{"zip":"40051","fips":"21093","name":"Hardin County","state_id":"KY"},{"zip":"40052","fips":"21155","name":"Marion County","state_id":"KY"},{"zip":"40052","fips":"21123","name":"Larue County","state_id":"KY"},{"zip":"40052","fips":"21179","name":"Nelson County","state_id":"KY"},{"zip":"40055","fips":"21185","name":"Oldham County","state_id":"KY"},{"zip":"40055","fips":"21223","name":"Trimble County","state_id":"KY"},{"zip":"40055","fips":"21103","name":"Henry County","state_id":"KY"},{"zip":"40056","fips":"21211","name":"Shelby County","state_id":"KY"},{"zip":"40056","fips":"21185","name":"Oldham County","state_id":"KY"},{"zip":"40056","fips":"21111","name":"Jefferson County","state_id":"KY"},{"zip":"40057","fips":"21211","name":"Shelby County","state_id":"KY"},{"zip":"40057","fips":"21103","name":"Henry County","state_id":"KY"},{"zip":"40058","fips":"21103","name":"Henry County","state_id":"KY"},{"zip":"40059","fips":"21185","name":"Oldham County","state_id":"KY"},{"zip":"40059","fips":"21111","name":"Jefferson County","state_id":"KY"},{"zip":"40060","fips":"21179","name":"Nelson County","state_id":"KY"},{"zip":"40060","fips":"21155","name":"Marion County","state_id":"KY"},{"zip":"40061","fips":"21229","name":"Washington County","state_id":"KY"},{"zip":"40062","fips":"21155","name":"Marion County","state_id":"KY"},{"zip":"40063","fips":"21155","name":"Marion County","state_id":"KY"},{"zip":"40065","fips":"21185","name":"Oldham County","state_id":"KY"},{"zip":"40065","fips":"21211","name":"Shelby County","state_id":"KY"},{"zip":"40066","fips":"21211","name":"Shelby County","state_id":"KY"},{"zip":"40067","fips":"21211","name":"Shelby County","state_id":"KY"},{"zip":"40068","fips":"21103","name":"Henry County","state_id":"KY"},{"zip":"40068","fips":"21211","name":"Shelby County","state_id":"KY"},{"zip":"40068","fips":"21185","name":"Oldham County","state_id":"KY"},{"zip":"40069","fips":"21155","name":"Marion County","state_id":"KY"},{"zip":"40069","fips":"21179","name":"Nelson County","state_id":"KY"},{"zip":"40069","fips":"21229","name":"Washington County","state_id":"KY"},{"zip":"40070","fips":"21103","name":"Henry County","state_id":"KY"},{"zip":"40071","fips":"21211","name":"Shelby County","state_id":"KY"},{"zip":"40071","fips":"21179","name":"Nelson County","state_id":"KY"},{"zip":"40071","fips":"21029","name":"Bullitt County","state_id":"KY"},{"zip":"40071","fips":"21215","name":"Spencer County","state_id":"KY"},{"zip":"40075","fips":"21041","name":"Carroll County","state_id":"KY"},{"zip":"40075","fips":"21103","name":"Henry County","state_id":"KY"},{"zip":"40076","fips":"21005","name":"Anderson County","state_id":"KY"},{"zip":"40076","fips":"21211","name":"Shelby County","state_id":"KY"},{"zip":"40076","fips":"21215","name":"Spencer County","state_id":"KY"},{"zip":"40076","fips":"21073","name":"Franklin County","state_id":"KY"},{"zip":"40077","fips":"21185","name":"Oldham County","state_id":"KY"},{"zip":"40078","fips":"21167","name":"Mercer County","state_id":"KY"},{"zip":"40078","fips":"21229","name":"Washington County","state_id":"KY"},{"zip":"40078","fips":"21005","name":"Anderson County","state_id":"KY"}]
