[{"zip":"40104","fips":"21163","name":"Meade County","state_id":"KY"},{"zip":"40107","fips":"21179","name":"Nelson County","state_id":"KY"},{"zip":"40108","fips":"21163","name":"Meade County","state_id":"KY"},{"zip":"40109","fips":"21029","name":"Bullitt County","state_id":"KY"},{"zip":"40109","fips":"21111","name":"Jefferson County","state_id":"KY"},{"zip":"40110","fips":"21029","name":"Bullitt County","state_id":"KY"},{"zip":"40111","fips":"21027","name":"Breckinridge County","state_id":"KY"},{"zip":"40115","fips":"21027","name":"Breckinridge County","state_id":"KY"},{"zip":"40115","fips":"21093","name":"Hardin County","state_id":"KY"},{"zip":"40117","fips":"21163","name":"Meade County","state_id":"KY"},{"zip":"40118","fips":"21111","name":"Jefferson County","state_id":"KY"},{"zip":"40119","fips":"21027","name":"Breckinridge County","state_id":"KY"},{"zip":"40119","fips":"21085","name":"Grayson County","state_id":"KY"},{"zip":"40119","fips":"21183","name":"Ohio County","state_id":"KY"},{"zip":"40121","fips":"21163","name":"Meade County","state_id":"KY"},{"zip":"40121","fips":"21093","name":"Hardin County","state_id":"KY"},{"zip":"40122","fips":"21093","name":"Hardin County","state_id":"KY"},{"zip":"40129","fips":"21029","name":"Bullitt County","state_id":"KY"},{"zip":"40140","fips":"21027","name":"Breckinridge County","state_id":"KY"},{"zip":"40140","fips":"21093","name":"Hardin County","state_id":"KY"},{"zip":"40142","fips":"21163","name":"Meade County","state_id":"KY"},{"zip":"40142","fips":"21027","name":"Breckinridge County","state_id":"KY"},{"zip":"40143","fips":"21027","name":"Breckinridge County","state_id":"KY"},{"zip":"40144","fips":"21027","name":"Breckinridge County","state_id":"KY"},{"zip":"40145","fips":"21027","name":"Breckinridge County","state_id":"KY"},{"zip":"40145","fips":"21085","name":"Grayson County","state_id":"KY"},{"zip":"40146","fips":"21163","name":"Meade County","state_id":"KY"},{"zip":"40146","fips":"21027","name":"Breckinridge County","state_id":"KY"},{"zip":"40150","fips":"21093","name":"Hardin County","state_id":"KY"},{"zip":"40150","fips":"21029","name":"Bullitt County","state_id":"KY"},{"zip":"40152","fips":"21027","name":"Breckinridge County","state_id":"KY"},{"zip":"40153","fips":"21027","name":"Breckinridge County","state_id":"KY"},{"zip":"40155","fips":"21163","name":"Meade County","state_id":"KY"},{"zip":"40157","fips":"21027","name":"Breckinridge County","state_id":"KY"},{"zip":"40157","fips":"21163","name":"Meade County","state_id":"KY"},{"zip":"40159","fips":"21093","name":"Hardin County","state_id":"KY"},{"zip":"40160","fips":"21093","name":"Hardin County","state_id":"KY"},{"zip":"40161","fips":"21163","name":"Meade County","state_id":"KY"},{"zip":"40161","fips":"21027","name":"Breckinridge County","state_id":"KY"},{"zip":"40162","fips":"21093","name":"Hardin County","state_id":"KY"},{"zip":"40165","fips":"21029","name":"Bullitt County","state_id":"KY"},{"zip":"40166","fips":"21029","name":"Bullitt County","state_id":"KY"},{"zip":"40170","fips":"21027","name":"Breckinridge County","state_id":"KY"},{"zip":"40171","fips":"21027","name":"Breckinridge County","state_id":"KY"},{"zip":"40171","fips":"21163","name":"Meade County","state_id":"KY"},{"zip":"40175","fips":"21027","name":"Breckinridge County","state_id":"KY"},{"zip":"40175","fips":"21163","name":"Meade County","state_id":"KY"},{"zip":"40175","fips":"21093","name":"Hardin County","state_id":"KY"},{"zip":"40176","fips":"21027","name":"Breckinridge County","state_id":"KY"},{"zip":"40176","fips":"21163","name":"Meade County","state_id":"KY"},{"zip":"40177","fips":"21093","name":"Hardin County","state_id":"KY"},{"zip":"40177","fips":"21029","name":"Bullitt County","state_id":"KY"},{"zip":"40177","fips":"21111","name":"Jefferson County","state_id":"KY"},{"zip":"40178","fips":"21027","name":"Breckinridge County","state_id":"KY"}]
