[{"zip":"40201","fips":"21111","name":"Jefferson County","state_id":"KY"},{"zip":"40202","fips":"21111","name":"Jefferson County","state_id":"KY"},{"zip":"40203","fips":"21111","name":"Jefferson County","state_id":"KY"},{"zip":"40204","fips":"21111","name":"Jefferson County","state_id":"KY"},{"zip":"40205","fips":"21111","name":"Jefferson County","state_id":"KY"},{"zip":"40206","fips":"21111","name":"Jefferson County","state_id":"KY"},{"zip":"40207","fips":"21029","name":"Bullitt County","state_id":"KY"},{"zip":"40207","fips":"21111","name":"Jefferson County","state_id":"KY"},{"zip":"40208","fips":"21111","name":"Jefferson County","state_id":"KY"},{"zip":"40209","fips":"21111","name":"Jefferson County","state_id":"KY"},{"zip":"40210","fips":"21111","name":"Jefferson County","state_id":"KY"},{"zip":"40211","fips":"21111","name":"Jefferson County","state_id":"KY"},{"zip":"40212","fips":"21111","name":"Jefferson County","state_id":"KY"},{"zip":"40213","fips":"21111","name":"Jefferson County","state_id":"KY"},{"zip":"40214","fips":"21111","name":"Jefferson County","state_id":"KY"},{"zip":"40215","fips":"21111","name":"Jefferson County","state_id":"KY"},{"zip":"40216","fips":"21111","name":"Jefferson County","state_id":"KY"},{"zip":"40217","fips":"21111","name":"Jefferson County","state_id":"KY"},{"zip":"40218","fips":"21111","name":"Jefferson County","state_id":"KY"},{"zip":"40219","fips":"21111","name":"Jefferson County","state_id":"KY"},{"zip":"40220","fips":"21111","name":"Jefferson County","state_id":"KY"},{"zip":"40221","fips":"21111","name":"Jefferson County","state_id":"KY"},{"zip":"40222","fips":"21111","name":"Jefferson County","state_id":"KY"},{"zip":"40223","fips":"21111","name":"Jefferson County","state_id":"KY"},{"zip":"40225","fips":"21111","name":"Jefferson County","state_id":"KY"},{"zip":"40228","fips":"21111","name":"Jefferson County","state_id":"KY"},{"zip":"40229","fips":"21111","name":"Jefferson County","state_id":"KY"},{"zip":"40229","fips":"21029","name":"Bullitt County","state_id":"KY"},{"zip":"40231","fips":"21111","name":"Jefferson County","state_id":"KY"},{"zip":"40232","fips":"21111","name":"Jefferson County","state_id":"KY"},{"zip":"40233","fips":"21111","name":"Jefferson County","state_id":"KY"},{"zip":"40241","fips":"21185","name":"Oldham County","state_id":"KY"},{"zip":"40241","fips":"21111","name":"Jefferson County","state_id":"KY"},{"zip":"40242","fips":"21111","name":"Jefferson County","state_id":"KY"},{"zip":"40243","fips":"21111","name":"Jefferson County","state_id":"KY"},{"zip":"40245","fips":"21111","name":"Jefferson County","state_id":"KY"},{"zip":"40245","fips":"21185","name":"Oldham County","state_id":"KY"},{"zip":"40245","fips":"21211","name":"Shelby County","state_id":"KY"},{"zip":"40250","fips":"21111","name":"Jefferson County","state_id":"KY"},{"zip":"40251","fips":"21111","name":"Jefferson County","state_id":"KY"},{"zip":"40252","fips":"21111","name":"Jefferson County","state_id":"KY"},{"zip":"40253","fips":"21111","name":"Jefferson County","state_id":"KY"},{"zip":"40255","fips":"21111","name":"Jefferson County","state_id":"KY"},{"zip":"40256","fips":"21111","name":"Jefferson County","state_id":"KY"},{"zip":"40257","fips":"21111","name":"Jefferson County","state_id":"KY"},{"zip":"40258","fips":"21111","name":"Jefferson County","state_id":"KY"},{"zip":"40259","fips":"21111","name":"Jefferson County","state_id":"KY"},{"zip":"40261","fips":"21111","name":"Jefferson County","state_id":"KY"},{"zip":"40266","fips":"21111","name":"Jefferson County","state_id":"KY"},{"zip":"40268","fips":"21111","name":"Jefferson County","state_id":"KY"},{"zip":"40269","fips":"21111","name":"Jefferson County","state_id":"KY"},{"zip":"40270","fips":"21111","name":"Jefferson County","state_id":"KY"},{"zip":"40272","fips":"21111","name":"Jefferson County","state_id":"KY"},{"zip":"40272","fips":"21029","name":"Bullitt County","state_id":"KY"},{"zip":"40280","fips":"21111","name":"Jefferson County","state_id":"KY"},{"zip":"40281","fips":"21111","name":"Jefferson County","state_id":"KY"},{"zip":"40282","fips":"21111","name":"Jefferson County","state_id":"KY"},{"zip":"40283","fips":"21111","name":"Jefferson County","state_id":"KY"},{"zip":"40285","fips":"21111","name":"Jefferson County","state_id":"KY"},{"zip":"40289","fips":"21111","name":"Jefferson County","state_id":"KY"},{"zip":"40291","fips":"21111","name":"Jefferson County","state_id":"KY"},{"zip":"40292","fips":"21111","name":"Jefferson County","state_id":"KY"},{"zip":"40299","fips":"21029","name":"Bullitt County","state_id":"KY"},{"zip":"40299","fips":"21111","name":"Jefferson County","state_id":"KY"}]
