[{"zip":"40310","fips":"21167","name":"Mercer County","state_id":"KY"},{"zip":"40311","fips":"21069","name":"Fleming County","state_id":"KY"},{"zip":"40311","fips":"21181","name":"Nicholas County","state_id":"KY"},{"zip":"40311","fips":"21011","name":"Bath County","state_id":"KY"},{"zip":"40311","fips":"21017","name":"Bourbon County","state_id":"KY"},{"zip":"40312","fips":"21049","name":"Clark County","state_id":"KY"},{"zip":"40312","fips":"21197","name":"Powell County","state_id":"KY"},{"zip":"40312","fips":"21065","name":"Estill County","state_id":"KY"},{"zip":"40313","fips":"21205","name":"Rowan County","state_id":"KY"},{"zip":"40316","fips":"21165","name":"Menifee County","state_id":"KY"},{"zip":"40317","fips":"21205","name":"Rowan County","state_id":"KY"},{"zip":"40319","fips":"21205","name":"Rowan County","state_id":"KY"},{"zip":"40322","fips":"21165","name":"Menifee County","state_id":"KY"},{"zip":"40322","fips":"21011","name":"Bath County","state_id":"KY"},{"zip":"40324","fips":"21067","name":"Fayette County","state_id":"KY"},{"zip":"40324","fips":"21017","name":"Bourbon County","state_id":"KY"},{"zip":"40324","fips":"21209","name":"Scott County","state_id":"KY"},{"zip":"40328","fips":"21045","name":"Casey County","state_id":"KY"},{"zip":"40328","fips":"21021","name":"Boyle County","state_id":"KY"},{"zip":"40328","fips":"21155","name":"Marion County","state_id":"KY"},{"zip":"40330","fips":"21229","name":"Washington County","state_id":"KY"},{"zip":"40330","fips":"21167","name":"Mercer County","state_id":"KY"},{"zip":"40330","fips":"21021","name":"Boyle County","state_id":"KY"},{"zip":"40334","fips":"21173","name":"Montgomery County","state_id":"KY"},{"zip":"40334","fips":"21011","name":"Bath County","state_id":"KY"},{"zip":"40336","fips":"21065","name":"Estill County","state_id":"KY"},{"zip":"40336","fips":"21129","name":"Lee County","state_id":"KY"},{"zip":"40337","fips":"21173","name":"Montgomery County","state_id":"KY"},{"zip":"40337","fips":"21197","name":"Powell County","state_id":"KY"},{"zip":"40339","fips":"21113","name":"Jessamine County","state_id":"KY"},{"zip":"40340","fips":"21113","name":"Jessamine County","state_id":"KY"},{"zip":"40342","fips":"21005","name":"Anderson County","state_id":"KY"},{"zip":"40342","fips":"21229","name":"Washington County","state_id":"KY"},{"zip":"40342","fips":"21215","name":"Spencer County","state_id":"KY"},{"zip":"40342","fips":"21167","name":"Mercer County","state_id":"KY"},{"zip":"40342","fips":"21211","name":"Shelby County","state_id":"KY"},{"zip":"40342","fips":"21073","name":"Franklin County","state_id":"KY"},{"zip":"40346","fips":"21165","name":"Menifee County","state_id":"KY"},{"zip":"40346","fips":"21011","name":"Bath County","state_id":"KY"},{"zip":"40346","fips":"21173","name":"Montgomery County","state_id":"KY"},{"zip":"40347","fips":"21239","name":"Woodford County","state_id":"KY"},{"zip":"40347","fips":"21209","name":"Scott County","state_id":"KY"},{"zip":"40347","fips":"21073","name":"Franklin County","state_id":"KY"},{"zip":"40348","fips":"21017","name":"Bourbon County","state_id":"KY"},{"zip":"40350","fips":"21181","name":"Nicholas County","state_id":"KY"},{"zip":"40351","fips":"21011","name":"Bath County","state_id":"KY"},{"zip":"40351","fips":"21069","name":"Fleming County","state_id":"KY"},{"zip":"40351","fips":"21043","name":"Carter County","state_id":"KY"},{"zip":"40351","fips":"21205","name":"Rowan County","state_id":"KY"},{"zip":"40351","fips":"21063","name":"Elliott County","state_id":"KY"},{"zip":"40353","fips":"21011","name":"Bath County","state_id":"KY"},{"zip":"40353","fips":"21017","name":"Bourbon County","state_id":"KY"},{"zip":"40353","fips":"21173","name":"Montgomery County","state_id":"KY"},{"zip":"40353","fips":"21049","name":"Clark County","state_id":"KY"},{"zip":"40355","fips":"21187","name":"Owen County","state_id":"KY"},{"zip":"40356","fips":"21113","name":"Jessamine County","state_id":"KY"},{"zip":"40356","fips":"21239","name":"Woodford County","state_id":"KY"},{"zip":"40356","fips":"21067","name":"Fayette County","state_id":"KY"},{"zip":"40357","fips":"21017","name":"Bourbon County","state_id":"KY"},{"zip":"40358","fips":"21011","name":"Bath County","state_id":"KY"},{"zip":"40359","fips":"21187","name":"Owen County","state_id":"KY"},{"zip":"40360","fips":"21173","name":"Montgomery County","state_id":"KY"},{"zip":"40360","fips":"21011","name":"Bath County","state_id":"KY"},{"zip":"40361","fips":"21067","name":"Fayette County","state_id":"KY"},{"zip":"40361","fips":"21097","name":"Harrison County","state_id":"KY"},{"zip":"40361","fips":"21209","name":"Scott County","state_id":"KY"},{"zip":"40361","fips":"21173","name":"Montgomery County","state_id":"KY"},{"zip":"40361","fips":"21181","name":"Nicholas County","state_id":"KY"},{"zip":"40361","fips":"21017","name":"Bourbon County","state_id":"KY"},{"zip":"40363","fips":"21187","name":"Owen County","state_id":"KY"},{"zip":"40370","fips":"21209","name":"Scott County","state_id":"KY"},{"zip":"40370","fips":"21097","name":"Harrison County","state_id":"KY"},{"zip":"40371","fips":"21011","name":"Bath County","state_id":"KY"},{"zip":"40371","fips":"21165","name":"Menifee County","state_id":"KY"},{"zip":"40371","fips":"21205","name":"Rowan County","state_id":"KY"},{"zip":"40372","fips":"21167","name":"Mercer County","state_id":"KY"},{"zip":"40372","fips":"21005","name":"Anderson County","state_id":"KY"},{"zip":"40374","fips":"21011","name":"Bath County","state_id":"KY"},{"zip":"40374","fips":"21017","name":"Bourbon County","state_id":"KY"},{"zip":"40374","fips":"21181","name":"Nicholas County","state_id":"KY"},{"zip":"40376","fips":"21197","name":"Powell County","state_id":"KY"},{"zip":"40379","fips":"21187","name":"Owen County","state_id":"KY"},{"zip":"40379","fips":"21209","name":"Scott County","state_id":"KY"},{"zip":"40379","fips":"21073","name":"Franklin County","state_id":"KY"},{"zip":"40380","fips":"21065","name":"Estill County","state_id":"KY"},{"zip":"40380","fips":"21165","name":"Menifee County","state_id":"KY"},{"zip":"40380","fips":"21197","name":"Powell County","state_id":"KY"},{"zip":"40383","fips":"21239","name":"Woodford County","state_id":"KY"},{"zip":"40383","fips":"21113","name":"Jessamine County","state_id":"KY"},{"zip":"40385","fips":"21151","name":"Madison County","state_id":"KY"},{"zip":"40385","fips":"21065","name":"Estill County","state_id":"KY"},{"zip":"40387","fips":"21165","name":"Menifee County","state_id":"KY"},{"zip":"40387","fips":"21197","name":"Powell County","state_id":"KY"},{"zip":"40387","fips":"21175","name":"Morgan County","state_id":"KY"},{"zip":"40390","fips":"21239","name":"Woodford County","state_id":"KY"},{"zip":"40390","fips":"21113","name":"Jessamine County","state_id":"KY"},{"zip":"40391","fips":"21049","name":"Clark County","state_id":"KY"},{"zip":"40391","fips":"21173","name":"Montgomery County","state_id":"KY"},{"zip":"40391","fips":"21067","name":"Fayette County","state_id":"KY"},{"zip":"40392","fips":"21049","name":"Clark County","state_id":"KY"}]
