[{"zip":"40402","fips":"21125","name":"Laurel County","state_id":"KY"},{"zip":"40402","fips":"21109","name":"Jackson County","state_id":"KY"},{"zip":"40402","fips":"21051","name":"Clay County","state_id":"KY"},{"zip":"40403","fips":"21151","name":"Madison County","state_id":"KY"},{"zip":"40403","fips":"21203","name":"Rockcastle County","state_id":"KY"},{"zip":"40403","fips":"21079","name":"Garrard County","state_id":"KY"},{"zip":"40405","fips":"21151","name":"Madison County","state_id":"KY"},{"zip":"40409","fips":"21203","name":"Rockcastle County","state_id":"KY"},{"zip":"40409","fips":"21199","name":"Pulaski County","state_id":"KY"},{"zip":"40409","fips":"21137","name":"Lincoln County","state_id":"KY"},{"zip":"40410","fips":"21079","name":"Garrard County","state_id":"KY"},{"zip":"40419","fips":"21199","name":"Pulaski County","state_id":"KY"},{"zip":"40419","fips":"21203","name":"Rockcastle County","state_id":"KY"},{"zip":"40419","fips":"21079","name":"Garrard County","state_id":"KY"},{"zip":"40419","fips":"21137","name":"Lincoln County","state_id":"KY"},{"zip":"40422","fips":"21137","name":"Lincoln County","state_id":"KY"},{"zip":"40422","fips":"21021","name":"Boyle County","state_id":"KY"},{"zip":"40434","fips":"21109","name":"Jackson County","state_id":"KY"},{"zip":"40437","fips":"21137","name":"Lincoln County","state_id":"KY"},{"zip":"40437","fips":"21045","name":"Casey County","state_id":"KY"},{"zip":"40440","fips":"21137","name":"Lincoln County","state_id":"KY"},{"zip":"40440","fips":"21021","name":"Boyle County","state_id":"KY"},{"zip":"40442","fips":"21137","name":"Lincoln County","state_id":"KY"},{"zip":"40442","fips":"21045","name":"Casey County","state_id":"KY"},{"zip":"40444","fips":"21137","name":"Lincoln County","state_id":"KY"},{"zip":"40444","fips":"21079","name":"Garrard County","state_id":"KY"},{"zip":"40445","fips":"21203","name":"Rockcastle County","state_id":"KY"},{"zip":"40445","fips":"21109","name":"Jackson County","state_id":"KY"},{"zip":"40447","fips":"21151","name":"Madison County","state_id":"KY"},{"zip":"40447","fips":"21203","name":"Rockcastle County","state_id":"KY"},{"zip":"40447","fips":"21109","name":"Jackson County","state_id":"KY"},{"zip":"40447","fips":"21189","name":"Owsley County","state_id":"KY"},{"zip":"40448","fips":"21137","name":"Lincoln County","state_id":"KY"},{"zip":"40452","fips":"21021","name":"Boyle County","state_id":"KY"},{"zip":"40456","fips":"21203","name":"Rockcastle County","state_id":"KY"},{"zip":"40456","fips":"21109","name":"Jackson County","state_id":"KY"},{"zip":"40456","fips":"21199","name":"Pulaski County","state_id":"KY"},{"zip":"40456","fips":"21151","name":"Madison County","state_id":"KY"},{"zip":"40460","fips":"21203","name":"Rockcastle County","state_id":"KY"},{"zip":"40461","fips":"21151","name":"Madison County","state_id":"KY"},{"zip":"40461","fips":"21079","name":"Garrard County","state_id":"KY"},{"zip":"40464","fips":"21045","name":"Casey County","state_id":"KY"},{"zip":"40464","fips":"21021","name":"Boyle County","state_id":"KY"},{"zip":"40468","fips":"21229","name":"Washington County","state_id":"KY"},{"zip":"40468","fips":"21167","name":"Mercer County","state_id":"KY"},{"zip":"40468","fips":"21021","name":"Boyle County","state_id":"KY"},{"zip":"40472","fips":"21065","name":"Estill County","state_id":"KY"},{"zip":"40472","fips":"21197","name":"Powell County","state_id":"KY"},{"zip":"40473","fips":"21203","name":"Rockcastle County","state_id":"KY"},{"zip":"40475","fips":"21151","name":"Madison County","state_id":"KY"},{"zip":"40476","fips":"21151","name":"Madison County","state_id":"KY"},{"zip":"40481","fips":"21109","name":"Jackson County","state_id":"KY"},{"zip":"40484","fips":"21137","name":"Lincoln County","state_id":"KY"},{"zip":"40484","fips":"21079","name":"Garrard County","state_id":"KY"},{"zip":"40484","fips":"21045","name":"Casey County","state_id":"KY"},{"zip":"40486","fips":"21109","name":"Jackson County","state_id":"KY"},{"zip":"40486","fips":"21189","name":"Owsley County","state_id":"KY"},{"zip":"40489","fips":"21137","name":"Lincoln County","state_id":"KY"},{"zip":"40489","fips":"21045","name":"Casey County","state_id":"KY"},{"zip":"40489","fips":"21199","name":"Pulaski County","state_id":"KY"},{"zip":"40492","fips":"21203","name":"Rockcastle County","state_id":"KY"}]
