[{"zip":"40502","fips":"21067","name":"Fayette County","state_id":"KY"},{"zip":"40503","fips":"21067","name":"Fayette County","state_id":"KY"},{"zip":"40504","fips":"21067","name":"Fayette County","state_id":"KY"},{"zip":"40505","fips":"21067","name":"Fayette County","state_id":"KY"},{"zip":"40506","fips":"21067","name":"Fayette County","state_id":"KY"},{"zip":"40507","fips":"21067","name":"Fayette County","state_id":"KY"},{"zip":"40508","fips":"21067","name":"Fayette County","state_id":"KY"},{"zip":"40509","fips":"21049","name":"Clark County","state_id":"KY"},{"zip":"40509","fips":"21067","name":"Fayette County","state_id":"KY"},{"zip":"40510","fips":"21067","name":"Fayette County","state_id":"KY"},{"zip":"40510","fips":"21239","name":"Woodford County","state_id":"KY"},{"zip":"40511","fips":"21209","name":"Scott County","state_id":"KY"},{"zip":"40511","fips":"21017","name":"Bourbon County","state_id":"KY"},{"zip":"40511","fips":"21067","name":"Fayette County","state_id":"KY"},{"zip":"40512","fips":"21067","name":"Fayette County","state_id":"KY"},{"zip":"40513","fips":"21113","name":"Jessamine County","state_id":"KY"},{"zip":"40513","fips":"21067","name":"Fayette County","state_id":"KY"},{"zip":"40513","fips":"21239","name":"Woodford County","state_id":"KY"},{"zip":"40514","fips":"21067","name":"Fayette County","state_id":"KY"},{"zip":"40515","fips":"21067","name":"Fayette County","state_id":"KY"},{"zip":"40515","fips":"21049","name":"Clark County","state_id":"KY"},{"zip":"40515","fips":"21113","name":"Jessamine County","state_id":"KY"},{"zip":"40516","fips":"21067","name":"Fayette County","state_id":"KY"},{"zip":"40516","fips":"21017","name":"Bourbon County","state_id":"KY"},{"zip":"40517","fips":"21067","name":"Fayette County","state_id":"KY"},{"zip":"40522","fips":"21067","name":"Fayette County","state_id":"KY"},{"zip":"40523","fips":"21067","name":"Fayette County","state_id":"KY"},{"zip":"40524","fips":"21067","name":"Fayette County","state_id":"KY"},{"zip":"40526","fips":"21067","name":"Fayette County","state_id":"KY"},{"zip":"40533","fips":"21067","name":"Fayette County","state_id":"KY"},{"zip":"40536","fips":"21067","name":"Fayette County","state_id":"KY"},{"zip":"40544","fips":"21067","name":"Fayette County","state_id":"KY"},{"zip":"40555","fips":"21067","name":"Fayette County","state_id":"KY"},{"zip":"40574","fips":"21067","name":"Fayette County","state_id":"KY"},{"zip":"40575","fips":"21067","name":"Fayette County","state_id":"KY"},{"zip":"40576","fips":"21067","name":"Fayette County","state_id":"KY"},{"zip":"40577","fips":"21067","name":"Fayette County","state_id":"KY"},{"zip":"40578","fips":"21067","name":"Fayette County","state_id":"KY"},{"zip":"40579","fips":"21067","name":"Fayette County","state_id":"KY"},{"zip":"40580","fips":"21067","name":"Fayette County","state_id":"KY"},{"zip":"40581","fips":"21067","name":"Fayette County","state_id":"KY"},{"zip":"40582","fips":"21067","name":"Fayette County","state_id":"KY"},{"zip":"40583","fips":"21067","name":"Fayette County","state_id":"KY"},{"zip":"40588","fips":"21067","name":"Fayette County","state_id":"KY"},{"zip":"40591","fips":"21067","name":"Fayette County","state_id":"KY"}]
