[{"zip":"40701","fips":"21125","name":"Laurel County","state_id":"KY"},{"zip":"40701","fips":"21121","name":"Knox County","state_id":"KY"},{"zip":"40701","fips":"21235","name":"Whitley County","state_id":"KY"},{"zip":"40724","fips":"21125","name":"Laurel County","state_id":"KY"},{"zip":"40729","fips":"21125","name":"Laurel County","state_id":"KY"},{"zip":"40729","fips":"21203","name":"Rockcastle County","state_id":"KY"},{"zip":"40730","fips":"21235","name":"Whitley County","state_id":"KY"},{"zip":"40734","fips":"21125","name":"Laurel County","state_id":"KY"},{"zip":"40734","fips":"21121","name":"Knox County","state_id":"KY"},{"zip":"40737","fips":"21125","name":"Laurel County","state_id":"KY"},{"zip":"40740","fips":"21125","name":"Laurel County","state_id":"KY"},{"zip":"40741","fips":"21051","name":"Clay County","state_id":"KY"},{"zip":"40741","fips":"21235","name":"Whitley County","state_id":"KY"},{"zip":"40741","fips":"21125","name":"Laurel County","state_id":"KY"},{"zip":"40744","fips":"21051","name":"Clay County","state_id":"KY"},{"zip":"40744","fips":"21125","name":"Laurel County","state_id":"KY"},{"zip":"40750","fips":"21125","name":"Laurel County","state_id":"KY"},{"zip":"40755","fips":"21125","name":"Laurel County","state_id":"KY"},{"zip":"40759","fips":"21235","name":"Whitley County","state_id":"KY"},{"zip":"40759","fips":"21121","name":"Knox County","state_id":"KY"},{"zip":"40763","fips":"21121","name":"Knox County","state_id":"KY"},{"zip":"40763","fips":"21235","name":"Whitley County","state_id":"KY"},{"zip":"40769","fips":"21235","name":"Whitley County","state_id":"KY"},{"zip":"40769","fips":"21147","name":"McCreary County","state_id":"KY"},{"zip":"40771","fips":"21121","name":"Knox County","state_id":"KY"},{"zip":"40771","fips":"21235","name":"Whitley County","state_id":"KY"}]
