[{"zip":"40801","fips":"21095","name":"Harlan County","state_id":"KY"},{"zip":"40803","fips":"21131","name":"Leslie County","state_id":"KY"},{"zip":"40806","fips":"21095","name":"Harlan County","state_id":"KY"},{"zip":"40807","fips":"21095","name":"Harlan County","state_id":"KY"},{"zip":"40808","fips":"21095","name":"Harlan County","state_id":"KY"},{"zip":"40808","fips":"21131","name":"Leslie County","state_id":"KY"},{"zip":"40810","fips":"21095","name":"Harlan County","state_id":"KY"},{"zip":"40810","fips":"21131","name":"Leslie County","state_id":"KY"},{"zip":"40813","fips":"21013","name":"Bell County","state_id":"KY"},{"zip":"40815","fips":"21095","name":"Harlan County","state_id":"KY"},{"zip":"40816","fips":"21131","name":"Leslie County","state_id":"KY"},{"zip":"40818","fips":"21095","name":"Harlan County","state_id":"KY"},{"zip":"40819","fips":"21095","name":"Harlan County","state_id":"KY"},{"zip":"40820","fips":"21095","name":"Harlan County","state_id":"KY"},{"zip":"40823","fips":"21133","name":"Letcher County","state_id":"KY"},{"zip":"40823","fips":"21095","name":"Harlan County","state_id":"KY"},{"zip":"40824","fips":"21095","name":"Harlan County","state_id":"KY"},{"zip":"40826","fips":"21133","name":"Letcher County","state_id":"KY"},{"zip":"40827","fips":"21131","name":"Leslie County","state_id":"KY"},{"zip":"40828","fips":"21095","name":"Harlan County","state_id":"KY"},{"zip":"40829","fips":"21095","name":"Harlan County","state_id":"KY"},{"zip":"40830","fips":"21095","name":"Harlan County","state_id":"KY"},{"zip":"40831","fips":"21095","name":"Harlan County","state_id":"KY"},{"zip":"40840","fips":"21131","name":"Leslie County","state_id":"KY"},{"zip":"40840","fips":"21095","name":"Harlan County","state_id":"KY"},{"zip":"40843","fips":"21095","name":"Harlan County","state_id":"KY"},{"zip":"40844","fips":"21131","name":"Leslie County","state_id":"KY"},{"zip":"40845","fips":"21013","name":"Bell County","state_id":"KY"},{"zip":"40847","fips":"21095","name":"Harlan County","state_id":"KY"},{"zip":"40849","fips":"21095","name":"Harlan County","state_id":"KY"},{"zip":"40854","fips":"21095","name":"Harlan County","state_id":"KY"},{"zip":"40855","fips":"21095","name":"Harlan County","state_id":"KY"},{"zip":"40856","fips":"21013","name":"Bell County","state_id":"KY"},{"zip":"40858","fips":"21131","name":"Leslie County","state_id":"KY"},{"zip":"40862","fips":"21133","name":"Letcher County","state_id":"KY"},{"zip":"40863","fips":"21095","name":"Harlan County","state_id":"KY"},{"zip":"40865","fips":"21095","name":"Harlan County","state_id":"KY"},{"zip":"40868","fips":"21131","name":"Leslie County","state_id":"KY"},{"zip":"40870","fips":"21095","name":"Harlan County","state_id":"KY"},{"zip":"40873","fips":"21095","name":"Harlan County","state_id":"KY"},{"zip":"40874","fips":"21131","name":"Leslie County","state_id":"KY"}]
