[{"zip":"40902","fips":"21013","name":"Bell County","state_id":"KY"},{"zip":"40903","fips":"21121","name":"Knox County","state_id":"KY"},{"zip":"40906","fips":"21235","name":"Whitley County","state_id":"KY"},{"zip":"40906","fips":"21051","name":"Clay County","state_id":"KY"},{"zip":"40906","fips":"21121","name":"Knox County","state_id":"KY"},{"zip":"40913","fips":"21013","name":"Bell County","state_id":"KY"},{"zip":"40913","fips":"21051","name":"Clay County","state_id":"KY"},{"zip":"40914","fips":"21051","name":"Clay County","state_id":"KY"},{"zip":"40914","fips":"21131","name":"Leslie County","state_id":"KY"},{"zip":"40915","fips":"21121","name":"Knox County","state_id":"KY"},{"zip":"40921","fips":"21121","name":"Knox County","state_id":"KY"},{"zip":"40923","fips":"21121","name":"Knox County","state_id":"KY"},{"zip":"40927","fips":"21095","name":"Harlan County","state_id":"KY"},{"zip":"40930","fips":"21013","name":"Bell County","state_id":"KY"},{"zip":"40932","fips":"21051","name":"Clay County","state_id":"KY"},{"zip":"40935","fips":"21121","name":"Knox County","state_id":"KY"},{"zip":"40939","fips":"21121","name":"Knox County","state_id":"KY"},{"zip":"40939","fips":"21013","name":"Bell County","state_id":"KY"},{"zip":"40940","fips":"21235","name":"Whitley County","state_id":"KY"},{"zip":"40940","fips":"21013","name":"Bell County","state_id":"KY"},{"zip":"40941","fips":"21051","name":"Clay County","state_id":"KY"},{"zip":"40943","fips":"21121","name":"Knox County","state_id":"KY"},{"zip":"40944","fips":"21051","name":"Clay County","state_id":"KY"},{"zip":"40946","fips":"21121","name":"Knox County","state_id":"KY"},{"zip":"40949","fips":"21121","name":"Knox County","state_id":"KY"},{"zip":"40951","fips":"21051","name":"Clay County","state_id":"KY"},{"zip":"40953","fips":"21121","name":"Knox County","state_id":"KY"},{"zip":"40955","fips":"21013","name":"Bell County","state_id":"KY"},{"zip":"40958","fips":"21013","name":"Bell County","state_id":"KY"},{"zip":"40962","fips":"21051","name":"Clay County","state_id":"KY"},{"zip":"40962","fips":"21125","name":"Laurel County","state_id":"KY"},{"zip":"40962","fips":"21121","name":"Knox County","state_id":"KY"},{"zip":"40962","fips":"21095","name":"Harlan County","state_id":"KY"},{"zip":"40962","fips":"21109","name":"Jackson County","state_id":"KY"},{"zip":"40964","fips":"21095","name":"Harlan County","state_id":"KY"},{"zip":"40965","fips":"21013","name":"Bell County","state_id":"KY"},{"zip":"40972","fips":"21051","name":"Clay County","state_id":"KY"},{"zip":"40972","fips":"21131","name":"Leslie County","state_id":"KY"},{"zip":"40972","fips":"21193","name":"Perry County","state_id":"KY"},{"zip":"40977","fips":"21013","name":"Bell County","state_id":"KY"},{"zip":"40979","fips":"21131","name":"Leslie County","state_id":"KY"},{"zip":"40982","fips":"21121","name":"Knox County","state_id":"KY"},{"zip":"40983","fips":"21051","name":"Clay County","state_id":"KY"},{"zip":"40988","fips":"21013","name":"Bell County","state_id":"KY"},{"zip":"40995","fips":"21121","name":"Knox County","state_id":"KY"},{"zip":"40997","fips":"21121","name":"Knox County","state_id":"KY"}]
