[{"zip":"41001","fips":"21037","name":"Campbell County","state_id":"KY"},{"zip":"41002","fips":"21161","name":"Mason County","state_id":"KY"},{"zip":"41002","fips":"21023","name":"Bracken County","state_id":"KY"},{"zip":"41003","fips":"21191","name":"Pendleton County","state_id":"KY"},{"zip":"41003","fips":"21081","name":"Grant County","state_id":"KY"},{"zip":"41003","fips":"21097","name":"Harrison County","state_id":"KY"},{"zip":"41004","fips":"21201","name":"Robertson County","state_id":"KY"},{"zip":"41004","fips":"21023","name":"Bracken County","state_id":"KY"},{"zip":"41005","fips":"21015","name":"Boone County","state_id":"KY"},{"zip":"41006","fips":"21191","name":"Pendleton County","state_id":"KY"},{"zip":"41006","fips":"21037","name":"Campbell County","state_id":"KY"},{"zip":"41007","fips":"21037","name":"Campbell County","state_id":"KY"},{"zip":"41007","fips":"21191","name":"Pendleton County","state_id":"KY"},{"zip":"41008","fips":"21041","name":"Carroll County","state_id":"KY"},{"zip":"41010","fips":"21209","name":"Scott County","state_id":"KY"},{"zip":"41010","fips":"21187","name":"Owen County","state_id":"KY"},{"zip":"41010","fips":"21097","name":"Harrison County","state_id":"KY"},{"zip":"41010","fips":"21081","name":"Grant County","state_id":"KY"},{"zip":"41011","fips":"21117","name":"Kenton County","state_id":"KY"},{"zip":"41012","fips":"21117","name":"Kenton County","state_id":"KY"},{"zip":"41014","fips":"21117","name":"Kenton County","state_id":"KY"},{"zip":"41015","fips":"21117","name":"Kenton County","state_id":"KY"},{"zip":"41016","fips":"21117","name":"Kenton County","state_id":"KY"},{"zip":"41017","fips":"21117","name":"Kenton County","state_id":"KY"},{"zip":"41018","fips":"21117","name":"Kenton County","state_id":"KY"},{"zip":"41018","fips":"21015","name":"Boone County","state_id":"KY"},{"zip":"41022","fips":"21015","name":"Boone County","state_id":"KY"},{"zip":"41025","fips":"21015","name":"Boone County","state_id":"KY"},{"zip":"41030","fips":"21191","name":"Pendleton County","state_id":"KY"},{"zip":"41030","fips":"21081","name":"Grant County","state_id":"KY"},{"zip":"41030","fips":"21015","name":"Boone County","state_id":"KY"},{"zip":"41030","fips":"21117","name":"Kenton County","state_id":"KY"},{"zip":"41031","fips":"21017","name":"Bourbon County","state_id":"KY"},{"zip":"41031","fips":"21181","name":"Nicholas County","state_id":"KY"},{"zip":"41031","fips":"21097","name":"Harrison County","state_id":"KY"},{"zip":"41031","fips":"21201","name":"Robertson County","state_id":"KY"},{"zip":"41033","fips":"21191","name":"Pendleton County","state_id":"KY"},{"zip":"41033","fips":"21117","name":"Kenton County","state_id":"KY"},{"zip":"41034","fips":"21161","name":"Mason County","state_id":"KY"},{"zip":"41034","fips":"21023","name":"Bracken County","state_id":"KY"},{"zip":"41035","fips":"21191","name":"Pendleton County","state_id":"KY"},{"zip":"41035","fips":"21081","name":"Grant County","state_id":"KY"},{"zip":"41035","fips":"21187","name":"Owen County","state_id":"KY"},{"zip":"41037","fips":"21069","name":"Fleming County","state_id":"KY"},{"zip":"41039","fips":"21181","name":"Nicholas County","state_id":"KY"},{"zip":"41039","fips":"21201","name":"Robertson County","state_id":"KY"},{"zip":"41039","fips":"21069","name":"Fleming County","state_id":"KY"},{"zip":"41039","fips":"21161","name":"Mason County","state_id":"KY"},{"zip":"41040","fips":"21023","name":"Bracken County","state_id":"KY"},{"zip":"41040","fips":"21097","name":"Harrison County","state_id":"KY"},{"zip":"41040","fips":"21191","name":"Pendleton County","state_id":"KY"},{"zip":"41041","fips":"21069","name":"Fleming County","state_id":"KY"},{"zip":"41041","fips":"21161","name":"Mason County","state_id":"KY"},{"zip":"41042","fips":"21117","name":"Kenton County","state_id":"KY"},{"zip":"41042","fips":"21015","name":"Boone County","state_id":"KY"},{"zip":"41043","fips":"21191","name":"Pendleton County","state_id":"KY"},{"zip":"41043","fips":"21023","name":"Bracken County","state_id":"KY"},{"zip":"41044","fips":"21201","name":"Robertson County","state_id":"KY"},{"zip":"41044","fips":"21023","name":"Bracken County","state_id":"KY"},{"zip":"41044","fips":"21161","name":"Mason County","state_id":"KY"},{"zip":"41045","fips":"21077","name":"Gallatin County","state_id":"KY"},{"zip":"41045","fips":"21041","name":"Carroll County","state_id":"KY"},{"zip":"41046","fips":"21077","name":"Gallatin County","state_id":"KY"},{"zip":"41046","fips":"21187","name":"Owen County","state_id":"KY"},{"zip":"41046","fips":"21081","name":"Grant County","state_id":"KY"},{"zip":"41048","fips":"21015","name":"Boone County","state_id":"KY"},{"zip":"41049","fips":"21069","name":"Fleming County","state_id":"KY"},{"zip":"41049","fips":"21205","name":"Rowan County","state_id":"KY"},{"zip":"41051","fips":"21015","name":"Boone County","state_id":"KY"},{"zip":"41051","fips":"21117","name":"Kenton County","state_id":"KY"},{"zip":"41052","fips":"21081","name":"Grant County","state_id":"KY"},{"zip":"41052","fips":"21187","name":"Owen County","state_id":"KY"},{"zip":"41053","fips":"21117","name":"Kenton County","state_id":"KY"},{"zip":"41055","fips":"21161","name":"Mason County","state_id":"KY"},{"zip":"41055","fips":"21201","name":"Robertson County","state_id":"KY"},{"zip":"41055","fips":"21069","name":"Fleming County","state_id":"KY"},{"zip":"41056","fips":"21161","name":"Mason County","state_id":"KY"},{"zip":"41056","fips":"21069","name":"Fleming County","state_id":"KY"},{"zip":"41056","fips":"21135","name":"Lewis County","state_id":"KY"},{"zip":"41059","fips":"21037","name":"Campbell County","state_id":"KY"},{"zip":"41061","fips":"21023","name":"Bracken County","state_id":"KY"},{"zip":"41062","fips":"21161","name":"Mason County","state_id":"KY"},{"zip":"41063","fips":"21117","name":"Kenton County","state_id":"KY"},{"zip":"41064","fips":"21023","name":"Bracken County","state_id":"KY"},{"zip":"41064","fips":"21097","name":"Harrison County","state_id":"KY"},{"zip":"41064","fips":"21201","name":"Robertson County","state_id":"KY"},{"zip":"41071","fips":"21037","name":"Campbell County","state_id":"KY"},{"zip":"41072","fips":"21037","name":"Campbell County","state_id":"KY"},{"zip":"41073","fips":"21037","name":"Campbell County","state_id":"KY"},{"zip":"41074","fips":"21037","name":"Campbell County","state_id":"KY"},{"zip":"41075","fips":"21037","name":"Campbell County","state_id":"KY"},{"zip":"41076","fips":"21037","name":"Campbell County","state_id":"KY"},{"zip":"41080","fips":"21015","name":"Boone County","state_id":"KY"},{"zip":"41081","fips":"21069","name":"Fleming County","state_id":"KY"},{"zip":"41083","fips":"21041","name":"Carroll County","state_id":"KY"},{"zip":"41083","fips":"21187","name":"Owen County","state_id":"KY"},{"zip":"41083","fips":"21077","name":"Gallatin County","state_id":"KY"},{"zip":"41085","fips":"21037","name":"Campbell County","state_id":"KY"},{"zip":"41086","fips":"21077","name":"Gallatin County","state_id":"KY"},{"zip":"41086","fips":"21187","name":"Owen County","state_id":"KY"},{"zip":"41091","fips":"21015","name":"Boone County","state_id":"KY"},{"zip":"41092","fips":"21015","name":"Boone County","state_id":"KY"},{"zip":"41092","fips":"21077","name":"Gallatin County","state_id":"KY"},{"zip":"41092","fips":"21081","name":"Grant County","state_id":"KY"},{"zip":"41093","fips":"21135","name":"Lewis County","state_id":"KY"},{"zip":"41093","fips":"21069","name":"Fleming County","state_id":"KY"},{"zip":"41094","fips":"21117","name":"Kenton County","state_id":"KY"},{"zip":"41094","fips":"21015","name":"Boone County","state_id":"KY"},{"zip":"41095","fips":"21077","name":"Gallatin County","state_id":"KY"},{"zip":"41096","fips":"21161","name":"Mason County","state_id":"KY"},{"zip":"41097","fips":"21191","name":"Pendleton County","state_id":"KY"},{"zip":"41097","fips":"21081","name":"Grant County","state_id":"KY"},{"zip":"41098","fips":"21041","name":"Carroll County","state_id":"KY"},{"zip":"41098","fips":"21187","name":"Owen County","state_id":"KY"},{"zip":"41099","fips":"21037","name":"Campbell County","state_id":"KY"}]
