[{"zip":"41101","fips":"21089","name":"Greenup County","state_id":"KY"},{"zip":"41101","fips":"21019","name":"Boyd County","state_id":"KY"},{"zip":"41102","fips":"21019","name":"Boyd County","state_id":"KY"},{"zip":"41102","fips":"21089","name":"Greenup County","state_id":"KY"},{"zip":"41105","fips":"21019","name":"Boyd County","state_id":"KY"},{"zip":"41121","fips":"21089","name":"Greenup County","state_id":"KY"},{"zip":"41124","fips":"21127","name":"Lawrence County","state_id":"KY"},{"zip":"41129","fips":"21019","name":"Boyd County","state_id":"KY"},{"zip":"41129","fips":"21127","name":"Lawrence County","state_id":"KY"},{"zip":"41132","fips":"21043","name":"Carter County","state_id":"KY"},{"zip":"41132","fips":"21019","name":"Boyd County","state_id":"KY"},{"zip":"41132","fips":"21127","name":"Lawrence County","state_id":"KY"},{"zip":"41135","fips":"21135","name":"Lewis County","state_id":"KY"},{"zip":"41139","fips":"21089","name":"Greenup County","state_id":"KY"},{"zip":"41141","fips":"21089","name":"Greenup County","state_id":"KY"},{"zip":"41141","fips":"21043","name":"Carter County","state_id":"KY"},{"zip":"41141","fips":"21135","name":"Lewis County","state_id":"KY"},{"zip":"41142","fips":"21043","name":"Carter County","state_id":"KY"},{"zip":"41143","fips":"21127","name":"Lawrence County","state_id":"KY"},{"zip":"41143","fips":"21089","name":"Greenup County","state_id":"KY"},{"zip":"41143","fips":"21043","name":"Carter County","state_id":"KY"},{"zip":"41144","fips":"21089","name":"Greenup County","state_id":"KY"},{"zip":"41146","fips":"21043","name":"Carter County","state_id":"KY"},{"zip":"41149","fips":"21063","name":"Elliott County","state_id":"KY"},{"zip":"41159","fips":"21127","name":"Lawrence County","state_id":"KY"},{"zip":"41159","fips":"21115","name":"Johnson County","state_id":"KY"},{"zip":"41160","fips":"21127","name":"Lawrence County","state_id":"KY"},{"zip":"41164","fips":"21043","name":"Carter County","state_id":"KY"},{"zip":"41164","fips":"21135","name":"Lewis County","state_id":"KY"},{"zip":"41164","fips":"21205","name":"Rowan County","state_id":"KY"},{"zip":"41164","fips":"21063","name":"Elliott County","state_id":"KY"},{"zip":"41166","fips":"21135","name":"Lewis County","state_id":"KY"},{"zip":"41166","fips":"21089","name":"Greenup County","state_id":"KY"},{"zip":"41168","fips":"21019","name":"Boyd County","state_id":"KY"},{"zip":"41168","fips":"21043","name":"Carter County","state_id":"KY"},{"zip":"41169","fips":"21089","name":"Greenup County","state_id":"KY"},{"zip":"41171","fips":"21175","name":"Morgan County","state_id":"KY"},{"zip":"41171","fips":"21063","name":"Elliott County","state_id":"KY"},{"zip":"41173","fips":"21043","name":"Carter County","state_id":"KY"},{"zip":"41174","fips":"21089","name":"Greenup County","state_id":"KY"},{"zip":"41174","fips":"21135","name":"Lewis County","state_id":"KY"},{"zip":"41175","fips":"21135","name":"Lewis County","state_id":"KY"},{"zip":"41175","fips":"21089","name":"Greenup County","state_id":"KY"},{"zip":"41179","fips":"21135","name":"Lewis County","state_id":"KY"},{"zip":"41179","fips":"21043","name":"Carter County","state_id":"KY"},{"zip":"41179","fips":"21089","name":"Greenup County","state_id":"KY"},{"zip":"41179","fips":"21161","name":"Mason County","state_id":"KY"},{"zip":"41180","fips":"21063","name":"Elliott County","state_id":"KY"},{"zip":"41180","fips":"21043","name":"Carter County","state_id":"KY"},{"zip":"41180","fips":"21127","name":"Lawrence County","state_id":"KY"},{"zip":"41181","fips":"21127","name":"Lawrence County","state_id":"KY"},{"zip":"41183","fips":"21089","name":"Greenup County","state_id":"KY"},{"zip":"41189","fips":"21135","name":"Lewis County","state_id":"KY"}]
