[{"zip":"41201","fips":"21127","name":"Lawrence County","state_id":"KY"},{"zip":"41203","fips":"21159","name":"Martin County","state_id":"KY"},{"zip":"41204","fips":"21115","name":"Johnson County","state_id":"KY"},{"zip":"41214","fips":"21159","name":"Martin County","state_id":"KY"},{"zip":"41216","fips":"21071","name":"Floyd County","state_id":"KY"},{"zip":"41216","fips":"21115","name":"Johnson County","state_id":"KY"},{"zip":"41219","fips":"21115","name":"Johnson County","state_id":"KY"},{"zip":"41222","fips":"21115","name":"Johnson County","state_id":"KY"},{"zip":"41224","fips":"21159","name":"Martin County","state_id":"KY"},{"zip":"41226","fips":"21115","name":"Johnson County","state_id":"KY"},{"zip":"41230","fips":"21159","name":"Martin County","state_id":"KY"},{"zip":"41230","fips":"21071","name":"Floyd County","state_id":"KY"},{"zip":"41230","fips":"21127","name":"Lawrence County","state_id":"KY"},{"zip":"41231","fips":"21159","name":"Martin County","state_id":"KY"},{"zip":"41232","fips":"21127","name":"Lawrence County","state_id":"KY"},{"zip":"41232","fips":"21115","name":"Johnson County","state_id":"KY"},{"zip":"41234","fips":"21115","name":"Johnson County","state_id":"KY"},{"zip":"41238","fips":"21115","name":"Johnson County","state_id":"KY"},{"zip":"41240","fips":"21115","name":"Johnson County","state_id":"KY"},{"zip":"41250","fips":"21159","name":"Martin County","state_id":"KY"},{"zip":"41254","fips":"21127","name":"Lawrence County","state_id":"KY"},{"zip":"41254","fips":"21115","name":"Johnson County","state_id":"KY"},{"zip":"41255","fips":"21115","name":"Johnson County","state_id":"KY"},{"zip":"41256","fips":"21115","name":"Johnson County","state_id":"KY"},{"zip":"41257","fips":"21115","name":"Johnson County","state_id":"KY"},{"zip":"41260","fips":"21115","name":"Johnson County","state_id":"KY"},{"zip":"41262","fips":"21159","name":"Martin County","state_id":"KY"},{"zip":"41263","fips":"21115","name":"Johnson County","state_id":"KY"},{"zip":"41264","fips":"21127","name":"Lawrence County","state_id":"KY"},{"zip":"41265","fips":"21071","name":"Floyd County","state_id":"KY"},{"zip":"41265","fips":"21115","name":"Johnson County","state_id":"KY"},{"zip":"41267","fips":"21159","name":"Martin County","state_id":"KY"},{"zip":"41268","fips":"21115","name":"Johnson County","state_id":"KY"},{"zip":"41271","fips":"21115","name":"Johnson County","state_id":"KY"},{"zip":"41274","fips":"21115","name":"Johnson County","state_id":"KY"}]
