[{"zip":"41301","fips":"21025","name":"Breathitt County","state_id":"KY"},{"zip":"41301","fips":"21129","name":"Lee County","state_id":"KY"},{"zip":"41301","fips":"21197","name":"Powell County","state_id":"KY"},{"zip":"41301","fips":"21237","name":"Wolfe County","state_id":"KY"},{"zip":"41310","fips":"21025","name":"Breathitt County","state_id":"KY"},{"zip":"41311","fips":"21129","name":"Lee County","state_id":"KY"},{"zip":"41311","fips":"21189","name":"Owsley County","state_id":"KY"},{"zip":"41311","fips":"21237","name":"Wolfe County","state_id":"KY"},{"zip":"41311","fips":"21025","name":"Breathitt County","state_id":"KY"},{"zip":"41314","fips":"21025","name":"Breathitt County","state_id":"KY"},{"zip":"41314","fips":"21189","name":"Owsley County","state_id":"KY"},{"zip":"41314","fips":"21129","name":"Lee County","state_id":"KY"},{"zip":"41317","fips":"21025","name":"Breathitt County","state_id":"KY"},{"zip":"41332","fips":"21153","name":"Magoffin County","state_id":"KY"},{"zip":"41332","fips":"21237","name":"Wolfe County","state_id":"KY"},{"zip":"41332","fips":"21175","name":"Morgan County","state_id":"KY"},{"zip":"41339","fips":"21119","name":"Knott County","state_id":"KY"},{"zip":"41339","fips":"21129","name":"Lee County","state_id":"KY"},{"zip":"41339","fips":"21025","name":"Breathitt County","state_id":"KY"},{"zip":"41347","fips":"21129","name":"Lee County","state_id":"KY"},{"zip":"41348","fips":"21025","name":"Breathitt County","state_id":"KY"},{"zip":"41348","fips":"21193","name":"Perry County","state_id":"KY"},{"zip":"41351","fips":"21189","name":"Owsley County","state_id":"KY"},{"zip":"41352","fips":"21175","name":"Morgan County","state_id":"KY"},{"zip":"41360","fips":"21237","name":"Wolfe County","state_id":"KY"},{"zip":"41360","fips":"21197","name":"Powell County","state_id":"KY"},{"zip":"41364","fips":"21025","name":"Breathitt County","state_id":"KY"},{"zip":"41364","fips":"21189","name":"Owsley County","state_id":"KY"},{"zip":"41365","fips":"21237","name":"Wolfe County","state_id":"KY"},{"zip":"41365","fips":"21129","name":"Lee County","state_id":"KY"},{"zip":"41366","fips":"21025","name":"Breathitt County","state_id":"KY"},{"zip":"41367","fips":"21025","name":"Breathitt County","state_id":"KY"},{"zip":"41367","fips":"21193","name":"Perry County","state_id":"KY"},{"zip":"41368","fips":"21129","name":"Lee County","state_id":"KY"},{"zip":"41385","fips":"21025","name":"Breathitt County","state_id":"KY"},{"zip":"41386","fips":"21129","name":"Lee County","state_id":"KY"},{"zip":"41386","fips":"21189","name":"Owsley County","state_id":"KY"},{"zip":"41390","fips":"21025","name":"Breathitt County","state_id":"KY"},{"zip":"41397","fips":"21129","name":"Lee County","state_id":"KY"}]
