[{"zip":"41408","fips":"21175","name":"Morgan County","state_id":"KY"},{"zip":"41413","fips":"21175","name":"Morgan County","state_id":"KY"},{"zip":"41421","fips":"21175","name":"Morgan County","state_id":"KY"},{"zip":"41425","fips":"21175","name":"Morgan County","state_id":"KY"},{"zip":"41425","fips":"21165","name":"Menifee County","state_id":"KY"},{"zip":"41426","fips":"21153","name":"Magoffin County","state_id":"KY"},{"zip":"41451","fips":"21175","name":"Morgan County","state_id":"KY"},{"zip":"41464","fips":"21153","name":"Magoffin County","state_id":"KY"},{"zip":"41465","fips":"21153","name":"Magoffin County","state_id":"KY"},{"zip":"41465","fips":"21115","name":"Johnson County","state_id":"KY"},{"zip":"41465","fips":"21175","name":"Morgan County","state_id":"KY"},{"zip":"41472","fips":"21175","name":"Morgan County","state_id":"KY"},{"zip":"41472","fips":"21063","name":"Elliott County","state_id":"KY"},{"zip":"41472","fips":"21153","name":"Magoffin County","state_id":"KY"},{"zip":"41472","fips":"21205","name":"Rowan County","state_id":"KY"},{"zip":"41472","fips":"21165","name":"Menifee County","state_id":"KY"}]
