[{"zip":"41501","fips":"21195","name":"Pike County","state_id":"KY"},{"zip":"41502","fips":"21195","name":"Pike County","state_id":"KY"},{"zip":"41503","fips":"21195","name":"Pike County","state_id":"KY"},{"zip":"41512","fips":"21195","name":"Pike County","state_id":"KY"},{"zip":"41513","fips":"21195","name":"Pike County","state_id":"KY"},{"zip":"41514","fips":"21195","name":"Pike County","state_id":"KY"},{"zip":"41514","fips":"21159","name":"Martin County","state_id":"KY"},{"zip":"41517","fips":"21133","name":"Letcher County","state_id":"KY"},{"zip":"41519","fips":"21195","name":"Pike County","state_id":"KY"},{"zip":"41520","fips":"21195","name":"Pike County","state_id":"KY"},{"zip":"41522","fips":"21195","name":"Pike County","state_id":"KY"},{"zip":"41524","fips":"21195","name":"Pike County","state_id":"KY"},{"zip":"41526","fips":"21195","name":"Pike County","state_id":"KY"},{"zip":"41527","fips":"21195","name":"Pike County","state_id":"KY"},{"zip":"41528","fips":"21195","name":"Pike County","state_id":"KY"},{"zip":"41531","fips":"21195","name":"Pike County","state_id":"KY"},{"zip":"41534","fips":"21195","name":"Pike County","state_id":"KY"},{"zip":"41535","fips":"21195","name":"Pike County","state_id":"KY"},{"zip":"41537","fips":"21133","name":"Letcher County","state_id":"KY"},{"zip":"41537","fips":"21195","name":"Pike County","state_id":"KY"},{"zip":"41538","fips":"21195","name":"Pike County","state_id":"KY"},{"zip":"41539","fips":"21195","name":"Pike County","state_id":"KY"},{"zip":"41540","fips":"21195","name":"Pike County","state_id":"KY"},{"zip":"41542","fips":"21195","name":"Pike County","state_id":"KY"},{"zip":"41543","fips":"21195","name":"Pike County","state_id":"KY"},{"zip":"41544","fips":"21195","name":"Pike County","state_id":"KY"},{"zip":"41547","fips":"21195","name":"Pike County","state_id":"KY"},{"zip":"41548","fips":"21195","name":"Pike County","state_id":"KY"},{"zip":"41549","fips":"21195","name":"Pike County","state_id":"KY"},{"zip":"41553","fips":"21195","name":"Pike County","state_id":"KY"},{"zip":"41554","fips":"21195","name":"Pike County","state_id":"KY"},{"zip":"41555","fips":"21195","name":"Pike County","state_id":"KY"},{"zip":"41557","fips":"21195","name":"Pike County","state_id":"KY"},{"zip":"41558","fips":"21195","name":"Pike County","state_id":"KY"},{"zip":"41559","fips":"21195","name":"Pike County","state_id":"KY"},{"zip":"41560","fips":"21195","name":"Pike County","state_id":"KY"},{"zip":"41561","fips":"21195","name":"Pike County","state_id":"KY"},{"zip":"41562","fips":"21195","name":"Pike County","state_id":"KY"},{"zip":"41563","fips":"21195","name":"Pike County","state_id":"KY"},{"zip":"41564","fips":"21195","name":"Pike County","state_id":"KY"},{"zip":"41566","fips":"21195","name":"Pike County","state_id":"KY"},{"zip":"41567","fips":"21195","name":"Pike County","state_id":"KY"},{"zip":"41568","fips":"21195","name":"Pike County","state_id":"KY"},{"zip":"41571","fips":"21195","name":"Pike County","state_id":"KY"},{"zip":"41572","fips":"21195","name":"Pike County","state_id":"KY"}]
