[{"zip":"41601","fips":"21071","name":"Floyd County","state_id":"KY"},{"zip":"41602","fips":"21071","name":"Floyd County","state_id":"KY"},{"zip":"41603","fips":"21071","name":"Floyd County","state_id":"KY"},{"zip":"41604","fips":"21071","name":"Floyd County","state_id":"KY"},{"zip":"41605","fips":"21071","name":"Floyd County","state_id":"KY"},{"zip":"41605","fips":"21195","name":"Pike County","state_id":"KY"},{"zip":"41606","fips":"21071","name":"Floyd County","state_id":"KY"},{"zip":"41607","fips":"21071","name":"Floyd County","state_id":"KY"},{"zip":"41612","fips":"21071","name":"Floyd County","state_id":"KY"},{"zip":"41615","fips":"21071","name":"Floyd County","state_id":"KY"},{"zip":"41616","fips":"21071","name":"Floyd County","state_id":"KY"},{"zip":"41619","fips":"21071","name":"Floyd County","state_id":"KY"},{"zip":"41621","fips":"21071","name":"Floyd County","state_id":"KY"},{"zip":"41622","fips":"21071","name":"Floyd County","state_id":"KY"},{"zip":"41630","fips":"21071","name":"Floyd County","state_id":"KY"},{"zip":"41630","fips":"21119","name":"Knott County","state_id":"KY"},{"zip":"41631","fips":"21071","name":"Floyd County","state_id":"KY"},{"zip":"41632","fips":"21153","name":"Magoffin County","state_id":"KY"},{"zip":"41635","fips":"21071","name":"Floyd County","state_id":"KY"},{"zip":"41636","fips":"21071","name":"Floyd County","state_id":"KY"},{"zip":"41640","fips":"21071","name":"Floyd County","state_id":"KY"},{"zip":"41640","fips":"21119","name":"Knott County","state_id":"KY"},{"zip":"41642","fips":"21071","name":"Floyd County","state_id":"KY"},{"zip":"41643","fips":"21071","name":"Floyd County","state_id":"KY"},{"zip":"41645","fips":"21071","name":"Floyd County","state_id":"KY"},{"zip":"41647","fips":"21071","name":"Floyd County","state_id":"KY"},{"zip":"41649","fips":"21071","name":"Floyd County","state_id":"KY"},{"zip":"41650","fips":"21071","name":"Floyd County","state_id":"KY"},{"zip":"41651","fips":"21071","name":"Floyd County","state_id":"KY"},{"zip":"41653","fips":"21195","name":"Pike County","state_id":"KY"},{"zip":"41653","fips":"21115","name":"Johnson County","state_id":"KY"},{"zip":"41653","fips":"21071","name":"Floyd County","state_id":"KY"},{"zip":"41655","fips":"21071","name":"Floyd County","state_id":"KY"},{"zip":"41659","fips":"21195","name":"Pike County","state_id":"KY"},{"zip":"41659","fips":"21071","name":"Floyd County","state_id":"KY"},{"zip":"41660","fips":"21071","name":"Floyd County","state_id":"KY"},{"zip":"41663","fips":"21071","name":"Floyd County","state_id":"KY"},{"zip":"41666","fips":"21071","name":"Floyd County","state_id":"KY"},{"zip":"41667","fips":"21071","name":"Floyd County","state_id":"KY"},{"zip":"41669","fips":"21071","name":"Floyd County","state_id":"KY"}]
