[{"zip":"41701","fips":"21119","name":"Knott County","state_id":"KY"},{"zip":"41701","fips":"21193","name":"Perry County","state_id":"KY"},{"zip":"41712","fips":"21193","name":"Perry County","state_id":"KY"},{"zip":"41713","fips":"21193","name":"Perry County","state_id":"KY"},{"zip":"41714","fips":"21131","name":"Leslie County","state_id":"KY"},{"zip":"41719","fips":"21193","name":"Perry County","state_id":"KY"},{"zip":"41721","fips":"21025","name":"Breathitt County","state_id":"KY"},{"zip":"41721","fips":"21051","name":"Clay County","state_id":"KY"},{"zip":"41721","fips":"21193","name":"Perry County","state_id":"KY"},{"zip":"41722","fips":"21119","name":"Knott County","state_id":"KY"},{"zip":"41722","fips":"21193","name":"Perry County","state_id":"KY"},{"zip":"41723","fips":"21131","name":"Leslie County","state_id":"KY"},{"zip":"41723","fips":"21193","name":"Perry County","state_id":"KY"},{"zip":"41725","fips":"21119","name":"Knott County","state_id":"KY"},{"zip":"41727","fips":"21025","name":"Breathitt County","state_id":"KY"},{"zip":"41727","fips":"21193","name":"Perry County","state_id":"KY"},{"zip":"41729","fips":"21193","name":"Perry County","state_id":"KY"},{"zip":"41731","fips":"21133","name":"Letcher County","state_id":"KY"},{"zip":"41731","fips":"21193","name":"Perry County","state_id":"KY"},{"zip":"41735","fips":"21193","name":"Perry County","state_id":"KY"},{"zip":"41736","fips":"21193","name":"Perry County","state_id":"KY"},{"zip":"41739","fips":"21193","name":"Perry County","state_id":"KY"},{"zip":"41740","fips":"21119","name":"Knott County","state_id":"KY"},{"zip":"41743","fips":"21119","name":"Knott County","state_id":"KY"},{"zip":"41745","fips":"21193","name":"Perry County","state_id":"KY"},{"zip":"41745","fips":"21025","name":"Breathitt County","state_id":"KY"},{"zip":"41746","fips":"21193","name":"Perry County","state_id":"KY"},{"zip":"41749","fips":"21131","name":"Leslie County","state_id":"KY"},{"zip":"41751","fips":"21193","name":"Perry County","state_id":"KY"},{"zip":"41754","fips":"21193","name":"Perry County","state_id":"KY"},{"zip":"41754","fips":"21131","name":"Leslie County","state_id":"KY"},{"zip":"41759","fips":"21119","name":"Knott County","state_id":"KY"},{"zip":"41760","fips":"21193","name":"Perry County","state_id":"KY"},{"zip":"41762","fips":"21131","name":"Leslie County","state_id":"KY"},{"zip":"41763","fips":"21193","name":"Perry County","state_id":"KY"},{"zip":"41764","fips":"21131","name":"Leslie County","state_id":"KY"},{"zip":"41766","fips":"21131","name":"Leslie County","state_id":"KY"},{"zip":"41772","fips":"21119","name":"Knott County","state_id":"KY"},{"zip":"41773","fips":"21119","name":"Knott County","state_id":"KY"},{"zip":"41773","fips":"21193","name":"Perry County","state_id":"KY"},{"zip":"41774","fips":"21193","name":"Perry County","state_id":"KY"},{"zip":"41775","fips":"21131","name":"Leslie County","state_id":"KY"},{"zip":"41776","fips":"21131","name":"Leslie County","state_id":"KY"},{"zip":"41777","fips":"21131","name":"Leslie County","state_id":"KY"},{"zip":"41778","fips":"21193","name":"Perry County","state_id":"KY"}]
