[{"zip":"41804","fips":"21119","name":"Knott County","state_id":"KY"},{"zip":"41804","fips":"21133","name":"Letcher County","state_id":"KY"},{"zip":"41810","fips":"21133","name":"Letcher County","state_id":"KY"},{"zip":"41812","fips":"21133","name":"Letcher County","state_id":"KY"},{"zip":"41815","fips":"21133","name":"Letcher County","state_id":"KY"},{"zip":"41817","fips":"21119","name":"Knott County","state_id":"KY"},{"zip":"41819","fips":"21133","name":"Letcher County","state_id":"KY"},{"zip":"41821","fips":"21133","name":"Letcher County","state_id":"KY"},{"zip":"41822","fips":"21119","name":"Knott County","state_id":"KY"},{"zip":"41824","fips":"21133","name":"Letcher County","state_id":"KY"},{"zip":"41825","fips":"21133","name":"Letcher County","state_id":"KY"},{"zip":"41826","fips":"21133","name":"Letcher County","state_id":"KY"},{"zip":"41828","fips":"21119","name":"Knott County","state_id":"KY"},{"zip":"41831","fips":"21119","name":"Knott County","state_id":"KY"},{"zip":"41832","fips":"21133","name":"Letcher County","state_id":"KY"},{"zip":"41833","fips":"21133","name":"Letcher County","state_id":"KY"},{"zip":"41834","fips":"21119","name":"Knott County","state_id":"KY"},{"zip":"41835","fips":"21133","name":"Letcher County","state_id":"KY"},{"zip":"41836","fips":"21119","name":"Knott County","state_id":"KY"},{"zip":"41837","fips":"21133","name":"Letcher County","state_id":"KY"},{"zip":"41838","fips":"21133","name":"Letcher County","state_id":"KY"},{"zip":"41839","fips":"21119","name":"Knott County","state_id":"KY"},{"zip":"41840","fips":"21133","name":"Letcher County","state_id":"KY"},{"zip":"41843","fips":"21119","name":"Knott County","state_id":"KY"},{"zip":"41843","fips":"21133","name":"Letcher County","state_id":"KY"},{"zip":"41844","fips":"21119","name":"Knott County","state_id":"KY"},{"zip":"41845","fips":"21133","name":"Letcher County","state_id":"KY"},{"zip":"41847","fips":"21119","name":"Knott County","state_id":"KY"},{"zip":"41848","fips":"21133","name":"Letcher County","state_id":"KY"},{"zip":"41849","fips":"21133","name":"Letcher County","state_id":"KY"},{"zip":"41855","fips":"21133","name":"Letcher County","state_id":"KY"},{"zip":"41858","fips":"21133","name":"Letcher County","state_id":"KY"},{"zip":"41859","fips":"21119","name":"Knott County","state_id":"KY"},{"zip":"41861","fips":"21119","name":"Knott County","state_id":"KY"},{"zip":"41862","fips":"21119","name":"Knott County","state_id":"KY"}]
