[{"zip":"42001","fips":"21145","name":"McCracken County","state_id":"KY"},{"zip":"42002","fips":"21145","name":"McCracken County","state_id":"KY"},{"zip":"42003","fips":"21083","name":"Graves County","state_id":"KY"},{"zip":"42003","fips":"21145","name":"McCracken County","state_id":"KY"},{"zip":"42003","fips":"21157","name":"Marshall County","state_id":"KY"},{"zip":"42020","fips":"21035","name":"Calloway County","state_id":"KY"},{"zip":"42021","fips":"21039","name":"Carlisle County","state_id":"KY"},{"zip":"42021","fips":"21105","name":"Hickman County","state_id":"KY"},{"zip":"42022","fips":"21007","name":"Ballard County","state_id":"KY"},{"zip":"42023","fips":"21039","name":"Carlisle County","state_id":"KY"},{"zip":"42024","fips":"21007","name":"Ballard County","state_id":"KY"},{"zip":"42025","fips":"21083","name":"Graves County","state_id":"KY"},{"zip":"42025","fips":"21157","name":"Marshall County","state_id":"KY"},{"zip":"42025","fips":"21035","name":"Calloway County","state_id":"KY"},{"zip":"42027","fips":"21083","name":"Graves County","state_id":"KY"},{"zip":"42027","fips":"21145","name":"McCracken County","state_id":"KY"},{"zip":"42028","fips":"21139","name":"Livingston County","state_id":"KY"},{"zip":"42029","fips":"21157","name":"Marshall County","state_id":"KY"},{"zip":"42029","fips":"21145","name":"McCracken County","state_id":"KY"},{"zip":"42031","fips":"21105","name":"Hickman County","state_id":"KY"},{"zip":"42032","fips":"21105","name":"Hickman County","state_id":"KY"},{"zip":"42033","fips":"21055","name":"Crittenden County","state_id":"KY"},{"zip":"42035","fips":"21039","name":"Carlisle County","state_id":"KY"},{"zip":"42035","fips":"21083","name":"Graves County","state_id":"KY"},{"zip":"42036","fips":"21157","name":"Marshall County","state_id":"KY"},{"zip":"42036","fips":"21035","name":"Calloway County","state_id":"KY"},{"zip":"42037","fips":"21055","name":"Crittenden County","state_id":"KY"},{"zip":"42038","fips":"21055","name":"Crittenden County","state_id":"KY"},{"zip":"42038","fips":"21143","name":"Lyon County","state_id":"KY"},{"zip":"42038","fips":"21221","name":"Trigg County","state_id":"KY"},{"zip":"42039","fips":"21039","name":"Carlisle County","state_id":"KY"},{"zip":"42039","fips":"21105","name":"Hickman County","state_id":"KY"},{"zip":"42039","fips":"21083","name":"Graves County","state_id":"KY"},{"zip":"42040","fips":"21035","name":"Calloway County","state_id":"KY"},{"zip":"42040","fips":"21083","name":"Graves County","state_id":"KY"},{"zip":"42041","fips":"21083","name":"Graves County","state_id":"KY"},{"zip":"42041","fips":"21105","name":"Hickman County","state_id":"KY"},{"zip":"42041","fips":"21075","name":"Fulton County","state_id":"KY"},{"zip":"42044","fips":"21157","name":"Marshall County","state_id":"KY"},{"zip":"42045","fips":"21139","name":"Livingston County","state_id":"KY"},{"zip":"42045","fips":"21143","name":"Lyon County","state_id":"KY"},{"zip":"42047","fips":"21139","name":"Livingston County","state_id":"KY"},{"zip":"42048","fips":"21035","name":"Calloway County","state_id":"KY"},{"zip":"42048","fips":"21157","name":"Marshall County","state_id":"KY"},{"zip":"42049","fips":"21083","name":"Graves County","state_id":"KY"},{"zip":"42049","fips":"21035","name":"Calloway County","state_id":"KY"},{"zip":"42050","fips":"21075","name":"Fulton County","state_id":"KY"},{"zip":"42051","fips":"21083","name":"Graves County","state_id":"KY"},{"zip":"42053","fips":"21007","name":"Ballard County","state_id":"KY"},{"zip":"42053","fips":"21145","name":"McCracken County","state_id":"KY"},{"zip":"42054","fips":"21083","name":"Graves County","state_id":"KY"},{"zip":"42054","fips":"21157","name":"Marshall County","state_id":"KY"},{"zip":"42054","fips":"21035","name":"Calloway County","state_id":"KY"},{"zip":"42055","fips":"21143","name":"Lyon County","state_id":"KY"},{"zip":"42056","fips":"21007","name":"Ballard County","state_id":"KY"},{"zip":"42058","fips":"21139","name":"Livingston County","state_id":"KY"},{"zip":"42060","fips":"21007","name":"Ballard County","state_id":"KY"},{"zip":"42061","fips":"21083","name":"Graves County","state_id":"KY"},{"zip":"42063","fips":"21083","name":"Graves County","state_id":"KY"},{"zip":"42064","fips":"21033","name":"Caldwell County","state_id":"KY"},{"zip":"42064","fips":"21055","name":"Crittenden County","state_id":"KY"},{"zip":"42064","fips":"21139","name":"Livingston County","state_id":"KY"},{"zip":"42066","fips":"21105","name":"Hickman County","state_id":"KY"},{"zip":"42066","fips":"21083","name":"Graves County","state_id":"KY"},{"zip":"42066","fips":"21157","name":"Marshall County","state_id":"KY"},{"zip":"42066","fips":"21035","name":"Calloway County","state_id":"KY"},{"zip":"42069","fips":"21039","name":"Carlisle County","state_id":"KY"},{"zip":"42069","fips":"21145","name":"McCracken County","state_id":"KY"},{"zip":"42069","fips":"21083","name":"Graves County","state_id":"KY"},{"zip":"42071","fips":"21035","name":"Calloway County","state_id":"KY"},{"zip":"42071","fips":"21083","name":"Graves County","state_id":"KY"},{"zip":"42076","fips":"21035","name":"Calloway County","state_id":"KY"},{"zip":"42078","fips":"21055","name":"Crittenden County","state_id":"KY"},{"zip":"42078","fips":"21139","name":"Livingston County","state_id":"KY"},{"zip":"42079","fips":"21083","name":"Graves County","state_id":"KY"},{"zip":"42081","fips":"21139","name":"Livingston County","state_id":"KY"},{"zip":"42082","fips":"21083","name":"Graves County","state_id":"KY"},{"zip":"42082","fips":"21145","name":"McCracken County","state_id":"KY"},{"zip":"42082","fips":"21157","name":"Marshall County","state_id":"KY"},{"zip":"42083","fips":"21139","name":"Livingston County","state_id":"KY"},{"zip":"42085","fips":"21083","name":"Graves County","state_id":"KY"},{"zip":"42085","fips":"21105","name":"Hickman County","state_id":"KY"},{"zip":"42086","fips":"21145","name":"McCracken County","state_id":"KY"},{"zip":"42087","fips":"21007","name":"Ballard County","state_id":"KY"},{"zip":"42088","fips":"21105","name":"Hickman County","state_id":"KY"},{"zip":"42088","fips":"21083","name":"Graves County","state_id":"KY"}]
