[{"zip":"42101","fips":"21031","name":"Butler County","state_id":"KY"},{"zip":"42101","fips":"21227","name":"Warren County","state_id":"KY"},{"zip":"42101","fips":"21061","name":"Edmonson County","state_id":"KY"},{"zip":"42102","fips":"21227","name":"Warren County","state_id":"KY"},{"zip":"42103","fips":"21227","name":"Warren County","state_id":"KY"},{"zip":"42104","fips":"21227","name":"Warren County","state_id":"KY"},{"zip":"42104","fips":"21213","name":"Simpson County","state_id":"KY"},{"zip":"42120","fips":"21003","name":"Allen County","state_id":"KY"},{"zip":"42122","fips":"21003","name":"Allen County","state_id":"KY"},{"zip":"42122","fips":"21227","name":"Warren County","state_id":"KY"},{"zip":"42123","fips":"21009","name":"Barren County","state_id":"KY"},{"zip":"42124","fips":"21169","name":"Metcalfe County","state_id":"KY"},{"zip":"42127","fips":"21099","name":"Hart County","state_id":"KY"},{"zip":"42127","fips":"21009","name":"Barren County","state_id":"KY"},{"zip":"42129","fips":"21057","name":"Cumberland County","state_id":"KY"},{"zip":"42129","fips":"21087","name":"Green County","state_id":"KY"},{"zip":"42129","fips":"21001","name":"Adair County","state_id":"KY"},{"zip":"42129","fips":"21169","name":"Metcalfe County","state_id":"KY"},{"zip":"42130","fips":"21009","name":"Barren County","state_id":"KY"},{"zip":"42131","fips":"21009","name":"Barren County","state_id":"KY"},{"zip":"42133","fips":"21009","name":"Barren County","state_id":"KY"},{"zip":"42133","fips":"21171","name":"Monroe County","state_id":"KY"},{"zip":"42133","fips":"21003","name":"Allen County","state_id":"KY"},{"zip":"42134","fips":"21213","name":"Simpson County","state_id":"KY"},{"zip":"42134","fips":"21003","name":"Allen County","state_id":"KY"},{"zip":"42140","fips":"21171","name":"Monroe County","state_id":"KY"},{"zip":"42141","fips":"21009","name":"Barren County","state_id":"KY"},{"zip":"42141","fips":"21169","name":"Metcalfe County","state_id":"KY"},{"zip":"42151","fips":"21171","name":"Monroe County","state_id":"KY"},{"zip":"42152","fips":"21009","name":"Barren County","state_id":"KY"},{"zip":"42153","fips":"21003","name":"Allen County","state_id":"KY"},{"zip":"42154","fips":"21169","name":"Metcalfe County","state_id":"KY"},{"zip":"42154","fips":"21009","name":"Barren County","state_id":"KY"},{"zip":"42156","fips":"21009","name":"Barren County","state_id":"KY"},{"zip":"42157","fips":"21009","name":"Barren County","state_id":"KY"},{"zip":"42157","fips":"21171","name":"Monroe County","state_id":"KY"},{"zip":"42159","fips":"21227","name":"Warren County","state_id":"KY"},{"zip":"42160","fips":"21061","name":"Edmonson County","state_id":"KY"},{"zip":"42160","fips":"21009","name":"Barren County","state_id":"KY"},{"zip":"42163","fips":"21061","name":"Edmonson County","state_id":"KY"},{"zip":"42164","fips":"21003","name":"Allen County","state_id":"KY"},{"zip":"42164","fips":"21009","name":"Barren County","state_id":"KY"},{"zip":"42166","fips":"21169","name":"Metcalfe County","state_id":"KY"},{"zip":"42166","fips":"21171","name":"Monroe County","state_id":"KY"},{"zip":"42166","fips":"21009","name":"Barren County","state_id":"KY"},{"zip":"42167","fips":"21171","name":"Monroe County","state_id":"KY"},{"zip":"42167","fips":"21057","name":"Cumberland County","state_id":"KY"},{"zip":"42170","fips":"21227","name":"Warren County","state_id":"KY"},{"zip":"42170","fips":"21213","name":"Simpson County","state_id":"KY"},{"zip":"42170","fips":"21141","name":"Logan County","state_id":"KY"},{"zip":"42171","fips":"21061","name":"Edmonson County","state_id":"KY"},{"zip":"42171","fips":"21227","name":"Warren County","state_id":"KY"},{"zip":"42171","fips":"21009","name":"Barren County","state_id":"KY"}]
