[{"zip":"42201","fips":"21031","name":"Butler County","state_id":"KY"},{"zip":"42202","fips":"21213","name":"Simpson County","state_id":"KY"},{"zip":"42202","fips":"21141","name":"Logan County","state_id":"KY"},{"zip":"42204","fips":"21219","name":"Todd County","state_id":"KY"},{"zip":"42204","fips":"21141","name":"Logan County","state_id":"KY"},{"zip":"42206","fips":"21213","name":"Simpson County","state_id":"KY"},{"zip":"42206","fips":"21141","name":"Logan County","state_id":"KY"},{"zip":"42206","fips":"21227","name":"Warren County","state_id":"KY"},{"zip":"42207","fips":"21061","name":"Edmonson County","state_id":"KY"},{"zip":"42207","fips":"21085","name":"Grayson County","state_id":"KY"},{"zip":"42210","fips":"21061","name":"Edmonson County","state_id":"KY"},{"zip":"42210","fips":"21085","name":"Grayson County","state_id":"KY"},{"zip":"42211","fips":"21143","name":"Lyon County","state_id":"KY"},{"zip":"42211","fips":"21221","name":"Trigg County","state_id":"KY"},{"zip":"42211","fips":"21033","name":"Caldwell County","state_id":"KY"},{"zip":"42214","fips":"21169","name":"Metcalfe County","state_id":"KY"},{"zip":"42214","fips":"21087","name":"Green County","state_id":"KY"},{"zip":"42215","fips":"21047","name":"Christian County","state_id":"KY"},{"zip":"42215","fips":"21221","name":"Trigg County","state_id":"KY"},{"zip":"42216","fips":"21219","name":"Todd County","state_id":"KY"},{"zip":"42217","fips":"21047","name":"Christian County","state_id":"KY"},{"zip":"42219","fips":"21031","name":"Butler County","state_id":"KY"},{"zip":"42220","fips":"21177","name":"Muhlenberg County","state_id":"KY"},{"zip":"42220","fips":"21219","name":"Todd County","state_id":"KY"},{"zip":"42220","fips":"21047","name":"Christian County","state_id":"KY"},{"zip":"42221","fips":"21219","name":"Todd County","state_id":"KY"},{"zip":"42223","fips":"47125","name":"Montgomery County","state_id":"TN"},{"zip":"42232","fips":"21047","name":"Christian County","state_id":"KY"},{"zip":"42232","fips":"21221","name":"Trigg County","state_id":"KY"},{"zip":"42234","fips":"21219","name":"Todd County","state_id":"KY"},{"zip":"42236","fips":"21047","name":"Christian County","state_id":"KY"},{"zip":"42236","fips":"21221","name":"Trigg County","state_id":"KY"},{"zip":"42240","fips":"21219","name":"Todd County","state_id":"KY"},{"zip":"42240","fips":"21047","name":"Christian County","state_id":"KY"},{"zip":"42241","fips":"21047","name":"Christian County","state_id":"KY"},{"zip":"42252","fips":"21031","name":"Butler County","state_id":"KY"},{"zip":"42254","fips":"21047","name":"Christian County","state_id":"KY"},{"zip":"42256","fips":"21141","name":"Logan County","state_id":"KY"},{"zip":"42256","fips":"21177","name":"Muhlenberg County","state_id":"KY"},{"zip":"42256","fips":"21219","name":"Todd County","state_id":"KY"},{"zip":"42256","fips":"21031","name":"Butler County","state_id":"KY"},{"zip":"42259","fips":"21061","name":"Edmonson County","state_id":"KY"},{"zip":"42261","fips":"21227","name":"Warren County","state_id":"KY"},{"zip":"42261","fips":"21031","name":"Butler County","state_id":"KY"},{"zip":"42261","fips":"21183","name":"Ohio County","state_id":"KY"},{"zip":"42262","fips":"21047","name":"Christian County","state_id":"KY"},{"zip":"42265","fips":"21141","name":"Logan County","state_id":"KY"},{"zip":"42265","fips":"21219","name":"Todd County","state_id":"KY"},{"zip":"42266","fips":"21047","name":"Christian County","state_id":"KY"},{"zip":"42266","fips":"21219","name":"Todd County","state_id":"KY"},{"zip":"42273","fips":"21031","name":"Butler County","state_id":"KY"},{"zip":"42274","fips":"21227","name":"Warren County","state_id":"KY"},{"zip":"42274","fips":"21141","name":"Logan County","state_id":"KY"},{"zip":"42275","fips":"21031","name":"Butler County","state_id":"KY"},{"zip":"42275","fips":"21085","name":"Grayson County","state_id":"KY"},{"zip":"42275","fips":"21061","name":"Edmonson County","state_id":"KY"},{"zip":"42276","fips":"21213","name":"Simpson County","state_id":"KY"},{"zip":"42276","fips":"21031","name":"Butler County","state_id":"KY"},{"zip":"42276","fips":"21219","name":"Todd County","state_id":"KY"},{"zip":"42276","fips":"21141","name":"Logan County","state_id":"KY"},{"zip":"42280","fips":"21219","name":"Todd County","state_id":"KY"},{"zip":"42285","fips":"21061","name":"Edmonson County","state_id":"KY"},{"zip":"42286","fips":"21047","name":"Christian County","state_id":"KY"},{"zip":"42286","fips":"21219","name":"Todd County","state_id":"KY"},{"zip":"42288","fips":"21031","name":"Butler County","state_id":"KY"}]
