[{"zip":"42301","fips":"21149","name":"McLean County","state_id":"KY"},{"zip":"42301","fips":"21101","name":"Henderson County","state_id":"KY"},{"zip":"42301","fips":"21059","name":"Daviess County","state_id":"KY"},{"zip":"42302","fips":"21059","name":"Daviess County","state_id":"KY"},{"zip":"42303","fips":"21059","name":"Daviess County","state_id":"KY"},{"zip":"42304","fips":"21059","name":"Daviess County","state_id":"KY"},{"zip":"42320","fips":"21183","name":"Ohio County","state_id":"KY"},{"zip":"42320","fips":"21031","name":"Butler County","state_id":"KY"},{"zip":"42321","fips":"21177","name":"Muhlenberg County","state_id":"KY"},{"zip":"42322","fips":"21149","name":"McLean County","state_id":"KY"},{"zip":"42323","fips":"21177","name":"Muhlenberg County","state_id":"KY"},{"zip":"42324","fips":"21177","name":"Muhlenberg County","state_id":"KY"},{"zip":"42325","fips":"21177","name":"Muhlenberg County","state_id":"KY"},{"zip":"42326","fips":"21177","name":"Muhlenberg County","state_id":"KY"},{"zip":"42327","fips":"21059","name":"Daviess County","state_id":"KY"},{"zip":"42327","fips":"21149","name":"McLean County","state_id":"KY"},{"zip":"42328","fips":"21183","name":"Ohio County","state_id":"KY"},{"zip":"42330","fips":"21149","name":"McLean County","state_id":"KY"},{"zip":"42330","fips":"21177","name":"Muhlenberg County","state_id":"KY"},{"zip":"42332","fips":"21177","name":"Muhlenberg County","state_id":"KY"},{"zip":"42333","fips":"21031","name":"Butler County","state_id":"KY"},{"zip":"42333","fips":"21183","name":"Ohio County","state_id":"KY"},{"zip":"42337","fips":"21177","name":"Muhlenberg County","state_id":"KY"},{"zip":"42338","fips":"21183","name":"Ohio County","state_id":"KY"},{"zip":"42339","fips":"21031","name":"Butler County","state_id":"KY"},{"zip":"42339","fips":"21177","name":"Muhlenberg County","state_id":"KY"},{"zip":"42339","fips":"21141","name":"Logan County","state_id":"KY"},{"zip":"42343","fips":"21183","name":"Ohio County","state_id":"KY"},{"zip":"42343","fips":"21027","name":"Breckinridge County","state_id":"KY"},{"zip":"42343","fips":"21091","name":"Hancock County","state_id":"KY"},{"zip":"42344","fips":"21177","name":"Muhlenberg County","state_id":"KY"},{"zip":"42345","fips":"21219","name":"Todd County","state_id":"KY"},{"zip":"42345","fips":"21177","name":"Muhlenberg County","state_id":"KY"},{"zip":"42347","fips":"21183","name":"Ohio County","state_id":"KY"},{"zip":"42348","fips":"21091","name":"Hancock County","state_id":"KY"},{"zip":"42348","fips":"21059","name":"Daviess County","state_id":"KY"},{"zip":"42349","fips":"21183","name":"Ohio County","state_id":"KY"},{"zip":"42349","fips":"21031","name":"Butler County","state_id":"KY"},{"zip":"42349","fips":"21085","name":"Grayson County","state_id":"KY"},{"zip":"42350","fips":"21149","name":"McLean County","state_id":"KY"},{"zip":"42351","fips":"21091","name":"Hancock County","state_id":"KY"},{"zip":"42351","fips":"21059","name":"Daviess County","state_id":"KY"},{"zip":"42352","fips":"21149","name":"McLean County","state_id":"KY"},{"zip":"42352","fips":"21183","name":"Ohio County","state_id":"KY"},{"zip":"42354","fips":"21183","name":"Ohio County","state_id":"KY"},{"zip":"42355","fips":"21059","name":"Daviess County","state_id":"KY"},{"zip":"42356","fips":"21059","name":"Daviess County","state_id":"KY"},{"zip":"42361","fips":"21085","name":"Grayson County","state_id":"KY"},{"zip":"42361","fips":"21183","name":"Ohio County","state_id":"KY"},{"zip":"42364","fips":"21091","name":"Hancock County","state_id":"KY"},{"zip":"42366","fips":"21183","name":"Ohio County","state_id":"KY"},{"zip":"42366","fips":"21059","name":"Daviess County","state_id":"KY"},{"zip":"42366","fips":"21091","name":"Hancock County","state_id":"KY"},{"zip":"42367","fips":"21177","name":"Muhlenberg County","state_id":"KY"},{"zip":"42368","fips":"21091","name":"Hancock County","state_id":"KY"},{"zip":"42368","fips":"21183","name":"Ohio County","state_id":"KY"},{"zip":"42369","fips":"21183","name":"Ohio County","state_id":"KY"},{"zip":"42370","fips":"21183","name":"Ohio County","state_id":"KY"},{"zip":"42371","fips":"21149","name":"McLean County","state_id":"KY"},{"zip":"42372","fips":"21149","name":"McLean County","state_id":"KY"},{"zip":"42372","fips":"21177","name":"Muhlenberg County","state_id":"KY"},{"zip":"42374","fips":"21177","name":"Muhlenberg County","state_id":"KY"},{"zip":"42376","fips":"21149","name":"McLean County","state_id":"KY"},{"zip":"42376","fips":"21059","name":"Daviess County","state_id":"KY"},{"zip":"42376","fips":"21183","name":"Ohio County","state_id":"KY"},{"zip":"42378","fips":"21059","name":"Daviess County","state_id":"KY"},{"zip":"42378","fips":"21183","name":"Ohio County","state_id":"KY"}]
