[{"zip":"42402","fips":"21101","name":"Henderson County","state_id":"KY"},{"zip":"42404","fips":"21225","name":"Union County","state_id":"KY"},{"zip":"42404","fips":"21233","name":"Webster County","state_id":"KY"},{"zip":"42406","fips":"21101","name":"Henderson County","state_id":"KY"},{"zip":"42406","fips":"21233","name":"Webster County","state_id":"KY"},{"zip":"42408","fips":"21107","name":"Hopkins County","state_id":"KY"},{"zip":"42408","fips":"21047","name":"Christian County","state_id":"KY"},{"zip":"42408","fips":"21033","name":"Caldwell County","state_id":"KY"},{"zip":"42409","fips":"21233","name":"Webster County","state_id":"KY"},{"zip":"42410","fips":"21107","name":"Hopkins County","state_id":"KY"},{"zip":"42411","fips":"21143","name":"Lyon County","state_id":"KY"},{"zip":"42411","fips":"21055","name":"Crittenden County","state_id":"KY"},{"zip":"42411","fips":"21033","name":"Caldwell County","state_id":"KY"},{"zip":"42413","fips":"21107","name":"Hopkins County","state_id":"KY"},{"zip":"42413","fips":"21233","name":"Webster County","state_id":"KY"},{"zip":"42419","fips":"21101","name":"Henderson County","state_id":"KY"},{"zip":"42420","fips":"21101","name":"Henderson County","state_id":"KY"},{"zip":"42431","fips":"21107","name":"Hopkins County","state_id":"KY"},{"zip":"42436","fips":"21107","name":"Hopkins County","state_id":"KY"},{"zip":"42437","fips":"21225","name":"Union County","state_id":"KY"},{"zip":"42437","fips":"21233","name":"Webster County","state_id":"KY"},{"zip":"42440","fips":"21107","name":"Hopkins County","state_id":"KY"},{"zip":"42441","fips":"21233","name":"Webster County","state_id":"KY"},{"zip":"42441","fips":"21107","name":"Hopkins County","state_id":"KY"},{"zip":"42442","fips":"21047","name":"Christian County","state_id":"KY"},{"zip":"42442","fips":"21107","name":"Hopkins County","state_id":"KY"},{"zip":"42444","fips":"21233","name":"Webster County","state_id":"KY"},{"zip":"42445","fips":"21107","name":"Hopkins County","state_id":"KY"},{"zip":"42445","fips":"21033","name":"Caldwell County","state_id":"KY"},{"zip":"42445","fips":"21221","name":"Trigg County","state_id":"KY"},{"zip":"42445","fips":"21143","name":"Lyon County","state_id":"KY"},{"zip":"42450","fips":"21055","name":"Crittenden County","state_id":"KY"},{"zip":"42450","fips":"21107","name":"Hopkins County","state_id":"KY"},{"zip":"42450","fips":"21233","name":"Webster County","state_id":"KY"},{"zip":"42451","fips":"21101","name":"Henderson County","state_id":"KY"},{"zip":"42452","fips":"21233","name":"Webster County","state_id":"KY"},{"zip":"42452","fips":"21101","name":"Henderson County","state_id":"KY"},{"zip":"42453","fips":"21047","name":"Christian County","state_id":"KY"},{"zip":"42453","fips":"21107","name":"Hopkins County","state_id":"KY"},{"zip":"42455","fips":"21233","name":"Webster County","state_id":"KY"},{"zip":"42456","fips":"21107","name":"Hopkins County","state_id":"KY"},{"zip":"42456","fips":"21233","name":"Webster County","state_id":"KY"},{"zip":"42457","fips":"21101","name":"Henderson County","state_id":"KY"},{"zip":"42458","fips":"21101","name":"Henderson County","state_id":"KY"},{"zip":"42459","fips":"21055","name":"Crittenden County","state_id":"KY"},{"zip":"42459","fips":"21225","name":"Union County","state_id":"KY"},{"zip":"42460","fips":"21225","name":"Union County","state_id":"KY"},{"zip":"42461","fips":"21225","name":"Union County","state_id":"KY"},{"zip":"42461","fips":"21101","name":"Henderson County","state_id":"KY"},{"zip":"42462","fips":"21225","name":"Union County","state_id":"KY"},{"zip":"42462","fips":"21101","name":"Henderson County","state_id":"KY"},{"zip":"42463","fips":"21233","name":"Webster County","state_id":"KY"},{"zip":"42464","fips":"21047","name":"Christian County","state_id":"KY"},{"zip":"42464","fips":"21107","name":"Hopkins County","state_id":"KY"},{"zip":"42464","fips":"21177","name":"Muhlenberg County","state_id":"KY"}]
