[{"zip":"42501","fips":"21199","name":"Pulaski County","state_id":"KY"},{"zip":"42502","fips":"21199","name":"Pulaski County","state_id":"KY"},{"zip":"42503","fips":"21199","name":"Pulaski County","state_id":"KY"},{"zip":"42516","fips":"21045","name":"Casey County","state_id":"KY"},{"zip":"42518","fips":"21199","name":"Pulaski County","state_id":"KY"},{"zip":"42518","fips":"21231","name":"Wayne County","state_id":"KY"},{"zip":"42519","fips":"21199","name":"Pulaski County","state_id":"KY"},{"zip":"42528","fips":"21045","name":"Casey County","state_id":"KY"},{"zip":"42528","fips":"21207","name":"Russell County","state_id":"KY"},{"zip":"42528","fips":"21001","name":"Adair County","state_id":"KY"},{"zip":"42533","fips":"21199","name":"Pulaski County","state_id":"KY"},{"zip":"42539","fips":"21045","name":"Casey County","state_id":"KY"},{"zip":"42539","fips":"21001","name":"Adair County","state_id":"KY"},{"zip":"42539","fips":"21207","name":"Russell County","state_id":"KY"},{"zip":"42541","fips":"21045","name":"Casey County","state_id":"KY"},{"zip":"42544","fips":"21231","name":"Wayne County","state_id":"KY"},{"zip":"42544","fips":"21045","name":"Casey County","state_id":"KY"},{"zip":"42544","fips":"21199","name":"Pulaski County","state_id":"KY"},{"zip":"42544","fips":"21207","name":"Russell County","state_id":"KY"},{"zip":"42553","fips":"21045","name":"Casey County","state_id":"KY"},{"zip":"42553","fips":"21199","name":"Pulaski County","state_id":"KY"},{"zip":"42558","fips":"21199","name":"Pulaski County","state_id":"KY"},{"zip":"42564","fips":"21199","name":"Pulaski County","state_id":"KY"},{"zip":"42565","fips":"21045","name":"Casey County","state_id":"KY"},{"zip":"42566","fips":"21045","name":"Casey County","state_id":"KY"},{"zip":"42567","fips":"21199","name":"Pulaski County","state_id":"KY"},{"zip":"42567","fips":"21137","name":"Lincoln County","state_id":"KY"}]
