[{"zip":"42602","fips":"21053","name":"Clinton County","state_id":"KY"},{"zip":"42602","fips":"21057","name":"Cumberland County","state_id":"KY"},{"zip":"42602","fips":"21231","name":"Wayne County","state_id":"KY"},{"zip":"42602","fips":"21207","name":"Russell County","state_id":"KY"},{"zip":"42603","fips":"21231","name":"Wayne County","state_id":"KY"},{"zip":"42603","fips":"21053","name":"Clinton County","state_id":"KY"},{"zip":"42629","fips":"21207","name":"Russell County","state_id":"KY"},{"zip":"42631","fips":"21147","name":"McCreary County","state_id":"KY"},{"zip":"42633","fips":"21053","name":"Clinton County","state_id":"KY"},{"zip":"42633","fips":"21231","name":"Wayne County","state_id":"KY"},{"zip":"42634","fips":"21147","name":"McCreary County","state_id":"KY"},{"zip":"42635","fips":"21147","name":"McCreary County","state_id":"KY"},{"zip":"42638","fips":"21147","name":"McCreary County","state_id":"KY"},{"zip":"42642","fips":"21207","name":"Russell County","state_id":"KY"},{"zip":"42642","fips":"21045","name":"Casey County","state_id":"KY"},{"zip":"42642","fips":"21001","name":"Adair County","state_id":"KY"},{"zip":"42642","fips":"21199","name":"Pulaski County","state_id":"KY"},{"zip":"42647","fips":"21147","name":"McCreary County","state_id":"KY"},{"zip":"42649","fips":"21147","name":"McCreary County","state_id":"KY"},{"zip":"42653","fips":"21147","name":"McCreary County","state_id":"KY"}]
