[{"zip":"42701","fips":"21093","name":"Hardin County","state_id":"KY"},{"zip":"42702","fips":"21093","name":"Hardin County","state_id":"KY"},{"zip":"42712","fips":"21093","name":"Hardin County","state_id":"KY"},{"zip":"42712","fips":"21085","name":"Grayson County","state_id":"KY"},{"zip":"42712","fips":"21027","name":"Breckinridge County","state_id":"KY"},{"zip":"42713","fips":"21099","name":"Hart County","state_id":"KY"},{"zip":"42715","fips":"21169","name":"Metcalfe County","state_id":"KY"},{"zip":"42715","fips":"21001","name":"Adair County","state_id":"KY"},{"zip":"42715","fips":"21057","name":"Cumberland County","state_id":"KY"},{"zip":"42716","fips":"21087","name":"Green County","state_id":"KY"},{"zip":"42716","fips":"21217","name":"Taylor County","state_id":"KY"},{"zip":"42716","fips":"21123","name":"Larue County","state_id":"KY"},{"zip":"42717","fips":"21053","name":"Clinton County","state_id":"KY"},{"zip":"42717","fips":"21169","name":"Metcalfe County","state_id":"KY"},{"zip":"42717","fips":"21057","name":"Cumberland County","state_id":"KY"},{"zip":"42718","fips":"21217","name":"Taylor County","state_id":"KY"},{"zip":"42718","fips":"21087","name":"Green County","state_id":"KY"},{"zip":"42718","fips":"21123","name":"Larue County","state_id":"KY"},{"zip":"42718","fips":"21001","name":"Adair County","state_id":"KY"},{"zip":"42718","fips":"21155","name":"Marion County","state_id":"KY"},{"zip":"42720","fips":"21001","name":"Adair County","state_id":"KY"},{"zip":"42721","fips":"21031","name":"Butler County","state_id":"KY"},{"zip":"42721","fips":"21061","name":"Edmonson County","state_id":"KY"},{"zip":"42721","fips":"21085","name":"Grayson County","state_id":"KY"},{"zip":"42722","fips":"21099","name":"Hart County","state_id":"KY"},{"zip":"42722","fips":"21087","name":"Green County","state_id":"KY"},{"zip":"42724","fips":"21093","name":"Hardin County","state_id":"KY"},{"zip":"42726","fips":"21085","name":"Grayson County","state_id":"KY"},{"zip":"42728","fips":"21087","name":"Green County","state_id":"KY"},{"zip":"42728","fips":"21001","name":"Adair County","state_id":"KY"},{"zip":"42728","fips":"21045","name":"Casey County","state_id":"KY"},{"zip":"42728","fips":"21217","name":"Taylor County","state_id":"KY"},{"zip":"42729","fips":"21061","name":"Edmonson County","state_id":"KY"},{"zip":"42729","fips":"21099","name":"Hart County","state_id":"KY"},{"zip":"42732","fips":"21093","name":"Hardin County","state_id":"KY"},{"zip":"42733","fips":"21001","name":"Adair County","state_id":"KY"},{"zip":"42733","fips":"21045","name":"Casey County","state_id":"KY"},{"zip":"42733","fips":"21217","name":"Taylor County","state_id":"KY"},{"zip":"42740","fips":"21093","name":"Hardin County","state_id":"KY"},{"zip":"42741","fips":"21001","name":"Adair County","state_id":"KY"},{"zip":"42741","fips":"21207","name":"Russell County","state_id":"KY"},{"zip":"42742","fips":"21001","name":"Adair County","state_id":"KY"},{"zip":"42743","fips":"21087","name":"Green County","state_id":"KY"},{"zip":"42743","fips":"21155","name":"Marion County","state_id":"KY"},{"zip":"42743","fips":"21217","name":"Taylor County","state_id":"KY"},{"zip":"42743","fips":"21001","name":"Adair County","state_id":"KY"},{"zip":"42746","fips":"21009","name":"Barren County","state_id":"KY"},{"zip":"42746","fips":"21099","name":"Hart County","state_id":"KY"},{"zip":"42746","fips":"21169","name":"Metcalfe County","state_id":"KY"},{"zip":"42746","fips":"21087","name":"Green County","state_id":"KY"},{"zip":"42748","fips":"21123","name":"Larue County","state_id":"KY"},{"zip":"42748","fips":"21179","name":"Nelson County","state_id":"KY"},{"zip":"42748","fips":"21093","name":"Hardin County","state_id":"KY"},{"zip":"42749","fips":"21169","name":"Metcalfe County","state_id":"KY"},{"zip":"42749","fips":"21099","name":"Hart County","state_id":"KY"},{"zip":"42749","fips":"21009","name":"Barren County","state_id":"KY"},{"zip":"42753","fips":"21001","name":"Adair County","state_id":"KY"},{"zip":"42754","fips":"21027","name":"Breckinridge County","state_id":"KY"},{"zip":"42754","fips":"21061","name":"Edmonson County","state_id":"KY"},{"zip":"42754","fips":"21085","name":"Grayson County","state_id":"KY"},{"zip":"42757","fips":"21123","name":"Larue County","state_id":"KY"},{"zip":"42757","fips":"21087","name":"Green County","state_id":"KY"},{"zip":"42757","fips":"21099","name":"Hart County","state_id":"KY"},{"zip":"42758","fips":"21217","name":"Taylor County","state_id":"KY"},{"zip":"42759","fips":"21057","name":"Cumberland County","state_id":"KY"},{"zip":"42762","fips":"21085","name":"Grayson County","state_id":"KY"},{"zip":"42764","fips":"21123","name":"Larue County","state_id":"KY"},{"zip":"42764","fips":"21087","name":"Green County","state_id":"KY"},{"zip":"42765","fips":"21099","name":"Hart County","state_id":"KY"},{"zip":"42776","fips":"21123","name":"Larue County","state_id":"KY"},{"zip":"42776","fips":"21093","name":"Hardin County","state_id":"KY"},{"zip":"42782","fips":"21099","name":"Hart County","state_id":"KY"},{"zip":"42782","fips":"21087","name":"Green County","state_id":"KY"},{"zip":"42784","fips":"21093","name":"Hardin County","state_id":"KY"},{"zip":"42784","fips":"21123","name":"Larue County","state_id":"KY"},{"zip":"42784","fips":"21099","name":"Hart County","state_id":"KY"},{"zip":"42788","fips":"21093","name":"Hardin County","state_id":"KY"}]
