[{"zip":"43001","fips":"39089","name":"Licking County","state_id":"OH"},{"zip":"43002","fips":"39049","name":"Franklin County","state_id":"OH"},{"zip":"43003","fips":"39041","name":"Delaware County","state_id":"OH"},{"zip":"43003","fips":"39117","name":"Morrow County","state_id":"OH"},{"zip":"43004","fips":"39089","name":"Licking County","state_id":"OH"},{"zip":"43004","fips":"39049","name":"Franklin County","state_id":"OH"},{"zip":"43005","fips":"39083","name":"Knox County","state_id":"OH"},{"zip":"43006","fips":"39075","name":"Holmes County","state_id":"OH"},{"zip":"43006","fips":"39083","name":"Knox County","state_id":"OH"},{"zip":"43006","fips":"39031","name":"Coshocton County","state_id":"OH"},{"zip":"43007","fips":"39159","name":"Union County","state_id":"OH"},{"zip":"43008","fips":"39089","name":"Licking County","state_id":"OH"},{"zip":"43009","fips":"39021","name":"Champaign County","state_id":"OH"},{"zip":"43010","fips":"39023","name":"Clark County","state_id":"OH"},{"zip":"43011","fips":"39117","name":"Morrow County","state_id":"OH"},{"zip":"43011","fips":"39083","name":"Knox County","state_id":"OH"},{"zip":"43011","fips":"39089","name":"Licking County","state_id":"OH"},{"zip":"43011","fips":"39041","name":"Delaware County","state_id":"OH"},{"zip":"43013","fips":"39089","name":"Licking County","state_id":"OH"},{"zip":"43013","fips":"39041","name":"Delaware County","state_id":"OH"},{"zip":"43014","fips":"39083","name":"Knox County","state_id":"OH"},{"zip":"43015","fips":"39041","name":"Delaware County","state_id":"OH"},{"zip":"43015","fips":"39159","name":"Union County","state_id":"OH"},{"zip":"43016","fips":"39159","name":"Union County","state_id":"OH"},{"zip":"43016","fips":"39049","name":"Franklin County","state_id":"OH"},{"zip":"43016","fips":"39041","name":"Delaware County","state_id":"OH"},{"zip":"43017","fips":"39159","name":"Union County","state_id":"OH"},{"zip":"43017","fips":"39049","name":"Franklin County","state_id":"OH"},{"zip":"43017","fips":"39041","name":"Delaware County","state_id":"OH"},{"zip":"43018","fips":"39089","name":"Licking County","state_id":"OH"},{"zip":"43019","fips":"39083","name":"Knox County","state_id":"OH"},{"zip":"43019","fips":"39117","name":"Morrow County","state_id":"OH"},{"zip":"43019","fips":"39139","name":"Richland County","state_id":"OH"},{"zip":"43021","fips":"39041","name":"Delaware County","state_id":"OH"},{"zip":"43022","fips":"39083","name":"Knox County","state_id":"OH"},{"zip":"43023","fips":"39089","name":"Licking County","state_id":"OH"},{"zip":"43025","fips":"39089","name":"Licking County","state_id":"OH"},{"zip":"43025","fips":"39045","name":"Fairfield County","state_id":"OH"},{"zip":"43026","fips":"39097","name":"Madison County","state_id":"OH"},{"zip":"43026","fips":"39049","name":"Franklin County","state_id":"OH"},{"zip":"43027","fips":"39089","name":"Licking County","state_id":"OH"},{"zip":"43028","fips":"39083","name":"Knox County","state_id":"OH"},{"zip":"43029","fips":"39159","name":"Union County","state_id":"OH"},{"zip":"43029","fips":"39097","name":"Madison County","state_id":"OH"},{"zip":"43030","fips":"39089","name":"Licking County","state_id":"OH"},{"zip":"43031","fips":"39089","name":"Licking County","state_id":"OH"},{"zip":"43031","fips":"39041","name":"Delaware County","state_id":"OH"},{"zip":"43033","fips":"39089","name":"Licking County","state_id":"OH"},{"zip":"43035","fips":"39041","name":"Delaware County","state_id":"OH"},{"zip":"43036","fips":"39159","name":"Union County","state_id":"OH"},{"zip":"43037","fips":"39083","name":"Knox County","state_id":"OH"},{"zip":"43040","fips":"39041","name":"Delaware County","state_id":"OH"},{"zip":"43040","fips":"39159","name":"Union County","state_id":"OH"},{"zip":"43044","fips":"39021","name":"Champaign County","state_id":"OH"},{"zip":"43044","fips":"39023","name":"Clark County","state_id":"OH"},{"zip":"43044","fips":"39097","name":"Madison County","state_id":"OH"},{"zip":"43045","fips":"39159","name":"Union County","state_id":"OH"},{"zip":"43045","fips":"39021","name":"Champaign County","state_id":"OH"},{"zip":"43046","fips":"39045","name":"Fairfield County","state_id":"OH"},{"zip":"43046","fips":"39089","name":"Licking County","state_id":"OH"},{"zip":"43047","fips":"39021","name":"Champaign County","state_id":"OH"},{"zip":"43048","fips":"39083","name":"Knox County","state_id":"OH"},{"zip":"43050","fips":"39089","name":"Licking County","state_id":"OH"},{"zip":"43050","fips":"39083","name":"Knox County","state_id":"OH"},{"zip":"43050","fips":"39117","name":"Morrow County","state_id":"OH"},{"zip":"43054","fips":"39049","name":"Franklin County","state_id":"OH"},{"zip":"43054","fips":"39041","name":"Delaware County","state_id":"OH"},{"zip":"43054","fips":"39089","name":"Licking County","state_id":"OH"},{"zip":"43055","fips":"39089","name":"Licking County","state_id":"OH"},{"zip":"43056","fips":"39089","name":"Licking County","state_id":"OH"},{"zip":"43056","fips":"39119","name":"Muskingum County","state_id":"OH"},{"zip":"43058","fips":"39089","name":"Licking County","state_id":"OH"},{"zip":"43060","fips":"39091","name":"Logan County","state_id":"OH"},{"zip":"43060","fips":"39021","name":"Champaign County","state_id":"OH"},{"zip":"43060","fips":"39159","name":"Union County","state_id":"OH"},{"zip":"43061","fips":"39041","name":"Delaware County","state_id":"OH"},{"zip":"43061","fips":"39159","name":"Union County","state_id":"OH"},{"zip":"43062","fips":"39049","name":"Franklin County","state_id":"OH"},{"zip":"43062","fips":"39045","name":"Fairfield County","state_id":"OH"},{"zip":"43062","fips":"39089","name":"Licking County","state_id":"OH"},{"zip":"43064","fips":"39041","name":"Delaware County","state_id":"OH"},{"zip":"43064","fips":"39049","name":"Franklin County","state_id":"OH"},{"zip":"43064","fips":"39097","name":"Madison County","state_id":"OH"},{"zip":"43064","fips":"39159","name":"Union County","state_id":"OH"},{"zip":"43065","fips":"39049","name":"Franklin County","state_id":"OH"},{"zip":"43065","fips":"39041","name":"Delaware County","state_id":"OH"},{"zip":"43066","fips":"39041","name":"Delaware County","state_id":"OH"},{"zip":"43067","fips":"39091","name":"Logan County","state_id":"OH"},{"zip":"43067","fips":"39159","name":"Union County","state_id":"OH"},{"zip":"43068","fips":"39049","name":"Franklin County","state_id":"OH"},{"zip":"43068","fips":"39045","name":"Fairfield County","state_id":"OH"},{"zip":"43068","fips":"39089","name":"Licking County","state_id":"OH"},{"zip":"43069","fips":"39049","name":"Franklin County","state_id":"OH"},{"zip":"43070","fips":"39021","name":"Champaign County","state_id":"OH"},{"zip":"43071","fips":"39089","name":"Licking County","state_id":"OH"},{"zip":"43072","fips":"39021","name":"Champaign County","state_id":"OH"},{"zip":"43073","fips":"39089","name":"Licking County","state_id":"OH"},{"zip":"43074","fips":"39041","name":"Delaware County","state_id":"OH"},{"zip":"43074","fips":"39089","name":"Licking County","state_id":"OH"},{"zip":"43076","fips":"39089","name":"Licking County","state_id":"OH"},{"zip":"43076","fips":"39127","name":"Perry County","state_id":"OH"},{"zip":"43076","fips":"39045","name":"Fairfield County","state_id":"OH"},{"zip":"43077","fips":"39159","name":"Union County","state_id":"OH"},{"zip":"43078","fips":"39023","name":"Clark County","state_id":"OH"},{"zip":"43078","fips":"39021","name":"Champaign County","state_id":"OH"},{"zip":"43080","fips":"39089","name":"Licking County","state_id":"OH"},{"zip":"43080","fips":"39083","name":"Knox County","state_id":"OH"},{"zip":"43081","fips":"39049","name":"Franklin County","state_id":"OH"},{"zip":"43081","fips":"39041","name":"Delaware County","state_id":"OH"},{"zip":"43082","fips":"39041","name":"Delaware County","state_id":"OH"},{"zip":"43083","fips":"39021","name":"Champaign County","state_id":"OH"},{"zip":"43084","fips":"39021","name":"Champaign County","state_id":"OH"},{"zip":"43084","fips":"39159","name":"Union County","state_id":"OH"},{"zip":"43085","fips":"39049","name":"Franklin County","state_id":"OH"},{"zip":"43086","fips":"39041","name":"Delaware County","state_id":"OH"},{"zip":"43086","fips":"39049","name":"Franklin County","state_id":"OH"}]
