[{"zip":"43101","fips":"39141","name":"Ross County","state_id":"OH"},{"zip":"43101","fips":"39129","name":"Pickaway County","state_id":"OH"},{"zip":"43102","fips":"39045","name":"Fairfield County","state_id":"OH"},{"zip":"43102","fips":"39129","name":"Pickaway County","state_id":"OH"},{"zip":"43102","fips":"39073","name":"Hocking County","state_id":"OH"},{"zip":"43103","fips":"39045","name":"Fairfield County","state_id":"OH"},{"zip":"43103","fips":"39129","name":"Pickaway County","state_id":"OH"},{"zip":"43105","fips":"39045","name":"Fairfield County","state_id":"OH"},{"zip":"43105","fips":"39089","name":"Licking County","state_id":"OH"},{"zip":"43106","fips":"39047","name":"Fayette County","state_id":"OH"},{"zip":"43107","fips":"39045","name":"Fairfield County","state_id":"OH"},{"zip":"43107","fips":"39073","name":"Hocking County","state_id":"OH"},{"zip":"43107","fips":"39127","name":"Perry County","state_id":"OH"},{"zip":"43109","fips":"39049","name":"Franklin County","state_id":"OH"},{"zip":"43110","fips":"39045","name":"Fairfield County","state_id":"OH"},{"zip":"43110","fips":"39129","name":"Pickaway County","state_id":"OH"},{"zip":"43110","fips":"39049","name":"Franklin County","state_id":"OH"},{"zip":"43111","fips":"39073","name":"Hocking County","state_id":"OH"},{"zip":"43112","fips":"39045","name":"Fairfield County","state_id":"OH"},{"zip":"43113","fips":"39129","name":"Pickaway County","state_id":"OH"},{"zip":"43113","fips":"39045","name":"Fairfield County","state_id":"OH"},{"zip":"43115","fips":"39129","name":"Pickaway County","state_id":"OH"},{"zip":"43115","fips":"39141","name":"Ross County","state_id":"OH"},{"zip":"43116","fips":"39129","name":"Pickaway County","state_id":"OH"},{"zip":"43117","fips":"39129","name":"Pickaway County","state_id":"OH"},{"zip":"43119","fips":"39097","name":"Madison County","state_id":"OH"},{"zip":"43119","fips":"39049","name":"Franklin County","state_id":"OH"},{"zip":"43123","fips":"39049","name":"Franklin County","state_id":"OH"},{"zip":"43123","fips":"39097","name":"Madison County","state_id":"OH"},{"zip":"43125","fips":"39129","name":"Pickaway County","state_id":"OH"},{"zip":"43125","fips":"39049","name":"Franklin County","state_id":"OH"},{"zip":"43126","fips":"39049","name":"Franklin County","state_id":"OH"},{"zip":"43126","fips":"39129","name":"Pickaway County","state_id":"OH"},{"zip":"43127","fips":"39073","name":"Hocking County","state_id":"OH"},{"zip":"43128","fips":"39057","name":"Greene County","state_id":"OH"},{"zip":"43128","fips":"39047","name":"Fayette County","state_id":"OH"},{"zip":"43130","fips":"39073","name":"Hocking County","state_id":"OH"},{"zip":"43130","fips":"39045","name":"Fairfield County","state_id":"OH"},{"zip":"43135","fips":"39141","name":"Ross County","state_id":"OH"},{"zip":"43135","fips":"39073","name":"Hocking County","state_id":"OH"},{"zip":"43135","fips":"39129","name":"Pickaway County","state_id":"OH"},{"zip":"43136","fips":"39045","name":"Fairfield County","state_id":"OH"},{"zip":"43137","fips":"39129","name":"Pickaway County","state_id":"OH"},{"zip":"43137","fips":"39049","name":"Franklin County","state_id":"OH"},{"zip":"43138","fips":"39163","name":"Vinton County","state_id":"OH"},{"zip":"43138","fips":"39127","name":"Perry County","state_id":"OH"},{"zip":"43138","fips":"39073","name":"Hocking County","state_id":"OH"},{"zip":"43140","fips":"39097","name":"Madison County","state_id":"OH"},{"zip":"43140","fips":"39049","name":"Franklin County","state_id":"OH"},{"zip":"43140","fips":"39023","name":"Clark County","state_id":"OH"},{"zip":"43142","fips":"39047","name":"Fayette County","state_id":"OH"},{"zip":"43143","fips":"39129","name":"Pickaway County","state_id":"OH"},{"zip":"43143","fips":"39047","name":"Fayette County","state_id":"OH"},{"zip":"43143","fips":"39097","name":"Madison County","state_id":"OH"},{"zip":"43144","fips":"39073","name":"Hocking County","state_id":"OH"},{"zip":"43145","fips":"39129","name":"Pickaway County","state_id":"OH"},{"zip":"43145","fips":"39047","name":"Fayette County","state_id":"OH"},{"zip":"43146","fips":"39129","name":"Pickaway County","state_id":"OH"},{"zip":"43146","fips":"39097","name":"Madison County","state_id":"OH"},{"zip":"43146","fips":"39049","name":"Franklin County","state_id":"OH"},{"zip":"43147","fips":"39045","name":"Fairfield County","state_id":"OH"},{"zip":"43147","fips":"39049","name":"Franklin County","state_id":"OH"},{"zip":"43147","fips":"39089","name":"Licking County","state_id":"OH"},{"zip":"43148","fips":"39127","name":"Perry County","state_id":"OH"},{"zip":"43148","fips":"39045","name":"Fairfield County","state_id":"OH"},{"zip":"43149","fips":"39073","name":"Hocking County","state_id":"OH"},{"zip":"43150","fips":"39127","name":"Perry County","state_id":"OH"},{"zip":"43150","fips":"39045","name":"Fairfield County","state_id":"OH"},{"zip":"43151","fips":"39097","name":"Madison County","state_id":"OH"},{"zip":"43152","fips":"39163","name":"Vinton County","state_id":"OH"},{"zip":"43152","fips":"39073","name":"Hocking County","state_id":"OH"},{"zip":"43153","fips":"39023","name":"Clark County","state_id":"OH"},{"zip":"43153","fips":"39047","name":"Fayette County","state_id":"OH"},{"zip":"43153","fips":"39097","name":"Madison County","state_id":"OH"},{"zip":"43153","fips":"39057","name":"Greene County","state_id":"OH"},{"zip":"43154","fips":"39045","name":"Fairfield County","state_id":"OH"},{"zip":"43154","fips":"39129","name":"Pickaway County","state_id":"OH"},{"zip":"43155","fips":"39073","name":"Hocking County","state_id":"OH"},{"zip":"43155","fips":"39045","name":"Fairfield County","state_id":"OH"},{"zip":"43156","fips":"39129","name":"Pickaway County","state_id":"OH"},{"zip":"43157","fips":"39045","name":"Fairfield County","state_id":"OH"},{"zip":"43158","fips":"39073","name":"Hocking County","state_id":"OH"},{"zip":"43160","fips":"39027","name":"Clinton County","state_id":"OH"},{"zip":"43160","fips":"39047","name":"Fayette County","state_id":"OH"},{"zip":"43160","fips":"39141","name":"Ross County","state_id":"OH"},{"zip":"43162","fips":"39097","name":"Madison County","state_id":"OH"},{"zip":"43164","fips":"39141","name":"Ross County","state_id":"OH"},{"zip":"43164","fips":"39129","name":"Pickaway County","state_id":"OH"},{"zip":"43194","fips":"39049","name":"Franklin County","state_id":"OH"},{"zip":"43195","fips":"39049","name":"Franklin County","state_id":"OH"}]
