[{"zip":"43201","fips":"39049","name":"Franklin County","state_id":"OH"},{"zip":"43202","fips":"39049","name":"Franklin County","state_id":"OH"},{"zip":"43203","fips":"39049","name":"Franklin County","state_id":"OH"},{"zip":"43204","fips":"39049","name":"Franklin County","state_id":"OH"},{"zip":"43205","fips":"39049","name":"Franklin County","state_id":"OH"},{"zip":"43206","fips":"39049","name":"Franklin County","state_id":"OH"},{"zip":"43207","fips":"39049","name":"Franklin County","state_id":"OH"},{"zip":"43209","fips":"39049","name":"Franklin County","state_id":"OH"},{"zip":"43210","fips":"39049","name":"Franklin County","state_id":"OH"},{"zip":"43211","fips":"39049","name":"Franklin County","state_id":"OH"},{"zip":"43212","fips":"39049","name":"Franklin County","state_id":"OH"},{"zip":"43213","fips":"39049","name":"Franklin County","state_id":"OH"},{"zip":"43214","fips":"39049","name":"Franklin County","state_id":"OH"},{"zip":"43215","fips":"39049","name":"Franklin County","state_id":"OH"},{"zip":"43216","fips":"39049","name":"Franklin County","state_id":"OH"},{"zip":"43217","fips":"39129","name":"Pickaway County","state_id":"OH"},{"zip":"43217","fips":"39049","name":"Franklin County","state_id":"OH"},{"zip":"43218","fips":"39049","name":"Franklin County","state_id":"OH"},{"zip":"43219","fips":"39049","name":"Franklin County","state_id":"OH"},{"zip":"43220","fips":"39049","name":"Franklin County","state_id":"OH"},{"zip":"43221","fips":"39049","name":"Franklin County","state_id":"OH"},{"zip":"43222","fips":"39049","name":"Franklin County","state_id":"OH"},{"zip":"43223","fips":"39049","name":"Franklin County","state_id":"OH"},{"zip":"43224","fips":"39049","name":"Franklin County","state_id":"OH"},{"zip":"43226","fips":"39049","name":"Franklin County","state_id":"OH"},{"zip":"43227","fips":"39049","name":"Franklin County","state_id":"OH"},{"zip":"43228","fips":"39049","name":"Franklin County","state_id":"OH"},{"zip":"43229","fips":"39049","name":"Franklin County","state_id":"OH"},{"zip":"43230","fips":"39049","name":"Franklin County","state_id":"OH"},{"zip":"43231","fips":"39049","name":"Franklin County","state_id":"OH"},{"zip":"43232","fips":"39049","name":"Franklin County","state_id":"OH"},{"zip":"43234","fips":"39049","name":"Franklin County","state_id":"OH"},{"zip":"43235","fips":"39049","name":"Franklin County","state_id":"OH"},{"zip":"43235","fips":"39041","name":"Delaware County","state_id":"OH"},{"zip":"43236","fips":"39049","name":"Franklin County","state_id":"OH"},{"zip":"43240","fips":"39041","name":"Delaware County","state_id":"OH"},{"zip":"43251","fips":"39049","name":"Franklin County","state_id":"OH"},{"zip":"43287","fips":"39049","name":"Franklin County","state_id":"OH"},{"zip":"43291","fips":"39049","name":"Franklin County","state_id":"OH"}]
