[{"zip":"43302","fips":"39033","name":"Crawford County","state_id":"OH"},{"zip":"43302","fips":"39159","name":"Union County","state_id":"OH"},{"zip":"43302","fips":"39101","name":"Marion County","state_id":"OH"},{"zip":"43310","fips":"39003","name":"Allen County","state_id":"OH"},{"zip":"43310","fips":"39091","name":"Logan County","state_id":"OH"},{"zip":"43310","fips":"39065","name":"Hardin County","state_id":"OH"},{"zip":"43311","fips":"39091","name":"Logan County","state_id":"OH"},{"zip":"43314","fips":"39033","name":"Crawford County","state_id":"OH"},{"zip":"43314","fips":"39101","name":"Marion County","state_id":"OH"},{"zip":"43314","fips":"39117","name":"Morrow County","state_id":"OH"},{"zip":"43315","fips":"39101","name":"Marion County","state_id":"OH"},{"zip":"43315","fips":"39117","name":"Morrow County","state_id":"OH"},{"zip":"43316","fips":"39175","name":"Wyandot County","state_id":"OH"},{"zip":"43316","fips":"39147","name":"Seneca County","state_id":"OH"},{"zip":"43316","fips":"39063","name":"Hancock County","state_id":"OH"},{"zip":"43317","fips":"39117","name":"Morrow County","state_id":"OH"},{"zip":"43318","fips":"39021","name":"Champaign County","state_id":"OH"},{"zip":"43318","fips":"39091","name":"Logan County","state_id":"OH"},{"zip":"43319","fips":"39159","name":"Union County","state_id":"OH"},{"zip":"43319","fips":"39091","name":"Logan County","state_id":"OH"},{"zip":"43320","fips":"39117","name":"Morrow County","state_id":"OH"},{"zip":"43321","fips":"39117","name":"Morrow County","state_id":"OH"},{"zip":"43322","fips":"39101","name":"Marion County","state_id":"OH"},{"zip":"43323","fips":"39101","name":"Marion County","state_id":"OH"},{"zip":"43323","fips":"39175","name":"Wyandot County","state_id":"OH"},{"zip":"43324","fips":"39091","name":"Logan County","state_id":"OH"},{"zip":"43325","fips":"39117","name":"Morrow County","state_id":"OH"},{"zip":"43326","fips":"39065","name":"Hardin County","state_id":"OH"},{"zip":"43326","fips":"39101","name":"Marion County","state_id":"OH"},{"zip":"43330","fips":"39175","name":"Wyandot County","state_id":"OH"},{"zip":"43331","fips":"39065","name":"Hardin County","state_id":"OH"},{"zip":"43331","fips":"39091","name":"Logan County","state_id":"OH"},{"zip":"43331","fips":"39011","name":"Auglaize County","state_id":"OH"},{"zip":"43332","fips":"39065","name":"Hardin County","state_id":"OH"},{"zip":"43332","fips":"39175","name":"Wyandot County","state_id":"OH"},{"zip":"43332","fips":"39101","name":"Marion County","state_id":"OH"},{"zip":"43333","fips":"39091","name":"Logan County","state_id":"OH"},{"zip":"43334","fips":"39041","name":"Delaware County","state_id":"OH"},{"zip":"43334","fips":"39117","name":"Morrow County","state_id":"OH"},{"zip":"43336","fips":"39091","name":"Logan County","state_id":"OH"},{"zip":"43337","fips":"39101","name":"Marion County","state_id":"OH"},{"zip":"43337","fips":"39175","name":"Wyandot County","state_id":"OH"},{"zip":"43338","fips":"39117","name":"Morrow County","state_id":"OH"},{"zip":"43340","fips":"39065","name":"Hardin County","state_id":"OH"},{"zip":"43340","fips":"39159","name":"Union County","state_id":"OH"},{"zip":"43341","fips":"39101","name":"Marion County","state_id":"OH"},{"zip":"43342","fips":"39041","name":"Delaware County","state_id":"OH"},{"zip":"43342","fips":"39101","name":"Marion County","state_id":"OH"},{"zip":"43342","fips":"39159","name":"Union County","state_id":"OH"},{"zip":"43343","fips":"39149","name":"Shelby County","state_id":"OH"},{"zip":"43343","fips":"39021","name":"Champaign County","state_id":"OH"},{"zip":"43343","fips":"39091","name":"Logan County","state_id":"OH"},{"zip":"43344","fips":"39041","name":"Delaware County","state_id":"OH"},{"zip":"43344","fips":"39101","name":"Marion County","state_id":"OH"},{"zip":"43344","fips":"39159","name":"Union County","state_id":"OH"},{"zip":"43345","fips":"39065","name":"Hardin County","state_id":"OH"},{"zip":"43345","fips":"39091","name":"Logan County","state_id":"OH"},{"zip":"43345","fips":"39159","name":"Union County","state_id":"OH"},{"zip":"43346","fips":"39065","name":"Hardin County","state_id":"OH"},{"zip":"43347","fips":"39091","name":"Logan County","state_id":"OH"},{"zip":"43347","fips":"39065","name":"Hardin County","state_id":"OH"},{"zip":"43348","fips":"39091","name":"Logan County","state_id":"OH"},{"zip":"43349","fips":"39117","name":"Morrow County","state_id":"OH"},{"zip":"43350","fips":"39117","name":"Morrow County","state_id":"OH"},{"zip":"43351","fips":"39175","name":"Wyandot County","state_id":"OH"},{"zip":"43356","fips":"39117","name":"Morrow County","state_id":"OH"},{"zip":"43356","fips":"39101","name":"Marion County","state_id":"OH"},{"zip":"43356","fips":"39041","name":"Delaware County","state_id":"OH"},{"zip":"43357","fips":"39091","name":"Logan County","state_id":"OH"},{"zip":"43357","fips":"39021","name":"Champaign County","state_id":"OH"},{"zip":"43358","fips":"39159","name":"Union County","state_id":"OH"},{"zip":"43358","fips":"39091","name":"Logan County","state_id":"OH"},{"zip":"43359","fips":"39175","name":"Wyandot County","state_id":"OH"},{"zip":"43360","fips":"39091","name":"Logan County","state_id":"OH"}]
