[{"zip":"43402","fips":"39173","name":"Wood County","state_id":"OH"},{"zip":"43403","fips":"39173","name":"Wood County","state_id":"OH"},{"zip":"43406","fips":"39173","name":"Wood County","state_id":"OH"},{"zip":"43406","fips":"39143","name":"Sandusky County","state_id":"OH"},{"zip":"43407","fips":"39143","name":"Sandusky County","state_id":"OH"},{"zip":"43408","fips":"39123","name":"Ottawa County","state_id":"OH"},{"zip":"43410","fips":"39143","name":"Sandusky County","state_id":"OH"},{"zip":"43410","fips":"39147","name":"Seneca County","state_id":"OH"},{"zip":"43412","fips":"39123","name":"Ottawa County","state_id":"OH"},{"zip":"43412","fips":"39095","name":"Lucas County","state_id":"OH"},{"zip":"43413","fips":"39173","name":"Wood County","state_id":"OH"},{"zip":"43414","fips":"39173","name":"Wood County","state_id":"OH"},{"zip":"43416","fips":"39123","name":"Ottawa County","state_id":"OH"},{"zip":"43416","fips":"39143","name":"Sandusky County","state_id":"OH"},{"zip":"43420","fips":"39143","name":"Sandusky County","state_id":"OH"},{"zip":"43420","fips":"39123","name":"Ottawa County","state_id":"OH"},{"zip":"43430","fips":"39123","name":"Ottawa County","state_id":"OH"},{"zip":"43430","fips":"39143","name":"Sandusky County","state_id":"OH"},{"zip":"43430","fips":"39173","name":"Wood County","state_id":"OH"},{"zip":"43431","fips":"39143","name":"Sandusky County","state_id":"OH"},{"zip":"43431","fips":"39173","name":"Wood County","state_id":"OH"},{"zip":"43432","fips":"39123","name":"Ottawa County","state_id":"OH"},{"zip":"43433","fips":"39123","name":"Ottawa County","state_id":"OH"},{"zip":"43434","fips":"39095","name":"Lucas County","state_id":"OH"},{"zip":"43435","fips":"39143","name":"Sandusky County","state_id":"OH"},{"zip":"43436","fips":"39123","name":"Ottawa County","state_id":"OH"},{"zip":"43437","fips":"39173","name":"Wood County","state_id":"OH"},{"zip":"43438","fips":"39043","name":"Erie County","state_id":"OH"},{"zip":"43439","fips":"39123","name":"Ottawa County","state_id":"OH"},{"zip":"43440","fips":"39123","name":"Ottawa County","state_id":"OH"},{"zip":"43441","fips":"39173","name":"Wood County","state_id":"OH"},{"zip":"43442","fips":"39123","name":"Ottawa County","state_id":"OH"},{"zip":"43442","fips":"39143","name":"Sandusky County","state_id":"OH"},{"zip":"43443","fips":"39173","name":"Wood County","state_id":"OH"},{"zip":"43443","fips":"39143","name":"Sandusky County","state_id":"OH"},{"zip":"43445","fips":"39123","name":"Ottawa County","state_id":"OH"},{"zip":"43445","fips":"39095","name":"Lucas County","state_id":"OH"},{"zip":"43446","fips":"39123","name":"Ottawa County","state_id":"OH"},{"zip":"43447","fips":"39123","name":"Ottawa County","state_id":"OH"},{"zip":"43447","fips":"39173","name":"Wood County","state_id":"OH"},{"zip":"43449","fips":"39143","name":"Sandusky County","state_id":"OH"},{"zip":"43449","fips":"39123","name":"Ottawa County","state_id":"OH"},{"zip":"43450","fips":"39143","name":"Sandusky County","state_id":"OH"},{"zip":"43450","fips":"39173","name":"Wood County","state_id":"OH"},{"zip":"43451","fips":"39173","name":"Wood County","state_id":"OH"},{"zip":"43452","fips":"39123","name":"Ottawa County","state_id":"OH"},{"zip":"43456","fips":"39123","name":"Ottawa County","state_id":"OH"},{"zip":"43457","fips":"39173","name":"Wood County","state_id":"OH"},{"zip":"43457","fips":"39147","name":"Seneca County","state_id":"OH"},{"zip":"43457","fips":"39143","name":"Sandusky County","state_id":"OH"},{"zip":"43458","fips":"39123","name":"Ottawa County","state_id":"OH"},{"zip":"43460","fips":"39173","name":"Wood County","state_id":"OH"},{"zip":"43462","fips":"39173","name":"Wood County","state_id":"OH"},{"zip":"43463","fips":"39173","name":"Wood County","state_id":"OH"},{"zip":"43464","fips":"39043","name":"Erie County","state_id":"OH"},{"zip":"43464","fips":"39143","name":"Sandusky County","state_id":"OH"},{"zip":"43465","fips":"39173","name":"Wood County","state_id":"OH"},{"zip":"43466","fips":"39173","name":"Wood County","state_id":"OH"},{"zip":"43467","fips":"39173","name":"Wood County","state_id":"OH"},{"zip":"43468","fips":"39123","name":"Ottawa County","state_id":"OH"},{"zip":"43469","fips":"39143","name":"Sandusky County","state_id":"OH"},{"zip":"43469","fips":"39173","name":"Wood County","state_id":"OH"},{"zip":"43469","fips":"39123","name":"Ottawa County","state_id":"OH"}]
