[{"zip":"43501","fips":"39171","name":"Williams County","state_id":"OH"},{"zip":"43502","fips":"39171","name":"Williams County","state_id":"OH"},{"zip":"43502","fips":"39069","name":"Henry County","state_id":"OH"},{"zip":"43502","fips":"39051","name":"Fulton County","state_id":"OH"},{"zip":"43504","fips":"39095","name":"Lucas County","state_id":"OH"},{"zip":"43504","fips":"39051","name":"Fulton County","state_id":"OH"},{"zip":"43505","fips":"39171","name":"Williams County","state_id":"OH"},{"zip":"43506","fips":"39039","name":"Defiance County","state_id":"OH"},{"zip":"43506","fips":"39171","name":"Williams County","state_id":"OH"},{"zip":"43510","fips":"39069","name":"Henry County","state_id":"OH"},{"zip":"43511","fips":"39173","name":"Wood County","state_id":"OH"},{"zip":"43511","fips":"39069","name":"Henry County","state_id":"OH"},{"zip":"43512","fips":"39069","name":"Henry County","state_id":"OH"},{"zip":"43512","fips":"39171","name":"Williams County","state_id":"OH"},{"zip":"43512","fips":"39125","name":"Paulding County","state_id":"OH"},{"zip":"43512","fips":"39039","name":"Defiance County","state_id":"OH"},{"zip":"43515","fips":"39069","name":"Henry County","state_id":"OH"},{"zip":"43515","fips":"39051","name":"Fulton County","state_id":"OH"},{"zip":"43516","fips":"39063","name":"Hancock County","state_id":"OH"},{"zip":"43516","fips":"39137","name":"Putnam County","state_id":"OH"},{"zip":"43516","fips":"39069","name":"Henry County","state_id":"OH"},{"zip":"43516","fips":"39173","name":"Wood County","state_id":"OH"},{"zip":"43517","fips":"39039","name":"Defiance County","state_id":"OH"},{"zip":"43517","fips":"39171","name":"Williams County","state_id":"OH"},{"zip":"43518","fips":"39171","name":"Williams County","state_id":"OH"},{"zip":"43519","fips":"39039","name":"Defiance County","state_id":"OH"},{"zip":"43520","fips":"39039","name":"Defiance County","state_id":"OH"},{"zip":"43521","fips":"39051","name":"Fulton County","state_id":"OH"},{"zip":"43521","fips":"39171","name":"Williams County","state_id":"OH"},{"zip":"43522","fips":"39095","name":"Lucas County","state_id":"OH"},{"zip":"43522","fips":"39069","name":"Henry County","state_id":"OH"},{"zip":"43522","fips":"39173","name":"Wood County","state_id":"OH"},{"zip":"43523","fips":"39069","name":"Henry County","state_id":"OH"},{"zip":"43524","fips":"39069","name":"Henry County","state_id":"OH"},{"zip":"43525","fips":"39173","name":"Wood County","state_id":"OH"},{"zip":"43526","fips":"39125","name":"Paulding County","state_id":"OH"},{"zip":"43526","fips":"39039","name":"Defiance County","state_id":"OH"},{"zip":"43527","fips":"39069","name":"Henry County","state_id":"OH"},{"zip":"43527","fips":"39039","name":"Defiance County","state_id":"OH"},{"zip":"43528","fips":"39095","name":"Lucas County","state_id":"OH"},{"zip":"43529","fips":"39069","name":"Henry County","state_id":"OH"},{"zip":"43530","fips":"39039","name":"Defiance County","state_id":"OH"},{"zip":"43531","fips":"39171","name":"Williams County","state_id":"OH"},{"zip":"43532","fips":"39095","name":"Lucas County","state_id":"OH"},{"zip":"43532","fips":"39069","name":"Henry County","state_id":"OH"},{"zip":"43532","fips":"39051","name":"Fulton County","state_id":"OH"},{"zip":"43533","fips":"39051","name":"Fulton County","state_id":"OH"},{"zip":"43534","fips":"39069","name":"Henry County","state_id":"OH"},{"zip":"43535","fips":"39069","name":"Henry County","state_id":"OH"},{"zip":"43536","fips":"39039","name":"Defiance County","state_id":"OH"},{"zip":"43537","fips":"39095","name":"Lucas County","state_id":"OH"},{"zip":"43540","fips":"39051","name":"Fulton County","state_id":"OH"},{"zip":"43541","fips":"39173","name":"Wood County","state_id":"OH"},{"zip":"43542","fips":"39095","name":"Lucas County","state_id":"OH"},{"zip":"43543","fips":"39171","name":"Williams County","state_id":"OH"},{"zip":"43545","fips":"39051","name":"Fulton County","state_id":"OH"},{"zip":"43545","fips":"39039","name":"Defiance County","state_id":"OH"},{"zip":"43545","fips":"39069","name":"Henry County","state_id":"OH"},{"zip":"43547","fips":"39095","name":"Lucas County","state_id":"OH"},{"zip":"43548","fips":"39137","name":"Putnam County","state_id":"OH"},{"zip":"43548","fips":"39039","name":"Defiance County","state_id":"OH"},{"zip":"43548","fips":"39069","name":"Henry County","state_id":"OH"},{"zip":"43549","fips":"39039","name":"Defiance County","state_id":"OH"},{"zip":"43551","fips":"39173","name":"Wood County","state_id":"OH"},{"zip":"43552","fips":"39173","name":"Wood County","state_id":"OH"},{"zip":"43553","fips":"39051","name":"Fulton County","state_id":"OH"},{"zip":"43554","fips":"39171","name":"Williams County","state_id":"OH"},{"zip":"43555","fips":"39069","name":"Henry County","state_id":"OH"},{"zip":"43556","fips":"39039","name":"Defiance County","state_id":"OH"},{"zip":"43556","fips":"39125","name":"Paulding County","state_id":"OH"},{"zip":"43557","fips":"39171","name":"Williams County","state_id":"OH"},{"zip":"43557","fips":"39051","name":"Fulton County","state_id":"OH"},{"zip":"43557","fips":"39069","name":"Henry County","state_id":"OH"},{"zip":"43558","fips":"39051","name":"Fulton County","state_id":"OH"},{"zip":"43558","fips":"39095","name":"Lucas County","state_id":"OH"},{"zip":"43560","fips":"39095","name":"Lucas County","state_id":"OH"},{"zip":"43565","fips":"39173","name":"Wood County","state_id":"OH"},{"zip":"43566","fips":"39095","name":"Lucas County","state_id":"OH"},{"zip":"43567","fips":"39051","name":"Fulton County","state_id":"OH"},{"zip":"43567","fips":"39069","name":"Henry County","state_id":"OH"},{"zip":"43569","fips":"39173","name":"Wood County","state_id":"OH"},{"zip":"43570","fips":"39171","name":"Williams County","state_id":"OH"},{"zip":"43570","fips":"39051","name":"Fulton County","state_id":"OH"},{"zip":"43571","fips":"39095","name":"Lucas County","state_id":"OH"}]
