[{"zip":"43601","fips":"39095","name":"Lucas County","state_id":"OH"},{"zip":"43604","fips":"39095","name":"Lucas County","state_id":"OH"},{"zip":"43605","fips":"39173","name":"Wood County","state_id":"OH"},{"zip":"43605","fips":"39095","name":"Lucas County","state_id":"OH"},{"zip":"43606","fips":"39095","name":"Lucas County","state_id":"OH"},{"zip":"43607","fips":"39095","name":"Lucas County","state_id":"OH"},{"zip":"43608","fips":"39095","name":"Lucas County","state_id":"OH"},{"zip":"43609","fips":"39095","name":"Lucas County","state_id":"OH"},{"zip":"43610","fips":"39095","name":"Lucas County","state_id":"OH"},{"zip":"43611","fips":"39095","name":"Lucas County","state_id":"OH"},{"zip":"43612","fips":"39095","name":"Lucas County","state_id":"OH"},{"zip":"43613","fips":"39095","name":"Lucas County","state_id":"OH"},{"zip":"43614","fips":"39095","name":"Lucas County","state_id":"OH"},{"zip":"43615","fips":"39095","name":"Lucas County","state_id":"OH"},{"zip":"43616","fips":"39095","name":"Lucas County","state_id":"OH"},{"zip":"43617","fips":"39095","name":"Lucas County","state_id":"OH"},{"zip":"43619","fips":"39173","name":"Wood County","state_id":"OH"},{"zip":"43619","fips":"39095","name":"Lucas County","state_id":"OH"},{"zip":"43620","fips":"39095","name":"Lucas County","state_id":"OH"},{"zip":"43623","fips":"39095","name":"Lucas County","state_id":"OH"},{"zip":"43635","fips":"39095","name":"Lucas County","state_id":"OH"},{"zip":"43652","fips":"39095","name":"Lucas County","state_id":"OH"},{"zip":"43654","fips":"39173","name":"Wood County","state_id":"OH"},{"zip":"43656","fips":"39095","name":"Lucas County","state_id":"OH"},{"zip":"43657","fips":"39095","name":"Lucas County","state_id":"OH"},{"zip":"43659","fips":"39095","name":"Lucas County","state_id":"OH"},{"zip":"43660","fips":"39095","name":"Lucas County","state_id":"OH"},{"zip":"43661","fips":"39095","name":"Lucas County","state_id":"OH"},{"zip":"43666","fips":"39095","name":"Lucas County","state_id":"OH"},{"zip":"43667","fips":"39095","name":"Lucas County","state_id":"OH"}]
