[{"zip":"43701","fips":"39127","name":"Perry County","state_id":"OH"},{"zip":"43701","fips":"39119","name":"Muskingum County","state_id":"OH"},{"zip":"43702","fips":"39119","name":"Muskingum County","state_id":"OH"},{"zip":"43711","fips":"39121","name":"Noble County","state_id":"OH"},{"zip":"43713","fips":"39013","name":"Belmont County","state_id":"OH"},{"zip":"43713","fips":"39121","name":"Noble County","state_id":"OH"},{"zip":"43713","fips":"39059","name":"Guernsey County","state_id":"OH"},{"zip":"43716","fips":"39111","name":"Monroe County","state_id":"OH"},{"zip":"43716","fips":"39013","name":"Belmont County","state_id":"OH"},{"zip":"43717","fips":"39121","name":"Noble County","state_id":"OH"},{"zip":"43718","fips":"39013","name":"Belmont County","state_id":"OH"},{"zip":"43719","fips":"39013","name":"Belmont County","state_id":"OH"},{"zip":"43720","fips":"39115","name":"Morgan County","state_id":"OH"},{"zip":"43720","fips":"39119","name":"Muskingum County","state_id":"OH"},{"zip":"43721","fips":"39089","name":"Licking County","state_id":"OH"},{"zip":"43722","fips":"39059","name":"Guernsey County","state_id":"OH"},{"zip":"43723","fips":"39059","name":"Guernsey County","state_id":"OH"},{"zip":"43724","fips":"39121","name":"Noble County","state_id":"OH"},{"zip":"43724","fips":"39115","name":"Morgan County","state_id":"OH"},{"zip":"43725","fips":"39059","name":"Guernsey County","state_id":"OH"},{"zip":"43727","fips":"39119","name":"Muskingum County","state_id":"OH"},{"zip":"43728","fips":"39009","name":"Athens County","state_id":"OH"},{"zip":"43728","fips":"39115","name":"Morgan County","state_id":"OH"},{"zip":"43730","fips":"39115","name":"Morgan County","state_id":"OH"},{"zip":"43730","fips":"39127","name":"Perry County","state_id":"OH"},{"zip":"43731","fips":"39115","name":"Morgan County","state_id":"OH"},{"zip":"43731","fips":"39127","name":"Perry County","state_id":"OH"},{"zip":"43732","fips":"39121","name":"Noble County","state_id":"OH"},{"zip":"43732","fips":"39119","name":"Muskingum County","state_id":"OH"},{"zip":"43732","fips":"39059","name":"Guernsey County","state_id":"OH"},{"zip":"43733","fips":"39059","name":"Guernsey County","state_id":"OH"},{"zip":"43734","fips":"39119","name":"Muskingum County","state_id":"OH"},{"zip":"43735","fips":"39119","name":"Muskingum County","state_id":"OH"},{"zip":"43736","fips":"39059","name":"Guernsey County","state_id":"OH"},{"zip":"43738","fips":"39119","name":"Muskingum County","state_id":"OH"},{"zip":"43739","fips":"39089","name":"Licking County","state_id":"OH"},{"zip":"43739","fips":"39127","name":"Perry County","state_id":"OH"},{"zip":"43740","fips":"39089","name":"Licking County","state_id":"OH"},{"zip":"43746","fips":"39119","name":"Muskingum County","state_id":"OH"},{"zip":"43746","fips":"39089","name":"Licking County","state_id":"OH"},{"zip":"43747","fips":"39111","name":"Monroe County","state_id":"OH"},{"zip":"43747","fips":"39013","name":"Belmont County","state_id":"OH"},{"zip":"43748","fips":"39127","name":"Perry County","state_id":"OH"},{"zip":"43749","fips":"39059","name":"Guernsey County","state_id":"OH"},{"zip":"43749","fips":"39157","name":"Tuscarawas County","state_id":"OH"},{"zip":"43749","fips":"39031","name":"Coshocton County","state_id":"OH"},{"zip":"43750","fips":"39059","name":"Guernsey County","state_id":"OH"},{"zip":"43752","fips":"39111","name":"Monroe County","state_id":"OH"},{"zip":"43754","fips":"39111","name":"Monroe County","state_id":"OH"},{"zip":"43755","fips":"39059","name":"Guernsey County","state_id":"OH"},{"zip":"43756","fips":"39115","name":"Morgan County","state_id":"OH"},{"zip":"43756","fips":"39119","name":"Muskingum County","state_id":"OH"},{"zip":"43757","fips":"39111","name":"Monroe County","state_id":"OH"},{"zip":"43758","fips":"39115","name":"Morgan County","state_id":"OH"},{"zip":"43759","fips":"39013","name":"Belmont County","state_id":"OH"},{"zip":"43760","fips":"39127","name":"Perry County","state_id":"OH"},{"zip":"43760","fips":"39089","name":"Licking County","state_id":"OH"},{"zip":"43760","fips":"39119","name":"Muskingum County","state_id":"OH"},{"zip":"43761","fips":"39127","name":"Perry County","state_id":"OH"},{"zip":"43762","fips":"39059","name":"Guernsey County","state_id":"OH"},{"zip":"43762","fips":"39119","name":"Muskingum County","state_id":"OH"},{"zip":"43764","fips":"39127","name":"Perry County","state_id":"OH"},{"zip":"43766","fips":"39073","name":"Hocking County","state_id":"OH"},{"zip":"43766","fips":"39127","name":"Perry County","state_id":"OH"},{"zip":"43767","fips":"39119","name":"Muskingum County","state_id":"OH"},{"zip":"43768","fips":"39059","name":"Guernsey County","state_id":"OH"},{"zip":"43771","fips":"39119","name":"Muskingum County","state_id":"OH"},{"zip":"43772","fips":"39059","name":"Guernsey County","state_id":"OH"},{"zip":"43772","fips":"39121","name":"Noble County","state_id":"OH"},{"zip":"43773","fips":"39121","name":"Noble County","state_id":"OH"},{"zip":"43773","fips":"39111","name":"Monroe County","state_id":"OH"},{"zip":"43773","fips":"39059","name":"Guernsey County","state_id":"OH"},{"zip":"43773","fips":"39013","name":"Belmont County","state_id":"OH"},{"zip":"43777","fips":"39119","name":"Muskingum County","state_id":"OH"},{"zip":"43777","fips":"39115","name":"Morgan County","state_id":"OH"},{"zip":"43777","fips":"39127","name":"Perry County","state_id":"OH"},{"zip":"43778","fips":"39059","name":"Guernsey County","state_id":"OH"},{"zip":"43778","fips":"39121","name":"Noble County","state_id":"OH"},{"zip":"43779","fips":"39121","name":"Noble County","state_id":"OH"},{"zip":"43780","fips":"39121","name":"Noble County","state_id":"OH"},{"zip":"43780","fips":"39059","name":"Guernsey County","state_id":"OH"},{"zip":"43782","fips":"39127","name":"Perry County","state_id":"OH"},{"zip":"43783","fips":"39127","name":"Perry County","state_id":"OH"},{"zip":"43786","fips":"39111","name":"Monroe County","state_id":"OH"},{"zip":"43787","fips":"39167","name":"Washington County","state_id":"OH"},{"zip":"43787","fips":"39115","name":"Morgan County","state_id":"OH"},{"zip":"43788","fips":"39121","name":"Noble County","state_id":"OH"},{"zip":"43788","fips":"39111","name":"Monroe County","state_id":"OH"},{"zip":"43791","fips":"39119","name":"Muskingum County","state_id":"OH"},{"zip":"43793","fips":"39111","name":"Monroe County","state_id":"OH"}]
