[{"zip":"43802","fips":"39119","name":"Muskingum County","state_id":"OH"},{"zip":"43803","fips":"39031","name":"Coshocton County","state_id":"OH"},{"zip":"43804","fips":"39075","name":"Holmes County","state_id":"OH"},{"zip":"43804","fips":"39031","name":"Coshocton County","state_id":"OH"},{"zip":"43804","fips":"39157","name":"Tuscarawas County","state_id":"OH"},{"zip":"43805","fips":"39031","name":"Coshocton County","state_id":"OH"},{"zip":"43811","fips":"39031","name":"Coshocton County","state_id":"OH"},{"zip":"43811","fips":"39119","name":"Muskingum County","state_id":"OH"},{"zip":"43812","fips":"39031","name":"Coshocton County","state_id":"OH"},{"zip":"43821","fips":"39119","name":"Muskingum County","state_id":"OH"},{"zip":"43821","fips":"39031","name":"Coshocton County","state_id":"OH"},{"zip":"43822","fips":"39119","name":"Muskingum County","state_id":"OH"},{"zip":"43822","fips":"39089","name":"Licking County","state_id":"OH"},{"zip":"43822","fips":"39031","name":"Coshocton County","state_id":"OH"},{"zip":"43822","fips":"39083","name":"Knox County","state_id":"OH"},{"zip":"43824","fips":"39031","name":"Coshocton County","state_id":"OH"},{"zip":"43824","fips":"39157","name":"Tuscarawas County","state_id":"OH"},{"zip":"43828","fips":"39031","name":"Coshocton County","state_id":"OH"},{"zip":"43830","fips":"39119","name":"Muskingum County","state_id":"OH"},{"zip":"43830","fips":"39089","name":"Licking County","state_id":"OH"},{"zip":"43832","fips":"39059","name":"Guernsey County","state_id":"OH"},{"zip":"43832","fips":"39157","name":"Tuscarawas County","state_id":"OH"},{"zip":"43832","fips":"39031","name":"Coshocton County","state_id":"OH"},{"zip":"43836","fips":"39031","name":"Coshocton County","state_id":"OH"},{"zip":"43837","fips":"39157","name":"Tuscarawas County","state_id":"OH"},{"zip":"43837","fips":"39059","name":"Guernsey County","state_id":"OH"},{"zip":"43840","fips":"39031","name":"Coshocton County","state_id":"OH"},{"zip":"43840","fips":"39157","name":"Tuscarawas County","state_id":"OH"},{"zip":"43842","fips":"39119","name":"Muskingum County","state_id":"OH"},{"zip":"43843","fips":"39083","name":"Knox County","state_id":"OH"},{"zip":"43843","fips":"39031","name":"Coshocton County","state_id":"OH"},{"zip":"43844","fips":"39083","name":"Knox County","state_id":"OH"},{"zip":"43844","fips":"39031","name":"Coshocton County","state_id":"OH"},{"zip":"43845","fips":"39031","name":"Coshocton County","state_id":"OH"}]
