[{"zip":"43901","fips":"39067","name":"Harrison County","state_id":"OH"},{"zip":"43901","fips":"39081","name":"Jefferson County","state_id":"OH"},{"zip":"43901","fips":"39013","name":"Belmont County","state_id":"OH"},{"zip":"43902","fips":"39013","name":"Belmont County","state_id":"OH"},{"zip":"43903","fips":"39081","name":"Jefferson County","state_id":"OH"},{"zip":"43903","fips":"39019","name":"Carroll County","state_id":"OH"},{"zip":"43905","fips":"39013","name":"Belmont County","state_id":"OH"},{"zip":"43906","fips":"39013","name":"Belmont County","state_id":"OH"},{"zip":"43907","fips":"39081","name":"Jefferson County","state_id":"OH"},{"zip":"43907","fips":"39067","name":"Harrison County","state_id":"OH"},{"zip":"43908","fips":"39081","name":"Jefferson County","state_id":"OH"},{"zip":"43908","fips":"39019","name":"Carroll County","state_id":"OH"},{"zip":"43909","fips":"39013","name":"Belmont County","state_id":"OH"},{"zip":"43910","fips":"39081","name":"Jefferson County","state_id":"OH"},{"zip":"43910","fips":"39067","name":"Harrison County","state_id":"OH"},{"zip":"43912","fips":"39013","name":"Belmont County","state_id":"OH"},{"zip":"43913","fips":"39081","name":"Jefferson County","state_id":"OH"},{"zip":"43914","fips":"39111","name":"Monroe County","state_id":"OH"},{"zip":"43915","fips":"39111","name":"Monroe County","state_id":"OH"},{"zip":"43916","fips":"39013","name":"Belmont County","state_id":"OH"},{"zip":"43917","fips":"39081","name":"Jefferson County","state_id":"OH"},{"zip":"43917","fips":"39013","name":"Belmont County","state_id":"OH"},{"zip":"43920","fips":"39029","name":"Columbiana County","state_id":"OH"},{"zip":"43925","fips":"39081","name":"Jefferson County","state_id":"OH"},{"zip":"43926","fips":"39081","name":"Jefferson County","state_id":"OH"},{"zip":"43927","fips":"39013","name":"Belmont County","state_id":"OH"},{"zip":"43928","fips":"39013","name":"Belmont County","state_id":"OH"},{"zip":"43930","fips":"39081","name":"Jefferson County","state_id":"OH"},{"zip":"43930","fips":"39029","name":"Columbiana County","state_id":"OH"},{"zip":"43931","fips":"39111","name":"Monroe County","state_id":"OH"},{"zip":"43932","fips":"39081","name":"Jefferson County","state_id":"OH"},{"zip":"43932","fips":"39029","name":"Columbiana County","state_id":"OH"},{"zip":"43933","fips":"39013","name":"Belmont County","state_id":"OH"},{"zip":"43934","fips":"39013","name":"Belmont County","state_id":"OH"},{"zip":"43935","fips":"39013","name":"Belmont County","state_id":"OH"},{"zip":"43937","fips":"39013","name":"Belmont County","state_id":"OH"},{"zip":"43938","fips":"39081","name":"Jefferson County","state_id":"OH"},{"zip":"43939","fips":"39081","name":"Jefferson County","state_id":"OH"},{"zip":"43940","fips":"39013","name":"Belmont County","state_id":"OH"},{"zip":"43941","fips":"39081","name":"Jefferson County","state_id":"OH"},{"zip":"43942","fips":"39013","name":"Belmont County","state_id":"OH"},{"zip":"43942","fips":"39111","name":"Monroe County","state_id":"OH"},{"zip":"43943","fips":"39013","name":"Belmont County","state_id":"OH"},{"zip":"43943","fips":"39081","name":"Jefferson County","state_id":"OH"},{"zip":"43944","fips":"39081","name":"Jefferson County","state_id":"OH"},{"zip":"43945","fips":"39029","name":"Columbiana County","state_id":"OH"},{"zip":"43945","fips":"39019","name":"Carroll County","state_id":"OH"},{"zip":"43945","fips":"39081","name":"Jefferson County","state_id":"OH"},{"zip":"43946","fips":"39111","name":"Monroe County","state_id":"OH"},{"zip":"43947","fips":"39013","name":"Belmont County","state_id":"OH"},{"zip":"43948","fips":"39081","name":"Jefferson County","state_id":"OH"},{"zip":"43950","fips":"39067","name":"Harrison County","state_id":"OH"},{"zip":"43950","fips":"39013","name":"Belmont County","state_id":"OH"},{"zip":"43951","fips":"39013","name":"Belmont County","state_id":"OH"},{"zip":"43952","fips":"39081","name":"Jefferson County","state_id":"OH"},{"zip":"43953","fips":"39081","name":"Jefferson County","state_id":"OH"},{"zip":"43961","fips":"39081","name":"Jefferson County","state_id":"OH"},{"zip":"43962","fips":"39029","name":"Columbiana County","state_id":"OH"},{"zip":"43963","fips":"39081","name":"Jefferson County","state_id":"OH"},{"zip":"43964","fips":"39081","name":"Jefferson County","state_id":"OH"},{"zip":"43967","fips":"39013","name":"Belmont County","state_id":"OH"},{"zip":"43968","fips":"39029","name":"Columbiana County","state_id":"OH"},{"zip":"43970","fips":"39081","name":"Jefferson County","state_id":"OH"},{"zip":"43971","fips":"39013","name":"Belmont County","state_id":"OH"},{"zip":"43971","fips":"39081","name":"Jefferson County","state_id":"OH"},{"zip":"43972","fips":"39013","name":"Belmont County","state_id":"OH"},{"zip":"43973","fips":"39013","name":"Belmont County","state_id":"OH"},{"zip":"43973","fips":"39059","name":"Guernsey County","state_id":"OH"},{"zip":"43973","fips":"39157","name":"Tuscarawas County","state_id":"OH"},{"zip":"43973","fips":"39067","name":"Harrison County","state_id":"OH"},{"zip":"43974","fips":"39067","name":"Harrison County","state_id":"OH"},{"zip":"43976","fips":"39067","name":"Harrison County","state_id":"OH"},{"zip":"43977","fips":"39013","name":"Belmont County","state_id":"OH"},{"zip":"43977","fips":"39067","name":"Harrison County","state_id":"OH"},{"zip":"43981","fips":"39067","name":"Harrison County","state_id":"OH"},{"zip":"43983","fips":"39013","name":"Belmont County","state_id":"OH"},{"zip":"43983","fips":"39059","name":"Guernsey County","state_id":"OH"},{"zip":"43983","fips":"39067","name":"Harrison County","state_id":"OH"},{"zip":"43984","fips":"39067","name":"Harrison County","state_id":"OH"},{"zip":"43985","fips":"39013","name":"Belmont County","state_id":"OH"},{"zip":"43986","fips":"39067","name":"Harrison County","state_id":"OH"},{"zip":"43986","fips":"39019","name":"Carroll County","state_id":"OH"},{"zip":"43986","fips":"39081","name":"Jefferson County","state_id":"OH"},{"zip":"43988","fips":"39067","name":"Harrison County","state_id":"OH"},{"zip":"43988","fips":"39019","name":"Carroll County","state_id":"OH"}]
