[{"zip":"44001","fips":"39093","name":"Lorain County","state_id":"OH"},{"zip":"44003","fips":"39007","name":"Ashtabula County","state_id":"OH"},{"zip":"44004","fips":"39007","name":"Ashtabula County","state_id":"OH"},{"zip":"44010","fips":"39007","name":"Ashtabula County","state_id":"OH"},{"zip":"44011","fips":"39093","name":"Lorain County","state_id":"OH"},{"zip":"44012","fips":"39093","name":"Lorain County","state_id":"OH"},{"zip":"44017","fips":"39035","name":"Cuyahoga County","state_id":"OH"},{"zip":"44021","fips":"39055","name":"Geauga County","state_id":"OH"},{"zip":"44022","fips":"39055","name":"Geauga County","state_id":"OH"},{"zip":"44022","fips":"39035","name":"Cuyahoga County","state_id":"OH"},{"zip":"44023","fips":"39035","name":"Cuyahoga County","state_id":"OH"},{"zip":"44023","fips":"39055","name":"Geauga County","state_id":"OH"},{"zip":"44024","fips":"39085","name":"Lake County","state_id":"OH"},{"zip":"44024","fips":"39055","name":"Geauga County","state_id":"OH"},{"zip":"44026","fips":"39055","name":"Geauga County","state_id":"OH"},{"zip":"44026","fips":"39035","name":"Cuyahoga County","state_id":"OH"},{"zip":"44028","fips":"39093","name":"Lorain County","state_id":"OH"},{"zip":"44028","fips":"39103","name":"Medina County","state_id":"OH"},{"zip":"44030","fips":"39007","name":"Ashtabula County","state_id":"OH"},{"zip":"44032","fips":"39007","name":"Ashtabula County","state_id":"OH"},{"zip":"44033","fips":"39055","name":"Geauga County","state_id":"OH"},{"zip":"44035","fips":"39093","name":"Lorain County","state_id":"OH"},{"zip":"44036","fips":"39093","name":"Lorain County","state_id":"OH"},{"zip":"44039","fips":"39093","name":"Lorain County","state_id":"OH"},{"zip":"44040","fips":"39035","name":"Cuyahoga County","state_id":"OH"},{"zip":"44040","fips":"39055","name":"Geauga County","state_id":"OH"},{"zip":"44041","fips":"39085","name":"Lake County","state_id":"OH"},{"zip":"44041","fips":"39007","name":"Ashtabula County","state_id":"OH"},{"zip":"44044","fips":"39103","name":"Medina County","state_id":"OH"},{"zip":"44044","fips":"39093","name":"Lorain County","state_id":"OH"},{"zip":"44045","fips":"39085","name":"Lake County","state_id":"OH"},{"zip":"44046","fips":"39055","name":"Geauga County","state_id":"OH"},{"zip":"44046","fips":"39007","name":"Ashtabula County","state_id":"OH"},{"zip":"44047","fips":"39007","name":"Ashtabula County","state_id":"OH"},{"zip":"44048","fips":"39007","name":"Ashtabula County","state_id":"OH"},{"zip":"44049","fips":"39093","name":"Lorain County","state_id":"OH"},{"zip":"44050","fips":"39093","name":"Lorain County","state_id":"OH"},{"zip":"44052","fips":"39093","name":"Lorain County","state_id":"OH"},{"zip":"44053","fips":"39093","name":"Lorain County","state_id":"OH"},{"zip":"44054","fips":"39093","name":"Lorain County","state_id":"OH"},{"zip":"44055","fips":"39093","name":"Lorain County","state_id":"OH"},{"zip":"44056","fips":"39153","name":"Summit County","state_id":"OH"},{"zip":"44057","fips":"39055","name":"Geauga County","state_id":"OH"},{"zip":"44057","fips":"39085","name":"Lake County","state_id":"OH"},{"zip":"44057","fips":"39007","name":"Ashtabula County","state_id":"OH"},{"zip":"44060","fips":"39085","name":"Lake County","state_id":"OH"},{"zip":"44060","fips":"39055","name":"Geauga County","state_id":"OH"},{"zip":"44061","fips":"39085","name":"Lake County","state_id":"OH"},{"zip":"44062","fips":"39007","name":"Ashtabula County","state_id":"OH"},{"zip":"44062","fips":"39055","name":"Geauga County","state_id":"OH"},{"zip":"44062","fips":"39155","name":"Trumbull County","state_id":"OH"},{"zip":"44064","fips":"39055","name":"Geauga County","state_id":"OH"},{"zip":"44064","fips":"39007","name":"Ashtabula County","state_id":"OH"},{"zip":"44065","fips":"39055","name":"Geauga County","state_id":"OH"},{"zip":"44067","fips":"39153","name":"Summit County","state_id":"OH"},{"zip":"44068","fips":"39007","name":"Ashtabula County","state_id":"OH"},{"zip":"44070","fips":"39035","name":"Cuyahoga County","state_id":"OH"},{"zip":"44072","fips":"39055","name":"Geauga County","state_id":"OH"},{"zip":"44073","fips":"39055","name":"Geauga County","state_id":"OH"},{"zip":"44074","fips":"39093","name":"Lorain County","state_id":"OH"},{"zip":"44076","fips":"39155","name":"Trumbull County","state_id":"OH"},{"zip":"44076","fips":"39007","name":"Ashtabula County","state_id":"OH"},{"zip":"44077","fips":"39055","name":"Geauga County","state_id":"OH"},{"zip":"44077","fips":"39085","name":"Lake County","state_id":"OH"},{"zip":"44080","fips":"39055","name":"Geauga County","state_id":"OH"},{"zip":"44081","fips":"39085","name":"Lake County","state_id":"OH"},{"zip":"44082","fips":"39007","name":"Ashtabula County","state_id":"OH"},{"zip":"44084","fips":"39007","name":"Ashtabula County","state_id":"OH"},{"zip":"44085","fips":"39007","name":"Ashtabula County","state_id":"OH"},{"zip":"44086","fips":"39055","name":"Geauga County","state_id":"OH"},{"zip":"44086","fips":"39085","name":"Lake County","state_id":"OH"},{"zip":"44086","fips":"39007","name":"Ashtabula County","state_id":"OH"},{"zip":"44087","fips":"39153","name":"Summit County","state_id":"OH"},{"zip":"44088","fips":"39007","name":"Ashtabula County","state_id":"OH"},{"zip":"44089","fips":"39043","name":"Erie County","state_id":"OH"},{"zip":"44089","fips":"39093","name":"Lorain County","state_id":"OH"},{"zip":"44090","fips":"39093","name":"Lorain County","state_id":"OH"},{"zip":"44090","fips":"39103","name":"Medina County","state_id":"OH"},{"zip":"44092","fips":"39035","name":"Cuyahoga County","state_id":"OH"},{"zip":"44092","fips":"39085","name":"Lake County","state_id":"OH"},{"zip":"44093","fips":"39007","name":"Ashtabula County","state_id":"OH"},{"zip":"44093","fips":"39155","name":"Trumbull County","state_id":"OH"},{"zip":"44094","fips":"39055","name":"Geauga County","state_id":"OH"},{"zip":"44094","fips":"39085","name":"Lake County","state_id":"OH"},{"zip":"44095","fips":"39085","name":"Lake County","state_id":"OH"},{"zip":"44096","fips":"39085","name":"Lake County","state_id":"OH"},{"zip":"44099","fips":"39007","name":"Ashtabula County","state_id":"OH"},{"zip":"44099","fips":"39055","name":"Geauga County","state_id":"OH"}]
