[{"zip":"44101","fips":"39035","name":"Cuyahoga County","state_id":"OH"},{"zip":"44102","fips":"39035","name":"Cuyahoga County","state_id":"OH"},{"zip":"44103","fips":"39035","name":"Cuyahoga County","state_id":"OH"},{"zip":"44104","fips":"39035","name":"Cuyahoga County","state_id":"OH"},{"zip":"44105","fips":"39035","name":"Cuyahoga County","state_id":"OH"},{"zip":"44106","fips":"39035","name":"Cuyahoga County","state_id":"OH"},{"zip":"44107","fips":"39035","name":"Cuyahoga County","state_id":"OH"},{"zip":"44108","fips":"39035","name":"Cuyahoga County","state_id":"OH"},{"zip":"44109","fips":"39035","name":"Cuyahoga County","state_id":"OH"},{"zip":"44110","fips":"39035","name":"Cuyahoga County","state_id":"OH"},{"zip":"44111","fips":"39035","name":"Cuyahoga County","state_id":"OH"},{"zip":"44112","fips":"39035","name":"Cuyahoga County","state_id":"OH"},{"zip":"44113","fips":"39035","name":"Cuyahoga County","state_id":"OH"},{"zip":"44114","fips":"39035","name":"Cuyahoga County","state_id":"OH"},{"zip":"44115","fips":"39035","name":"Cuyahoga County","state_id":"OH"},{"zip":"44116","fips":"39035","name":"Cuyahoga County","state_id":"OH"},{"zip":"44117","fips":"39035","name":"Cuyahoga County","state_id":"OH"},{"zip":"44118","fips":"39035","name":"Cuyahoga County","state_id":"OH"},{"zip":"44119","fips":"39035","name":"Cuyahoga County","state_id":"OH"},{"zip":"44120","fips":"39035","name":"Cuyahoga County","state_id":"OH"},{"zip":"44121","fips":"39035","name":"Cuyahoga County","state_id":"OH"},{"zip":"44122","fips":"39035","name":"Cuyahoga County","state_id":"OH"},{"zip":"44123","fips":"39035","name":"Cuyahoga County","state_id":"OH"},{"zip":"44124","fips":"39035","name":"Cuyahoga County","state_id":"OH"},{"zip":"44125","fips":"39035","name":"Cuyahoga County","state_id":"OH"},{"zip":"44126","fips":"39035","name":"Cuyahoga County","state_id":"OH"},{"zip":"44127","fips":"39035","name":"Cuyahoga County","state_id":"OH"},{"zip":"44128","fips":"39035","name":"Cuyahoga County","state_id":"OH"},{"zip":"44129","fips":"39035","name":"Cuyahoga County","state_id":"OH"},{"zip":"44130","fips":"39035","name":"Cuyahoga County","state_id":"OH"},{"zip":"44131","fips":"39035","name":"Cuyahoga County","state_id":"OH"},{"zip":"44132","fips":"39035","name":"Cuyahoga County","state_id":"OH"},{"zip":"44133","fips":"39035","name":"Cuyahoga County","state_id":"OH"},{"zip":"44134","fips":"39035","name":"Cuyahoga County","state_id":"OH"},{"zip":"44135","fips":"39035","name":"Cuyahoga County","state_id":"OH"},{"zip":"44136","fips":"39103","name":"Medina County","state_id":"OH"},{"zip":"44136","fips":"39035","name":"Cuyahoga County","state_id":"OH"},{"zip":"44137","fips":"39035","name":"Cuyahoga County","state_id":"OH"},{"zip":"44138","fips":"39035","name":"Cuyahoga County","state_id":"OH"},{"zip":"44139","fips":"39035","name":"Cuyahoga County","state_id":"OH"},{"zip":"44140","fips":"39035","name":"Cuyahoga County","state_id":"OH"},{"zip":"44141","fips":"39153","name":"Summit County","state_id":"OH"},{"zip":"44141","fips":"39035","name":"Cuyahoga County","state_id":"OH"},{"zip":"44142","fips":"39035","name":"Cuyahoga County","state_id":"OH"},{"zip":"44143","fips":"39035","name":"Cuyahoga County","state_id":"OH"},{"zip":"44144","fips":"39035","name":"Cuyahoga County","state_id":"OH"},{"zip":"44145","fips":"39035","name":"Cuyahoga County","state_id":"OH"},{"zip":"44146","fips":"39035","name":"Cuyahoga County","state_id":"OH"},{"zip":"44147","fips":"39035","name":"Cuyahoga County","state_id":"OH"},{"zip":"44149","fips":"39103","name":"Medina County","state_id":"OH"},{"zip":"44149","fips":"39035","name":"Cuyahoga County","state_id":"OH"},{"zip":"44181","fips":"39035","name":"Cuyahoga County","state_id":"OH"},{"zip":"44195","fips":"39035","name":"Cuyahoga County","state_id":"OH"},{"zip":"44199","fips":"39035","name":"Cuyahoga County","state_id":"OH"}]
