[{"zip":"44201","fips":"39151","name":"Stark County","state_id":"OH"},{"zip":"44201","fips":"39133","name":"Portage County","state_id":"OH"},{"zip":"44202","fips":"39133","name":"Portage County","state_id":"OH"},{"zip":"44202","fips":"39055","name":"Geauga County","state_id":"OH"},{"zip":"44202","fips":"39153","name":"Summit County","state_id":"OH"},{"zip":"44203","fips":"39169","name":"Wayne County","state_id":"OH"},{"zip":"44203","fips":"39103","name":"Medina County","state_id":"OH"},{"zip":"44203","fips":"39153","name":"Summit County","state_id":"OH"},{"zip":"44210","fips":"39153","name":"Summit County","state_id":"OH"},{"zip":"44211","fips":"39133","name":"Portage County","state_id":"OH"},{"zip":"44212","fips":"39103","name":"Medina County","state_id":"OH"},{"zip":"44214","fips":"39169","name":"Wayne County","state_id":"OH"},{"zip":"44214","fips":"39103","name":"Medina County","state_id":"OH"},{"zip":"44215","fips":"39103","name":"Medina County","state_id":"OH"},{"zip":"44216","fips":"39169","name":"Wayne County","state_id":"OH"},{"zip":"44216","fips":"39153","name":"Summit County","state_id":"OH"},{"zip":"44216","fips":"39151","name":"Stark County","state_id":"OH"},{"zip":"44217","fips":"39103","name":"Medina County","state_id":"OH"},{"zip":"44217","fips":"39169","name":"Wayne County","state_id":"OH"},{"zip":"44221","fips":"39153","name":"Summit County","state_id":"OH"},{"zip":"44222","fips":"39153","name":"Summit County","state_id":"OH"},{"zip":"44223","fips":"39153","name":"Summit County","state_id":"OH"},{"zip":"44224","fips":"39153","name":"Summit County","state_id":"OH"},{"zip":"44224","fips":"39133","name":"Portage County","state_id":"OH"},{"zip":"44230","fips":"39103","name":"Medina County","state_id":"OH"},{"zip":"44230","fips":"39153","name":"Summit County","state_id":"OH"},{"zip":"44230","fips":"39169","name":"Wayne County","state_id":"OH"},{"zip":"44231","fips":"39155","name":"Trumbull County","state_id":"OH"},{"zip":"44231","fips":"39055","name":"Geauga County","state_id":"OH"},{"zip":"44231","fips":"39133","name":"Portage County","state_id":"OH"},{"zip":"44232","fips":"39153","name":"Summit County","state_id":"OH"},{"zip":"44233","fips":"39103","name":"Medina County","state_id":"OH"},{"zip":"44233","fips":"39035","name":"Cuyahoga County","state_id":"OH"},{"zip":"44234","fips":"39133","name":"Portage County","state_id":"OH"},{"zip":"44234","fips":"39055","name":"Geauga County","state_id":"OH"},{"zip":"44235","fips":"39005","name":"Ashland County","state_id":"OH"},{"zip":"44235","fips":"39103","name":"Medina County","state_id":"OH"},{"zip":"44236","fips":"39133","name":"Portage County","state_id":"OH"},{"zip":"44236","fips":"39153","name":"Summit County","state_id":"OH"},{"zip":"44237","fips":"39153","name":"Summit County","state_id":"OH"},{"zip":"44240","fips":"39153","name":"Summit County","state_id":"OH"},{"zip":"44240","fips":"39133","name":"Portage County","state_id":"OH"},{"zip":"44241","fips":"39133","name":"Portage County","state_id":"OH"},{"zip":"44242","fips":"39133","name":"Portage County","state_id":"OH"},{"zip":"44243","fips":"39133","name":"Portage County","state_id":"OH"},{"zip":"44250","fips":"39153","name":"Summit County","state_id":"OH"},{"zip":"44251","fips":"39103","name":"Medina County","state_id":"OH"},{"zip":"44253","fips":"39093","name":"Lorain County","state_id":"OH"},{"zip":"44253","fips":"39103","name":"Medina County","state_id":"OH"},{"zip":"44254","fips":"39103","name":"Medina County","state_id":"OH"},{"zip":"44255","fips":"39133","name":"Portage County","state_id":"OH"},{"zip":"44256","fips":"39103","name":"Medina County","state_id":"OH"},{"zip":"44256","fips":"39093","name":"Lorain County","state_id":"OH"},{"zip":"44256","fips":"39153","name":"Summit County","state_id":"OH"},{"zip":"44258","fips":"39103","name":"Medina County","state_id":"OH"},{"zip":"44260","fips":"39133","name":"Portage County","state_id":"OH"},{"zip":"44260","fips":"39153","name":"Summit County","state_id":"OH"},{"zip":"44260","fips":"39151","name":"Stark County","state_id":"OH"},{"zip":"44262","fips":"39153","name":"Summit County","state_id":"OH"},{"zip":"44264","fips":"39153","name":"Summit County","state_id":"OH"},{"zip":"44265","fips":"39133","name":"Portage County","state_id":"OH"},{"zip":"44266","fips":"39133","name":"Portage County","state_id":"OH"},{"zip":"44270","fips":"39169","name":"Wayne County","state_id":"OH"},{"zip":"44270","fips":"39103","name":"Medina County","state_id":"OH"},{"zip":"44272","fips":"39133","name":"Portage County","state_id":"OH"},{"zip":"44273","fips":"39103","name":"Medina County","state_id":"OH"},{"zip":"44273","fips":"39169","name":"Wayne County","state_id":"OH"},{"zip":"44274","fips":"39103","name":"Medina County","state_id":"OH"},{"zip":"44275","fips":"39093","name":"Lorain County","state_id":"OH"},{"zip":"44275","fips":"39103","name":"Medina County","state_id":"OH"},{"zip":"44276","fips":"39169","name":"Wayne County","state_id":"OH"},{"zip":"44278","fips":"39133","name":"Portage County","state_id":"OH"},{"zip":"44278","fips":"39153","name":"Summit County","state_id":"OH"},{"zip":"44280","fips":"39103","name":"Medina County","state_id":"OH"},{"zip":"44280","fips":"39093","name":"Lorain County","state_id":"OH"},{"zip":"44281","fips":"39153","name":"Summit County","state_id":"OH"},{"zip":"44281","fips":"39103","name":"Medina County","state_id":"OH"},{"zip":"44281","fips":"39169","name":"Wayne County","state_id":"OH"},{"zip":"44285","fips":"39133","name":"Portage County","state_id":"OH"},{"zip":"44286","fips":"39153","name":"Summit County","state_id":"OH"},{"zip":"44287","fips":"39169","name":"Wayne County","state_id":"OH"},{"zip":"44287","fips":"39103","name":"Medina County","state_id":"OH"},{"zip":"44287","fips":"39005","name":"Ashland County","state_id":"OH"},{"zip":"44288","fips":"39133","name":"Portage County","state_id":"OH"},{"zip":"44288","fips":"39155","name":"Trumbull County","state_id":"OH"}]
