[{"zip":"44301","fips":"39153","name":"Summit County","state_id":"OH"},{"zip":"44302","fips":"39153","name":"Summit County","state_id":"OH"},{"zip":"44303","fips":"39153","name":"Summit County","state_id":"OH"},{"zip":"44304","fips":"39153","name":"Summit County","state_id":"OH"},{"zip":"44305","fips":"39153","name":"Summit County","state_id":"OH"},{"zip":"44306","fips":"39153","name":"Summit County","state_id":"OH"},{"zip":"44307","fips":"39153","name":"Summit County","state_id":"OH"},{"zip":"44308","fips":"39153","name":"Summit County","state_id":"OH"},{"zip":"44309","fips":"39153","name":"Summit County","state_id":"OH"},{"zip":"44310","fips":"39153","name":"Summit County","state_id":"OH"},{"zip":"44311","fips":"39153","name":"Summit County","state_id":"OH"},{"zip":"44312","fips":"39153","name":"Summit County","state_id":"OH"},{"zip":"44312","fips":"39133","name":"Portage County","state_id":"OH"},{"zip":"44313","fips":"39153","name":"Summit County","state_id":"OH"},{"zip":"44314","fips":"39153","name":"Summit County","state_id":"OH"},{"zip":"44315","fips":"39153","name":"Summit County","state_id":"OH"},{"zip":"44316","fips":"39153","name":"Summit County","state_id":"OH"},{"zip":"44317","fips":"39153","name":"Summit County","state_id":"OH"},{"zip":"44319","fips":"39153","name":"Summit County","state_id":"OH"},{"zip":"44320","fips":"39153","name":"Summit County","state_id":"OH"},{"zip":"44321","fips":"39153","name":"Summit County","state_id":"OH"},{"zip":"44321","fips":"39103","name":"Medina County","state_id":"OH"},{"zip":"44325","fips":"39153","name":"Summit County","state_id":"OH"},{"zip":"44326","fips":"39153","name":"Summit County","state_id":"OH"},{"zip":"44328","fips":"39153","name":"Summit County","state_id":"OH"},{"zip":"44333","fips":"39103","name":"Medina County","state_id":"OH"},{"zip":"44333","fips":"39153","name":"Summit County","state_id":"OH"},{"zip":"44334","fips":"39153","name":"Summit County","state_id":"OH"},{"zip":"44396","fips":"39153","name":"Summit County","state_id":"OH"}]
