[{"zip":"44401","fips":"39099","name":"Mahoning County","state_id":"OH"},{"zip":"44402","fips":"39155","name":"Trumbull County","state_id":"OH"},{"zip":"44403","fips":"39155","name":"Trumbull County","state_id":"OH"},{"zip":"44404","fips":"39155","name":"Trumbull County","state_id":"OH"},{"zip":"44405","fips":"39099","name":"Mahoning County","state_id":"OH"},{"zip":"44406","fips":"39099","name":"Mahoning County","state_id":"OH"},{"zip":"44408","fips":"39099","name":"Mahoning County","state_id":"OH"},{"zip":"44408","fips":"39029","name":"Columbiana County","state_id":"OH"},{"zip":"44410","fips":"39155","name":"Trumbull County","state_id":"OH"},{"zip":"44411","fips":"39133","name":"Portage County","state_id":"OH"},{"zip":"44412","fips":"39133","name":"Portage County","state_id":"OH"},{"zip":"44412","fips":"39099","name":"Mahoning County","state_id":"OH"},{"zip":"44413","fips":"39029","name":"Columbiana County","state_id":"OH"},{"zip":"44415","fips":"39029","name":"Columbiana County","state_id":"OH"},{"zip":"44416","fips":"39099","name":"Mahoning County","state_id":"OH"},{"zip":"44417","fips":"39155","name":"Trumbull County","state_id":"OH"},{"zip":"44418","fips":"39155","name":"Trumbull County","state_id":"OH"},{"zip":"44420","fips":"39155","name":"Trumbull County","state_id":"OH"},{"zip":"44422","fips":"39099","name":"Mahoning County","state_id":"OH"},{"zip":"44423","fips":"39029","name":"Columbiana County","state_id":"OH"},{"zip":"44424","fips":"39155","name":"Trumbull County","state_id":"OH"},{"zip":"44425","fips":"39099","name":"Mahoning County","state_id":"OH"},{"zip":"44425","fips":"39155","name":"Trumbull County","state_id":"OH"},{"zip":"44427","fips":"39019","name":"Carroll County","state_id":"OH"},{"zip":"44427","fips":"39029","name":"Columbiana County","state_id":"OH"},{"zip":"44428","fips":"39155","name":"Trumbull County","state_id":"OH"},{"zip":"44428","fips":"39007","name":"Ashtabula County","state_id":"OH"},{"zip":"44429","fips":"39133","name":"Portage County","state_id":"OH"},{"zip":"44429","fips":"39099","name":"Mahoning County","state_id":"OH"},{"zip":"44430","fips":"39155","name":"Trumbull County","state_id":"OH"},{"zip":"44431","fips":"39029","name":"Columbiana County","state_id":"OH"},{"zip":"44432","fips":"39029","name":"Columbiana County","state_id":"OH"},{"zip":"44436","fips":"39099","name":"Mahoning County","state_id":"OH"},{"zip":"44437","fips":"39099","name":"Mahoning County","state_id":"OH"},{"zip":"44437","fips":"39155","name":"Trumbull County","state_id":"OH"},{"zip":"44438","fips":"39155","name":"Trumbull County","state_id":"OH"},{"zip":"44439","fips":"39155","name":"Trumbull County","state_id":"OH"},{"zip":"44440","fips":"39155","name":"Trumbull County","state_id":"OH"},{"zip":"44440","fips":"39099","name":"Mahoning County","state_id":"OH"},{"zip":"44441","fips":"39029","name":"Columbiana County","state_id":"OH"},{"zip":"44442","fips":"39099","name":"Mahoning County","state_id":"OH"},{"zip":"44443","fips":"39099","name":"Mahoning County","state_id":"OH"},{"zip":"44443","fips":"39029","name":"Columbiana County","state_id":"OH"},{"zip":"44444","fips":"39155","name":"Trumbull County","state_id":"OH"},{"zip":"44444","fips":"39099","name":"Mahoning County","state_id":"OH"},{"zip":"44444","fips":"39133","name":"Portage County","state_id":"OH"},{"zip":"44445","fips":"39029","name":"Columbiana County","state_id":"OH"},{"zip":"44446","fips":"39155","name":"Trumbull County","state_id":"OH"},{"zip":"44449","fips":"39099","name":"Mahoning County","state_id":"OH"},{"zip":"44449","fips":"39133","name":"Portage County","state_id":"OH"},{"zip":"44450","fips":"39155","name":"Trumbull County","state_id":"OH"},{"zip":"44451","fips":"39099","name":"Mahoning County","state_id":"OH"},{"zip":"44452","fips":"39099","name":"Mahoning County","state_id":"OH"},{"zip":"44453","fips":"39155","name":"Trumbull County","state_id":"OH"},{"zip":"44454","fips":"39099","name":"Mahoning County","state_id":"OH"},{"zip":"44454","fips":"39029","name":"Columbiana County","state_id":"OH"},{"zip":"44455","fips":"39029","name":"Columbiana County","state_id":"OH"},{"zip":"44460","fips":"39099","name":"Mahoning County","state_id":"OH"},{"zip":"44460","fips":"39029","name":"Columbiana County","state_id":"OH"},{"zip":"44470","fips":"39155","name":"Trumbull County","state_id":"OH"},{"zip":"44470","fips":"39133","name":"Portage County","state_id":"OH"},{"zip":"44471","fips":"39099","name":"Mahoning County","state_id":"OH"},{"zip":"44473","fips":"39155","name":"Trumbull County","state_id":"OH"},{"zip":"44481","fips":"39099","name":"Mahoning County","state_id":"OH"},{"zip":"44481","fips":"39155","name":"Trumbull County","state_id":"OH"},{"zip":"44483","fips":"39155","name":"Trumbull County","state_id":"OH"},{"zip":"44484","fips":"39155","name":"Trumbull County","state_id":"OH"},{"zip":"44485","fips":"39155","name":"Trumbull County","state_id":"OH"},{"zip":"44490","fips":"39099","name":"Mahoning County","state_id":"OH"},{"zip":"44490","fips":"39029","name":"Columbiana County","state_id":"OH"},{"zip":"44491","fips":"39133","name":"Portage County","state_id":"OH"},{"zip":"44491","fips":"39155","name":"Trumbull County","state_id":"OH"},{"zip":"44491","fips":"39055","name":"Geauga County","state_id":"OH"},{"zip":"44492","fips":"39029","name":"Columbiana County","state_id":"OH"},{"zip":"44493","fips":"39029","name":"Columbiana County","state_id":"OH"}]
