[{"zip":"44501","fips":"39099","name":"Mahoning County","state_id":"OH"},{"zip":"44502","fips":"39099","name":"Mahoning County","state_id":"OH"},{"zip":"44503","fips":"39099","name":"Mahoning County","state_id":"OH"},{"zip":"44504","fips":"39155","name":"Trumbull County","state_id":"OH"},{"zip":"44504","fips":"39099","name":"Mahoning County","state_id":"OH"},{"zip":"44505","fips":"39155","name":"Trumbull County","state_id":"OH"},{"zip":"44505","fips":"39099","name":"Mahoning County","state_id":"OH"},{"zip":"44506","fips":"39099","name":"Mahoning County","state_id":"OH"},{"zip":"44507","fips":"39099","name":"Mahoning County","state_id":"OH"},{"zip":"44509","fips":"39099","name":"Mahoning County","state_id":"OH"},{"zip":"44510","fips":"39099","name":"Mahoning County","state_id":"OH"},{"zip":"44511","fips":"39099","name":"Mahoning County","state_id":"OH"},{"zip":"44512","fips":"39099","name":"Mahoning County","state_id":"OH"},{"zip":"44513","fips":"39099","name":"Mahoning County","state_id":"OH"},{"zip":"44514","fips":"39099","name":"Mahoning County","state_id":"OH"},{"zip":"44515","fips":"39099","name":"Mahoning County","state_id":"OH"},{"zip":"44555","fips":"39099","name":"Mahoning County","state_id":"OH"}]
