[{"zip":"44601","fips":"39099","name":"Mahoning County","state_id":"OH"},{"zip":"44601","fips":"39133","name":"Portage County","state_id":"OH"},{"zip":"44601","fips":"39151","name":"Stark County","state_id":"OH"},{"zip":"44601","fips":"39029","name":"Columbiana County","state_id":"OH"},{"zip":"44606","fips":"39169","name":"Wayne County","state_id":"OH"},{"zip":"44607","fips":"39019","name":"Carroll County","state_id":"OH"},{"zip":"44608","fips":"39157","name":"Tuscarawas County","state_id":"OH"},{"zip":"44608","fips":"39151","name":"Stark County","state_id":"OH"},{"zip":"44609","fips":"39099","name":"Mahoning County","state_id":"OH"},{"zip":"44609","fips":"39029","name":"Columbiana County","state_id":"OH"},{"zip":"44610","fips":"39075","name":"Holmes County","state_id":"OH"},{"zip":"44611","fips":"39169","name":"Wayne County","state_id":"OH"},{"zip":"44611","fips":"39075","name":"Holmes County","state_id":"OH"},{"zip":"44612","fips":"39157","name":"Tuscarawas County","state_id":"OH"},{"zip":"44612","fips":"39151","name":"Stark County","state_id":"OH"},{"zip":"44613","fips":"39151","name":"Stark County","state_id":"OH"},{"zip":"44614","fips":"39169","name":"Wayne County","state_id":"OH"},{"zip":"44614","fips":"39151","name":"Stark County","state_id":"OH"},{"zip":"44614","fips":"39153","name":"Summit County","state_id":"OH"},{"zip":"44615","fips":"39019","name":"Carroll County","state_id":"OH"},{"zip":"44617","fips":"39075","name":"Holmes County","state_id":"OH"},{"zip":"44618","fips":"39151","name":"Stark County","state_id":"OH"},{"zip":"44618","fips":"39169","name":"Wayne County","state_id":"OH"},{"zip":"44619","fips":"39099","name":"Mahoning County","state_id":"OH"},{"zip":"44620","fips":"39019","name":"Carroll County","state_id":"OH"},{"zip":"44621","fips":"39067","name":"Harrison County","state_id":"OH"},{"zip":"44621","fips":"39019","name":"Carroll County","state_id":"OH"},{"zip":"44621","fips":"39157","name":"Tuscarawas County","state_id":"OH"},{"zip":"44622","fips":"39157","name":"Tuscarawas County","state_id":"OH"},{"zip":"44624","fips":"39075","name":"Holmes County","state_id":"OH"},{"zip":"44624","fips":"39157","name":"Tuscarawas County","state_id":"OH"},{"zip":"44624","fips":"39151","name":"Stark County","state_id":"OH"},{"zip":"44624","fips":"39169","name":"Wayne County","state_id":"OH"},{"zip":"44625","fips":"39029","name":"Columbiana County","state_id":"OH"},{"zip":"44625","fips":"39019","name":"Carroll County","state_id":"OH"},{"zip":"44626","fips":"39157","name":"Tuscarawas County","state_id":"OH"},{"zip":"44626","fips":"39151","name":"Stark County","state_id":"OH"},{"zip":"44627","fips":"39075","name":"Holmes County","state_id":"OH"},{"zip":"44627","fips":"39169","name":"Wayne County","state_id":"OH"},{"zip":"44628","fips":"39083","name":"Knox County","state_id":"OH"},{"zip":"44628","fips":"39075","name":"Holmes County","state_id":"OH"},{"zip":"44629","fips":"39157","name":"Tuscarawas County","state_id":"OH"},{"zip":"44630","fips":"39151","name":"Stark County","state_id":"OH"},{"zip":"44632","fips":"39151","name":"Stark County","state_id":"OH"},{"zip":"44632","fips":"39133","name":"Portage County","state_id":"OH"},{"zip":"44633","fips":"39075","name":"Holmes County","state_id":"OH"},{"zip":"44634","fips":"39151","name":"Stark County","state_id":"OH"},{"zip":"44634","fips":"39029","name":"Columbiana County","state_id":"OH"},{"zip":"44636","fips":"39169","name":"Wayne County","state_id":"OH"},{"zip":"44637","fips":"39031","name":"Coshocton County","state_id":"OH"},{"zip":"44637","fips":"39075","name":"Holmes County","state_id":"OH"},{"zip":"44638","fips":"39075","name":"Holmes County","state_id":"OH"},{"zip":"44638","fips":"39005","name":"Ashland County","state_id":"OH"},{"zip":"44638","fips":"39169","name":"Wayne County","state_id":"OH"},{"zip":"44639","fips":"39019","name":"Carroll County","state_id":"OH"},{"zip":"44640","fips":"39151","name":"Stark County","state_id":"OH"},{"zip":"44641","fips":"39151","name":"Stark County","state_id":"OH"},{"zip":"44643","fips":"39019","name":"Carroll County","state_id":"OH"},{"zip":"44643","fips":"39151","name":"Stark County","state_id":"OH"},{"zip":"44643","fips":"39157","name":"Tuscarawas County","state_id":"OH"},{"zip":"44644","fips":"39019","name":"Carroll County","state_id":"OH"},{"zip":"44645","fips":"39169","name":"Wayne County","state_id":"OH"},{"zip":"44645","fips":"39153","name":"Summit County","state_id":"OH"},{"zip":"44645","fips":"39151","name":"Stark County","state_id":"OH"},{"zip":"44646","fips":"39151","name":"Stark County","state_id":"OH"},{"zip":"44647","fips":"39151","name":"Stark County","state_id":"OH"},{"zip":"44648","fips":"39151","name":"Stark County","state_id":"OH"},{"zip":"44650","fips":"39151","name":"Stark County","state_id":"OH"},{"zip":"44651","fips":"39019","name":"Carroll County","state_id":"OH"},{"zip":"44652","fips":"39151","name":"Stark County","state_id":"OH"},{"zip":"44653","fips":"39157","name":"Tuscarawas County","state_id":"OH"},{"zip":"44654","fips":"39031","name":"Coshocton County","state_id":"OH"},{"zip":"44654","fips":"39075","name":"Holmes County","state_id":"OH"},{"zip":"44656","fips":"39157","name":"Tuscarawas County","state_id":"OH"},{"zip":"44656","fips":"39019","name":"Carroll County","state_id":"OH"},{"zip":"44657","fips":"39151","name":"Stark County","state_id":"OH"},{"zip":"44657","fips":"39019","name":"Carroll County","state_id":"OH"},{"zip":"44657","fips":"39029","name":"Columbiana County","state_id":"OH"},{"zip":"44659","fips":"39169","name":"Wayne County","state_id":"OH"},{"zip":"44660","fips":"39075","name":"Holmes County","state_id":"OH"},{"zip":"44661","fips":"39075","name":"Holmes County","state_id":"OH"},{"zip":"44662","fips":"39169","name":"Wayne County","state_id":"OH"},{"zip":"44662","fips":"39151","name":"Stark County","state_id":"OH"},{"zip":"44663","fips":"39157","name":"Tuscarawas County","state_id":"OH"},{"zip":"44665","fips":"39029","name":"Columbiana County","state_id":"OH"},{"zip":"44666","fips":"39169","name":"Wayne County","state_id":"OH"},{"zip":"44666","fips":"39151","name":"Stark County","state_id":"OH"},{"zip":"44667","fips":"39169","name":"Wayne County","state_id":"OH"},{"zip":"44669","fips":"39151","name":"Stark County","state_id":"OH"},{"zip":"44670","fips":"39151","name":"Stark County","state_id":"OH"},{"zip":"44671","fips":"39157","name":"Tuscarawas County","state_id":"OH"},{"zip":"44672","fips":"39099","name":"Mahoning County","state_id":"OH"},{"zip":"44675","fips":"39019","name":"Carroll County","state_id":"OH"},{"zip":"44675","fips":"39157","name":"Tuscarawas County","state_id":"OH"},{"zip":"44676","fips":"39169","name":"Wayne County","state_id":"OH"},{"zip":"44676","fips":"39075","name":"Holmes County","state_id":"OH"},{"zip":"44677","fips":"39169","name":"Wayne County","state_id":"OH"},{"zip":"44678","fips":"39157","name":"Tuscarawas County","state_id":"OH"},{"zip":"44679","fips":"39157","name":"Tuscarawas County","state_id":"OH"},{"zip":"44680","fips":"39151","name":"Stark County","state_id":"OH"},{"zip":"44680","fips":"39157","name":"Tuscarawas County","state_id":"OH"},{"zip":"44681","fips":"39157","name":"Tuscarawas County","state_id":"OH"},{"zip":"44681","fips":"39075","name":"Holmes County","state_id":"OH"},{"zip":"44682","fips":"39157","name":"Tuscarawas County","state_id":"OH"},{"zip":"44683","fips":"39157","name":"Tuscarawas County","state_id":"OH"},{"zip":"44683","fips":"39067","name":"Harrison County","state_id":"OH"},{"zip":"44685","fips":"39151","name":"Stark County","state_id":"OH"},{"zip":"44685","fips":"39153","name":"Summit County","state_id":"OH"},{"zip":"44687","fips":"39075","name":"Holmes County","state_id":"OH"},{"zip":"44688","fips":"39019","name":"Carroll County","state_id":"OH"},{"zip":"44688","fips":"39151","name":"Stark County","state_id":"OH"},{"zip":"44689","fips":"39151","name":"Stark County","state_id":"OH"},{"zip":"44689","fips":"39075","name":"Holmes County","state_id":"OH"},{"zip":"44690","fips":"39075","name":"Holmes County","state_id":"OH"},{"zip":"44691","fips":"39005","name":"Ashland County","state_id":"OH"},{"zip":"44691","fips":"39169","name":"Wayne County","state_id":"OH"},{"zip":"44693","fips":"39067","name":"Harrison County","state_id":"OH"},{"zip":"44695","fips":"39067","name":"Harrison County","state_id":"OH"},{"zip":"44695","fips":"39019","name":"Carroll County","state_id":"OH"},{"zip":"44697","fips":"39157","name":"Tuscarawas County","state_id":"OH"},{"zip":"44699","fips":"39059","name":"Guernsey County","state_id":"OH"},{"zip":"44699","fips":"39157","name":"Tuscarawas County","state_id":"OH"},{"zip":"44699","fips":"39067","name":"Harrison County","state_id":"OH"}]
