[{"zip":"44702","fips":"39151","name":"Stark County","state_id":"OH"},{"zip":"44703","fips":"39151","name":"Stark County","state_id":"OH"},{"zip":"44704","fips":"39151","name":"Stark County","state_id":"OH"},{"zip":"44705","fips":"39151","name":"Stark County","state_id":"OH"},{"zip":"44706","fips":"39151","name":"Stark County","state_id":"OH"},{"zip":"44707","fips":"39151","name":"Stark County","state_id":"OH"},{"zip":"44708","fips":"39151","name":"Stark County","state_id":"OH"},{"zip":"44709","fips":"39151","name":"Stark County","state_id":"OH"},{"zip":"44710","fips":"39151","name":"Stark County","state_id":"OH"},{"zip":"44711","fips":"39151","name":"Stark County","state_id":"OH"},{"zip":"44714","fips":"39151","name":"Stark County","state_id":"OH"},{"zip":"44718","fips":"39151","name":"Stark County","state_id":"OH"},{"zip":"44720","fips":"39153","name":"Summit County","state_id":"OH"},{"zip":"44720","fips":"39151","name":"Stark County","state_id":"OH"},{"zip":"44721","fips":"39151","name":"Stark County","state_id":"OH"},{"zip":"44730","fips":"39151","name":"Stark County","state_id":"OH"},{"zip":"44730","fips":"39019","name":"Carroll County","state_id":"OH"},{"zip":"44735","fips":"39151","name":"Stark County","state_id":"OH"},{"zip":"44750","fips":"39151","name":"Stark County","state_id":"OH"},{"zip":"44767","fips":"39151","name":"Stark County","state_id":"OH"},{"zip":"44799","fips":"39151","name":"Stark County","state_id":"OH"}]
