[{"zip":"44802","fips":"39175","name":"Wyandot County","state_id":"OH"},{"zip":"44802","fips":"39063","name":"Hancock County","state_id":"OH"},{"zip":"44802","fips":"39147","name":"Seneca County","state_id":"OH"},{"zip":"44804","fips":"39063","name":"Hancock County","state_id":"OH"},{"zip":"44805","fips":"39005","name":"Ashland County","state_id":"OH"},{"zip":"44805","fips":"39139","name":"Richland County","state_id":"OH"},{"zip":"44807","fips":"39077","name":"Huron County","state_id":"OH"},{"zip":"44807","fips":"39147","name":"Seneca County","state_id":"OH"},{"zip":"44809","fips":"39147","name":"Seneca County","state_id":"OH"},{"zip":"44811","fips":"39143","name":"Sandusky County","state_id":"OH"},{"zip":"44811","fips":"39043","name":"Erie County","state_id":"OH"},{"zip":"44811","fips":"39077","name":"Huron County","state_id":"OH"},{"zip":"44811","fips":"39147","name":"Seneca County","state_id":"OH"},{"zip":"44813","fips":"39117","name":"Morrow County","state_id":"OH"},{"zip":"44813","fips":"39139","name":"Richland County","state_id":"OH"},{"zip":"44813","fips":"39083","name":"Knox County","state_id":"OH"},{"zip":"44814","fips":"39043","name":"Erie County","state_id":"OH"},{"zip":"44815","fips":"39147","name":"Seneca County","state_id":"OH"},{"zip":"44816","fips":"39043","name":"Erie County","state_id":"OH"},{"zip":"44817","fips":"39173","name":"Wood County","state_id":"OH"},{"zip":"44817","fips":"39063","name":"Hancock County","state_id":"OH"},{"zip":"44818","fips":"39147","name":"Seneca County","state_id":"OH"},{"zip":"44818","fips":"39033","name":"Crawford County","state_id":"OH"},{"zip":"44820","fips":"39033","name":"Crawford County","state_id":"OH"},{"zip":"44820","fips":"39175","name":"Wyandot County","state_id":"OH"},{"zip":"44822","fips":"39139","name":"Richland County","state_id":"OH"},{"zip":"44822","fips":"39005","name":"Ashland County","state_id":"OH"},{"zip":"44822","fips":"39083","name":"Knox County","state_id":"OH"},{"zip":"44824","fips":"39143","name":"Sandusky County","state_id":"OH"},{"zip":"44824","fips":"39043","name":"Erie County","state_id":"OH"},{"zip":"44825","fips":"39033","name":"Crawford County","state_id":"OH"},{"zip":"44826","fips":"39043","name":"Erie County","state_id":"OH"},{"zip":"44826","fips":"39077","name":"Huron County","state_id":"OH"},{"zip":"44827","fips":"39033","name":"Crawford County","state_id":"OH"},{"zip":"44827","fips":"39139","name":"Richland County","state_id":"OH"},{"zip":"44828","fips":"39147","name":"Seneca County","state_id":"OH"},{"zip":"44830","fips":"39063","name":"Hancock County","state_id":"OH"},{"zip":"44830","fips":"39173","name":"Wood County","state_id":"OH"},{"zip":"44830","fips":"39147","name":"Seneca County","state_id":"OH"},{"zip":"44833","fips":"39139","name":"Richland County","state_id":"OH"},{"zip":"44833","fips":"39033","name":"Crawford County","state_id":"OH"},{"zip":"44833","fips":"39117","name":"Morrow County","state_id":"OH"},{"zip":"44833","fips":"39101","name":"Marion County","state_id":"OH"},{"zip":"44836","fips":"39143","name":"Sandusky County","state_id":"OH"},{"zip":"44836","fips":"39147","name":"Seneca County","state_id":"OH"},{"zip":"44837","fips":"39139","name":"Richland County","state_id":"OH"},{"zip":"44837","fips":"39005","name":"Ashland County","state_id":"OH"},{"zip":"44837","fips":"39077","name":"Huron County","state_id":"OH"},{"zip":"44838","fips":"39005","name":"Ashland County","state_id":"OH"},{"zip":"44839","fips":"39043","name":"Erie County","state_id":"OH"},{"zip":"44840","fips":"39005","name":"Ashland County","state_id":"OH"},{"zip":"44840","fips":"39169","name":"Wayne County","state_id":"OH"},{"zip":"44841","fips":"39143","name":"Sandusky County","state_id":"OH"},{"zip":"44841","fips":"39147","name":"Seneca County","state_id":"OH"},{"zip":"44842","fips":"39005","name":"Ashland County","state_id":"OH"},{"zip":"44842","fips":"39083","name":"Knox County","state_id":"OH"},{"zip":"44842","fips":"39075","name":"Holmes County","state_id":"OH"},{"zip":"44843","fips":"39005","name":"Ashland County","state_id":"OH"},{"zip":"44843","fips":"39139","name":"Richland County","state_id":"OH"},{"zip":"44844","fips":"39175","name":"Wyandot County","state_id":"OH"},{"zip":"44844","fips":"39147","name":"Seneca County","state_id":"OH"},{"zip":"44845","fips":"39147","name":"Seneca County","state_id":"OH"},{"zip":"44846","fips":"39077","name":"Huron County","state_id":"OH"},{"zip":"44846","fips":"39043","name":"Erie County","state_id":"OH"},{"zip":"44847","fips":"39077","name":"Huron County","state_id":"OH"},{"zip":"44847","fips":"39043","name":"Erie County","state_id":"OH"},{"zip":"44848","fips":"39005","name":"Ashland County","state_id":"OH"},{"zip":"44849","fips":"39175","name":"Wyandot County","state_id":"OH"},{"zip":"44849","fips":"39101","name":"Marion County","state_id":"OH"},{"zip":"44849","fips":"39033","name":"Crawford County","state_id":"OH"},{"zip":"44850","fips":"39077","name":"Huron County","state_id":"OH"},{"zip":"44851","fips":"39077","name":"Huron County","state_id":"OH"},{"zip":"44851","fips":"39005","name":"Ashland County","state_id":"OH"},{"zip":"44851","fips":"39093","name":"Lorain County","state_id":"OH"},{"zip":"44853","fips":"39147","name":"Seneca County","state_id":"OH"},{"zip":"44854","fips":"39147","name":"Seneca County","state_id":"OH"},{"zip":"44854","fips":"39033","name":"Crawford County","state_id":"OH"},{"zip":"44854","fips":"39077","name":"Huron County","state_id":"OH"},{"zip":"44855","fips":"39077","name":"Huron County","state_id":"OH"},{"zip":"44856","fips":"39033","name":"Crawford County","state_id":"OH"},{"zip":"44857","fips":"39077","name":"Huron County","state_id":"OH"},{"zip":"44857","fips":"39043","name":"Erie County","state_id":"OH"},{"zip":"44859","fips":"39093","name":"Lorain County","state_id":"OH"},{"zip":"44859","fips":"39005","name":"Ashland County","state_id":"OH"},{"zip":"44860","fips":"39033","name":"Crawford County","state_id":"OH"},{"zip":"44861","fips":"39147","name":"Seneca County","state_id":"OH"},{"zip":"44862","fips":"39139","name":"Richland County","state_id":"OH"},{"zip":"44864","fips":"39139","name":"Richland County","state_id":"OH"},{"zip":"44864","fips":"39005","name":"Ashland County","state_id":"OH"},{"zip":"44865","fips":"39077","name":"Huron County","state_id":"OH"},{"zip":"44865","fips":"39033","name":"Crawford County","state_id":"OH"},{"zip":"44865","fips":"39139","name":"Richland County","state_id":"OH"},{"zip":"44866","fips":"39005","name":"Ashland County","state_id":"OH"},{"zip":"44867","fips":"39147","name":"Seneca County","state_id":"OH"},{"zip":"44870","fips":"39043","name":"Erie County","state_id":"OH"},{"zip":"44871","fips":"39043","name":"Erie County","state_id":"OH"},{"zip":"44874","fips":"39005","name":"Ashland County","state_id":"OH"},{"zip":"44875","fips":"39139","name":"Richland County","state_id":"OH"},{"zip":"44875","fips":"39033","name":"Crawford County","state_id":"OH"},{"zip":"44878","fips":"39005","name":"Ashland County","state_id":"OH"},{"zip":"44878","fips":"39077","name":"Huron County","state_id":"OH"},{"zip":"44878","fips":"39139","name":"Richland County","state_id":"OH"},{"zip":"44880","fips":"39005","name":"Ashland County","state_id":"OH"},{"zip":"44880","fips":"39093","name":"Lorain County","state_id":"OH"},{"zip":"44880","fips":"39103","name":"Medina County","state_id":"OH"},{"zip":"44881","fips":"39033","name":"Crawford County","state_id":"OH"},{"zip":"44882","fips":"39033","name":"Crawford County","state_id":"OH"},{"zip":"44882","fips":"39147","name":"Seneca County","state_id":"OH"},{"zip":"44882","fips":"39175","name":"Wyandot County","state_id":"OH"},{"zip":"44883","fips":"39147","name":"Seneca County","state_id":"OH"},{"zip":"44887","fips":"39033","name":"Crawford County","state_id":"OH"},{"zip":"44888","fips":"39077","name":"Huron County","state_id":"OH"},{"zip":"44889","fips":"39093","name":"Lorain County","state_id":"OH"},{"zip":"44889","fips":"39043","name":"Erie County","state_id":"OH"},{"zip":"44889","fips":"39077","name":"Huron County","state_id":"OH"},{"zip":"44890","fips":"39077","name":"Huron County","state_id":"OH"}]
