[{"zip":"45001","fips":"39061","name":"Hamilton County","state_id":"OH"},{"zip":"45002","fips":"39061","name":"Hamilton County","state_id":"OH"},{"zip":"45003","fips":"39017","name":"Butler County","state_id":"OH"},{"zip":"45003","fips":"39135","name":"Preble County","state_id":"OH"},{"zip":"45004","fips":"39017","name":"Butler County","state_id":"OH"},{"zip":"45005","fips":"39165","name":"Warren County","state_id":"OH"},{"zip":"45005","fips":"39113","name":"Montgomery County","state_id":"OH"},{"zip":"45011","fips":"39017","name":"Butler County","state_id":"OH"},{"zip":"45012","fips":"39017","name":"Butler County","state_id":"OH"},{"zip":"45013","fips":"39017","name":"Butler County","state_id":"OH"},{"zip":"45013","fips":"39061","name":"Hamilton County","state_id":"OH"},{"zip":"45014","fips":"39017","name":"Butler County","state_id":"OH"},{"zip":"45015","fips":"39017","name":"Butler County","state_id":"OH"},{"zip":"45018","fips":"39017","name":"Butler County","state_id":"OH"},{"zip":"45030","fips":"39017","name":"Butler County","state_id":"OH"},{"zip":"45030","fips":"39061","name":"Hamilton County","state_id":"OH"},{"zip":"45032","fips":"39165","name":"Warren County","state_id":"OH"},{"zip":"45033","fips":"39061","name":"Hamilton County","state_id":"OH"},{"zip":"45034","fips":"39165","name":"Warren County","state_id":"OH"},{"zip":"45036","fips":"39165","name":"Warren County","state_id":"OH"},{"zip":"45039","fips":"39165","name":"Warren County","state_id":"OH"},{"zip":"45040","fips":"39165","name":"Warren County","state_id":"OH"},{"zip":"45041","fips":"39061","name":"Hamilton County","state_id":"OH"},{"zip":"45042","fips":"39165","name":"Warren County","state_id":"OH"},{"zip":"45042","fips":"39135","name":"Preble County","state_id":"OH"},{"zip":"45042","fips":"39017","name":"Butler County","state_id":"OH"},{"zip":"45042","fips":"39113","name":"Montgomery County","state_id":"OH"},{"zip":"45044","fips":"39165","name":"Warren County","state_id":"OH"},{"zip":"45044","fips":"39017","name":"Butler County","state_id":"OH"},{"zip":"45050","fips":"39165","name":"Warren County","state_id":"OH"},{"zip":"45050","fips":"39017","name":"Butler County","state_id":"OH"},{"zip":"45051","fips":"39061","name":"Hamilton County","state_id":"OH"},{"zip":"45052","fips":"39061","name":"Hamilton County","state_id":"OH"},{"zip":"45053","fips":"39017","name":"Butler County","state_id":"OH"},{"zip":"45054","fips":"39165","name":"Warren County","state_id":"OH"},{"zip":"45055","fips":"39017","name":"Butler County","state_id":"OH"},{"zip":"45056","fips":"39135","name":"Preble County","state_id":"OH"},{"zip":"45056","fips":"39017","name":"Butler County","state_id":"OH"},{"zip":"45061","fips":"39017","name":"Butler County","state_id":"OH"},{"zip":"45062","fips":"39017","name":"Butler County","state_id":"OH"},{"zip":"45063","fips":"39017","name":"Butler County","state_id":"OH"},{"zip":"45064","fips":"39017","name":"Butler County","state_id":"OH"},{"zip":"45064","fips":"39135","name":"Preble County","state_id":"OH"},{"zip":"45065","fips":"39165","name":"Warren County","state_id":"OH"},{"zip":"45066","fips":"39113","name":"Montgomery County","state_id":"OH"},{"zip":"45066","fips":"39165","name":"Warren County","state_id":"OH"},{"zip":"45067","fips":"39017","name":"Butler County","state_id":"OH"},{"zip":"45068","fips":"39165","name":"Warren County","state_id":"OH"},{"zip":"45068","fips":"39027","name":"Clinton County","state_id":"OH"},{"zip":"45068","fips":"39057","name":"Greene County","state_id":"OH"},{"zip":"45069","fips":"39017","name":"Butler County","state_id":"OH"},{"zip":"45069","fips":"39061","name":"Hamilton County","state_id":"OH"},{"zip":"45070","fips":"39135","name":"Preble County","state_id":"OH"},{"zip":"45071","fips":"39017","name":"Butler County","state_id":"OH"}]
