[{"zip":"45101","fips":"39001","name":"Adams County","state_id":"OH"},{"zip":"45101","fips":"39015","name":"Brown County","state_id":"OH"},{"zip":"45102","fips":"39025","name":"Clermont County","state_id":"OH"},{"zip":"45103","fips":"39025","name":"Clermont County","state_id":"OH"},{"zip":"45105","fips":"39001","name":"Adams County","state_id":"OH"},{"zip":"45106","fips":"39025","name":"Clermont County","state_id":"OH"},{"zip":"45106","fips":"39015","name":"Brown County","state_id":"OH"},{"zip":"45107","fips":"39015","name":"Brown County","state_id":"OH"},{"zip":"45107","fips":"39027","name":"Clinton County","state_id":"OH"},{"zip":"45107","fips":"39165","name":"Warren County","state_id":"OH"},{"zip":"45107","fips":"39025","name":"Clermont County","state_id":"OH"},{"zip":"45111","fips":"39061","name":"Hamilton County","state_id":"OH"},{"zip":"45112","fips":"39025","name":"Clermont County","state_id":"OH"},{"zip":"45113","fips":"39027","name":"Clinton County","state_id":"OH"},{"zip":"45113","fips":"39165","name":"Warren County","state_id":"OH"},{"zip":"45115","fips":"39015","name":"Brown County","state_id":"OH"},{"zip":"45118","fips":"39071","name":"Highland County","state_id":"OH"},{"zip":"45118","fips":"39015","name":"Brown County","state_id":"OH"},{"zip":"45118","fips":"39025","name":"Clermont County","state_id":"OH"},{"zip":"45119","fips":"39015","name":"Brown County","state_id":"OH"},{"zip":"45120","fips":"39025","name":"Clermont County","state_id":"OH"},{"zip":"45120","fips":"39015","name":"Brown County","state_id":"OH"},{"zip":"45121","fips":"39025","name":"Clermont County","state_id":"OH"},{"zip":"45121","fips":"39015","name":"Brown County","state_id":"OH"},{"zip":"45122","fips":"39025","name":"Clermont County","state_id":"OH"},{"zip":"45122","fips":"39165","name":"Warren County","state_id":"OH"},{"zip":"45123","fips":"39141","name":"Ross County","state_id":"OH"},{"zip":"45123","fips":"39071","name":"Highland County","state_id":"OH"},{"zip":"45123","fips":"39047","name":"Fayette County","state_id":"OH"},{"zip":"45130","fips":"39025","name":"Clermont County","state_id":"OH"},{"zip":"45130","fips":"39015","name":"Brown County","state_id":"OH"},{"zip":"45131","fips":"39015","name":"Brown County","state_id":"OH"},{"zip":"45132","fips":"39071","name":"Highland County","state_id":"OH"},{"zip":"45133","fips":"39015","name":"Brown County","state_id":"OH"},{"zip":"45133","fips":"39071","name":"Highland County","state_id":"OH"},{"zip":"45133","fips":"39131","name":"Pike County","state_id":"OH"},{"zip":"45135","fips":"39027","name":"Clinton County","state_id":"OH"},{"zip":"45135","fips":"39071","name":"Highland County","state_id":"OH"},{"zip":"45135","fips":"39047","name":"Fayette County","state_id":"OH"},{"zip":"45140","fips":"39025","name":"Clermont County","state_id":"OH"},{"zip":"45140","fips":"39061","name":"Hamilton County","state_id":"OH"},{"zip":"45140","fips":"39165","name":"Warren County","state_id":"OH"},{"zip":"45142","fips":"39015","name":"Brown County","state_id":"OH"},{"zip":"45142","fips":"39027","name":"Clinton County","state_id":"OH"},{"zip":"45142","fips":"39071","name":"Highland County","state_id":"OH"},{"zip":"45144","fips":"39015","name":"Brown County","state_id":"OH"},{"zip":"45144","fips":"39001","name":"Adams County","state_id":"OH"},{"zip":"45146","fips":"39027","name":"Clinton County","state_id":"OH"},{"zip":"45147","fips":"39025","name":"Clermont County","state_id":"OH"},{"zip":"45148","fips":"39015","name":"Brown County","state_id":"OH"},{"zip":"45148","fips":"39027","name":"Clinton County","state_id":"OH"},{"zip":"45150","fips":"39061","name":"Hamilton County","state_id":"OH"},{"zip":"45150","fips":"39025","name":"Clermont County","state_id":"OH"},{"zip":"45152","fips":"39165","name":"Warren County","state_id":"OH"},{"zip":"45153","fips":"39025","name":"Clermont County","state_id":"OH"},{"zip":"45154","fips":"39071","name":"Highland County","state_id":"OH"},{"zip":"45154","fips":"39015","name":"Brown County","state_id":"OH"},{"zip":"45155","fips":"39071","name":"Highland County","state_id":"OH"},{"zip":"45156","fips":"39025","name":"Clermont County","state_id":"OH"},{"zip":"45157","fips":"39025","name":"Clermont County","state_id":"OH"},{"zip":"45158","fips":"39025","name":"Clermont County","state_id":"OH"},{"zip":"45159","fips":"39027","name":"Clinton County","state_id":"OH"},{"zip":"45159","fips":"39071","name":"Highland County","state_id":"OH"},{"zip":"45160","fips":"39025","name":"Clermont County","state_id":"OH"},{"zip":"45162","fips":"39025","name":"Clermont County","state_id":"OH"},{"zip":"45162","fips":"39165","name":"Warren County","state_id":"OH"},{"zip":"45164","fips":"39027","name":"Clinton County","state_id":"OH"},{"zip":"45166","fips":"39027","name":"Clinton County","state_id":"OH"},{"zip":"45167","fips":"39015","name":"Brown County","state_id":"OH"},{"zip":"45168","fips":"39015","name":"Brown County","state_id":"OH"},{"zip":"45169","fips":"39047","name":"Fayette County","state_id":"OH"},{"zip":"45169","fips":"39057","name":"Greene County","state_id":"OH"},{"zip":"45169","fips":"39027","name":"Clinton County","state_id":"OH"},{"zip":"45171","fips":"39015","name":"Brown County","state_id":"OH"},{"zip":"45171","fips":"39071","name":"Highland County","state_id":"OH"},{"zip":"45172","fips":"39071","name":"Highland County","state_id":"OH"},{"zip":"45174","fips":"39061","name":"Hamilton County","state_id":"OH"},{"zip":"45176","fips":"39025","name":"Clermont County","state_id":"OH"},{"zip":"45176","fips":"39015","name":"Brown County","state_id":"OH"},{"zip":"45177","fips":"39027","name":"Clinton County","state_id":"OH"}]
