[{"zip":"45201","fips":"39061","name":"Hamilton County","state_id":"OH"},{"zip":"45202","fips":"39061","name":"Hamilton County","state_id":"OH"},{"zip":"45203","fips":"39061","name":"Hamilton County","state_id":"OH"},{"zip":"45204","fips":"39061","name":"Hamilton County","state_id":"OH"},{"zip":"45205","fips":"39061","name":"Hamilton County","state_id":"OH"},{"zip":"45206","fips":"39061","name":"Hamilton County","state_id":"OH"},{"zip":"45207","fips":"39061","name":"Hamilton County","state_id":"OH"},{"zip":"45208","fips":"39061","name":"Hamilton County","state_id":"OH"},{"zip":"45209","fips":"39061","name":"Hamilton County","state_id":"OH"},{"zip":"45211","fips":"39061","name":"Hamilton County","state_id":"OH"},{"zip":"45212","fips":"39061","name":"Hamilton County","state_id":"OH"},{"zip":"45213","fips":"39061","name":"Hamilton County","state_id":"OH"},{"zip":"45214","fips":"39061","name":"Hamilton County","state_id":"OH"},{"zip":"45215","fips":"39061","name":"Hamilton County","state_id":"OH"},{"zip":"45216","fips":"39061","name":"Hamilton County","state_id":"OH"},{"zip":"45217","fips":"39061","name":"Hamilton County","state_id":"OH"},{"zip":"45218","fips":"39061","name":"Hamilton County","state_id":"OH"},{"zip":"45219","fips":"39061","name":"Hamilton County","state_id":"OH"},{"zip":"45220","fips":"39061","name":"Hamilton County","state_id":"OH"},{"zip":"45222","fips":"39061","name":"Hamilton County","state_id":"OH"},{"zip":"45223","fips":"39061","name":"Hamilton County","state_id":"OH"},{"zip":"45224","fips":"39061","name":"Hamilton County","state_id":"OH"},{"zip":"45225","fips":"39061","name":"Hamilton County","state_id":"OH"},{"zip":"45226","fips":"39061","name":"Hamilton County","state_id":"OH"},{"zip":"45227","fips":"39061","name":"Hamilton County","state_id":"OH"},{"zip":"45229","fips":"39061","name":"Hamilton County","state_id":"OH"},{"zip":"45230","fips":"39061","name":"Hamilton County","state_id":"OH"},{"zip":"45231","fips":"39061","name":"Hamilton County","state_id":"OH"},{"zip":"45232","fips":"39061","name":"Hamilton County","state_id":"OH"},{"zip":"45233","fips":"39061","name":"Hamilton County","state_id":"OH"},{"zip":"45234","fips":"39061","name":"Hamilton County","state_id":"OH"},{"zip":"45235","fips":"39061","name":"Hamilton County","state_id":"OH"},{"zip":"45236","fips":"39061","name":"Hamilton County","state_id":"OH"},{"zip":"45237","fips":"39061","name":"Hamilton County","state_id":"OH"},{"zip":"45238","fips":"39061","name":"Hamilton County","state_id":"OH"},{"zip":"45239","fips":"39061","name":"Hamilton County","state_id":"OH"},{"zip":"45240","fips":"39061","name":"Hamilton County","state_id":"OH"},{"zip":"45241","fips":"39017","name":"Butler County","state_id":"OH"},{"zip":"45241","fips":"39165","name":"Warren County","state_id":"OH"},{"zip":"45241","fips":"39061","name":"Hamilton County","state_id":"OH"},{"zip":"45242","fips":"39061","name":"Hamilton County","state_id":"OH"},{"zip":"45243","fips":"39061","name":"Hamilton County","state_id":"OH"},{"zip":"45244","fips":"39025","name":"Clermont County","state_id":"OH"},{"zip":"45244","fips":"39061","name":"Hamilton County","state_id":"OH"},{"zip":"45245","fips":"39025","name":"Clermont County","state_id":"OH"},{"zip":"45246","fips":"39017","name":"Butler County","state_id":"OH"},{"zip":"45246","fips":"39061","name":"Hamilton County","state_id":"OH"},{"zip":"45247","fips":"39061","name":"Hamilton County","state_id":"OH"},{"zip":"45248","fips":"39061","name":"Hamilton County","state_id":"OH"},{"zip":"45249","fips":"39165","name":"Warren County","state_id":"OH"},{"zip":"45249","fips":"39061","name":"Hamilton County","state_id":"OH"},{"zip":"45250","fips":"39061","name":"Hamilton County","state_id":"OH"},{"zip":"45251","fips":"39061","name":"Hamilton County","state_id":"OH"},{"zip":"45252","fips":"39061","name":"Hamilton County","state_id":"OH"},{"zip":"45253","fips":"39061","name":"Hamilton County","state_id":"OH"},{"zip":"45254","fips":"39061","name":"Hamilton County","state_id":"OH"},{"zip":"45255","fips":"39061","name":"Hamilton County","state_id":"OH"},{"zip":"45255","fips":"39025","name":"Clermont County","state_id":"OH"},{"zip":"45258","fips":"39061","name":"Hamilton County","state_id":"OH"},{"zip":"45262","fips":"39061","name":"Hamilton County","state_id":"OH"},{"zip":"45263","fips":"39061","name":"Hamilton County","state_id":"OH"},{"zip":"45267","fips":"39061","name":"Hamilton County","state_id":"OH"},{"zip":"45275","fips":"21015","name":"Boone County","state_id":"KY"}]
