[{"zip":"45301","fips":"39057","name":"Greene County","state_id":"OH"},{"zip":"45302","fips":"39149","name":"Shelby County","state_id":"OH"},{"zip":"45303","fips":"39037","name":"Darke County","state_id":"OH"},{"zip":"45304","fips":"39135","name":"Preble County","state_id":"OH"},{"zip":"45304","fips":"39037","name":"Darke County","state_id":"OH"},{"zip":"45304","fips":"39109","name":"Miami County","state_id":"OH"},{"zip":"45305","fips":"39057","name":"Greene County","state_id":"OH"},{"zip":"45306","fips":"39011","name":"Auglaize County","state_id":"OH"},{"zip":"45306","fips":"39149","name":"Shelby County","state_id":"OH"},{"zip":"45307","fips":"39057","name":"Greene County","state_id":"OH"},{"zip":"45308","fips":"39109","name":"Miami County","state_id":"OH"},{"zip":"45308","fips":"39037","name":"Darke County","state_id":"OH"},{"zip":"45309","fips":"39135","name":"Preble County","state_id":"OH"},{"zip":"45309","fips":"39113","name":"Montgomery County","state_id":"OH"},{"zip":"45310","fips":"39107","name":"Mercer County","state_id":"OH"},{"zip":"45311","fips":"39135","name":"Preble County","state_id":"OH"},{"zip":"45312","fips":"39023","name":"Clark County","state_id":"OH"},{"zip":"45312","fips":"39021","name":"Champaign County","state_id":"OH"},{"zip":"45312","fips":"39109","name":"Miami County","state_id":"OH"},{"zip":"45314","fips":"39023","name":"Clark County","state_id":"OH"},{"zip":"45314","fips":"39057","name":"Greene County","state_id":"OH"},{"zip":"45315","fips":"39113","name":"Montgomery County","state_id":"OH"},{"zip":"45316","fips":"39057","name":"Greene County","state_id":"OH"},{"zip":"45317","fips":"39109","name":"Miami County","state_id":"OH"},{"zip":"45317","fips":"39021","name":"Champaign County","state_id":"OH"},{"zip":"45317","fips":"39149","name":"Shelby County","state_id":"OH"},{"zip":"45318","fips":"39109","name":"Miami County","state_id":"OH"},{"zip":"45318","fips":"39037","name":"Darke County","state_id":"OH"},{"zip":"45319","fips":"39023","name":"Clark County","state_id":"OH"},{"zip":"45320","fips":"39135","name":"Preble County","state_id":"OH"},{"zip":"45321","fips":"39135","name":"Preble County","state_id":"OH"},{"zip":"45322","fips":"39109","name":"Miami County","state_id":"OH"},{"zip":"45322","fips":"39113","name":"Montgomery County","state_id":"OH"},{"zip":"45323","fips":"39023","name":"Clark County","state_id":"OH"},{"zip":"45324","fips":"39023","name":"Clark County","state_id":"OH"},{"zip":"45324","fips":"39057","name":"Greene County","state_id":"OH"},{"zip":"45325","fips":"39113","name":"Montgomery County","state_id":"OH"},{"zip":"45325","fips":"39135","name":"Preble County","state_id":"OH"},{"zip":"45326","fips":"39109","name":"Miami County","state_id":"OH"},{"zip":"45326","fips":"39149","name":"Shelby County","state_id":"OH"},{"zip":"45327","fips":"39113","name":"Montgomery County","state_id":"OH"},{"zip":"45327","fips":"39165","name":"Warren County","state_id":"OH"},{"zip":"45327","fips":"39017","name":"Butler County","state_id":"OH"},{"zip":"45327","fips":"39135","name":"Preble County","state_id":"OH"},{"zip":"45328","fips":"39037","name":"Darke County","state_id":"OH"},{"zip":"45330","fips":"39135","name":"Preble County","state_id":"OH"},{"zip":"45331","fips":"39037","name":"Darke County","state_id":"OH"},{"zip":"45332","fips":"39037","name":"Darke County","state_id":"OH"},{"zip":"45333","fips":"39149","name":"Shelby County","state_id":"OH"},{"zip":"45334","fips":"39091","name":"Logan County","state_id":"OH"},{"zip":"45334","fips":"39011","name":"Auglaize County","state_id":"OH"},{"zip":"45334","fips":"39149","name":"Shelby County","state_id":"OH"},{"zip":"45335","fips":"39057","name":"Greene County","state_id":"OH"},{"zip":"45335","fips":"39047","name":"Fayette County","state_id":"OH"},{"zip":"45335","fips":"39027","name":"Clinton County","state_id":"OH"},{"zip":"45336","fips":"39149","name":"Shelby County","state_id":"OH"},{"zip":"45337","fips":"39037","name":"Darke County","state_id":"OH"},{"zip":"45337","fips":"39109","name":"Miami County","state_id":"OH"},{"zip":"45338","fips":"39135","name":"Preble County","state_id":"OH"},{"zip":"45338","fips":"39113","name":"Montgomery County","state_id":"OH"},{"zip":"45339","fips":"39109","name":"Miami County","state_id":"OH"},{"zip":"45340","fips":"39149","name":"Shelby County","state_id":"OH"},{"zip":"45341","fips":"39023","name":"Clark County","state_id":"OH"},{"zip":"45342","fips":"39113","name":"Montgomery County","state_id":"OH"},{"zip":"45342","fips":"39165","name":"Warren County","state_id":"OH"},{"zip":"45343","fips":"39113","name":"Montgomery County","state_id":"OH"},{"zip":"45344","fips":"39021","name":"Champaign County","state_id":"OH"},{"zip":"45344","fips":"39023","name":"Clark County","state_id":"OH"},{"zip":"45344","fips":"39113","name":"Montgomery County","state_id":"OH"},{"zip":"45344","fips":"39109","name":"Miami County","state_id":"OH"},{"zip":"45345","fips":"39113","name":"Montgomery County","state_id":"OH"},{"zip":"45346","fips":"39037","name":"Darke County","state_id":"OH"},{"zip":"45347","fips":"39037","name":"Darke County","state_id":"OH"},{"zip":"45347","fips":"39135","name":"Preble County","state_id":"OH"},{"zip":"45348","fips":"39095","name":"Lucas County","state_id":"OH"},{"zip":"45348","fips":"39107","name":"Mercer County","state_id":"OH"},{"zip":"45348","fips":"39037","name":"Darke County","state_id":"OH"},{"zip":"45349","fips":"39023","name":"Clark County","state_id":"OH"},{"zip":"45350","fips":"39037","name":"Darke County","state_id":"OH"},{"zip":"45351","fips":"39037","name":"Darke County","state_id":"OH"},{"zip":"45352","fips":"39037","name":"Darke County","state_id":"OH"},{"zip":"45353","fips":"39149","name":"Shelby County","state_id":"OH"},{"zip":"45354","fips":"39113","name":"Montgomery County","state_id":"OH"},{"zip":"45356","fips":"39109","name":"Miami County","state_id":"OH"},{"zip":"45356","fips":"39149","name":"Shelby County","state_id":"OH"},{"zip":"45358","fips":"39037","name":"Darke County","state_id":"OH"},{"zip":"45359","fips":"39109","name":"Miami County","state_id":"OH"},{"zip":"45360","fips":"39149","name":"Shelby County","state_id":"OH"},{"zip":"45361","fips":"39109","name":"Miami County","state_id":"OH"},{"zip":"45362","fips":"39037","name":"Darke County","state_id":"OH"},{"zip":"45363","fips":"39149","name":"Shelby County","state_id":"OH"},{"zip":"45365","fips":"39109","name":"Miami County","state_id":"OH"},{"zip":"45365","fips":"39021","name":"Champaign County","state_id":"OH"},{"zip":"45365","fips":"39149","name":"Shelby County","state_id":"OH"},{"zip":"45367","fips":"39149","name":"Shelby County","state_id":"OH"},{"zip":"45368","fips":"39023","name":"Clark County","state_id":"OH"},{"zip":"45368","fips":"39057","name":"Greene County","state_id":"OH"},{"zip":"45369","fips":"39097","name":"Madison County","state_id":"OH"},{"zip":"45369","fips":"39023","name":"Clark County","state_id":"OH"},{"zip":"45370","fips":"39057","name":"Greene County","state_id":"OH"},{"zip":"45371","fips":"39113","name":"Montgomery County","state_id":"OH"},{"zip":"45371","fips":"39109","name":"Miami County","state_id":"OH"},{"zip":"45372","fips":"39023","name":"Clark County","state_id":"OH"},{"zip":"45373","fips":"39109","name":"Miami County","state_id":"OH"},{"zip":"45374","fips":"39109","name":"Miami County","state_id":"OH"},{"zip":"45377","fips":"39113","name":"Montgomery County","state_id":"OH"},{"zip":"45378","fips":"39135","name":"Preble County","state_id":"OH"},{"zip":"45378","fips":"39113","name":"Montgomery County","state_id":"OH"},{"zip":"45380","fips":"39037","name":"Darke County","state_id":"OH"},{"zip":"45380","fips":"39149","name":"Shelby County","state_id":"OH"},{"zip":"45381","fips":"39113","name":"Montgomery County","state_id":"OH"},{"zip":"45381","fips":"39135","name":"Preble County","state_id":"OH"},{"zip":"45382","fips":"39135","name":"Preble County","state_id":"OH"},{"zip":"45382","fips":"39037","name":"Darke County","state_id":"OH"},{"zip":"45383","fips":"39109","name":"Miami County","state_id":"OH"},{"zip":"45383","fips":"39037","name":"Darke County","state_id":"OH"},{"zip":"45384","fips":"39057","name":"Greene County","state_id":"OH"},{"zip":"45385","fips":"39057","name":"Greene County","state_id":"OH"},{"zip":"45385","fips":"39027","name":"Clinton County","state_id":"OH"},{"zip":"45387","fips":"39057","name":"Greene County","state_id":"OH"},{"zip":"45387","fips":"39023","name":"Clark County","state_id":"OH"},{"zip":"45388","fips":"39107","name":"Mercer County","state_id":"OH"},{"zip":"45388","fips":"39149","name":"Shelby County","state_id":"OH"},{"zip":"45388","fips":"39037","name":"Darke County","state_id":"OH"},{"zip":"45389","fips":"39021","name":"Champaign County","state_id":"OH"},{"zip":"45390","fips":"39037","name":"Darke County","state_id":"OH"}]
