[{"zip":"45401","fips":"39113","name":"Montgomery County","state_id":"OH"},{"zip":"45402","fips":"39113","name":"Montgomery County","state_id":"OH"},{"zip":"45403","fips":"39113","name":"Montgomery County","state_id":"OH"},{"zip":"45404","fips":"39113","name":"Montgomery County","state_id":"OH"},{"zip":"45405","fips":"39113","name":"Montgomery County","state_id":"OH"},{"zip":"45406","fips":"39113","name":"Montgomery County","state_id":"OH"},{"zip":"45409","fips":"39113","name":"Montgomery County","state_id":"OH"},{"zip":"45410","fips":"39113","name":"Montgomery County","state_id":"OH"},{"zip":"45413","fips":"39113","name":"Montgomery County","state_id":"OH"},{"zip":"45414","fips":"39113","name":"Montgomery County","state_id":"OH"},{"zip":"45415","fips":"39113","name":"Montgomery County","state_id":"OH"},{"zip":"45416","fips":"39113","name":"Montgomery County","state_id":"OH"},{"zip":"45417","fips":"39113","name":"Montgomery County","state_id":"OH"},{"zip":"45419","fips":"39113","name":"Montgomery County","state_id":"OH"},{"zip":"45420","fips":"39113","name":"Montgomery County","state_id":"OH"},{"zip":"45422","fips":"39113","name":"Montgomery County","state_id":"OH"},{"zip":"45423","fips":"39113","name":"Montgomery County","state_id":"OH"},{"zip":"45424","fips":"39113","name":"Montgomery County","state_id":"OH"},{"zip":"45424","fips":"39109","name":"Miami County","state_id":"OH"},{"zip":"45424","fips":"39057","name":"Greene County","state_id":"OH"},{"zip":"45426","fips":"39113","name":"Montgomery County","state_id":"OH"},{"zip":"45428","fips":"39113","name":"Montgomery County","state_id":"OH"},{"zip":"45429","fips":"39113","name":"Montgomery County","state_id":"OH"},{"zip":"45430","fips":"39113","name":"Montgomery County","state_id":"OH"},{"zip":"45430","fips":"39057","name":"Greene County","state_id":"OH"},{"zip":"45431","fips":"39113","name":"Montgomery County","state_id":"OH"},{"zip":"45431","fips":"39057","name":"Greene County","state_id":"OH"},{"zip":"45432","fips":"39057","name":"Greene County","state_id":"OH"},{"zip":"45432","fips":"39113","name":"Montgomery County","state_id":"OH"},{"zip":"45433","fips":"39113","name":"Montgomery County","state_id":"OH"},{"zip":"45433","fips":"39057","name":"Greene County","state_id":"OH"},{"zip":"45434","fips":"39057","name":"Greene County","state_id":"OH"},{"zip":"45435","fips":"39057","name":"Greene County","state_id":"OH"},{"zip":"45437","fips":"39113","name":"Montgomery County","state_id":"OH"},{"zip":"45439","fips":"39113","name":"Montgomery County","state_id":"OH"},{"zip":"45440","fips":"39113","name":"Montgomery County","state_id":"OH"},{"zip":"45440","fips":"39057","name":"Greene County","state_id":"OH"},{"zip":"45441","fips":"39113","name":"Montgomery County","state_id":"OH"},{"zip":"45448","fips":"39113","name":"Montgomery County","state_id":"OH"},{"zip":"45449","fips":"39113","name":"Montgomery County","state_id":"OH"},{"zip":"45458","fips":"39057","name":"Greene County","state_id":"OH"},{"zip":"45458","fips":"39113","name":"Montgomery County","state_id":"OH"},{"zip":"45458","fips":"39165","name":"Warren County","state_id":"OH"},{"zip":"45459","fips":"39113","name":"Montgomery County","state_id":"OH"},{"zip":"45459","fips":"39057","name":"Greene County","state_id":"OH"},{"zip":"45469","fips":"39113","name":"Montgomery County","state_id":"OH"},{"zip":"45470","fips":"39113","name":"Montgomery County","state_id":"OH"},{"zip":"45475","fips":"39113","name":"Montgomery County","state_id":"OH"},{"zip":"45481","fips":"39057","name":"Greene County","state_id":"OH"},{"zip":"45490","fips":"39113","name":"Montgomery County","state_id":"OH"}]
