[{"zip":"45601","fips":"39079","name":"Jackson County","state_id":"OH"},{"zip":"45601","fips":"39141","name":"Ross County","state_id":"OH"},{"zip":"45601","fips":"39131","name":"Pike County","state_id":"OH"},{"zip":"45612","fips":"39071","name":"Highland County","state_id":"OH"},{"zip":"45612","fips":"39141","name":"Ross County","state_id":"OH"},{"zip":"45612","fips":"39131","name":"Pike County","state_id":"OH"},{"zip":"45613","fips":"39145","name":"Scioto County","state_id":"OH"},{"zip":"45613","fips":"39131","name":"Pike County","state_id":"OH"},{"zip":"45613","fips":"39079","name":"Jackson County","state_id":"OH"},{"zip":"45614","fips":"39053","name":"Gallia County","state_id":"OH"},{"zip":"45614","fips":"39105","name":"Meigs County","state_id":"OH"},{"zip":"45616","fips":"39001","name":"Adams County","state_id":"OH"},{"zip":"45616","fips":"39145","name":"Scioto County","state_id":"OH"},{"zip":"45617","fips":"39141","name":"Ross County","state_id":"OH"},{"zip":"45618","fips":"39001","name":"Adams County","state_id":"OH"},{"zip":"45619","fips":"39087","name":"Lawrence County","state_id":"OH"},{"zip":"45620","fips":"39105","name":"Meigs County","state_id":"OH"},{"zip":"45620","fips":"39053","name":"Gallia County","state_id":"OH"},{"zip":"45621","fips":"39079","name":"Jackson County","state_id":"OH"},{"zip":"45622","fips":"39073","name":"Hocking County","state_id":"OH"},{"zip":"45622","fips":"39163","name":"Vinton County","state_id":"OH"},{"zip":"45623","fips":"39087","name":"Lawrence County","state_id":"OH"},{"zip":"45623","fips":"39053","name":"Gallia County","state_id":"OH"},{"zip":"45624","fips":"39131","name":"Pike County","state_id":"OH"},{"zip":"45628","fips":"39141","name":"Ross County","state_id":"OH"},{"zip":"45629","fips":"39145","name":"Scioto County","state_id":"OH"},{"zip":"45630","fips":"39145","name":"Scioto County","state_id":"OH"},{"zip":"45631","fips":"39053","name":"Gallia County","state_id":"OH"},{"zip":"45633","fips":"39141","name":"Ross County","state_id":"OH"},{"zip":"45634","fips":"39163","name":"Vinton County","state_id":"OH"},{"zip":"45634","fips":"39079","name":"Jackson County","state_id":"OH"},{"zip":"45636","fips":"39145","name":"Scioto County","state_id":"OH"},{"zip":"45638","fips":"39087","name":"Lawrence County","state_id":"OH"},{"zip":"45638","fips":"39145","name":"Scioto County","state_id":"OH"},{"zip":"45640","fips":"39145","name":"Scioto County","state_id":"OH"},{"zip":"45640","fips":"39079","name":"Jackson County","state_id":"OH"},{"zip":"45642","fips":"39131","name":"Pike County","state_id":"OH"},{"zip":"45643","fips":"39053","name":"Gallia County","state_id":"OH"},{"zip":"45644","fips":"39129","name":"Pickaway County","state_id":"OH"},{"zip":"45644","fips":"39141","name":"Ross County","state_id":"OH"},{"zip":"45645","fips":"39087","name":"Lawrence County","state_id":"OH"},{"zip":"45646","fips":"39131","name":"Pike County","state_id":"OH"},{"zip":"45647","fips":"39141","name":"Ross County","state_id":"OH"},{"zip":"45647","fips":"39163","name":"Vinton County","state_id":"OH"},{"zip":"45648","fips":"39145","name":"Scioto County","state_id":"OH"},{"zip":"45648","fips":"39131","name":"Pike County","state_id":"OH"},{"zip":"45650","fips":"39001","name":"Adams County","state_id":"OH"},{"zip":"45651","fips":"39163","name":"Vinton County","state_id":"OH"},{"zip":"45652","fips":"39145","name":"Scioto County","state_id":"OH"},{"zip":"45653","fips":"39145","name":"Scioto County","state_id":"OH"},{"zip":"45653","fips":"39079","name":"Jackson County","state_id":"OH"},{"zip":"45654","fips":"39073","name":"Hocking County","state_id":"OH"},{"zip":"45654","fips":"39163","name":"Vinton County","state_id":"OH"},{"zip":"45656","fips":"39053","name":"Gallia County","state_id":"OH"},{"zip":"45656","fips":"39087","name":"Lawrence County","state_id":"OH"},{"zip":"45656","fips":"39079","name":"Jackson County","state_id":"OH"},{"zip":"45656","fips":"39145","name":"Scioto County","state_id":"OH"},{"zip":"45657","fips":"39131","name":"Pike County","state_id":"OH"},{"zip":"45657","fips":"39001","name":"Adams County","state_id":"OH"},{"zip":"45657","fips":"39145","name":"Scioto County","state_id":"OH"},{"zip":"45658","fips":"39053","name":"Gallia County","state_id":"OH"},{"zip":"45658","fips":"39087","name":"Lawrence County","state_id":"OH"},{"zip":"45659","fips":"39145","name":"Scioto County","state_id":"OH"},{"zip":"45659","fips":"39087","name":"Lawrence County","state_id":"OH"},{"zip":"45660","fips":"39145","name":"Scioto County","state_id":"OH"},{"zip":"45660","fips":"39131","name":"Pike County","state_id":"OH"},{"zip":"45660","fips":"39001","name":"Adams County","state_id":"OH"},{"zip":"45660","fips":"39071","name":"Highland County","state_id":"OH"},{"zip":"45661","fips":"39131","name":"Pike County","state_id":"OH"},{"zip":"45661","fips":"39145","name":"Scioto County","state_id":"OH"},{"zip":"45662","fips":"39145","name":"Scioto County","state_id":"OH"},{"zip":"45663","fips":"39145","name":"Scioto County","state_id":"OH"},{"zip":"45669","fips":"39087","name":"Lawrence County","state_id":"OH"},{"zip":"45671","fips":"39131","name":"Pike County","state_id":"OH"},{"zip":"45671","fips":"39001","name":"Adams County","state_id":"OH"},{"zip":"45671","fips":"39145","name":"Scioto County","state_id":"OH"},{"zip":"45672","fips":"39141","name":"Ross County","state_id":"OH"},{"zip":"45672","fips":"39163","name":"Vinton County","state_id":"OH"},{"zip":"45672","fips":"39079","name":"Jackson County","state_id":"OH"},{"zip":"45673","fips":"39141","name":"Ross County","state_id":"OH"},{"zip":"45674","fips":"39053","name":"Gallia County","state_id":"OH"},{"zip":"45675","fips":"39087","name":"Lawrence County","state_id":"OH"},{"zip":"45677","fips":"39145","name":"Scioto County","state_id":"OH"},{"zip":"45678","fips":"39087","name":"Lawrence County","state_id":"OH"},{"zip":"45678","fips":"39053","name":"Gallia County","state_id":"OH"},{"zip":"45679","fips":"39071","name":"Highland County","state_id":"OH"},{"zip":"45679","fips":"39001","name":"Adams County","state_id":"OH"},{"zip":"45680","fips":"39087","name":"Lawrence County","state_id":"OH"},{"zip":"45681","fips":"39141","name":"Ross County","state_id":"OH"},{"zip":"45682","fips":"39145","name":"Scioto County","state_id":"OH"},{"zip":"45682","fips":"39087","name":"Lawrence County","state_id":"OH"},{"zip":"45682","fips":"39079","name":"Jackson County","state_id":"OH"},{"zip":"45684","fips":"39145","name":"Scioto County","state_id":"OH"},{"zip":"45684","fips":"39001","name":"Adams County","state_id":"OH"},{"zip":"45685","fips":"39079","name":"Jackson County","state_id":"OH"},{"zip":"45685","fips":"39053","name":"Gallia County","state_id":"OH"},{"zip":"45686","fips":"39079","name":"Jackson County","state_id":"OH"},{"zip":"45686","fips":"39105","name":"Meigs County","state_id":"OH"},{"zip":"45686","fips":"39163","name":"Vinton County","state_id":"OH"},{"zip":"45686","fips":"39053","name":"Gallia County","state_id":"OH"},{"zip":"45687","fips":"39131","name":"Pike County","state_id":"OH"},{"zip":"45688","fips":"39053","name":"Gallia County","state_id":"OH"},{"zip":"45688","fips":"39087","name":"Lawrence County","state_id":"OH"},{"zip":"45690","fips":"39131","name":"Pike County","state_id":"OH"},{"zip":"45690","fips":"39141","name":"Ross County","state_id":"OH"},{"zip":"45692","fips":"39079","name":"Jackson County","state_id":"OH"},{"zip":"45692","fips":"39163","name":"Vinton County","state_id":"OH"},{"zip":"45693","fips":"39001","name":"Adams County","state_id":"OH"},{"zip":"45694","fips":"39145","name":"Scioto County","state_id":"OH"},{"zip":"45695","fips":"39163","name":"Vinton County","state_id":"OH"},{"zip":"45696","fips":"39087","name":"Lawrence County","state_id":"OH"},{"zip":"45697","fips":"39071","name":"Highland County","state_id":"OH"},{"zip":"45697","fips":"39001","name":"Adams County","state_id":"OH"},{"zip":"45697","fips":"39015","name":"Brown County","state_id":"OH"},{"zip":"45698","fips":"39163","name":"Vinton County","state_id":"OH"},{"zip":"45699","fips":"39145","name":"Scioto County","state_id":"OH"}]
