[{"zip":"45701","fips":"39009","name":"Athens County","state_id":"OH"},{"zip":"45710","fips":"39009","name":"Athens County","state_id":"OH"},{"zip":"45710","fips":"39105","name":"Meigs County","state_id":"OH"},{"zip":"45710","fips":"39163","name":"Vinton County","state_id":"OH"},{"zip":"45711","fips":"39115","name":"Morgan County","state_id":"OH"},{"zip":"45711","fips":"39009","name":"Athens County","state_id":"OH"},{"zip":"45711","fips":"39167","name":"Washington County","state_id":"OH"},{"zip":"45712","fips":"39167","name":"Washington County","state_id":"OH"},{"zip":"45713","fips":"39167","name":"Washington County","state_id":"OH"},{"zip":"45714","fips":"39167","name":"Washington County","state_id":"OH"},{"zip":"45715","fips":"39121","name":"Noble County","state_id":"OH"},{"zip":"45715","fips":"39115","name":"Morgan County","state_id":"OH"},{"zip":"45715","fips":"39167","name":"Washington County","state_id":"OH"},{"zip":"45716","fips":"39009","name":"Athens County","state_id":"OH"},{"zip":"45719","fips":"39009","name":"Athens County","state_id":"OH"},{"zip":"45720","fips":"39105","name":"Meigs County","state_id":"OH"},{"zip":"45721","fips":"39167","name":"Washington County","state_id":"OH"},{"zip":"45723","fips":"39009","name":"Athens County","state_id":"OH"},{"zip":"45723","fips":"39105","name":"Meigs County","state_id":"OH"},{"zip":"45723","fips":"39167","name":"Washington County","state_id":"OH"},{"zip":"45724","fips":"39167","name":"Washington County","state_id":"OH"},{"zip":"45727","fips":"39167","name":"Washington County","state_id":"OH"},{"zip":"45727","fips":"39121","name":"Noble County","state_id":"OH"},{"zip":"45729","fips":"39167","name":"Washington County","state_id":"OH"},{"zip":"45732","fips":"39115","name":"Morgan County","state_id":"OH"},{"zip":"45732","fips":"39127","name":"Perry County","state_id":"OH"},{"zip":"45732","fips":"39009","name":"Athens County","state_id":"OH"},{"zip":"45732","fips":"39073","name":"Hocking County","state_id":"OH"},{"zip":"45734","fips":"39167","name":"Washington County","state_id":"OH"},{"zip":"45734","fips":"39111","name":"Monroe County","state_id":"OH"},{"zip":"45735","fips":"39105","name":"Meigs County","state_id":"OH"},{"zip":"45735","fips":"39009","name":"Athens County","state_id":"OH"},{"zip":"45739","fips":"39009","name":"Athens County","state_id":"OH"},{"zip":"45740","fips":"39009","name":"Athens County","state_id":"OH"},{"zip":"45741","fips":"39163","name":"Vinton County","state_id":"OH"},{"zip":"45741","fips":"39105","name":"Meigs County","state_id":"OH"},{"zip":"45742","fips":"39009","name":"Athens County","state_id":"OH"},{"zip":"45742","fips":"39167","name":"Washington County","state_id":"OH"},{"zip":"45743","fips":"39105","name":"Meigs County","state_id":"OH"},{"zip":"45744","fips":"39167","name":"Washington County","state_id":"OH"},{"zip":"45744","fips":"39115","name":"Morgan County","state_id":"OH"},{"zip":"45744","fips":"39121","name":"Noble County","state_id":"OH"},{"zip":"45745","fips":"39111","name":"Monroe County","state_id":"OH"},{"zip":"45745","fips":"39167","name":"Washington County","state_id":"OH"},{"zip":"45745","fips":"39121","name":"Noble County","state_id":"OH"},{"zip":"45746","fips":"39167","name":"Washington County","state_id":"OH"},{"zip":"45746","fips":"39121","name":"Noble County","state_id":"OH"},{"zip":"45750","fips":"39167","name":"Washington County","state_id":"OH"},{"zip":"45760","fips":"39105","name":"Meigs County","state_id":"OH"},{"zip":"45760","fips":"39053","name":"Gallia County","state_id":"OH"},{"zip":"45761","fips":"39009","name":"Athens County","state_id":"OH"},{"zip":"45764","fips":"39009","name":"Athens County","state_id":"OH"},{"zip":"45764","fips":"39073","name":"Hocking County","state_id":"OH"},{"zip":"45766","fips":"39009","name":"Athens County","state_id":"OH"},{"zip":"45766","fips":"39163","name":"Vinton County","state_id":"OH"},{"zip":"45767","fips":"39167","name":"Washington County","state_id":"OH"},{"zip":"45767","fips":"39111","name":"Monroe County","state_id":"OH"},{"zip":"45768","fips":"39167","name":"Washington County","state_id":"OH"},{"zip":"45769","fips":"39105","name":"Meigs County","state_id":"OH"},{"zip":"45770","fips":"39105","name":"Meigs County","state_id":"OH"},{"zip":"45771","fips":"39105","name":"Meigs County","state_id":"OH"},{"zip":"45772","fips":"39105","name":"Meigs County","state_id":"OH"},{"zip":"45773","fips":"39167","name":"Washington County","state_id":"OH"},{"zip":"45775","fips":"39105","name":"Meigs County","state_id":"OH"},{"zip":"45776","fips":"39105","name":"Meigs County","state_id":"OH"},{"zip":"45776","fips":"39009","name":"Athens County","state_id":"OH"},{"zip":"45778","fips":"39009","name":"Athens County","state_id":"OH"},{"zip":"45779","fips":"39105","name":"Meigs County","state_id":"OH"},{"zip":"45780","fips":"39009","name":"Athens County","state_id":"OH"},{"zip":"45782","fips":"39009","name":"Athens County","state_id":"OH"},{"zip":"45783","fips":"39105","name":"Meigs County","state_id":"OH"},{"zip":"45784","fips":"39167","name":"Washington County","state_id":"OH"},{"zip":"45786","fips":"39167","name":"Washington County","state_id":"OH"},{"zip":"45786","fips":"39115","name":"Morgan County","state_id":"OH"},{"zip":"45787","fips":"39167","name":"Washington County","state_id":"OH"},{"zip":"45788","fips":"39167","name":"Washington County","state_id":"OH"},{"zip":"45789","fips":"39167","name":"Washington County","state_id":"OH"},{"zip":"45789","fips":"39111","name":"Monroe County","state_id":"OH"}]
