[{"zip":"45801","fips":"39003","name":"Allen County","state_id":"OH"},{"zip":"45801","fips":"39011","name":"Auglaize County","state_id":"OH"},{"zip":"45802","fips":"39003","name":"Allen County","state_id":"OH"},{"zip":"45804","fips":"39003","name":"Allen County","state_id":"OH"},{"zip":"45805","fips":"39003","name":"Allen County","state_id":"OH"},{"zip":"45806","fips":"39003","name":"Allen County","state_id":"OH"},{"zip":"45806","fips":"39011","name":"Auglaize County","state_id":"OH"},{"zip":"45807","fips":"39003","name":"Allen County","state_id":"OH"},{"zip":"45807","fips":"39137","name":"Putnam County","state_id":"OH"},{"zip":"45808","fips":"39003","name":"Allen County","state_id":"OH"},{"zip":"45809","fips":"39003","name":"Allen County","state_id":"OH"},{"zip":"45810","fips":"39065","name":"Hardin County","state_id":"OH"},{"zip":"45810","fips":"39003","name":"Allen County","state_id":"OH"},{"zip":"45810","fips":"39063","name":"Hancock County","state_id":"OH"},{"zip":"45812","fips":"39065","name":"Hardin County","state_id":"OH"},{"zip":"45812","fips":"39003","name":"Allen County","state_id":"OH"},{"zip":"45813","fips":"39039","name":"Defiance County","state_id":"OH"},{"zip":"45813","fips":"39125","name":"Paulding County","state_id":"OH"},{"zip":"45814","fips":"39063","name":"Hancock County","state_id":"OH"},{"zip":"45816","fips":"39063","name":"Hancock County","state_id":"OH"},{"zip":"45817","fips":"39003","name":"Allen County","state_id":"OH"},{"zip":"45817","fips":"39137","name":"Putnam County","state_id":"OH"},{"zip":"45817","fips":"39063","name":"Hancock County","state_id":"OH"},{"zip":"45819","fips":"39011","name":"Auglaize County","state_id":"OH"},{"zip":"45820","fips":"39003","name":"Allen County","state_id":"OH"},{"zip":"45821","fips":"39039","name":"Defiance County","state_id":"OH"},{"zip":"45821","fips":"39125","name":"Paulding County","state_id":"OH"},{"zip":"45822","fips":"39107","name":"Mercer County","state_id":"OH"},{"zip":"45822","fips":"39011","name":"Auglaize County","state_id":"OH"},{"zip":"45826","fips":"39107","name":"Mercer County","state_id":"OH"},{"zip":"45827","fips":"39125","name":"Paulding County","state_id":"OH"},{"zip":"45827","fips":"39137","name":"Putnam County","state_id":"OH"},{"zip":"45828","fips":"39107","name":"Mercer County","state_id":"OH"},{"zip":"45830","fips":"39137","name":"Putnam County","state_id":"OH"},{"zip":"45830","fips":"39003","name":"Allen County","state_id":"OH"},{"zip":"45831","fips":"39137","name":"Putnam County","state_id":"OH"},{"zip":"45831","fips":"39039","name":"Defiance County","state_id":"OH"},{"zip":"45831","fips":"39125","name":"Paulding County","state_id":"OH"},{"zip":"45832","fips":"39161","name":"Van Wert County","state_id":"OH"},{"zip":"45832","fips":"39125","name":"Paulding County","state_id":"OH"},{"zip":"45833","fips":"39003","name":"Allen County","state_id":"OH"},{"zip":"45833","fips":"39161","name":"Van Wert County","state_id":"OH"},{"zip":"45833","fips":"39137","name":"Putnam County","state_id":"OH"},{"zip":"45835","fips":"39065","name":"Hardin County","state_id":"OH"},{"zip":"45836","fips":"39065","name":"Hardin County","state_id":"OH"},{"zip":"45836","fips":"39063","name":"Hancock County","state_id":"OH"},{"zip":"45837","fips":"39137","name":"Putnam County","state_id":"OH"},{"zip":"45838","fips":"39161","name":"Van Wert County","state_id":"OH"},{"zip":"45839","fips":"39063","name":"Hancock County","state_id":"OH"},{"zip":"45840","fips":"39063","name":"Hancock County","state_id":"OH"},{"zip":"45841","fips":"39065","name":"Hardin County","state_id":"OH"},{"zip":"45841","fips":"39063","name":"Hancock County","state_id":"OH"},{"zip":"45843","fips":"39101","name":"Marion County","state_id":"OH"},{"zip":"45843","fips":"39175","name":"Wyandot County","state_id":"OH"},{"zip":"45843","fips":"39065","name":"Hardin County","state_id":"OH"},{"zip":"45843","fips":"39063","name":"Hancock County","state_id":"OH"},{"zip":"45844","fips":"39137","name":"Putnam County","state_id":"OH"},{"zip":"45844","fips":"39161","name":"Van Wert County","state_id":"OH"},{"zip":"45844","fips":"39003","name":"Allen County","state_id":"OH"},{"zip":"45845","fips":"39107","name":"Mercer County","state_id":"OH"},{"zip":"45845","fips":"39011","name":"Auglaize County","state_id":"OH"},{"zip":"45845","fips":"39037","name":"Darke County","state_id":"OH"},{"zip":"45845","fips":"39149","name":"Shelby County","state_id":"OH"},{"zip":"45846","fips":"39107","name":"Mercer County","state_id":"OH"},{"zip":"45846","fips":"39037","name":"Darke County","state_id":"OH"},{"zip":"45848","fips":"39137","name":"Putnam County","state_id":"OH"},{"zip":"45849","fips":"39137","name":"Putnam County","state_id":"OH"},{"zip":"45849","fips":"39125","name":"Paulding County","state_id":"OH"},{"zip":"45849","fips":"39161","name":"Van Wert County","state_id":"OH"},{"zip":"45850","fips":"39065","name":"Hardin County","state_id":"OH"},{"zip":"45850","fips":"39003","name":"Allen County","state_id":"OH"},{"zip":"45850","fips":"39011","name":"Auglaize County","state_id":"OH"},{"zip":"45851","fips":"39125","name":"Paulding County","state_id":"OH"},{"zip":"45853","fips":"39137","name":"Putnam County","state_id":"OH"},{"zip":"45854","fips":"39003","name":"Allen County","state_id":"OH"},{"zip":"45855","fips":"39125","name":"Paulding County","state_id":"OH"},{"zip":"45856","fips":"39069","name":"Henry County","state_id":"OH"},{"zip":"45856","fips":"39137","name":"Putnam County","state_id":"OH"},{"zip":"45856","fips":"39063","name":"Hancock County","state_id":"OH"},{"zip":"45858","fips":"39173","name":"Wood County","state_id":"OH"},{"zip":"45858","fips":"39137","name":"Putnam County","state_id":"OH"},{"zip":"45858","fips":"39063","name":"Hancock County","state_id":"OH"},{"zip":"45859","fips":"39065","name":"Hardin County","state_id":"OH"},{"zip":"45860","fips":"39107","name":"Mercer County","state_id":"OH"},{"zip":"45860","fips":"39037","name":"Darke County","state_id":"OH"},{"zip":"45861","fips":"39125","name":"Paulding County","state_id":"OH"},{"zip":"45862","fips":"39011","name":"Auglaize County","state_id":"OH"},{"zip":"45862","fips":"39107","name":"Mercer County","state_id":"OH"},{"zip":"45863","fips":"39161","name":"Van Wert County","state_id":"OH"},{"zip":"45864","fips":"39137","name":"Putnam County","state_id":"OH"},{"zip":"45865","fips":"39011","name":"Auglaize County","state_id":"OH"},{"zip":"45865","fips":"39149","name":"Shelby County","state_id":"OH"},{"zip":"45865","fips":"39107","name":"Mercer County","state_id":"OH"},{"zip":"45866","fips":"39107","name":"Mercer County","state_id":"OH"},{"zip":"45867","fips":"39063","name":"Hancock County","state_id":"OH"},{"zip":"45867","fips":"39175","name":"Wyandot County","state_id":"OH"},{"zip":"45868","fips":"39063","name":"Hancock County","state_id":"OH"},{"zip":"45868","fips":"39137","name":"Putnam County","state_id":"OH"},{"zip":"45869","fips":"39107","name":"Mercer County","state_id":"OH"},{"zip":"45869","fips":"39149","name":"Shelby County","state_id":"OH"},{"zip":"45869","fips":"39011","name":"Auglaize County","state_id":"OH"},{"zip":"45870","fips":"39011","name":"Auglaize County","state_id":"OH"},{"zip":"45871","fips":"39149","name":"Shelby County","state_id":"OH"},{"zip":"45871","fips":"39011","name":"Auglaize County","state_id":"OH"},{"zip":"45872","fips":"39063","name":"Hancock County","state_id":"OH"},{"zip":"45872","fips":"39173","name":"Wood County","state_id":"OH"},{"zip":"45873","fips":"39125","name":"Paulding County","state_id":"OH"},{"zip":"45873","fips":"39137","name":"Putnam County","state_id":"OH"},{"zip":"45874","fips":"39161","name":"Van Wert County","state_id":"OH"},{"zip":"45875","fips":"39137","name":"Putnam County","state_id":"OH"},{"zip":"45876","fips":"39137","name":"Putnam County","state_id":"OH"},{"zip":"45877","fips":"39137","name":"Putnam County","state_id":"OH"},{"zip":"45877","fips":"39003","name":"Allen County","state_id":"OH"},{"zip":"45877","fips":"39063","name":"Hancock County","state_id":"OH"},{"zip":"45879","fips":"39125","name":"Paulding County","state_id":"OH"},{"zip":"45880","fips":"39125","name":"Paulding County","state_id":"OH"},{"zip":"45881","fips":"39063","name":"Hancock County","state_id":"OH"},{"zip":"45882","fips":"39161","name":"Van Wert County","state_id":"OH"},{"zip":"45882","fips":"39107","name":"Mercer County","state_id":"OH"},{"zip":"45883","fips":"39107","name":"Mercer County","state_id":"OH"},{"zip":"45883","fips":"39037","name":"Darke County","state_id":"OH"},{"zip":"45884","fips":"39011","name":"Auglaize County","state_id":"OH"},{"zip":"45885","fips":"39011","name":"Auglaize County","state_id":"OH"},{"zip":"45885","fips":"39107","name":"Mercer County","state_id":"OH"},{"zip":"45886","fips":"39161","name":"Van Wert County","state_id":"OH"},{"zip":"45886","fips":"39125","name":"Paulding County","state_id":"OH"},{"zip":"45887","fips":"39011","name":"Auglaize County","state_id":"OH"},{"zip":"45887","fips":"39161","name":"Van Wert County","state_id":"OH"},{"zip":"45887","fips":"39107","name":"Mercer County","state_id":"OH"},{"zip":"45887","fips":"39003","name":"Allen County","state_id":"OH"},{"zip":"45888","fips":"39011","name":"Auglaize County","state_id":"OH"},{"zip":"45889","fips":"39063","name":"Hancock County","state_id":"OH"},{"zip":"45889","fips":"39173","name":"Wood County","state_id":"OH"},{"zip":"45890","fips":"39063","name":"Hancock County","state_id":"OH"},{"zip":"45891","fips":"39161","name":"Van Wert County","state_id":"OH"},{"zip":"45893","fips":"39137","name":"Putnam County","state_id":"OH"},{"zip":"45894","fips":"39003","name":"Allen County","state_id":"OH"},{"zip":"45894","fips":"39107","name":"Mercer County","state_id":"OH"},{"zip":"45894","fips":"39161","name":"Van Wert County","state_id":"OH"},{"zip":"45895","fips":"39011","name":"Auglaize County","state_id":"OH"},{"zip":"45895","fips":"39149","name":"Shelby County","state_id":"OH"},{"zip":"45895","fips":"39003","name":"Allen County","state_id":"OH"},{"zip":"45895","fips":"39091","name":"Logan County","state_id":"OH"},{"zip":"45896","fips":"39003","name":"Allen County","state_id":"OH"},{"zip":"45896","fips":"39065","name":"Hardin County","state_id":"OH"},{"zip":"45896","fips":"39011","name":"Auglaize County","state_id":"OH"},{"zip":"45897","fips":"39063","name":"Hancock County","state_id":"OH"},{"zip":"45898","fips":"39107","name":"Mercer County","state_id":"OH"},{"zip":"45898","fips":"39161","name":"Van Wert County","state_id":"OH"},{"zip":"45899","fips":"39161","name":"Van Wert County","state_id":"OH"}]
