[{"zip":"46001","fips":"18035","name":"Delaware County","state_id":"IN"},{"zip":"46001","fips":"18095","name":"Madison County","state_id":"IN"},{"zip":"46011","fips":"18095","name":"Madison County","state_id":"IN"},{"zip":"46011","fips":"18057","name":"Hamilton County","state_id":"IN"},{"zip":"46012","fips":"18035","name":"Delaware County","state_id":"IN"},{"zip":"46012","fips":"18095","name":"Madison County","state_id":"IN"},{"zip":"46013","fips":"18095","name":"Madison County","state_id":"IN"},{"zip":"46015","fips":"18095","name":"Madison County","state_id":"IN"},{"zip":"46016","fips":"18095","name":"Madison County","state_id":"IN"},{"zip":"46017","fips":"18035","name":"Delaware County","state_id":"IN"},{"zip":"46017","fips":"18095","name":"Madison County","state_id":"IN"},{"zip":"46018","fips":"18095","name":"Madison County","state_id":"IN"},{"zip":"46030","fips":"18057","name":"Hamilton County","state_id":"IN"},{"zip":"46031","fips":"18159","name":"Tipton County","state_id":"IN"},{"zip":"46031","fips":"18057","name":"Hamilton County","state_id":"IN"},{"zip":"46032","fips":"18057","name":"Hamilton County","state_id":"IN"},{"zip":"46032","fips":"18011","name":"Boone County","state_id":"IN"},{"zip":"46033","fips":"18057","name":"Hamilton County","state_id":"IN"},{"zip":"46034","fips":"18057","name":"Hamilton County","state_id":"IN"},{"zip":"46035","fips":"18011","name":"Boone County","state_id":"IN"},{"zip":"46035","fips":"18023","name":"Clinton County","state_id":"IN"},{"zip":"46035","fips":"18107","name":"Montgomery County","state_id":"IN"},{"zip":"46036","fips":"18053","name":"Grant County","state_id":"IN"},{"zip":"46036","fips":"18159","name":"Tipton County","state_id":"IN"},{"zip":"46036","fips":"18095","name":"Madison County","state_id":"IN"},{"zip":"46036","fips":"18057","name":"Hamilton County","state_id":"IN"},{"zip":"46037","fips":"18097","name":"Marion County","state_id":"IN"},{"zip":"46037","fips":"18057","name":"Hamilton County","state_id":"IN"},{"zip":"46038","fips":"18057","name":"Hamilton County","state_id":"IN"},{"zip":"46039","fips":"18159","name":"Tipton County","state_id":"IN"},{"zip":"46039","fips":"18023","name":"Clinton County","state_id":"IN"},{"zip":"46039","fips":"18067","name":"Howard County","state_id":"IN"},{"zip":"46040","fips":"18057","name":"Hamilton County","state_id":"IN"},{"zip":"46040","fips":"18095","name":"Madison County","state_id":"IN"},{"zip":"46040","fips":"18059","name":"Hancock County","state_id":"IN"},{"zip":"46041","fips":"18023","name":"Clinton County","state_id":"IN"},{"zip":"46041","fips":"18157","name":"Tippecanoe County","state_id":"IN"},{"zip":"46041","fips":"18011","name":"Boone County","state_id":"IN"},{"zip":"46041","fips":"18067","name":"Howard County","state_id":"IN"},{"zip":"46041","fips":"18015","name":"Carroll County","state_id":"IN"},{"zip":"46044","fips":"18095","name":"Madison County","state_id":"IN"},{"zip":"46045","fips":"18159","name":"Tipton County","state_id":"IN"},{"zip":"46047","fips":"18159","name":"Tipton County","state_id":"IN"},{"zip":"46048","fips":"18095","name":"Madison County","state_id":"IN"},{"zip":"46049","fips":"18057","name":"Hamilton County","state_id":"IN"},{"zip":"46049","fips":"18023","name":"Clinton County","state_id":"IN"},{"zip":"46049","fips":"18159","name":"Tipton County","state_id":"IN"},{"zip":"46050","fips":"18023","name":"Clinton County","state_id":"IN"},{"zip":"46050","fips":"18011","name":"Boone County","state_id":"IN"},{"zip":"46050","fips":"18057","name":"Hamilton County","state_id":"IN"},{"zip":"46050","fips":"18159","name":"Tipton County","state_id":"IN"},{"zip":"46051","fips":"18095","name":"Madison County","state_id":"IN"},{"zip":"46052","fips":"18011","name":"Boone County","state_id":"IN"},{"zip":"46052","fips":"18063","name":"Hendricks County","state_id":"IN"},{"zip":"46055","fips":"18059","name":"Hancock County","state_id":"IN"},{"zip":"46055","fips":"18097","name":"Marion County","state_id":"IN"},{"zip":"46055","fips":"18057","name":"Hamilton County","state_id":"IN"},{"zip":"46056","fips":"18059","name":"Hancock County","state_id":"IN"},{"zip":"46056","fips":"18065","name":"Henry County","state_id":"IN"},{"zip":"46056","fips":"18095","name":"Madison County","state_id":"IN"},{"zip":"46057","fips":"18023","name":"Clinton County","state_id":"IN"},{"zip":"46058","fips":"18157","name":"Tippecanoe County","state_id":"IN"},{"zip":"46058","fips":"18023","name":"Clinton County","state_id":"IN"},{"zip":"46060","fips":"18095","name":"Madison County","state_id":"IN"},{"zip":"46060","fips":"18057","name":"Hamilton County","state_id":"IN"},{"zip":"46061","fips":"18057","name":"Hamilton County","state_id":"IN"},{"zip":"46062","fips":"18057","name":"Hamilton County","state_id":"IN"},{"zip":"46063","fips":"18095","name":"Madison County","state_id":"IN"},{"zip":"46064","fips":"18057","name":"Hamilton County","state_id":"IN"},{"zip":"46064","fips":"18059","name":"Hancock County","state_id":"IN"},{"zip":"46064","fips":"18095","name":"Madison County","state_id":"IN"},{"zip":"46065","fips":"18015","name":"Carroll County","state_id":"IN"},{"zip":"46065","fips":"18023","name":"Clinton County","state_id":"IN"},{"zip":"46067","fips":"18023","name":"Clinton County","state_id":"IN"},{"zip":"46068","fips":"18159","name":"Tipton County","state_id":"IN"},{"zip":"46068","fips":"18067","name":"Howard County","state_id":"IN"},{"zip":"46069","fips":"18023","name":"Clinton County","state_id":"IN"},{"zip":"46069","fips":"18011","name":"Boone County","state_id":"IN"},{"zip":"46069","fips":"18057","name":"Hamilton County","state_id":"IN"},{"zip":"46069","fips":"18159","name":"Tipton County","state_id":"IN"},{"zip":"46070","fips":"18035","name":"Delaware County","state_id":"IN"},{"zip":"46070","fips":"18095","name":"Madison County","state_id":"IN"},{"zip":"46070","fips":"18053","name":"Grant County","state_id":"IN"},{"zip":"46071","fips":"18011","name":"Boone County","state_id":"IN"},{"zip":"46071","fips":"18023","name":"Clinton County","state_id":"IN"},{"zip":"46071","fips":"18107","name":"Montgomery County","state_id":"IN"},{"zip":"46072","fips":"18057","name":"Hamilton County","state_id":"IN"},{"zip":"46072","fips":"18159","name":"Tipton County","state_id":"IN"},{"zip":"46074","fips":"18057","name":"Hamilton County","state_id":"IN"},{"zip":"46075","fips":"18011","name":"Boone County","state_id":"IN"},{"zip":"46076","fips":"18067","name":"Howard County","state_id":"IN"},{"zip":"46076","fips":"18159","name":"Tipton County","state_id":"IN"},{"zip":"46077","fips":"18097","name":"Marion County","state_id":"IN"},{"zip":"46077","fips":"18011","name":"Boone County","state_id":"IN"},{"zip":"46077","fips":"18063","name":"Hendricks County","state_id":"IN"},{"zip":"46077","fips":"18057","name":"Hamilton County","state_id":"IN"},{"zip":"46082","fips":"18057","name":"Hamilton County","state_id":"IN"}]
