[{"zip":"46102","fips":"18011","name":"Boone County","state_id":"IN"},{"zip":"46103","fips":"18063","name":"Hendricks County","state_id":"IN"},{"zip":"46104","fips":"18139","name":"Rush County","state_id":"IN"},{"zip":"46105","fips":"18133","name":"Putnam County","state_id":"IN"},{"zip":"46106","fips":"18081","name":"Johnson County","state_id":"IN"},{"zip":"46106","fips":"18109","name":"Morgan County","state_id":"IN"},{"zip":"46107","fips":"18097","name":"Marion County","state_id":"IN"},{"zip":"46110","fips":"18145","name":"Shelby County","state_id":"IN"},{"zip":"46110","fips":"18081","name":"Johnson County","state_id":"IN"},{"zip":"46111","fips":"18109","name":"Morgan County","state_id":"IN"},{"zip":"46112","fips":"18011","name":"Boone County","state_id":"IN"},{"zip":"46112","fips":"18063","name":"Hendricks County","state_id":"IN"},{"zip":"46113","fips":"18109","name":"Morgan County","state_id":"IN"},{"zip":"46113","fips":"18097","name":"Marion County","state_id":"IN"},{"zip":"46113","fips":"18063","name":"Hendricks County","state_id":"IN"},{"zip":"46115","fips":"18059","name":"Hancock County","state_id":"IN"},{"zip":"46115","fips":"18139","name":"Rush County","state_id":"IN"},{"zip":"46117","fips":"18059","name":"Hancock County","state_id":"IN"},{"zip":"46117","fips":"18065","name":"Henry County","state_id":"IN"},{"zip":"46118","fips":"18109","name":"Morgan County","state_id":"IN"},{"zip":"46118","fips":"18063","name":"Hendricks County","state_id":"IN"},{"zip":"46120","fips":"18133","name":"Putnam County","state_id":"IN"},{"zip":"46120","fips":"18109","name":"Morgan County","state_id":"IN"},{"zip":"46120","fips":"18119","name":"Owen County","state_id":"IN"},{"zip":"46121","fips":"18063","name":"Hendricks County","state_id":"IN"},{"zip":"46121","fips":"18133","name":"Putnam County","state_id":"IN"},{"zip":"46122","fips":"18063","name":"Hendricks County","state_id":"IN"},{"zip":"46123","fips":"18063","name":"Hendricks County","state_id":"IN"},{"zip":"46124","fips":"18005","name":"Bartholomew County","state_id":"IN"},{"zip":"46124","fips":"18145","name":"Shelby County","state_id":"IN"},{"zip":"46124","fips":"18081","name":"Johnson County","state_id":"IN"},{"zip":"46125","fips":"18109","name":"Morgan County","state_id":"IN"},{"zip":"46126","fips":"18145","name":"Shelby County","state_id":"IN"},{"zip":"46127","fips":"18139","name":"Rush County","state_id":"IN"},{"zip":"46127","fips":"18041","name":"Fayette County","state_id":"IN"},{"zip":"46128","fips":"18133","name":"Putnam County","state_id":"IN"},{"zip":"46130","fips":"18059","name":"Hancock County","state_id":"IN"},{"zip":"46130","fips":"18145","name":"Shelby County","state_id":"IN"},{"zip":"46131","fips":"18145","name":"Shelby County","state_id":"IN"},{"zip":"46131","fips":"18081","name":"Johnson County","state_id":"IN"},{"zip":"46133","fips":"18139","name":"Rush County","state_id":"IN"},{"zip":"46133","fips":"18041","name":"Fayette County","state_id":"IN"},{"zip":"46135","fips":"18133","name":"Putnam County","state_id":"IN"},{"zip":"46135","fips":"18121","name":"Parke County","state_id":"IN"},{"zip":"46140","fips":"18145","name":"Shelby County","state_id":"IN"},{"zip":"46140","fips":"18059","name":"Hancock County","state_id":"IN"},{"zip":"46140","fips":"18139","name":"Rush County","state_id":"IN"},{"zip":"46142","fips":"18081","name":"Johnson County","state_id":"IN"},{"zip":"46142","fips":"18097","name":"Marion County","state_id":"IN"},{"zip":"46143","fips":"18081","name":"Johnson County","state_id":"IN"},{"zip":"46144","fips":"18145","name":"Shelby County","state_id":"IN"},{"zip":"46146","fips":"18139","name":"Rush County","state_id":"IN"},{"zip":"46147","fips":"18063","name":"Hendricks County","state_id":"IN"},{"zip":"46147","fips":"18011","name":"Boone County","state_id":"IN"},{"zip":"46148","fips":"18139","name":"Rush County","state_id":"IN"},{"zip":"46148","fips":"18059","name":"Hancock County","state_id":"IN"},{"zip":"46148","fips":"18065","name":"Henry County","state_id":"IN"},{"zip":"46149","fips":"18011","name":"Boone County","state_id":"IN"},{"zip":"46149","fips":"18063","name":"Hendricks County","state_id":"IN"},{"zip":"46150","fips":"18145","name":"Shelby County","state_id":"IN"},{"zip":"46150","fips":"18139","name":"Rush County","state_id":"IN"},{"zip":"46151","fips":"18109","name":"Morgan County","state_id":"IN"},{"zip":"46151","fips":"18105","name":"Monroe County","state_id":"IN"},{"zip":"46151","fips":"18081","name":"Johnson County","state_id":"IN"},{"zip":"46154","fips":"18059","name":"Hancock County","state_id":"IN"},{"zip":"46155","fips":"18139","name":"Rush County","state_id":"IN"},{"zip":"46156","fips":"18139","name":"Rush County","state_id":"IN"},{"zip":"46156","fips":"18031","name":"Decatur County","state_id":"IN"},{"zip":"46157","fips":"18109","name":"Morgan County","state_id":"IN"},{"zip":"46157","fips":"18063","name":"Hendricks County","state_id":"IN"},{"zip":"46158","fips":"18063","name":"Hendricks County","state_id":"IN"},{"zip":"46158","fips":"18109","name":"Morgan County","state_id":"IN"},{"zip":"46160","fips":"18081","name":"Johnson County","state_id":"IN"},{"zip":"46160","fips":"18013","name":"Brown County","state_id":"IN"},{"zip":"46160","fips":"18109","name":"Morgan County","state_id":"IN"},{"zip":"46161","fips":"18059","name":"Hancock County","state_id":"IN"},{"zip":"46161","fips":"18139","name":"Rush County","state_id":"IN"},{"zip":"46161","fips":"18145","name":"Shelby County","state_id":"IN"},{"zip":"46162","fips":"18145","name":"Shelby County","state_id":"IN"},{"zip":"46162","fips":"18081","name":"Johnson County","state_id":"IN"},{"zip":"46163","fips":"18145","name":"Shelby County","state_id":"IN"},{"zip":"46163","fips":"18059","name":"Hancock County","state_id":"IN"},{"zip":"46163","fips":"18097","name":"Marion County","state_id":"IN"},{"zip":"46164","fips":"18081","name":"Johnson County","state_id":"IN"},{"zip":"46164","fips":"18013","name":"Brown County","state_id":"IN"},{"zip":"46165","fips":"18133","name":"Putnam County","state_id":"IN"},{"zip":"46165","fips":"18063","name":"Hendricks County","state_id":"IN"},{"zip":"46166","fips":"18119","name":"Owen County","state_id":"IN"},{"zip":"46166","fips":"18109","name":"Morgan County","state_id":"IN"},{"zip":"46167","fips":"18011","name":"Boone County","state_id":"IN"},{"zip":"46167","fips":"18063","name":"Hendricks County","state_id":"IN"},{"zip":"46168","fips":"18063","name":"Hendricks County","state_id":"IN"},{"zip":"46170","fips":"18133","name":"Putnam County","state_id":"IN"},{"zip":"46171","fips":"18121","name":"Parke County","state_id":"IN"},{"zip":"46171","fips":"18133","name":"Putnam County","state_id":"IN"},{"zip":"46172","fips":"18107","name":"Montgomery County","state_id":"IN"},{"zip":"46172","fips":"18133","name":"Putnam County","state_id":"IN"},{"zip":"46173","fips":"18139","name":"Rush County","state_id":"IN"},{"zip":"46173","fips":"18047","name":"Franklin County","state_id":"IN"},{"zip":"46173","fips":"18031","name":"Decatur County","state_id":"IN"},{"zip":"46173","fips":"18041","name":"Fayette County","state_id":"IN"},{"zip":"46175","fips":"18133","name":"Putnam County","state_id":"IN"},{"zip":"46175","fips":"18121","name":"Parke County","state_id":"IN"},{"zip":"46175","fips":"18107","name":"Montgomery County","state_id":"IN"},{"zip":"46176","fips":"18145","name":"Shelby County","state_id":"IN"},{"zip":"46176","fips":"18139","name":"Rush County","state_id":"IN"},{"zip":"46180","fips":"18063","name":"Hendricks County","state_id":"IN"},{"zip":"46180","fips":"18109","name":"Morgan County","state_id":"IN"},{"zip":"46181","fips":"18013","name":"Brown County","state_id":"IN"},{"zip":"46181","fips":"18081","name":"Johnson County","state_id":"IN"},{"zip":"46182","fips":"18145","name":"Shelby County","state_id":"IN"},{"zip":"46182","fips":"18031","name":"Decatur County","state_id":"IN"},{"zip":"46182","fips":"18139","name":"Rush County","state_id":"IN"},{"zip":"46183","fips":"18097","name":"Marion County","state_id":"IN"},{"zip":"46184","fips":"18081","name":"Johnson County","state_id":"IN"},{"zip":"46186","fips":"18059","name":"Hancock County","state_id":"IN"},{"zip":"46186","fips":"18065","name":"Henry County","state_id":"IN"}]
