[{"zip":"46201","fips":"18097","name":"Marion County","state_id":"IN"},{"zip":"46202","fips":"18097","name":"Marion County","state_id":"IN"},{"zip":"46203","fips":"18097","name":"Marion County","state_id":"IN"},{"zip":"46204","fips":"18097","name":"Marion County","state_id":"IN"},{"zip":"46205","fips":"18097","name":"Marion County","state_id":"IN"},{"zip":"46206","fips":"18097","name":"Marion County","state_id":"IN"},{"zip":"46208","fips":"18097","name":"Marion County","state_id":"IN"},{"zip":"46213","fips":"18097","name":"Marion County","state_id":"IN"},{"zip":"46214","fips":"18097","name":"Marion County","state_id":"IN"},{"zip":"46216","fips":"18097","name":"Marion County","state_id":"IN"},{"zip":"46217","fips":"18097","name":"Marion County","state_id":"IN"},{"zip":"46218","fips":"18097","name":"Marion County","state_id":"IN"},{"zip":"46219","fips":"18097","name":"Marion County","state_id":"IN"},{"zip":"46220","fips":"18097","name":"Marion County","state_id":"IN"},{"zip":"46221","fips":"18097","name":"Marion County","state_id":"IN"},{"zip":"46222","fips":"18097","name":"Marion County","state_id":"IN"},{"zip":"46224","fips":"18097","name":"Marion County","state_id":"IN"},{"zip":"46225","fips":"18097","name":"Marion County","state_id":"IN"},{"zip":"46226","fips":"18097","name":"Marion County","state_id":"IN"},{"zip":"46227","fips":"18097","name":"Marion County","state_id":"IN"},{"zip":"46228","fips":"18097","name":"Marion County","state_id":"IN"},{"zip":"46229","fips":"18059","name":"Hancock County","state_id":"IN"},{"zip":"46229","fips":"18097","name":"Marion County","state_id":"IN"},{"zip":"46230","fips":"18097","name":"Marion County","state_id":"IN"},{"zip":"46231","fips":"18063","name":"Hendricks County","state_id":"IN"},{"zip":"46231","fips":"18097","name":"Marion County","state_id":"IN"},{"zip":"46234","fips":"18063","name":"Hendricks County","state_id":"IN"},{"zip":"46234","fips":"18097","name":"Marion County","state_id":"IN"},{"zip":"46235","fips":"18059","name":"Hancock County","state_id":"IN"},{"zip":"46235","fips":"18097","name":"Marion County","state_id":"IN"},{"zip":"46236","fips":"18059","name":"Hancock County","state_id":"IN"},{"zip":"46236","fips":"18057","name":"Hamilton County","state_id":"IN"},{"zip":"46236","fips":"18097","name":"Marion County","state_id":"IN"},{"zip":"46237","fips":"18097","name":"Marion County","state_id":"IN"},{"zip":"46239","fips":"18059","name":"Hancock County","state_id":"IN"},{"zip":"46239","fips":"18097","name":"Marion County","state_id":"IN"},{"zip":"46239","fips":"18063","name":"Hendricks County","state_id":"IN"},{"zip":"46240","fips":"18097","name":"Marion County","state_id":"IN"},{"zip":"46240","fips":"18057","name":"Hamilton County","state_id":"IN"},{"zip":"46241","fips":"18097","name":"Marion County","state_id":"IN"},{"zip":"46242","fips":"18097","name":"Marion County","state_id":"IN"},{"zip":"46244","fips":"18097","name":"Marion County","state_id":"IN"},{"zip":"46247","fips":"18097","name":"Marion County","state_id":"IN"},{"zip":"46249","fips":"18097","name":"Marion County","state_id":"IN"},{"zip":"46250","fips":"18057","name":"Hamilton County","state_id":"IN"},{"zip":"46250","fips":"18097","name":"Marion County","state_id":"IN"},{"zip":"46251","fips":"18097","name":"Marion County","state_id":"IN"},{"zip":"46253","fips":"18097","name":"Marion County","state_id":"IN"},{"zip":"46254","fips":"18097","name":"Marion County","state_id":"IN"},{"zip":"46256","fips":"18057","name":"Hamilton County","state_id":"IN"},{"zip":"46256","fips":"18097","name":"Marion County","state_id":"IN"},{"zip":"46259","fips":"18097","name":"Marion County","state_id":"IN"},{"zip":"46259","fips":"18145","name":"Shelby County","state_id":"IN"},{"zip":"46259","fips":"18081","name":"Johnson County","state_id":"IN"},{"zip":"46260","fips":"18057","name":"Hamilton County","state_id":"IN"},{"zip":"46260","fips":"18097","name":"Marion County","state_id":"IN"},{"zip":"46268","fips":"18097","name":"Marion County","state_id":"IN"},{"zip":"46268","fips":"18057","name":"Hamilton County","state_id":"IN"},{"zip":"46268","fips":"18011","name":"Boone County","state_id":"IN"},{"zip":"46278","fips":"18063","name":"Hendricks County","state_id":"IN"},{"zip":"46278","fips":"18011","name":"Boone County","state_id":"IN"},{"zip":"46278","fips":"18097","name":"Marion County","state_id":"IN"},{"zip":"46280","fips":"18097","name":"Marion County","state_id":"IN"},{"zip":"46280","fips":"18057","name":"Hamilton County","state_id":"IN"},{"zip":"46282","fips":"18097","name":"Marion County","state_id":"IN"},{"zip":"46283","fips":"18097","name":"Marion County","state_id":"IN"},{"zip":"46285","fips":"18097","name":"Marion County","state_id":"IN"},{"zip":"46290","fips":"18097","name":"Marion County","state_id":"IN"},{"zip":"46290","fips":"18057","name":"Hamilton County","state_id":"IN"},{"zip":"46298","fips":"18097","name":"Marion County","state_id":"IN"}]
