[{"zip":"46301","fips":"18127","name":"Porter County","state_id":"IN"},{"zip":"46302","fips":"18127","name":"Porter County","state_id":"IN"},{"zip":"46303","fips":"18089","name":"Lake County","state_id":"IN"},{"zip":"46304","fips":"18127","name":"Porter County","state_id":"IN"},{"zip":"46307","fips":"18089","name":"Lake County","state_id":"IN"},{"zip":"46307","fips":"18127","name":"Porter County","state_id":"IN"},{"zip":"46308","fips":"18089","name":"Lake County","state_id":"IN"},{"zip":"46310","fips":"18073","name":"Jasper County","state_id":"IN"},{"zip":"46310","fips":"18111","name":"Newton County","state_id":"IN"},{"zip":"46311","fips":"18089","name":"Lake County","state_id":"IN"},{"zip":"46312","fips":"18089","name":"Lake County","state_id":"IN"},{"zip":"46319","fips":"18089","name":"Lake County","state_id":"IN"},{"zip":"46320","fips":"18089","name":"Lake County","state_id":"IN"},{"zip":"46321","fips":"18089","name":"Lake County","state_id":"IN"},{"zip":"46322","fips":"18089","name":"Lake County","state_id":"IN"},{"zip":"46323","fips":"18089","name":"Lake County","state_id":"IN"},{"zip":"46324","fips":"18089","name":"Lake County","state_id":"IN"},{"zip":"46327","fips":"18089","name":"Lake County","state_id":"IN"},{"zip":"46340","fips":"18091","name":"LaPorte County","state_id":"IN"},{"zip":"46341","fips":"18111","name":"Newton County","state_id":"IN"},{"zip":"46341","fips":"18089","name":"Lake County","state_id":"IN"},{"zip":"46341","fips":"18073","name":"Jasper County","state_id":"IN"},{"zip":"46341","fips":"18127","name":"Porter County","state_id":"IN"},{"zip":"46342","fips":"18127","name":"Porter County","state_id":"IN"},{"zip":"46342","fips":"18089","name":"Lake County","state_id":"IN"},{"zip":"46345","fips":"18091","name":"LaPorte County","state_id":"IN"},{"zip":"46346","fips":"18091","name":"LaPorte County","state_id":"IN"},{"zip":"46347","fips":"18127","name":"Porter County","state_id":"IN"},{"zip":"46348","fips":"18091","name":"LaPorte County","state_id":"IN"},{"zip":"46348","fips":"18127","name":"Porter County","state_id":"IN"},{"zip":"46349","fips":"18111","name":"Newton County","state_id":"IN"},{"zip":"46350","fips":"18091","name":"LaPorte County","state_id":"IN"},{"zip":"46355","fips":"18089","name":"Lake County","state_id":"IN"},{"zip":"46356","fips":"18089","name":"Lake County","state_id":"IN"},{"zip":"46360","fips":"18127","name":"Porter County","state_id":"IN"},{"zip":"46360","fips":"18091","name":"LaPorte County","state_id":"IN"},{"zip":"46365","fips":"18091","name":"LaPorte County","state_id":"IN"},{"zip":"46366","fips":"18149","name":"Starke County","state_id":"IN"},{"zip":"46366","fips":"18131","name":"Pulaski County","state_id":"IN"},{"zip":"46368","fips":"18127","name":"Porter County","state_id":"IN"},{"zip":"46368","fips":"18089","name":"Lake County","state_id":"IN"},{"zip":"46371","fips":"18091","name":"LaPorte County","state_id":"IN"},{"zip":"46372","fips":"18111","name":"Newton County","state_id":"IN"},{"zip":"46373","fips":"18089","name":"Lake County","state_id":"IN"},{"zip":"46374","fips":"18131","name":"Pulaski County","state_id":"IN"},{"zip":"46374","fips":"18149","name":"Starke County","state_id":"IN"},{"zip":"46374","fips":"18073","name":"Jasper County","state_id":"IN"},{"zip":"46375","fips":"18089","name":"Lake County","state_id":"IN"},{"zip":"46376","fips":"18089","name":"Lake County","state_id":"IN"},{"zip":"46377","fips":"18089","name":"Lake County","state_id":"IN"},{"zip":"46379","fips":"18111","name":"Newton County","state_id":"IN"},{"zip":"46380","fips":"18073","name":"Jasper County","state_id":"IN"},{"zip":"46381","fips":"18111","name":"Newton County","state_id":"IN"},{"zip":"46382","fips":"18091","name":"LaPorte County","state_id":"IN"},{"zip":"46383","fips":"18127","name":"Porter County","state_id":"IN"},{"zip":"46383","fips":"18089","name":"Lake County","state_id":"IN"},{"zip":"46383","fips":"18091","name":"LaPorte County","state_id":"IN"},{"zip":"46384","fips":"18127","name":"Porter County","state_id":"IN"},{"zip":"46385","fips":"18127","name":"Porter County","state_id":"IN"},{"zip":"46390","fips":"18091","name":"LaPorte County","state_id":"IN"},{"zip":"46391","fips":"18091","name":"LaPorte County","state_id":"IN"},{"zip":"46391","fips":"18127","name":"Porter County","state_id":"IN"},{"zip":"46392","fips":"18073","name":"Jasper County","state_id":"IN"},{"zip":"46393","fips":"18127","name":"Porter County","state_id":"IN"},{"zip":"46394","fips":"18089","name":"Lake County","state_id":"IN"}]
