[{"zip":"46501","fips":"18049","name":"Fulton County","state_id":"IN"},{"zip":"46501","fips":"18099","name":"Marshall County","state_id":"IN"},{"zip":"46502","fips":"18085","name":"Kosciusko County","state_id":"IN"},{"zip":"46504","fips":"18099","name":"Marshall County","state_id":"IN"},{"zip":"46504","fips":"18085","name":"Kosciusko County","state_id":"IN"},{"zip":"46506","fips":"18085","name":"Kosciusko County","state_id":"IN"},{"zip":"46506","fips":"18141","name":"St. Joseph County","state_id":"IN"},{"zip":"46506","fips":"18099","name":"Marshall County","state_id":"IN"},{"zip":"46507","fips":"18039","name":"Elkhart County","state_id":"IN"},{"zip":"46508","fips":"18085","name":"Kosciusko County","state_id":"IN"},{"zip":"46510","fips":"18085","name":"Kosciusko County","state_id":"IN"},{"zip":"46511","fips":"18049","name":"Fulton County","state_id":"IN"},{"zip":"46511","fips":"18131","name":"Pulaski County","state_id":"IN"},{"zip":"46511","fips":"18099","name":"Marshall County","state_id":"IN"},{"zip":"46511","fips":"18149","name":"Starke County","state_id":"IN"},{"zip":"46513","fips":"18099","name":"Marshall County","state_id":"IN"},{"zip":"46514","fips":"18039","name":"Elkhart County","state_id":"IN"},{"zip":"46515","fips":"18039","name":"Elkhart County","state_id":"IN"},{"zip":"46516","fips":"18039","name":"Elkhart County","state_id":"IN"},{"zip":"46517","fips":"18141","name":"St. Joseph County","state_id":"IN"},{"zip":"46517","fips":"18039","name":"Elkhart County","state_id":"IN"},{"zip":"46524","fips":"18099","name":"Marshall County","state_id":"IN"},{"zip":"46524","fips":"18085","name":"Kosciusko County","state_id":"IN"},{"zip":"46526","fips":"18039","name":"Elkhart County","state_id":"IN"},{"zip":"46527","fips":"18039","name":"Elkhart County","state_id":"IN"},{"zip":"46528","fips":"18087","name":"LaGrange County","state_id":"IN"},{"zip":"46528","fips":"18039","name":"Elkhart County","state_id":"IN"},{"zip":"46530","fips":"18141","name":"St. Joseph County","state_id":"IN"},{"zip":"46530","fips":"18039","name":"Elkhart County","state_id":"IN"},{"zip":"46531","fips":"18149","name":"Starke County","state_id":"IN"},{"zip":"46531","fips":"18099","name":"Marshall County","state_id":"IN"},{"zip":"46532","fips":"18091","name":"LaPorte County","state_id":"IN"},{"zip":"46532","fips":"18149","name":"Starke County","state_id":"IN"},{"zip":"46534","fips":"18149","name":"Starke County","state_id":"IN"},{"zip":"46536","fips":"18141","name":"St. Joseph County","state_id":"IN"},{"zip":"46536","fips":"18099","name":"Marshall County","state_id":"IN"},{"zip":"46537","fips":"18099","name":"Marshall County","state_id":"IN"},{"zip":"46538","fips":"18085","name":"Kosciusko County","state_id":"IN"},{"zip":"46539","fips":"18049","name":"Fulton County","state_id":"IN"},{"zip":"46539","fips":"18099","name":"Marshall County","state_id":"IN"},{"zip":"46539","fips":"18085","name":"Kosciusko County","state_id":"IN"},{"zip":"46540","fips":"18087","name":"LaGrange County","state_id":"IN"},{"zip":"46540","fips":"18039","name":"Elkhart County","state_id":"IN"},{"zip":"46542","fips":"18085","name":"Kosciusko County","state_id":"IN"},{"zip":"46542","fips":"18039","name":"Elkhart County","state_id":"IN"},{"zip":"46543","fips":"18087","name":"LaGrange County","state_id":"IN"},{"zip":"46543","fips":"18113","name":"Noble County","state_id":"IN"},{"zip":"46543","fips":"18039","name":"Elkhart County","state_id":"IN"},{"zip":"46544","fips":"18141","name":"St. Joseph County","state_id":"IN"},{"zip":"46545","fips":"18141","name":"St. Joseph County","state_id":"IN"},{"zip":"46546","fips":"18141","name":"St. Joseph County","state_id":"IN"},{"zip":"46550","fips":"18039","name":"Elkhart County","state_id":"IN"},{"zip":"46550","fips":"18085","name":"Kosciusko County","state_id":"IN"},{"zip":"46550","fips":"18141","name":"St. Joseph County","state_id":"IN"},{"zip":"46550","fips":"18099","name":"Marshall County","state_id":"IN"},{"zip":"46552","fips":"18091","name":"LaPorte County","state_id":"IN"},{"zip":"46552","fips":"18141","name":"St. Joseph County","state_id":"IN"},{"zip":"46553","fips":"18039","name":"Elkhart County","state_id":"IN"},{"zip":"46554","fips":"18091","name":"LaPorte County","state_id":"IN"},{"zip":"46554","fips":"18141","name":"St. Joseph County","state_id":"IN"},{"zip":"46555","fips":"18085","name":"Kosciusko County","state_id":"IN"},{"zip":"46556","fips":"18141","name":"St. Joseph County","state_id":"IN"},{"zip":"46561","fips":"18039","name":"Elkhart County","state_id":"IN"},{"zip":"46561","fips":"18141","name":"St. Joseph County","state_id":"IN"},{"zip":"46562","fips":"18085","name":"Kosciusko County","state_id":"IN"},{"zip":"46562","fips":"18113","name":"Noble County","state_id":"IN"},{"zip":"46562","fips":"18183","name":"Whitley County","state_id":"IN"},{"zip":"46563","fips":"18149","name":"Starke County","state_id":"IN"},{"zip":"46563","fips":"18099","name":"Marshall County","state_id":"IN"},{"zip":"46563","fips":"18141","name":"St. Joseph County","state_id":"IN"},{"zip":"46565","fips":"18039","name":"Elkhart County","state_id":"IN"},{"zip":"46565","fips":"18087","name":"LaGrange County","state_id":"IN"},{"zip":"46567","fips":"18039","name":"Elkhart County","state_id":"IN"},{"zip":"46567","fips":"18085","name":"Kosciusko County","state_id":"IN"},{"zip":"46570","fips":"18099","name":"Marshall County","state_id":"IN"},{"zip":"46570","fips":"18049","name":"Fulton County","state_id":"IN"},{"zip":"46571","fips":"18113","name":"Noble County","state_id":"IN"},{"zip":"46571","fips":"18087","name":"LaGrange County","state_id":"IN"},{"zip":"46572","fips":"18099","name":"Marshall County","state_id":"IN"},{"zip":"46573","fips":"18039","name":"Elkhart County","state_id":"IN"},{"zip":"46573","fips":"18141","name":"St. Joseph County","state_id":"IN"},{"zip":"46574","fips":"18099","name":"Marshall County","state_id":"IN"},{"zip":"46574","fips":"18091","name":"LaPorte County","state_id":"IN"},{"zip":"46574","fips":"18141","name":"St. Joseph County","state_id":"IN"},{"zip":"46574","fips":"18149","name":"Starke County","state_id":"IN"},{"zip":"46580","fips":"18085","name":"Kosciusko County","state_id":"IN"},{"zip":"46581","fips":"18085","name":"Kosciusko County","state_id":"IN"},{"zip":"46582","fips":"18085","name":"Kosciusko County","state_id":"IN"},{"zip":"46590","fips":"18085","name":"Kosciusko County","state_id":"IN"},{"zip":"46595","fips":"18141","name":"St. Joseph County","state_id":"IN"}]
