[{"zip":"46601","fips":"18141","name":"St. Joseph County","state_id":"IN"},{"zip":"46613","fips":"18141","name":"St. Joseph County","state_id":"IN"},{"zip":"46614","fips":"18141","name":"St. Joseph County","state_id":"IN"},{"zip":"46615","fips":"18141","name":"St. Joseph County","state_id":"IN"},{"zip":"46616","fips":"18141","name":"St. Joseph County","state_id":"IN"},{"zip":"46617","fips":"18141","name":"St. Joseph County","state_id":"IN"},{"zip":"46619","fips":"18141","name":"St. Joseph County","state_id":"IN"},{"zip":"46624","fips":"18141","name":"St. Joseph County","state_id":"IN"},{"zip":"46626","fips":"18141","name":"St. Joseph County","state_id":"IN"},{"zip":"46628","fips":"18141","name":"St. Joseph County","state_id":"IN"},{"zip":"46634","fips":"18141","name":"St. Joseph County","state_id":"IN"},{"zip":"46635","fips":"18141","name":"St. Joseph County","state_id":"IN"},{"zip":"46637","fips":"18141","name":"St. Joseph County","state_id":"IN"},{"zip":"46660","fips":"18141","name":"St. Joseph County","state_id":"IN"},{"zip":"46680","fips":"18141","name":"St. Joseph County","state_id":"IN"}]
