[{"zip":"46701","fips":"18113","name":"Noble County","state_id":"IN"},{"zip":"46702","fips":"18069","name":"Huntington County","state_id":"IN"},{"zip":"46702","fips":"18169","name":"Wabash County","state_id":"IN"},{"zip":"46703","fips":"18151","name":"Steuben County","state_id":"IN"},{"zip":"46704","fips":"18003","name":"Allen County","state_id":"IN"},{"zip":"46705","fips":"18033","name":"DeKalb County","state_id":"IN"},{"zip":"46705","fips":"18151","name":"Steuben County","state_id":"IN"},{"zip":"46706","fips":"18003","name":"Allen County","state_id":"IN"},{"zip":"46706","fips":"18033","name":"DeKalb County","state_id":"IN"},{"zip":"46710","fips":"18113","name":"Noble County","state_id":"IN"},{"zip":"46710","fips":"18033","name":"DeKalb County","state_id":"IN"},{"zip":"46711","fips":"18001","name":"Adams County","state_id":"IN"},{"zip":"46713","fips":"18069","name":"Huntington County","state_id":"IN"},{"zip":"46714","fips":"18001","name":"Adams County","state_id":"IN"},{"zip":"46714","fips":"18179","name":"Wells County","state_id":"IN"},{"zip":"46721","fips":"18033","name":"DeKalb County","state_id":"IN"},{"zip":"46723","fips":"18183","name":"Whitley County","state_id":"IN"},{"zip":"46723","fips":"18113","name":"Noble County","state_id":"IN"},{"zip":"46723","fips":"18003","name":"Allen County","state_id":"IN"},{"zip":"46725","fips":"18003","name":"Allen County","state_id":"IN"},{"zip":"46725","fips":"18113","name":"Noble County","state_id":"IN"},{"zip":"46725","fips":"18069","name":"Huntington County","state_id":"IN"},{"zip":"46725","fips":"18183","name":"Whitley County","state_id":"IN"},{"zip":"46730","fips":"18033","name":"DeKalb County","state_id":"IN"},{"zip":"46730","fips":"18113","name":"Noble County","state_id":"IN"},{"zip":"46731","fips":"18179","name":"Wells County","state_id":"IN"},{"zip":"46731","fips":"18001","name":"Adams County","state_id":"IN"},{"zip":"46732","fips":"18113","name":"Noble County","state_id":"IN"},{"zip":"46732","fips":"18085","name":"Kosciusko County","state_id":"IN"},{"zip":"46733","fips":"18179","name":"Wells County","state_id":"IN"},{"zip":"46733","fips":"18001","name":"Adams County","state_id":"IN"},{"zip":"46733","fips":"18003","name":"Allen County","state_id":"IN"},{"zip":"46737","fips":"18151","name":"Steuben County","state_id":"IN"},{"zip":"46738","fips":"18033","name":"DeKalb County","state_id":"IN"},{"zip":"46740","fips":"18179","name":"Wells County","state_id":"IN"},{"zip":"46740","fips":"18001","name":"Adams County","state_id":"IN"},{"zip":"46740","fips":"18075","name":"Jay County","state_id":"IN"},{"zip":"46741","fips":"18003","name":"Allen County","state_id":"IN"},{"zip":"46742","fips":"18033","name":"DeKalb County","state_id":"IN"},{"zip":"46742","fips":"18151","name":"Steuben County","state_id":"IN"},{"zip":"46743","fips":"18003","name":"Allen County","state_id":"IN"},{"zip":"46743","fips":"18033","name":"DeKalb County","state_id":"IN"},{"zip":"46745","fips":"18003","name":"Allen County","state_id":"IN"},{"zip":"46745","fips":"18001","name":"Adams County","state_id":"IN"},{"zip":"46746","fips":"18087","name":"LaGrange County","state_id":"IN"},{"zip":"46747","fips":"18033","name":"DeKalb County","state_id":"IN"},{"zip":"46747","fips":"18087","name":"LaGrange County","state_id":"IN"},{"zip":"46747","fips":"18151","name":"Steuben County","state_id":"IN"},{"zip":"46748","fips":"18033","name":"DeKalb County","state_id":"IN"},{"zip":"46748","fips":"18113","name":"Noble County","state_id":"IN"},{"zip":"46748","fips":"18003","name":"Allen County","state_id":"IN"},{"zip":"46750","fips":"18183","name":"Whitley County","state_id":"IN"},{"zip":"46750","fips":"18169","name":"Wabash County","state_id":"IN"},{"zip":"46750","fips":"18069","name":"Huntington County","state_id":"IN"},{"zip":"46755","fips":"18113","name":"Noble County","state_id":"IN"},{"zip":"46755","fips":"18033","name":"DeKalb County","state_id":"IN"},{"zip":"46759","fips":"18179","name":"Wells County","state_id":"IN"},{"zip":"46760","fips":"18113","name":"Noble County","state_id":"IN"},{"zip":"46761","fips":"18151","name":"Steuben County","state_id":"IN"},{"zip":"46761","fips":"18087","name":"LaGrange County","state_id":"IN"},{"zip":"46763","fips":"18033","name":"DeKalb County","state_id":"IN"},{"zip":"46763","fips":"18113","name":"Noble County","state_id":"IN"},{"zip":"46764","fips":"18183","name":"Whitley County","state_id":"IN"},{"zip":"46764","fips":"18113","name":"Noble County","state_id":"IN"},{"zip":"46765","fips":"18003","name":"Allen County","state_id":"IN"},{"zip":"46766","fips":"18069","name":"Huntington County","state_id":"IN"},{"zip":"46766","fips":"18179","name":"Wells County","state_id":"IN"},{"zip":"46767","fips":"18087","name":"LaGrange County","state_id":"IN"},{"zip":"46767","fips":"18085","name":"Kosciusko County","state_id":"IN"},{"zip":"46767","fips":"18113","name":"Noble County","state_id":"IN"},{"zip":"46767","fips":"18039","name":"Elkhart County","state_id":"IN"},{"zip":"46769","fips":"18001","name":"Adams County","state_id":"IN"},{"zip":"46770","fips":"18179","name":"Wells County","state_id":"IN"},{"zip":"46770","fips":"18069","name":"Huntington County","state_id":"IN"},{"zip":"46771","fips":"18087","name":"LaGrange County","state_id":"IN"},{"zip":"46772","fips":"18001","name":"Adams County","state_id":"IN"},{"zip":"46773","fips":"18001","name":"Adams County","state_id":"IN"},{"zip":"46773","fips":"18003","name":"Allen County","state_id":"IN"},{"zip":"46774","fips":"18003","name":"Allen County","state_id":"IN"},{"zip":"46776","fips":"18151","name":"Steuben County","state_id":"IN"},{"zip":"46776","fips":"18087","name":"LaGrange County","state_id":"IN"},{"zip":"46777","fips":"18003","name":"Allen County","state_id":"IN"},{"zip":"46777","fips":"18001","name":"Adams County","state_id":"IN"},{"zip":"46777","fips":"18179","name":"Wells County","state_id":"IN"},{"zip":"46778","fips":"18179","name":"Wells County","state_id":"IN"},{"zip":"46779","fips":"18151","name":"Steuben County","state_id":"IN"},{"zip":"46780","fips":"18001","name":"Adams County","state_id":"IN"},{"zip":"46781","fips":"18179","name":"Wells County","state_id":"IN"},{"zip":"46782","fips":"18001","name":"Adams County","state_id":"IN"},{"zip":"46783","fips":"18069","name":"Huntington County","state_id":"IN"},{"zip":"46783","fips":"18179","name":"Wells County","state_id":"IN"},{"zip":"46783","fips":"18183","name":"Whitley County","state_id":"IN"},{"zip":"46783","fips":"18003","name":"Allen County","state_id":"IN"},{"zip":"46784","fips":"18113","name":"Noble County","state_id":"IN"},{"zip":"46784","fips":"18087","name":"LaGrange County","state_id":"IN"},{"zip":"46785","fips":"18033","name":"DeKalb County","state_id":"IN"},{"zip":"46786","fips":"18087","name":"LaGrange County","state_id":"IN"},{"zip":"46787","fips":"18069","name":"Huntington County","state_id":"IN"},{"zip":"46787","fips":"18085","name":"Kosciusko County","state_id":"IN"},{"zip":"46787","fips":"18183","name":"Whitley County","state_id":"IN"},{"zip":"46787","fips":"18169","name":"Wabash County","state_id":"IN"},{"zip":"46788","fips":"18003","name":"Allen County","state_id":"IN"},{"zip":"46788","fips":"18033","name":"DeKalb County","state_id":"IN"},{"zip":"46789","fips":"18087","name":"LaGrange County","state_id":"IN"},{"zip":"46791","fips":"18179","name":"Wells County","state_id":"IN"},{"zip":"46792","fips":"18069","name":"Huntington County","state_id":"IN"},{"zip":"46792","fips":"18179","name":"Wells County","state_id":"IN"},{"zip":"46793","fips":"18033","name":"DeKalb County","state_id":"IN"},{"zip":"46793","fips":"18151","name":"Steuben County","state_id":"IN"},{"zip":"46794","fips":"18113","name":"Noble County","state_id":"IN"},{"zip":"46795","fips":"18087","name":"LaGrange County","state_id":"IN"},{"zip":"46795","fips":"18151","name":"Steuben County","state_id":"IN"},{"zip":"46795","fips":"18113","name":"Noble County","state_id":"IN"},{"zip":"46796","fips":"18113","name":"Noble County","state_id":"IN"},{"zip":"46797","fips":"18003","name":"Allen County","state_id":"IN"},{"zip":"46798","fips":"18003","name":"Allen County","state_id":"IN"},{"zip":"46798","fips":"18179","name":"Wells County","state_id":"IN"},{"zip":"46799","fips":"18003","name":"Allen County","state_id":"IN"},{"zip":"46799","fips":"18179","name":"Wells County","state_id":"IN"}]
