[{"zip":"46802","fips":"18003","name":"Allen County","state_id":"IN"},{"zip":"46803","fips":"18003","name":"Allen County","state_id":"IN"},{"zip":"46804","fips":"18003","name":"Allen County","state_id":"IN"},{"zip":"46805","fips":"18003","name":"Allen County","state_id":"IN"},{"zip":"46806","fips":"18003","name":"Allen County","state_id":"IN"},{"zip":"46807","fips":"18003","name":"Allen County","state_id":"IN"},{"zip":"46808","fips":"18003","name":"Allen County","state_id":"IN"},{"zip":"46809","fips":"18003","name":"Allen County","state_id":"IN"},{"zip":"46814","fips":"18003","name":"Allen County","state_id":"IN"},{"zip":"46814","fips":"18183","name":"Whitley County","state_id":"IN"},{"zip":"46815","fips":"18003","name":"Allen County","state_id":"IN"},{"zip":"46816","fips":"18003","name":"Allen County","state_id":"IN"},{"zip":"46818","fips":"18003","name":"Allen County","state_id":"IN"},{"zip":"46818","fips":"18183","name":"Whitley County","state_id":"IN"},{"zip":"46819","fips":"18179","name":"Wells County","state_id":"IN"},{"zip":"46819","fips":"18003","name":"Allen County","state_id":"IN"},{"zip":"46825","fips":"18003","name":"Allen County","state_id":"IN"},{"zip":"46835","fips":"18003","name":"Allen County","state_id":"IN"},{"zip":"46845","fips":"18003","name":"Allen County","state_id":"IN"},{"zip":"46850","fips":"18003","name":"Allen County","state_id":"IN"},{"zip":"46851","fips":"18003","name":"Allen County","state_id":"IN"},{"zip":"46852","fips":"18003","name":"Allen County","state_id":"IN"},{"zip":"46853","fips":"18003","name":"Allen County","state_id":"IN"},{"zip":"46854","fips":"18003","name":"Allen County","state_id":"IN"},{"zip":"46855","fips":"18003","name":"Allen County","state_id":"IN"},{"zip":"46856","fips":"18003","name":"Allen County","state_id":"IN"},{"zip":"46857","fips":"18003","name":"Allen County","state_id":"IN"},{"zip":"46858","fips":"18003","name":"Allen County","state_id":"IN"},{"zip":"46859","fips":"18003","name":"Allen County","state_id":"IN"},{"zip":"46860","fips":"18003","name":"Allen County","state_id":"IN"},{"zip":"46861","fips":"18003","name":"Allen County","state_id":"IN"},{"zip":"46862","fips":"18003","name":"Allen County","state_id":"IN"},{"zip":"46863","fips":"18003","name":"Allen County","state_id":"IN"},{"zip":"46864","fips":"18003","name":"Allen County","state_id":"IN"},{"zip":"46865","fips":"18003","name":"Allen County","state_id":"IN"},{"zip":"46866","fips":"18003","name":"Allen County","state_id":"IN"},{"zip":"46867","fips":"18003","name":"Allen County","state_id":"IN"},{"zip":"46868","fips":"18003","name":"Allen County","state_id":"IN"},{"zip":"46869","fips":"18003","name":"Allen County","state_id":"IN"},{"zip":"46885","fips":"18003","name":"Allen County","state_id":"IN"},{"zip":"46895","fips":"18003","name":"Allen County","state_id":"IN"},{"zip":"46898","fips":"18003","name":"Allen County","state_id":"IN"},{"zip":"46899","fips":"18003","name":"Allen County","state_id":"IN"}]
