[{"zip":"46901","fips":"18103","name":"Miami County","state_id":"IN"},{"zip":"46901","fips":"18017","name":"Cass County","state_id":"IN"},{"zip":"46901","fips":"18067","name":"Howard County","state_id":"IN"},{"zip":"46902","fips":"18067","name":"Howard County","state_id":"IN"},{"zip":"46902","fips":"18159","name":"Tipton County","state_id":"IN"},{"zip":"46903","fips":"18067","name":"Howard County","state_id":"IN"},{"zip":"46904","fips":"18067","name":"Howard County","state_id":"IN"},{"zip":"46910","fips":"18085","name":"Kosciusko County","state_id":"IN"},{"zip":"46910","fips":"18103","name":"Miami County","state_id":"IN"},{"zip":"46910","fips":"18049","name":"Fulton County","state_id":"IN"},{"zip":"46911","fips":"18103","name":"Miami County","state_id":"IN"},{"zip":"46911","fips":"18169","name":"Wabash County","state_id":"IN"},{"zip":"46912","fips":"18049","name":"Fulton County","state_id":"IN"},{"zip":"46913","fips":"18015","name":"Carroll County","state_id":"IN"},{"zip":"46914","fips":"18103","name":"Miami County","state_id":"IN"},{"zip":"46915","fips":"18015","name":"Carroll County","state_id":"IN"},{"zip":"46916","fips":"18015","name":"Carroll County","state_id":"IN"},{"zip":"46917","fips":"18015","name":"Carroll County","state_id":"IN"},{"zip":"46917","fips":"18017","name":"Cass County","state_id":"IN"},{"zip":"46919","fips":"18103","name":"Miami County","state_id":"IN"},{"zip":"46919","fips":"18053","name":"Grant County","state_id":"IN"},{"zip":"46919","fips":"18169","name":"Wabash County","state_id":"IN"},{"zip":"46919","fips":"18067","name":"Howard County","state_id":"IN"},{"zip":"46920","fips":"18015","name":"Carroll County","state_id":"IN"},{"zip":"46921","fips":"18103","name":"Miami County","state_id":"IN"},{"zip":"46922","fips":"18049","name":"Fulton County","state_id":"IN"},{"zip":"46923","fips":"18157","name":"Tippecanoe County","state_id":"IN"},{"zip":"46923","fips":"18015","name":"Carroll County","state_id":"IN"},{"zip":"46926","fips":"18017","name":"Cass County","state_id":"IN"},{"zip":"46926","fips":"18169","name":"Wabash County","state_id":"IN"},{"zip":"46926","fips":"18103","name":"Miami County","state_id":"IN"},{"zip":"46928","fips":"18053","name":"Grant County","state_id":"IN"},{"zip":"46928","fips":"18067","name":"Howard County","state_id":"IN"},{"zip":"46928","fips":"18095","name":"Madison County","state_id":"IN"},{"zip":"46929","fips":"18067","name":"Howard County","state_id":"IN"},{"zip":"46929","fips":"18015","name":"Carroll County","state_id":"IN"},{"zip":"46930","fips":"18053","name":"Grant County","state_id":"IN"},{"zip":"46931","fips":"18049","name":"Fulton County","state_id":"IN"},{"zip":"46932","fips":"18103","name":"Miami County","state_id":"IN"},{"zip":"46932","fips":"18017","name":"Cass County","state_id":"IN"},{"zip":"46932","fips":"18067","name":"Howard County","state_id":"IN"},{"zip":"46932","fips":"18015","name":"Carroll County","state_id":"IN"},{"zip":"46933","fips":"18053","name":"Grant County","state_id":"IN"},{"zip":"46936","fips":"18159","name":"Tipton County","state_id":"IN"},{"zip":"46936","fips":"18103","name":"Miami County","state_id":"IN"},{"zip":"46936","fips":"18067","name":"Howard County","state_id":"IN"},{"zip":"46937","fips":"18067","name":"Howard County","state_id":"IN"},{"zip":"46938","fips":"18053","name":"Grant County","state_id":"IN"},{"zip":"46939","fips":"18049","name":"Fulton County","state_id":"IN"},{"zip":"46939","fips":"18131","name":"Pulaski County","state_id":"IN"},{"zip":"46940","fips":"18169","name":"Wabash County","state_id":"IN"},{"zip":"46940","fips":"18053","name":"Grant County","state_id":"IN"},{"zip":"46940","fips":"18069","name":"Huntington County","state_id":"IN"},{"zip":"46941","fips":"18169","name":"Wabash County","state_id":"IN"},{"zip":"46942","fips":"18017","name":"Cass County","state_id":"IN"},{"zip":"46943","fips":"18169","name":"Wabash County","state_id":"IN"},{"zip":"46945","fips":"18049","name":"Fulton County","state_id":"IN"},{"zip":"46946","fips":"18169","name":"Wabash County","state_id":"IN"},{"zip":"46947","fips":"18017","name":"Cass County","state_id":"IN"},{"zip":"46947","fips":"18015","name":"Carroll County","state_id":"IN"},{"zip":"46950","fips":"18017","name":"Cass County","state_id":"IN"},{"zip":"46950","fips":"18049","name":"Fulton County","state_id":"IN"},{"zip":"46951","fips":"18103","name":"Miami County","state_id":"IN"},{"zip":"46951","fips":"18049","name":"Fulton County","state_id":"IN"},{"zip":"46951","fips":"18017","name":"Cass County","state_id":"IN"},{"zip":"46952","fips":"18069","name":"Huntington County","state_id":"IN"},{"zip":"46952","fips":"18179","name":"Wells County","state_id":"IN"},{"zip":"46952","fips":"18009","name":"Blackford County","state_id":"IN"},{"zip":"46952","fips":"18053","name":"Grant County","state_id":"IN"},{"zip":"46953","fips":"18053","name":"Grant County","state_id":"IN"},{"zip":"46957","fips":"18053","name":"Grant County","state_id":"IN"},{"zip":"46958","fips":"18103","name":"Miami County","state_id":"IN"},{"zip":"46959","fips":"18103","name":"Miami County","state_id":"IN"},{"zip":"46960","fips":"18049","name":"Fulton County","state_id":"IN"},{"zip":"46960","fips":"18149","name":"Starke County","state_id":"IN"},{"zip":"46960","fips":"18131","name":"Pulaski County","state_id":"IN"},{"zip":"46961","fips":"18017","name":"Cass County","state_id":"IN"},{"zip":"46962","fips":"18169","name":"Wabash County","state_id":"IN"},{"zip":"46962","fips":"18183","name":"Whitley County","state_id":"IN"},{"zip":"46962","fips":"18085","name":"Kosciusko County","state_id":"IN"},{"zip":"46965","fips":"18067","name":"Howard County","state_id":"IN"},{"zip":"46967","fips":"18017","name":"Cass County","state_id":"IN"},{"zip":"46968","fips":"18149","name":"Starke County","state_id":"IN"},{"zip":"46968","fips":"18131","name":"Pulaski County","state_id":"IN"},{"zip":"46970","fips":"18103","name":"Miami County","state_id":"IN"},{"zip":"46970","fips":"18169","name":"Wabash County","state_id":"IN"},{"zip":"46970","fips":"18017","name":"Cass County","state_id":"IN"},{"zip":"46971","fips":"18103","name":"Miami County","state_id":"IN"},{"zip":"46974","fips":"18103","name":"Miami County","state_id":"IN"},{"zip":"46974","fips":"18169","name":"Wabash County","state_id":"IN"},{"zip":"46975","fips":"18099","name":"Marshall County","state_id":"IN"},{"zip":"46975","fips":"18049","name":"Fulton County","state_id":"IN"},{"zip":"46975","fips":"18085","name":"Kosciusko County","state_id":"IN"},{"zip":"46975","fips":"18103","name":"Miami County","state_id":"IN"},{"zip":"46977","fips":"18015","name":"Carroll County","state_id":"IN"},{"zip":"46978","fips":"18181","name":"White County","state_id":"IN"},{"zip":"46978","fips":"18131","name":"Pulaski County","state_id":"IN"},{"zip":"46978","fips":"18049","name":"Fulton County","state_id":"IN"},{"zip":"46978","fips":"18017","name":"Cass County","state_id":"IN"},{"zip":"46979","fips":"18159","name":"Tipton County","state_id":"IN"},{"zip":"46979","fips":"18023","name":"Clinton County","state_id":"IN"},{"zip":"46979","fips":"18015","name":"Carroll County","state_id":"IN"},{"zip":"46979","fips":"18067","name":"Howard County","state_id":"IN"},{"zip":"46980","fips":"18169","name":"Wabash County","state_id":"IN"},{"zip":"46982","fips":"18103","name":"Miami County","state_id":"IN"},{"zip":"46982","fips":"18049","name":"Fulton County","state_id":"IN"},{"zip":"46982","fips":"18085","name":"Kosciusko County","state_id":"IN"},{"zip":"46982","fips":"18169","name":"Wabash County","state_id":"IN"},{"zip":"46984","fips":"18169","name":"Wabash County","state_id":"IN"},{"zip":"46985","fips":"18181","name":"White County","state_id":"IN"},{"zip":"46985","fips":"18131","name":"Pulaski County","state_id":"IN"},{"zip":"46985","fips":"18049","name":"Fulton County","state_id":"IN"},{"zip":"46986","fips":"18053","name":"Grant County","state_id":"IN"},{"zip":"46987","fips":"18053","name":"Grant County","state_id":"IN"},{"zip":"46988","fips":"18017","name":"Cass County","state_id":"IN"},{"zip":"46988","fips":"18049","name":"Fulton County","state_id":"IN"},{"zip":"46989","fips":"18009","name":"Blackford County","state_id":"IN"},{"zip":"46989","fips":"18053","name":"Grant County","state_id":"IN"},{"zip":"46990","fips":"18169","name":"Wabash County","state_id":"IN"},{"zip":"46991","fips":"18069","name":"Huntington County","state_id":"IN"},{"zip":"46991","fips":"18053","name":"Grant County","state_id":"IN"},{"zip":"46991","fips":"18179","name":"Wells County","state_id":"IN"},{"zip":"46992","fips":"18103","name":"Miami County","state_id":"IN"},{"zip":"46992","fips":"18169","name":"Wabash County","state_id":"IN"},{"zip":"46994","fips":"18017","name":"Cass County","state_id":"IN"},{"zip":"46995","fips":"18067","name":"Howard County","state_id":"IN"},{"zip":"46996","fips":"18131","name":"Pulaski County","state_id":"IN"},{"zip":"46996","fips":"18149","name":"Starke County","state_id":"IN"},{"zip":"46996","fips":"18181","name":"White County","state_id":"IN"},{"zip":"46998","fips":"18103","name":"Miami County","state_id":"IN"},{"zip":"46998","fips":"18017","name":"Cass County","state_id":"IN"}]
