[{"zip":"47001","fips":"18029","name":"Dearborn County","state_id":"IN"},{"zip":"47001","fips":"18115","name":"Ohio County","state_id":"IN"},{"zip":"47003","fips":"18047","name":"Franklin County","state_id":"IN"},{"zip":"47003","fips":"18161","name":"Union County","state_id":"IN"},{"zip":"47006","fips":"18031","name":"Decatur County","state_id":"IN"},{"zip":"47006","fips":"18047","name":"Franklin County","state_id":"IN"},{"zip":"47006","fips":"18137","name":"Ripley County","state_id":"IN"},{"zip":"47010","fips":"18161","name":"Union County","state_id":"IN"},{"zip":"47010","fips":"18047","name":"Franklin County","state_id":"IN"},{"zip":"47011","fips":"18115","name":"Ohio County","state_id":"IN"},{"zip":"47011","fips":"18155","name":"Switzerland County","state_id":"IN"},{"zip":"47012","fips":"18029","name":"Dearborn County","state_id":"IN"},{"zip":"47012","fips":"18047","name":"Franklin County","state_id":"IN"},{"zip":"47016","fips":"18047","name":"Franklin County","state_id":"IN"},{"zip":"47017","fips":"18137","name":"Ripley County","state_id":"IN"},{"zip":"47017","fips":"18115","name":"Ohio County","state_id":"IN"},{"zip":"47017","fips":"18155","name":"Switzerland County","state_id":"IN"},{"zip":"47018","fips":"18137","name":"Ripley County","state_id":"IN"},{"zip":"47018","fips":"18029","name":"Dearborn County","state_id":"IN"},{"zip":"47018","fips":"18155","name":"Switzerland County","state_id":"IN"},{"zip":"47018","fips":"18115","name":"Ohio County","state_id":"IN"},{"zip":"47019","fips":"18155","name":"Switzerland County","state_id":"IN"},{"zip":"47020","fips":"18155","name":"Switzerland County","state_id":"IN"},{"zip":"47021","fips":"18137","name":"Ripley County","state_id":"IN"},{"zip":"47022","fips":"18029","name":"Dearborn County","state_id":"IN"},{"zip":"47023","fips":"18137","name":"Ripley County","state_id":"IN"},{"zip":"47024","fips":"18047","name":"Franklin County","state_id":"IN"},{"zip":"47024","fips":"18041","name":"Fayette County","state_id":"IN"},{"zip":"47025","fips":"18029","name":"Dearborn County","state_id":"IN"},{"zip":"47030","fips":"18047","name":"Franklin County","state_id":"IN"},{"zip":"47031","fips":"18029","name":"Dearborn County","state_id":"IN"},{"zip":"47031","fips":"18137","name":"Ripley County","state_id":"IN"},{"zip":"47032","fips":"18137","name":"Ripley County","state_id":"IN"},{"zip":"47032","fips":"18029","name":"Dearborn County","state_id":"IN"},{"zip":"47033","fips":"18137","name":"Ripley County","state_id":"IN"},{"zip":"47034","fips":"18137","name":"Ripley County","state_id":"IN"},{"zip":"47035","fips":"18047","name":"Franklin County","state_id":"IN"},{"zip":"47036","fips":"18047","name":"Franklin County","state_id":"IN"},{"zip":"47037","fips":"18137","name":"Ripley County","state_id":"IN"},{"zip":"47037","fips":"18079","name":"Jennings County","state_id":"IN"},{"zip":"47038","fips":"18155","name":"Switzerland County","state_id":"IN"},{"zip":"47039","fips":"18137","name":"Ripley County","state_id":"IN"},{"zip":"47040","fips":"18115","name":"Ohio County","state_id":"IN"},{"zip":"47040","fips":"18155","name":"Switzerland County","state_id":"IN"},{"zip":"47041","fips":"18137","name":"Ripley County","state_id":"IN"},{"zip":"47041","fips":"18047","name":"Franklin County","state_id":"IN"},{"zip":"47041","fips":"18029","name":"Dearborn County","state_id":"IN"},{"zip":"47042","fips":"18137","name":"Ripley County","state_id":"IN"},{"zip":"47043","fips":"18155","name":"Switzerland County","state_id":"IN"},{"zip":"47043","fips":"18077","name":"Jefferson County","state_id":"IN"},{"zip":"47060","fips":"18047","name":"Franklin County","state_id":"IN"},{"zip":"47060","fips":"18029","name":"Dearborn County","state_id":"IN"}]
