[{"zip":"47102","fips":"18143","name":"Scott County","state_id":"IN"},{"zip":"47102","fips":"18071","name":"Jackson County","state_id":"IN"},{"zip":"47104","fips":"18019","name":"Clark County","state_id":"IN"},{"zip":"47106","fips":"18019","name":"Clark County","state_id":"IN"},{"zip":"47106","fips":"18175","name":"Washington County","state_id":"IN"},{"zip":"47106","fips":"18043","name":"Floyd County","state_id":"IN"},{"zip":"47107","fips":"18061","name":"Harrison County","state_id":"IN"},{"zip":"47108","fips":"18093","name":"Lawrence County","state_id":"IN"},{"zip":"47108","fips":"18175","name":"Washington County","state_id":"IN"},{"zip":"47108","fips":"18117","name":"Orange County","state_id":"IN"},{"zip":"47110","fips":"18061","name":"Harrison County","state_id":"IN"},{"zip":"47111","fips":"18019","name":"Clark County","state_id":"IN"},{"zip":"47112","fips":"18061","name":"Harrison County","state_id":"IN"},{"zip":"47112","fips":"18025","name":"Crawford County","state_id":"IN"},{"zip":"47114","fips":"18061","name":"Harrison County","state_id":"IN"},{"zip":"47115","fips":"18061","name":"Harrison County","state_id":"IN"},{"zip":"47115","fips":"18175","name":"Washington County","state_id":"IN"},{"zip":"47116","fips":"18025","name":"Crawford County","state_id":"IN"},{"zip":"47117","fips":"18061","name":"Harrison County","state_id":"IN"},{"zip":"47117","fips":"18043","name":"Floyd County","state_id":"IN"},{"zip":"47118","fips":"18117","name":"Orange County","state_id":"IN"},{"zip":"47118","fips":"18025","name":"Crawford County","state_id":"IN"},{"zip":"47118","fips":"18123","name":"Perry County","state_id":"IN"},{"zip":"47119","fips":"18043","name":"Floyd County","state_id":"IN"},{"zip":"47119","fips":"18019","name":"Clark County","state_id":"IN"},{"zip":"47120","fips":"18175","name":"Washington County","state_id":"IN"},{"zip":"47120","fips":"18061","name":"Harrison County","state_id":"IN"},{"zip":"47122","fips":"18061","name":"Harrison County","state_id":"IN"},{"zip":"47122","fips":"18043","name":"Floyd County","state_id":"IN"},{"zip":"47123","fips":"18025","name":"Crawford County","state_id":"IN"},{"zip":"47124","fips":"18061","name":"Harrison County","state_id":"IN"},{"zip":"47124","fips":"18043","name":"Floyd County","state_id":"IN"},{"zip":"47125","fips":"18117","name":"Orange County","state_id":"IN"},{"zip":"47125","fips":"18061","name":"Harrison County","state_id":"IN"},{"zip":"47125","fips":"18175","name":"Washington County","state_id":"IN"},{"zip":"47126","fips":"18143","name":"Scott County","state_id":"IN"},{"zip":"47126","fips":"18175","name":"Washington County","state_id":"IN"},{"zip":"47126","fips":"18019","name":"Clark County","state_id":"IN"},{"zip":"47129","fips":"18019","name":"Clark County","state_id":"IN"},{"zip":"47130","fips":"18019","name":"Clark County","state_id":"IN"},{"zip":"47131","fips":"18019","name":"Clark County","state_id":"IN"},{"zip":"47135","fips":"18061","name":"Harrison County","state_id":"IN"},{"zip":"47136","fips":"18061","name":"Harrison County","state_id":"IN"},{"zip":"47136","fips":"18043","name":"Floyd County","state_id":"IN"},{"zip":"47137","fips":"18025","name":"Crawford County","state_id":"IN"},{"zip":"47137","fips":"18061","name":"Harrison County","state_id":"IN"},{"zip":"47137","fips":"18123","name":"Perry County","state_id":"IN"},{"zip":"47138","fips":"18143","name":"Scott County","state_id":"IN"},{"zip":"47138","fips":"18077","name":"Jefferson County","state_id":"IN"},{"zip":"47138","fips":"18019","name":"Clark County","state_id":"IN"},{"zip":"47140","fips":"18117","name":"Orange County","state_id":"IN"},{"zip":"47140","fips":"18025","name":"Crawford County","state_id":"IN"},{"zip":"47141","fips":"18143","name":"Scott County","state_id":"IN"},{"zip":"47141","fips":"18019","name":"Clark County","state_id":"IN"},{"zip":"47142","fips":"18061","name":"Harrison County","state_id":"IN"},{"zip":"47143","fips":"18019","name":"Clark County","state_id":"IN"},{"zip":"47145","fips":"18175","name":"Washington County","state_id":"IN"},{"zip":"47145","fips":"18025","name":"Crawford County","state_id":"IN"},{"zip":"47146","fips":"18043","name":"Floyd County","state_id":"IN"},{"zip":"47147","fips":"18019","name":"Clark County","state_id":"IN"},{"zip":"47147","fips":"18143","name":"Scott County","state_id":"IN"},{"zip":"47147","fips":"18077","name":"Jefferson County","state_id":"IN"},{"zip":"47150","fips":"18019","name":"Clark County","state_id":"IN"},{"zip":"47150","fips":"18043","name":"Floyd County","state_id":"IN"},{"zip":"47151","fips":"18043","name":"Floyd County","state_id":"IN"},{"zip":"47160","fips":"18061","name":"Harrison County","state_id":"IN"},{"zip":"47161","fips":"18061","name":"Harrison County","state_id":"IN"},{"zip":"47162","fips":"18019","name":"Clark County","state_id":"IN"},{"zip":"47163","fips":"18019","name":"Clark County","state_id":"IN"},{"zip":"47164","fips":"18175","name":"Washington County","state_id":"IN"},{"zip":"47164","fips":"18043","name":"Floyd County","state_id":"IN"},{"zip":"47164","fips":"18061","name":"Harrison County","state_id":"IN"},{"zip":"47165","fips":"18175","name":"Washington County","state_id":"IN"},{"zip":"47165","fips":"18043","name":"Floyd County","state_id":"IN"},{"zip":"47165","fips":"18019","name":"Clark County","state_id":"IN"},{"zip":"47166","fips":"18061","name":"Harrison County","state_id":"IN"},{"zip":"47167","fips":"18175","name":"Washington County","state_id":"IN"},{"zip":"47170","fips":"18175","name":"Washington County","state_id":"IN"},{"zip":"47170","fips":"18143","name":"Scott County","state_id":"IN"},{"zip":"47170","fips":"18077","name":"Jefferson County","state_id":"IN"},{"zip":"47172","fips":"18043","name":"Floyd County","state_id":"IN"},{"zip":"47172","fips":"18019","name":"Clark County","state_id":"IN"},{"zip":"47174","fips":"18025","name":"Crawford County","state_id":"IN"},{"zip":"47175","fips":"18117","name":"Orange County","state_id":"IN"},{"zip":"47175","fips":"18025","name":"Crawford County","state_id":"IN"},{"zip":"47177","fips":"18143","name":"Scott County","state_id":"IN"},{"zip":"47177","fips":"18019","name":"Clark County","state_id":"IN"},{"zip":"47190","fips":"18019","name":"Clark County","state_id":"IN"}]
