[{"zip":"47201","fips":"18071","name":"Jackson County","state_id":"IN"},{"zip":"47201","fips":"18005","name":"Bartholomew County","state_id":"IN"},{"zip":"47201","fips":"18013","name":"Brown County","state_id":"IN"},{"zip":"47202","fips":"18005","name":"Bartholomew County","state_id":"IN"},{"zip":"47203","fips":"18005","name":"Bartholomew County","state_id":"IN"},{"zip":"47220","fips":"18071","name":"Jackson County","state_id":"IN"},{"zip":"47223","fips":"18079","name":"Jennings County","state_id":"IN"},{"zip":"47223","fips":"18137","name":"Ripley County","state_id":"IN"},{"zip":"47224","fips":"18137","name":"Ripley County","state_id":"IN"},{"zip":"47224","fips":"18155","name":"Switzerland County","state_id":"IN"},{"zip":"47224","fips":"18077","name":"Jefferson County","state_id":"IN"},{"zip":"47225","fips":"18031","name":"Decatur County","state_id":"IN"},{"zip":"47226","fips":"18005","name":"Bartholomew County","state_id":"IN"},{"zip":"47227","fips":"18079","name":"Jennings County","state_id":"IN"},{"zip":"47227","fips":"18077","name":"Jefferson County","state_id":"IN"},{"zip":"47228","fips":"18071","name":"Jackson County","state_id":"IN"},{"zip":"47229","fips":"18071","name":"Jackson County","state_id":"IN"},{"zip":"47229","fips":"18079","name":"Jennings County","state_id":"IN"},{"zip":"47230","fips":"18079","name":"Jennings County","state_id":"IN"},{"zip":"47230","fips":"18143","name":"Scott County","state_id":"IN"},{"zip":"47230","fips":"18077","name":"Jefferson County","state_id":"IN"},{"zip":"47231","fips":"18079","name":"Jennings County","state_id":"IN"},{"zip":"47231","fips":"18077","name":"Jefferson County","state_id":"IN"},{"zip":"47232","fips":"18079","name":"Jennings County","state_id":"IN"},{"zip":"47232","fips":"18005","name":"Bartholomew County","state_id":"IN"},{"zip":"47234","fips":"18145","name":"Shelby County","state_id":"IN"},{"zip":"47234","fips":"18005","name":"Bartholomew County","state_id":"IN"},{"zip":"47235","fips":"18013","name":"Brown County","state_id":"IN"},{"zip":"47235","fips":"18071","name":"Jackson County","state_id":"IN"},{"zip":"47236","fips":"18005","name":"Bartholomew County","state_id":"IN"},{"zip":"47240","fips":"18145","name":"Shelby County","state_id":"IN"},{"zip":"47240","fips":"18137","name":"Ripley County","state_id":"IN"},{"zip":"47240","fips":"18031","name":"Decatur County","state_id":"IN"},{"zip":"47240","fips":"18139","name":"Rush County","state_id":"IN"},{"zip":"47240","fips":"18047","name":"Franklin County","state_id":"IN"},{"zip":"47243","fips":"18019","name":"Clark County","state_id":"IN"},{"zip":"47243","fips":"18077","name":"Jefferson County","state_id":"IN"},{"zip":"47244","fips":"18031","name":"Decatur County","state_id":"IN"},{"zip":"47244","fips":"18005","name":"Bartholomew County","state_id":"IN"},{"zip":"47245","fips":"18079","name":"Jennings County","state_id":"IN"},{"zip":"47246","fips":"18031","name":"Decatur County","state_id":"IN"},{"zip":"47246","fips":"18005","name":"Bartholomew County","state_id":"IN"},{"zip":"47247","fips":"18005","name":"Bartholomew County","state_id":"IN"},{"zip":"47250","fips":"18077","name":"Jefferson County","state_id":"IN"},{"zip":"47250","fips":"18137","name":"Ripley County","state_id":"IN"},{"zip":"47250","fips":"18155","name":"Switzerland County","state_id":"IN"},{"zip":"47260","fips":"18071","name":"Jackson County","state_id":"IN"},{"zip":"47260","fips":"18093","name":"Lawrence County","state_id":"IN"},{"zip":"47263","fips":"18031","name":"Decatur County","state_id":"IN"},{"zip":"47264","fips":"18093","name":"Lawrence County","state_id":"IN"},{"zip":"47264","fips":"18071","name":"Jackson County","state_id":"IN"},{"zip":"47264","fips":"18105","name":"Monroe County","state_id":"IN"},{"zip":"47265","fips":"18079","name":"Jennings County","state_id":"IN"},{"zip":"47270","fips":"18077","name":"Jefferson County","state_id":"IN"},{"zip":"47270","fips":"18079","name":"Jennings County","state_id":"IN"},{"zip":"47272","fips":"18031","name":"Decatur County","state_id":"IN"},{"zip":"47272","fips":"18139","name":"Rush County","state_id":"IN"},{"zip":"47272","fips":"18145","name":"Shelby County","state_id":"IN"},{"zip":"47273","fips":"18079","name":"Jennings County","state_id":"IN"},{"zip":"47273","fips":"18005","name":"Bartholomew County","state_id":"IN"},{"zip":"47274","fips":"18013","name":"Brown County","state_id":"IN"},{"zip":"47274","fips":"18079","name":"Jennings County","state_id":"IN"},{"zip":"47274","fips":"18005","name":"Bartholomew County","state_id":"IN"},{"zip":"47274","fips":"18071","name":"Jackson County","state_id":"IN"},{"zip":"47280","fips":"18005","name":"Bartholomew County","state_id":"IN"},{"zip":"47281","fips":"18071","name":"Jackson County","state_id":"IN"},{"zip":"47281","fips":"18175","name":"Washington County","state_id":"IN"},{"zip":"47282","fips":"18079","name":"Jennings County","state_id":"IN"},{"zip":"47283","fips":"18031","name":"Decatur County","state_id":"IN"},{"zip":"47283","fips":"18005","name":"Bartholomew County","state_id":"IN"},{"zip":"47283","fips":"18079","name":"Jennings County","state_id":"IN"}]
