[{"zip":"47302","fips":"18035","name":"Delaware County","state_id":"IN"},{"zip":"47302","fips":"18065","name":"Henry County","state_id":"IN"},{"zip":"47303","fips":"18035","name":"Delaware County","state_id":"IN"},{"zip":"47304","fips":"18035","name":"Delaware County","state_id":"IN"},{"zip":"47305","fips":"18035","name":"Delaware County","state_id":"IN"},{"zip":"47306","fips":"18035","name":"Delaware County","state_id":"IN"},{"zip":"47307","fips":"18035","name":"Delaware County","state_id":"IN"},{"zip":"47308","fips":"18035","name":"Delaware County","state_id":"IN"},{"zip":"47320","fips":"18035","name":"Delaware County","state_id":"IN"},{"zip":"47320","fips":"18135","name":"Randolph County","state_id":"IN"},{"zip":"47320","fips":"18075","name":"Jay County","state_id":"IN"},{"zip":"47322","fips":"18041","name":"Fayette County","state_id":"IN"},{"zip":"47324","fips":"18177","name":"Wayne County","state_id":"IN"},{"zip":"47325","fips":"18041","name":"Fayette County","state_id":"IN"},{"zip":"47325","fips":"18177","name":"Wayne County","state_id":"IN"},{"zip":"47325","fips":"18161","name":"Union County","state_id":"IN"},{"zip":"47326","fips":"18001","name":"Adams County","state_id":"IN"},{"zip":"47326","fips":"18179","name":"Wells County","state_id":"IN"},{"zip":"47326","fips":"18075","name":"Jay County","state_id":"IN"},{"zip":"47327","fips":"18065","name":"Henry County","state_id":"IN"},{"zip":"47327","fips":"18041","name":"Fayette County","state_id":"IN"},{"zip":"47327","fips":"18177","name":"Wayne County","state_id":"IN"},{"zip":"47330","fips":"18177","name":"Wayne County","state_id":"IN"},{"zip":"47331","fips":"18041","name":"Fayette County","state_id":"IN"},{"zip":"47331","fips":"18177","name":"Wayne County","state_id":"IN"},{"zip":"47331","fips":"18047","name":"Franklin County","state_id":"IN"},{"zip":"47331","fips":"18161","name":"Union County","state_id":"IN"},{"zip":"47334","fips":"18065","name":"Henry County","state_id":"IN"},{"zip":"47334","fips":"18035","name":"Delaware County","state_id":"IN"},{"zip":"47335","fips":"18177","name":"Wayne County","state_id":"IN"},{"zip":"47336","fips":"18075","name":"Jay County","state_id":"IN"},{"zip":"47336","fips":"18035","name":"Delaware County","state_id":"IN"},{"zip":"47336","fips":"18009","name":"Blackford County","state_id":"IN"},{"zip":"47337","fips":"18065","name":"Henry County","state_id":"IN"},{"zip":"47338","fips":"18035","name":"Delaware County","state_id":"IN"},{"zip":"47338","fips":"18009","name":"Blackford County","state_id":"IN"},{"zip":"47339","fips":"18177","name":"Wayne County","state_id":"IN"},{"zip":"47340","fips":"18135","name":"Randolph County","state_id":"IN"},{"zip":"47341","fips":"18135","name":"Randolph County","state_id":"IN"},{"zip":"47341","fips":"18177","name":"Wayne County","state_id":"IN"},{"zip":"47342","fips":"18053","name":"Grant County","state_id":"IN"},{"zip":"47342","fips":"18035","name":"Delaware County","state_id":"IN"},{"zip":"47342","fips":"18095","name":"Madison County","state_id":"IN"},{"zip":"47344","fips":"18065","name":"Henry County","state_id":"IN"},{"zip":"47345","fips":"18177","name":"Wayne County","state_id":"IN"},{"zip":"47346","fips":"18177","name":"Wayne County","state_id":"IN"},{"zip":"47346","fips":"18065","name":"Henry County","state_id":"IN"},{"zip":"47348","fips":"18179","name":"Wells County","state_id":"IN"},{"zip":"47348","fips":"18053","name":"Grant County","state_id":"IN"},{"zip":"47348","fips":"18009","name":"Blackford County","state_id":"IN"},{"zip":"47351","fips":"18065","name":"Henry County","state_id":"IN"},{"zip":"47352","fips":"18065","name":"Henry County","state_id":"IN"},{"zip":"47352","fips":"18139","name":"Rush County","state_id":"IN"},{"zip":"47352","fips":"18041","name":"Fayette County","state_id":"IN"},{"zip":"47353","fips":"18161","name":"Union County","state_id":"IN"},{"zip":"47353","fips":"18047","name":"Franklin County","state_id":"IN"},{"zip":"47354","fips":"18177","name":"Wayne County","state_id":"IN"},{"zip":"47354","fips":"18035","name":"Delaware County","state_id":"IN"},{"zip":"47354","fips":"18135","name":"Randolph County","state_id":"IN"},{"zip":"47354","fips":"18065","name":"Henry County","state_id":"IN"},{"zip":"47355","fips":"18135","name":"Randolph County","state_id":"IN"},{"zip":"47355","fips":"18177","name":"Wayne County","state_id":"IN"},{"zip":"47356","fips":"18095","name":"Madison County","state_id":"IN"},{"zip":"47356","fips":"18065","name":"Henry County","state_id":"IN"},{"zip":"47356","fips":"18035","name":"Delaware County","state_id":"IN"},{"zip":"47357","fips":"18041","name":"Fayette County","state_id":"IN"},{"zip":"47357","fips":"18177","name":"Wayne County","state_id":"IN"},{"zip":"47358","fips":"18177","name":"Wayne County","state_id":"IN"},{"zip":"47358","fips":"18135","name":"Randolph County","state_id":"IN"},{"zip":"47359","fips":"18075","name":"Jay County","state_id":"IN"},{"zip":"47359","fips":"18179","name":"Wells County","state_id":"IN"},{"zip":"47359","fips":"18009","name":"Blackford County","state_id":"IN"},{"zip":"47360","fips":"18177","name":"Wayne County","state_id":"IN"},{"zip":"47360","fips":"18065","name":"Henry County","state_id":"IN"},{"zip":"47361","fips":"18065","name":"Henry County","state_id":"IN"},{"zip":"47362","fips":"18065","name":"Henry County","state_id":"IN"},{"zip":"47366","fips":"18065","name":"Henry County","state_id":"IN"},{"zip":"47367","fips":"18035","name":"Delaware County","state_id":"IN"},{"zip":"47368","fips":"18035","name":"Delaware County","state_id":"IN"},{"zip":"47368","fips":"18135","name":"Randolph County","state_id":"IN"},{"zip":"47369","fips":"18009","name":"Blackford County","state_id":"IN"},{"zip":"47369","fips":"18075","name":"Jay County","state_id":"IN"},{"zip":"47370","fips":"18177","name":"Wayne County","state_id":"IN"},{"zip":"47371","fips":"18075","name":"Jay County","state_id":"IN"},{"zip":"47373","fips":"18135","name":"Randolph County","state_id":"IN"},{"zip":"47373","fips":"18075","name":"Jay County","state_id":"IN"},{"zip":"47374","fips":"18177","name":"Wayne County","state_id":"IN"},{"zip":"47375","fips":"18177","name":"Wayne County","state_id":"IN"},{"zip":"47380","fips":"18135","name":"Randolph County","state_id":"IN"},{"zip":"47380","fips":"18075","name":"Jay County","state_id":"IN"},{"zip":"47381","fips":"18075","name":"Jay County","state_id":"IN"},{"zip":"47382","fips":"18135","name":"Randolph County","state_id":"IN"},{"zip":"47383","fips":"18035","name":"Delaware County","state_id":"IN"},{"zip":"47383","fips":"18135","name":"Randolph County","state_id":"IN"},{"zip":"47384","fips":"18065","name":"Henry County","state_id":"IN"},{"zip":"47384","fips":"18059","name":"Hancock County","state_id":"IN"},{"zip":"47385","fips":"18065","name":"Henry County","state_id":"IN"},{"zip":"47386","fips":"18065","name":"Henry County","state_id":"IN"},{"zip":"47386","fips":"18035","name":"Delaware County","state_id":"IN"},{"zip":"47387","fips":"18065","name":"Henry County","state_id":"IN"},{"zip":"47388","fips":"18065","name":"Henry County","state_id":"IN"},{"zip":"47390","fips":"18135","name":"Randolph County","state_id":"IN"},{"zip":"47390","fips":"18075","name":"Jay County","state_id":"IN"},{"zip":"47392","fips":"18177","name":"Wayne County","state_id":"IN"},{"zip":"47393","fips":"18135","name":"Randolph County","state_id":"IN"},{"zip":"47393","fips":"18177","name":"Wayne County","state_id":"IN"},{"zip":"47394","fips":"18135","name":"Randolph County","state_id":"IN"},{"zip":"47396","fips":"18035","name":"Delaware County","state_id":"IN"}]
