[{"zip":"47401","fips":"18013","name":"Brown County","state_id":"IN"},{"zip":"47401","fips":"18105","name":"Monroe County","state_id":"IN"},{"zip":"47402","fips":"18105","name":"Monroe County","state_id":"IN"},{"zip":"47403","fips":"18055","name":"Greene County","state_id":"IN"},{"zip":"47403","fips":"18105","name":"Monroe County","state_id":"IN"},{"zip":"47404","fips":"18119","name":"Owen County","state_id":"IN"},{"zip":"47404","fips":"18105","name":"Monroe County","state_id":"IN"},{"zip":"47405","fips":"18105","name":"Monroe County","state_id":"IN"},{"zip":"47406","fips":"18105","name":"Monroe County","state_id":"IN"},{"zip":"47407","fips":"18105","name":"Monroe County","state_id":"IN"},{"zip":"47408","fips":"18105","name":"Monroe County","state_id":"IN"},{"zip":"47420","fips":"18093","name":"Lawrence County","state_id":"IN"},{"zip":"47421","fips":"18105","name":"Monroe County","state_id":"IN"},{"zip":"47421","fips":"18093","name":"Lawrence County","state_id":"IN"},{"zip":"47424","fips":"18055","name":"Greene County","state_id":"IN"},{"zip":"47424","fips":"18119","name":"Owen County","state_id":"IN"},{"zip":"47426","fips":"18105","name":"Monroe County","state_id":"IN"},{"zip":"47427","fips":"18021","name":"Clay County","state_id":"IN"},{"zip":"47427","fips":"18119","name":"Owen County","state_id":"IN"},{"zip":"47429","fips":"18105","name":"Monroe County","state_id":"IN"},{"zip":"47431","fips":"18119","name":"Owen County","state_id":"IN"},{"zip":"47432","fips":"18117","name":"Orange County","state_id":"IN"},{"zip":"47432","fips":"18037","name":"Dubois County","state_id":"IN"},{"zip":"47432","fips":"18101","name":"Martin County","state_id":"IN"},{"zip":"47433","fips":"18119","name":"Owen County","state_id":"IN"},{"zip":"47433","fips":"18109","name":"Morgan County","state_id":"IN"},{"zip":"47433","fips":"18105","name":"Monroe County","state_id":"IN"},{"zip":"47434","fips":"18105","name":"Monroe County","state_id":"IN"},{"zip":"47435","fips":"18013","name":"Brown County","state_id":"IN"},{"zip":"47436","fips":"18105","name":"Monroe County","state_id":"IN"},{"zip":"47436","fips":"18093","name":"Lawrence County","state_id":"IN"},{"zip":"47437","fips":"18093","name":"Lawrence County","state_id":"IN"},{"zip":"47438","fips":"18021","name":"Clay County","state_id":"IN"},{"zip":"47438","fips":"18153","name":"Sullivan County","state_id":"IN"},{"zip":"47438","fips":"18055","name":"Greene County","state_id":"IN"},{"zip":"47441","fips":"18055","name":"Greene County","state_id":"IN"},{"zip":"47443","fips":"18055","name":"Greene County","state_id":"IN"},{"zip":"47445","fips":"18055","name":"Greene County","state_id":"IN"},{"zip":"47446","fips":"18093","name":"Lawrence County","state_id":"IN"},{"zip":"47446","fips":"18117","name":"Orange County","state_id":"IN"},{"zip":"47446","fips":"18101","name":"Martin County","state_id":"IN"},{"zip":"47448","fips":"18013","name":"Brown County","state_id":"IN"},{"zip":"47448","fips":"18105","name":"Monroe County","state_id":"IN"},{"zip":"47448","fips":"18005","name":"Bartholomew County","state_id":"IN"},{"zip":"47449","fips":"18101","name":"Martin County","state_id":"IN"},{"zip":"47449","fips":"18055","name":"Greene County","state_id":"IN"},{"zip":"47449","fips":"18027","name":"Daviess County","state_id":"IN"},{"zip":"47451","fips":"18093","name":"Lawrence County","state_id":"IN"},{"zip":"47452","fips":"18175","name":"Washington County","state_id":"IN"},{"zip":"47452","fips":"18117","name":"Orange County","state_id":"IN"},{"zip":"47452","fips":"18093","name":"Lawrence County","state_id":"IN"},{"zip":"47453","fips":"18055","name":"Greene County","state_id":"IN"},{"zip":"47454","fips":"18117","name":"Orange County","state_id":"IN"},{"zip":"47455","fips":"18119","name":"Owen County","state_id":"IN"},{"zip":"47456","fips":"18109","name":"Morgan County","state_id":"IN"},{"zip":"47456","fips":"18133","name":"Putnam County","state_id":"IN"},{"zip":"47456","fips":"18119","name":"Owen County","state_id":"IN"},{"zip":"47457","fips":"18055","name":"Greene County","state_id":"IN"},{"zip":"47458","fips":"18105","name":"Monroe County","state_id":"IN"},{"zip":"47459","fips":"18055","name":"Greene County","state_id":"IN"},{"zip":"47459","fips":"18119","name":"Owen County","state_id":"IN"},{"zip":"47460","fips":"18105","name":"Monroe County","state_id":"IN"},{"zip":"47460","fips":"18055","name":"Greene County","state_id":"IN"},{"zip":"47460","fips":"18119","name":"Owen County","state_id":"IN"},{"zip":"47462","fips":"18055","name":"Greene County","state_id":"IN"},{"zip":"47462","fips":"18093","name":"Lawrence County","state_id":"IN"},{"zip":"47462","fips":"18105","name":"Monroe County","state_id":"IN"},{"zip":"47463","fips":"18105","name":"Monroe County","state_id":"IN"},{"zip":"47464","fips":"18105","name":"Monroe County","state_id":"IN"},{"zip":"47465","fips":"18055","name":"Greene County","state_id":"IN"},{"zip":"47467","fips":"18093","name":"Lawrence County","state_id":"IN"},{"zip":"47468","fips":"18105","name":"Monroe County","state_id":"IN"},{"zip":"47468","fips":"18013","name":"Brown County","state_id":"IN"},{"zip":"47469","fips":"18117","name":"Orange County","state_id":"IN"},{"zip":"47470","fips":"18101","name":"Martin County","state_id":"IN"},{"zip":"47470","fips":"18093","name":"Lawrence County","state_id":"IN"},{"zip":"47471","fips":"18119","name":"Owen County","state_id":"IN"},{"zip":"47471","fips":"18055","name":"Greene County","state_id":"IN"}]
