[{"zip":"47501","fips":"18027","name":"Daviess County","state_id":"IN"},{"zip":"47512","fips":"18083","name":"Knox County","state_id":"IN"},{"zip":"47513","fips":"18037","name":"Dubois County","state_id":"IN"},{"zip":"47513","fips":"18123","name":"Perry County","state_id":"IN"},{"zip":"47513","fips":"18117","name":"Orange County","state_id":"IN"},{"zip":"47513","fips":"18025","name":"Crawford County","state_id":"IN"},{"zip":"47514","fips":"18123","name":"Perry County","state_id":"IN"},{"zip":"47515","fips":"18123","name":"Perry County","state_id":"IN"},{"zip":"47516","fips":"18083","name":"Knox County","state_id":"IN"},{"zip":"47519","fips":"18027","name":"Daviess County","state_id":"IN"},{"zip":"47520","fips":"18123","name":"Perry County","state_id":"IN"},{"zip":"47521","fips":"18037","name":"Dubois County","state_id":"IN"},{"zip":"47522","fips":"18101","name":"Martin County","state_id":"IN"},{"zip":"47523","fips":"18173","name":"Warrick County","state_id":"IN"},{"zip":"47523","fips":"18147","name":"Spencer County","state_id":"IN"},{"zip":"47523","fips":"18037","name":"Dubois County","state_id":"IN"},{"zip":"47524","fips":"18083","name":"Knox County","state_id":"IN"},{"zip":"47525","fips":"18123","name":"Perry County","state_id":"IN"},{"zip":"47527","fips":"18037","name":"Dubois County","state_id":"IN"},{"zip":"47527","fips":"18117","name":"Orange County","state_id":"IN"},{"zip":"47528","fips":"18083","name":"Knox County","state_id":"IN"},{"zip":"47528","fips":"18153","name":"Sullivan County","state_id":"IN"},{"zip":"47529","fips":"18055","name":"Greene County","state_id":"IN"},{"zip":"47529","fips":"18027","name":"Daviess County","state_id":"IN"},{"zip":"47531","fips":"18147","name":"Spencer County","state_id":"IN"},{"zip":"47532","fips":"18147","name":"Spencer County","state_id":"IN"},{"zip":"47532","fips":"18037","name":"Dubois County","state_id":"IN"},{"zip":"47532","fips":"18123","name":"Perry County","state_id":"IN"},{"zip":"47535","fips":"18083","name":"Knox County","state_id":"IN"},{"zip":"47536","fips":"18147","name":"Spencer County","state_id":"IN"},{"zip":"47537","fips":"18173","name":"Warrick County","state_id":"IN"},{"zip":"47537","fips":"18147","name":"Spencer County","state_id":"IN"},{"zip":"47541","fips":"18173","name":"Warrick County","state_id":"IN"},{"zip":"47541","fips":"18147","name":"Spencer County","state_id":"IN"},{"zip":"47541","fips":"18125","name":"Pike County","state_id":"IN"},{"zip":"47541","fips":"18037","name":"Dubois County","state_id":"IN"},{"zip":"47542","fips":"18037","name":"Dubois County","state_id":"IN"},{"zip":"47542","fips":"18125","name":"Pike County","state_id":"IN"},{"zip":"47545","fips":"18037","name":"Dubois County","state_id":"IN"},{"zip":"47546","fips":"18037","name":"Dubois County","state_id":"IN"},{"zip":"47547","fips":"18037","name":"Dubois County","state_id":"IN"},{"zip":"47550","fips":"18147","name":"Spencer County","state_id":"IN"},{"zip":"47551","fips":"18123","name":"Perry County","state_id":"IN"},{"zip":"47552","fips":"18147","name":"Spencer County","state_id":"IN"},{"zip":"47553","fips":"18027","name":"Daviess County","state_id":"IN"},{"zip":"47553","fips":"18101","name":"Martin County","state_id":"IN"},{"zip":"47556","fips":"18147","name":"Spencer County","state_id":"IN"},{"zip":"47557","fips":"18083","name":"Knox County","state_id":"IN"},{"zip":"47558","fips":"18027","name":"Daviess County","state_id":"IN"},{"zip":"47561","fips":"18083","name":"Knox County","state_id":"IN"},{"zip":"47561","fips":"18153","name":"Sullivan County","state_id":"IN"},{"zip":"47562","fips":"18055","name":"Greene County","state_id":"IN"},{"zip":"47562","fips":"18027","name":"Daviess County","state_id":"IN"},{"zip":"47562","fips":"18101","name":"Martin County","state_id":"IN"},{"zip":"47564","fips":"18125","name":"Pike County","state_id":"IN"},{"zip":"47564","fips":"18037","name":"Dubois County","state_id":"IN"},{"zip":"47567","fips":"18125","name":"Pike County","state_id":"IN"},{"zip":"47568","fips":"18027","name":"Daviess County","state_id":"IN"},{"zip":"47573","fips":"18083","name":"Knox County","state_id":"IN"},{"zip":"47574","fips":"18123","name":"Perry County","state_id":"IN"},{"zip":"47575","fips":"18037","name":"Dubois County","state_id":"IN"},{"zip":"47576","fips":"18123","name":"Perry County","state_id":"IN"},{"zip":"47576","fips":"18025","name":"Crawford County","state_id":"IN"},{"zip":"47577","fips":"18123","name":"Perry County","state_id":"IN"},{"zip":"47577","fips":"18147","name":"Spencer County","state_id":"IN"},{"zip":"47578","fips":"18083","name":"Knox County","state_id":"IN"},{"zip":"47578","fips":"18153","name":"Sullivan County","state_id":"IN"},{"zip":"47578","fips":"18055","name":"Greene County","state_id":"IN"},{"zip":"47579","fips":"18147","name":"Spencer County","state_id":"IN"},{"zip":"47580","fips":"18037","name":"Dubois County","state_id":"IN"},{"zip":"47581","fips":"18117","name":"Orange County","state_id":"IN"},{"zip":"47581","fips":"18101","name":"Martin County","state_id":"IN"},{"zip":"47584","fips":"18125","name":"Pike County","state_id":"IN"},{"zip":"47585","fips":"18125","name":"Pike County","state_id":"IN"},{"zip":"47586","fips":"18123","name":"Perry County","state_id":"IN"},{"zip":"47588","fips":"18123","name":"Perry County","state_id":"IN"},{"zip":"47588","fips":"18147","name":"Spencer County","state_id":"IN"},{"zip":"47590","fips":"18125","name":"Pike County","state_id":"IN"},{"zip":"47590","fips":"18037","name":"Dubois County","state_id":"IN"},{"zip":"47591","fips":"18083","name":"Knox County","state_id":"IN"},{"zip":"47596","fips":"18083","name":"Knox County","state_id":"IN"},{"zip":"47597","fips":"18083","name":"Knox County","state_id":"IN"},{"zip":"47598","fips":"18125","name":"Pike County","state_id":"IN"}]
