[{"zip":"47601","fips":"18147","name":"Spencer County","state_id":"IN"},{"zip":"47601","fips":"18173","name":"Warrick County","state_id":"IN"},{"zip":"47610","fips":"18173","name":"Warrick County","state_id":"IN"},{"zip":"47611","fips":"18147","name":"Spencer County","state_id":"IN"},{"zip":"47612","fips":"18051","name":"Gibson County","state_id":"IN"},{"zip":"47612","fips":"18129","name":"Posey County","state_id":"IN"},{"zip":"47612","fips":"18163","name":"Vanderburgh County","state_id":"IN"},{"zip":"47613","fips":"18173","name":"Warrick County","state_id":"IN"},{"zip":"47613","fips":"18051","name":"Gibson County","state_id":"IN"},{"zip":"47613","fips":"18163","name":"Vanderburgh County","state_id":"IN"},{"zip":"47615","fips":"18147","name":"Spencer County","state_id":"IN"},{"zip":"47616","fips":"18051","name":"Gibson County","state_id":"IN"},{"zip":"47616","fips":"18129","name":"Posey County","state_id":"IN"},{"zip":"47617","fips":"18147","name":"Spencer County","state_id":"IN"},{"zip":"47618","fips":"18163","name":"Vanderburgh County","state_id":"IN"},{"zip":"47619","fips":"18051","name":"Gibson County","state_id":"IN"},{"zip":"47619","fips":"18173","name":"Warrick County","state_id":"IN"},{"zip":"47619","fips":"18125","name":"Pike County","state_id":"IN"},{"zip":"47620","fips":"18129","name":"Posey County","state_id":"IN"},{"zip":"47629","fips":"18173","name":"Warrick County","state_id":"IN"},{"zip":"47630","fips":"18173","name":"Warrick County","state_id":"IN"},{"zip":"47630","fips":"18163","name":"Vanderburgh County","state_id":"IN"},{"zip":"47631","fips":"18129","name":"Posey County","state_id":"IN"},{"zip":"47633","fips":"18163","name":"Vanderburgh County","state_id":"IN"},{"zip":"47633","fips":"18101","name":"Martin County","state_id":"IN"},{"zip":"47633","fips":"18051","name":"Gibson County","state_id":"IN"},{"zip":"47633","fips":"18129","name":"Posey County","state_id":"IN"},{"zip":"47634","fips":"18147","name":"Spencer County","state_id":"IN"},{"zip":"47635","fips":"18147","name":"Spencer County","state_id":"IN"},{"zip":"47637","fips":"18173","name":"Warrick County","state_id":"IN"},{"zip":"47637","fips":"18147","name":"Spencer County","state_id":"IN"},{"zip":"47638","fips":"18163","name":"Vanderburgh County","state_id":"IN"},{"zip":"47638","fips":"18129","name":"Posey County","state_id":"IN"},{"zip":"47639","fips":"18051","name":"Gibson County","state_id":"IN"},{"zip":"47639","fips":"18173","name":"Warrick County","state_id":"IN"},{"zip":"47639","fips":"18163","name":"Vanderburgh County","state_id":"IN"},{"zip":"47640","fips":"18051","name":"Gibson County","state_id":"IN"},{"zip":"47640","fips":"18125","name":"Pike County","state_id":"IN"},{"zip":"47647","fips":"18051","name":"Gibson County","state_id":"IN"},{"zip":"47648","fips":"18051","name":"Gibson County","state_id":"IN"},{"zip":"47649","fips":"18051","name":"Gibson County","state_id":"IN"},{"zip":"47654","fips":"18051","name":"Gibson County","state_id":"IN"},{"zip":"47660","fips":"18051","name":"Gibson County","state_id":"IN"},{"zip":"47660","fips":"18125","name":"Pike County","state_id":"IN"},{"zip":"47660","fips":"18173","name":"Warrick County","state_id":"IN"},{"zip":"47665","fips":"18051","name":"Gibson County","state_id":"IN"},{"zip":"47666","fips":"18051","name":"Gibson County","state_id":"IN"},{"zip":"47666","fips":"18125","name":"Pike County","state_id":"IN"},{"zip":"47670","fips":"18051","name":"Gibson County","state_id":"IN"},{"zip":"47683","fips":"18051","name":"Gibson County","state_id":"IN"}]
