[{"zip":"47701","fips":"18163","name":"Vanderburgh County","state_id":"IN"},{"zip":"47702","fips":"18163","name":"Vanderburgh County","state_id":"IN"},{"zip":"47703","fips":"18163","name":"Vanderburgh County","state_id":"IN"},{"zip":"47704","fips":"18163","name":"Vanderburgh County","state_id":"IN"},{"zip":"47705","fips":"18163","name":"Vanderburgh County","state_id":"IN"},{"zip":"47706","fips":"18163","name":"Vanderburgh County","state_id":"IN"},{"zip":"47708","fips":"18163","name":"Vanderburgh County","state_id":"IN"},{"zip":"47710","fips":"18163","name":"Vanderburgh County","state_id":"IN"},{"zip":"47711","fips":"18163","name":"Vanderburgh County","state_id":"IN"},{"zip":"47712","fips":"18163","name":"Vanderburgh County","state_id":"IN"},{"zip":"47712","fips":"18129","name":"Posey County","state_id":"IN"},{"zip":"47713","fips":"18163","name":"Vanderburgh County","state_id":"IN"},{"zip":"47714","fips":"18163","name":"Vanderburgh County","state_id":"IN"},{"zip":"47715","fips":"18163","name":"Vanderburgh County","state_id":"IN"},{"zip":"47716","fips":"18163","name":"Vanderburgh County","state_id":"IN"},{"zip":"47719","fips":"18163","name":"Vanderburgh County","state_id":"IN"},{"zip":"47720","fips":"18129","name":"Posey County","state_id":"IN"},{"zip":"47720","fips":"18163","name":"Vanderburgh County","state_id":"IN"},{"zip":"47721","fips":"18163","name":"Vanderburgh County","state_id":"IN"},{"zip":"47722","fips":"18163","name":"Vanderburgh County","state_id":"IN"},{"zip":"47724","fips":"18163","name":"Vanderburgh County","state_id":"IN"},{"zip":"47725","fips":"18051","name":"Gibson County","state_id":"IN"},{"zip":"47725","fips":"18173","name":"Warrick County","state_id":"IN"},{"zip":"47725","fips":"18163","name":"Vanderburgh County","state_id":"IN"},{"zip":"47728","fips":"18163","name":"Vanderburgh County","state_id":"IN"},{"zip":"47730","fips":"18163","name":"Vanderburgh County","state_id":"IN"},{"zip":"47731","fips":"18163","name":"Vanderburgh County","state_id":"IN"},{"zip":"47732","fips":"18163","name":"Vanderburgh County","state_id":"IN"},{"zip":"47733","fips":"18163","name":"Vanderburgh County","state_id":"IN"},{"zip":"47734","fips":"18163","name":"Vanderburgh County","state_id":"IN"},{"zip":"47735","fips":"18163","name":"Vanderburgh County","state_id":"IN"},{"zip":"47736","fips":"18163","name":"Vanderburgh County","state_id":"IN"},{"zip":"47737","fips":"18163","name":"Vanderburgh County","state_id":"IN"},{"zip":"47747","fips":"18163","name":"Vanderburgh County","state_id":"IN"},{"zip":"47750","fips":"18163","name":"Vanderburgh County","state_id":"IN"}]
