[{"zip":"47801","fips":"18167","name":"Vigo County","state_id":"IN"},{"zip":"47802","fips":"18167","name":"Vigo County","state_id":"IN"},{"zip":"47802","fips":"18021","name":"Clay County","state_id":"IN"},{"zip":"47803","fips":"18167","name":"Vigo County","state_id":"IN"},{"zip":"47803","fips":"18021","name":"Clay County","state_id":"IN"},{"zip":"47804","fips":"18167","name":"Vigo County","state_id":"IN"},{"zip":"47805","fips":"18167","name":"Vigo County","state_id":"IN"},{"zip":"47805","fips":"18121","name":"Parke County","state_id":"IN"},{"zip":"47807","fips":"18167","name":"Vigo County","state_id":"IN"},{"zip":"47809","fips":"18167","name":"Vigo County","state_id":"IN"},{"zip":"47831","fips":"18165","name":"Vermillion County","state_id":"IN"},{"zip":"47832","fips":"18121","name":"Parke County","state_id":"IN"},{"zip":"47833","fips":"18119","name":"Owen County","state_id":"IN"},{"zip":"47833","fips":"18021","name":"Clay County","state_id":"IN"},{"zip":"47834","fips":"18133","name":"Putnam County","state_id":"IN"},{"zip":"47834","fips":"18121","name":"Parke County","state_id":"IN"},{"zip":"47834","fips":"18167","name":"Vigo County","state_id":"IN"},{"zip":"47834","fips":"18021","name":"Clay County","state_id":"IN"},{"zip":"47836","fips":"18121","name":"Parke County","state_id":"IN"},{"zip":"47837","fips":"18121","name":"Parke County","state_id":"IN"},{"zip":"47837","fips":"18021","name":"Clay County","state_id":"IN"},{"zip":"47838","fips":"18153","name":"Sullivan County","state_id":"IN"},{"zip":"47838","fips":"18083","name":"Knox County","state_id":"IN"},{"zip":"47838","fips":"18055","name":"Greene County","state_id":"IN"},{"zip":"47840","fips":"18133","name":"Putnam County","state_id":"IN"},{"zip":"47840","fips":"18021","name":"Clay County","state_id":"IN"},{"zip":"47841","fips":"18021","name":"Clay County","state_id":"IN"},{"zip":"47841","fips":"18119","name":"Owen County","state_id":"IN"},{"zip":"47842","fips":"18165","name":"Vermillion County","state_id":"IN"},{"zip":"47842","fips":"18167","name":"Vigo County","state_id":"IN"},{"zip":"47845","fips":"18021","name":"Clay County","state_id":"IN"},{"zip":"47846","fips":"18167","name":"Vigo County","state_id":"IN"},{"zip":"47846","fips":"18021","name":"Clay County","state_id":"IN"},{"zip":"47847","fips":"18165","name":"Vermillion County","state_id":"IN"},{"zip":"47848","fips":"18055","name":"Greene County","state_id":"IN"},{"zip":"47848","fips":"18153","name":"Sullivan County","state_id":"IN"},{"zip":"47849","fips":"18153","name":"Sullivan County","state_id":"IN"},{"zip":"47850","fips":"18153","name":"Sullivan County","state_id":"IN"},{"zip":"47850","fips":"18167","name":"Vigo County","state_id":"IN"},{"zip":"47851","fips":"18167","name":"Vigo County","state_id":"IN"},{"zip":"47852","fips":"18153","name":"Sullivan County","state_id":"IN"},{"zip":"47853","fips":"18021","name":"Clay County","state_id":"IN"},{"zip":"47854","fips":"18165","name":"Vermillion County","state_id":"IN"},{"zip":"47855","fips":"18153","name":"Sullivan County","state_id":"IN"},{"zip":"47857","fips":"18021","name":"Clay County","state_id":"IN"},{"zip":"47858","fips":"18167","name":"Vigo County","state_id":"IN"},{"zip":"47858","fips":"18021","name":"Clay County","state_id":"IN"},{"zip":"47858","fips":"18153","name":"Sullivan County","state_id":"IN"},{"zip":"47859","fips":"18121","name":"Parke County","state_id":"IN"},{"zip":"47860","fips":"18121","name":"Parke County","state_id":"IN"},{"zip":"47861","fips":"18153","name":"Sullivan County","state_id":"IN"},{"zip":"47862","fips":"18121","name":"Parke County","state_id":"IN"},{"zip":"47863","fips":"18167","name":"Vigo County","state_id":"IN"},{"zip":"47866","fips":"18153","name":"Sullivan County","state_id":"IN"},{"zip":"47866","fips":"18167","name":"Vigo County","state_id":"IN"},{"zip":"47868","fips":"18133","name":"Putnam County","state_id":"IN"},{"zip":"47868","fips":"18021","name":"Clay County","state_id":"IN"},{"zip":"47868","fips":"18119","name":"Owen County","state_id":"IN"},{"zip":"47869","fips":"18167","name":"Vigo County","state_id":"IN"},{"zip":"47870","fips":"18167","name":"Vigo County","state_id":"IN"},{"zip":"47871","fips":"18167","name":"Vigo County","state_id":"IN"},{"zip":"47872","fips":"18121","name":"Parke County","state_id":"IN"},{"zip":"47872","fips":"18133","name":"Putnam County","state_id":"IN"},{"zip":"47874","fips":"18021","name":"Clay County","state_id":"IN"},{"zip":"47874","fips":"18167","name":"Vigo County","state_id":"IN"},{"zip":"47874","fips":"18121","name":"Parke County","state_id":"IN"},{"zip":"47875","fips":"18165","name":"Vermillion County","state_id":"IN"},{"zip":"47876","fips":"18167","name":"Vigo County","state_id":"IN"},{"zip":"47878","fips":"18167","name":"Vigo County","state_id":"IN"},{"zip":"47879","fips":"18021","name":"Clay County","state_id":"IN"},{"zip":"47879","fips":"18153","name":"Sullivan County","state_id":"IN"},{"zip":"47880","fips":"18167","name":"Vigo County","state_id":"IN"},{"zip":"47881","fips":"18021","name":"Clay County","state_id":"IN"},{"zip":"47882","fips":"18153","name":"Sullivan County","state_id":"IN"},{"zip":"47884","fips":"18165","name":"Vermillion County","state_id":"IN"},{"zip":"47885","fips":"18165","name":"Vermillion County","state_id":"IN"},{"zip":"47885","fips":"18167","name":"Vigo County","state_id":"IN"}]
