[{"zip":"47901","fips":"18157","name":"Tippecanoe County","state_id":"IN"},{"zip":"47902","fips":"18157","name":"Tippecanoe County","state_id":"IN"},{"zip":"47903","fips":"18157","name":"Tippecanoe County","state_id":"IN"},{"zip":"47904","fips":"18157","name":"Tippecanoe County","state_id":"IN"},{"zip":"47905","fips":"18157","name":"Tippecanoe County","state_id":"IN"},{"zip":"47905","fips":"18015","name":"Carroll County","state_id":"IN"},{"zip":"47905","fips":"18023","name":"Clinton County","state_id":"IN"},{"zip":"47906","fips":"18181","name":"White County","state_id":"IN"},{"zip":"47906","fips":"18171","name":"Warren County","state_id":"IN"},{"zip":"47906","fips":"18157","name":"Tippecanoe County","state_id":"IN"},{"zip":"47907","fips":"18157","name":"Tippecanoe County","state_id":"IN"},{"zip":"47909","fips":"18157","name":"Tippecanoe County","state_id":"IN"},{"zip":"47916","fips":"18107","name":"Montgomery County","state_id":"IN"},{"zip":"47917","fips":"18007","name":"Benton County","state_id":"IN"},{"zip":"47917","fips":"18171","name":"Warren County","state_id":"IN"},{"zip":"47918","fips":"18171","name":"Warren County","state_id":"IN"},{"zip":"47918","fips":"18045","name":"Fountain County","state_id":"IN"},{"zip":"47918","fips":"18157","name":"Tippecanoe County","state_id":"IN"},{"zip":"47920","fips":"18015","name":"Carroll County","state_id":"IN"},{"zip":"47920","fips":"18181","name":"White County","state_id":"IN"},{"zip":"47920","fips":"18157","name":"Tippecanoe County","state_id":"IN"},{"zip":"47921","fips":"18171","name":"Warren County","state_id":"IN"},{"zip":"47921","fips":"18007","name":"Benton County","state_id":"IN"},{"zip":"47922","fips":"18111","name":"Newton County","state_id":"IN"},{"zip":"47922","fips":"18073","name":"Jasper County","state_id":"IN"},{"zip":"47923","fips":"18181","name":"White County","state_id":"IN"},{"zip":"47923","fips":"18015","name":"Carroll County","state_id":"IN"},{"zip":"47924","fips":"18157","name":"Tippecanoe County","state_id":"IN"},{"zip":"47925","fips":"18181","name":"White County","state_id":"IN"},{"zip":"47926","fips":"18015","name":"Carroll County","state_id":"IN"},{"zip":"47926","fips":"18017","name":"Cass County","state_id":"IN"},{"zip":"47926","fips":"18181","name":"White County","state_id":"IN"},{"zip":"47928","fips":"18165","name":"Vermillion County","state_id":"IN"},{"zip":"47929","fips":"18181","name":"White County","state_id":"IN"},{"zip":"47930","fips":"18023","name":"Clinton County","state_id":"IN"},{"zip":"47930","fips":"18107","name":"Montgomery County","state_id":"IN"},{"zip":"47930","fips":"18157","name":"Tippecanoe County","state_id":"IN"},{"zip":"47932","fips":"18165","name":"Vermillion County","state_id":"IN"},{"zip":"47932","fips":"18171","name":"Warren County","state_id":"IN"},{"zip":"47932","fips":"18045","name":"Fountain County","state_id":"IN"},{"zip":"47933","fips":"18107","name":"Montgomery County","state_id":"IN"},{"zip":"47933","fips":"18045","name":"Fountain County","state_id":"IN"},{"zip":"47933","fips":"18011","name":"Boone County","state_id":"IN"},{"zip":"47940","fips":"18107","name":"Montgomery County","state_id":"IN"},{"zip":"47941","fips":"18157","name":"Tippecanoe County","state_id":"IN"},{"zip":"47942","fips":"18111","name":"Newton County","state_id":"IN"},{"zip":"47942","fips":"18007","name":"Benton County","state_id":"IN"},{"zip":"47943","fips":"18111","name":"Newton County","state_id":"IN"},{"zip":"47943","fips":"18073","name":"Jasper County","state_id":"IN"},{"zip":"47944","fips":"18171","name":"Warren County","state_id":"IN"},{"zip":"47944","fips":"18007","name":"Benton County","state_id":"IN"},{"zip":"47944","fips":"18181","name":"White County","state_id":"IN"},{"zip":"47946","fips":"18131","name":"Pulaski County","state_id":"IN"},{"zip":"47946","fips":"18181","name":"White County","state_id":"IN"},{"zip":"47946","fips":"18073","name":"Jasper County","state_id":"IN"},{"zip":"47948","fips":"18073","name":"Jasper County","state_id":"IN"},{"zip":"47948","fips":"18111","name":"Newton County","state_id":"IN"},{"zip":"47948","fips":"18007","name":"Benton County","state_id":"IN"},{"zip":"47949","fips":"18045","name":"Fountain County","state_id":"IN"},{"zip":"47949","fips":"18107","name":"Montgomery County","state_id":"IN"},{"zip":"47950","fips":"18181","name":"White County","state_id":"IN"},{"zip":"47950","fips":"18015","name":"Carroll County","state_id":"IN"},{"zip":"47951","fips":"18111","name":"Newton County","state_id":"IN"},{"zip":"47952","fips":"18045","name":"Fountain County","state_id":"IN"},{"zip":"47952","fips":"18121","name":"Parke County","state_id":"IN"},{"zip":"47954","fips":"18107","name":"Montgomery County","state_id":"IN"},{"zip":"47954","fips":"18133","name":"Putnam County","state_id":"IN"},{"zip":"47955","fips":"18157","name":"Tippecanoe County","state_id":"IN"},{"zip":"47955","fips":"18107","name":"Montgomery County","state_id":"IN"},{"zip":"47957","fips":"18073","name":"Jasper County","state_id":"IN"},{"zip":"47957","fips":"18131","name":"Pulaski County","state_id":"IN"},{"zip":"47958","fips":"18045","name":"Fountain County","state_id":"IN"},{"zip":"47959","fips":"18073","name":"Jasper County","state_id":"IN"},{"zip":"47959","fips":"18131","name":"Pulaski County","state_id":"IN"},{"zip":"47959","fips":"18181","name":"White County","state_id":"IN"},{"zip":"47960","fips":"18181","name":"White County","state_id":"IN"},{"zip":"47960","fips":"18015","name":"Carroll County","state_id":"IN"},{"zip":"47960","fips":"18131","name":"Pulaski County","state_id":"IN"},{"zip":"47962","fips":"18157","name":"Tippecanoe County","state_id":"IN"},{"zip":"47963","fips":"18111","name":"Newton County","state_id":"IN"},{"zip":"47964","fips":"18111","name":"Newton County","state_id":"IN"},{"zip":"47965","fips":"18107","name":"Montgomery County","state_id":"IN"},{"zip":"47966","fips":"18165","name":"Vermillion County","state_id":"IN"},{"zip":"47967","fips":"18157","name":"Tippecanoe County","state_id":"IN"},{"zip":"47967","fips":"18107","name":"Montgomery County","state_id":"IN"},{"zip":"47968","fips":"18063","name":"Hendricks County","state_id":"IN"},{"zip":"47968","fips":"18107","name":"Montgomery County","state_id":"IN"},{"zip":"47968","fips":"18011","name":"Boone County","state_id":"IN"},{"zip":"47969","fips":"18045","name":"Fountain County","state_id":"IN"},{"zip":"47970","fips":"18181","name":"White County","state_id":"IN"},{"zip":"47970","fips":"18007","name":"Benton County","state_id":"IN"},{"zip":"47970","fips":"18171","name":"Warren County","state_id":"IN"},{"zip":"47970","fips":"18157","name":"Tippecanoe County","state_id":"IN"},{"zip":"47971","fips":"18007","name":"Benton County","state_id":"IN"},{"zip":"47974","fips":"18165","name":"Vermillion County","state_id":"IN"},{"zip":"47975","fips":"18007","name":"Benton County","state_id":"IN"},{"zip":"47975","fips":"18171","name":"Warren County","state_id":"IN"},{"zip":"47977","fips":"18073","name":"Jasper County","state_id":"IN"},{"zip":"47977","fips":"18007","name":"Benton County","state_id":"IN"},{"zip":"47977","fips":"18181","name":"White County","state_id":"IN"},{"zip":"47978","fips":"18111","name":"Newton County","state_id":"IN"},{"zip":"47978","fips":"18181","name":"White County","state_id":"IN"},{"zip":"47978","fips":"18073","name":"Jasper County","state_id":"IN"},{"zip":"47980","fips":"18181","name":"White County","state_id":"IN"},{"zip":"47981","fips":"18107","name":"Montgomery County","state_id":"IN"},{"zip":"47981","fips":"18157","name":"Tippecanoe County","state_id":"IN"},{"zip":"47982","fips":"18171","name":"Warren County","state_id":"IN"},{"zip":"47983","fips":"18157","name":"Tippecanoe County","state_id":"IN"},{"zip":"47986","fips":"18007","name":"Benton County","state_id":"IN"},{"zip":"47987","fips":"18045","name":"Fountain County","state_id":"IN"},{"zip":"47989","fips":"18121","name":"Parke County","state_id":"IN"},{"zip":"47989","fips":"18107","name":"Montgomery County","state_id":"IN"},{"zip":"47989","fips":"18133","name":"Putnam County","state_id":"IN"},{"zip":"47990","fips":"18045","name":"Fountain County","state_id":"IN"},{"zip":"47990","fips":"18107","name":"Montgomery County","state_id":"IN"},{"zip":"47991","fips":"18171","name":"Warren County","state_id":"IN"},{"zip":"47992","fips":"18157","name":"Tippecanoe County","state_id":"IN"},{"zip":"47992","fips":"18045","name":"Fountain County","state_id":"IN"},{"zip":"47993","fips":"18171","name":"Warren County","state_id":"IN"},{"zip":"47994","fips":"18107","name":"Montgomery County","state_id":"IN"},{"zip":"47994","fips":"18045","name":"Fountain County","state_id":"IN"},{"zip":"47995","fips":"18007","name":"Benton County","state_id":"IN"},{"zip":"47995","fips":"18181","name":"White County","state_id":"IN"},{"zip":"47995","fips":"18073","name":"Jasper County","state_id":"IN"},{"zip":"47996","fips":"18157","name":"Tippecanoe County","state_id":"IN"},{"zip":"47997","fips":"18015","name":"Carroll County","state_id":"IN"}]
