[{"zip":"48001","fips":"26147","name":"St. Clair County","state_id":"MI"},{"zip":"48002","fips":"26147","name":"St. Clair County","state_id":"MI"},{"zip":"48003","fips":"26087","name":"Lapeer County","state_id":"MI"},{"zip":"48004","fips":"26147","name":"St. Clair County","state_id":"MI"},{"zip":"48005","fips":"26099","name":"Macomb County","state_id":"MI"},{"zip":"48006","fips":"26147","name":"St. Clair County","state_id":"MI"},{"zip":"48009","fips":"26125","name":"Oakland County","state_id":"MI"},{"zip":"48012","fips":"26125","name":"Oakland County","state_id":"MI"},{"zip":"48014","fips":"26147","name":"St. Clair County","state_id":"MI"},{"zip":"48014","fips":"26087","name":"Lapeer County","state_id":"MI"},{"zip":"48015","fips":"26099","name":"Macomb County","state_id":"MI"},{"zip":"48017","fips":"26125","name":"Oakland County","state_id":"MI"},{"zip":"48021","fips":"26099","name":"Macomb County","state_id":"MI"},{"zip":"48022","fips":"26147","name":"St. Clair County","state_id":"MI"},{"zip":"48023","fips":"26147","name":"St. Clair County","state_id":"MI"},{"zip":"48025","fips":"26125","name":"Oakland County","state_id":"MI"},{"zip":"48026","fips":"26099","name":"Macomb County","state_id":"MI"},{"zip":"48027","fips":"26147","name":"St. Clair County","state_id":"MI"},{"zip":"48028","fips":"26125","name":"Oakland County","state_id":"MI"},{"zip":"48028","fips":"26147","name":"St. Clair County","state_id":"MI"},{"zip":"48030","fips":"26125","name":"Oakland County","state_id":"MI"},{"zip":"48032","fips":"26151","name":"Sanilac County","state_id":"MI"},{"zip":"48032","fips":"26147","name":"St. Clair County","state_id":"MI"},{"zip":"48033","fips":"26125","name":"Oakland County","state_id":"MI"},{"zip":"48034","fips":"26125","name":"Oakland County","state_id":"MI"},{"zip":"48035","fips":"26099","name":"Macomb County","state_id":"MI"},{"zip":"48036","fips":"26099","name":"Macomb County","state_id":"MI"},{"zip":"48037","fips":"26125","name":"Oakland County","state_id":"MI"},{"zip":"48038","fips":"26099","name":"Macomb County","state_id":"MI"},{"zip":"48039","fips":"26147","name":"St. Clair County","state_id":"MI"},{"zip":"48040","fips":"26147","name":"St. Clair County","state_id":"MI"},{"zip":"48041","fips":"26099","name":"Macomb County","state_id":"MI"},{"zip":"48041","fips":"26147","name":"St. Clair County","state_id":"MI"},{"zip":"48042","fips":"26099","name":"Macomb County","state_id":"MI"},{"zip":"48043","fips":"26099","name":"Macomb County","state_id":"MI"},{"zip":"48044","fips":"26099","name":"Macomb County","state_id":"MI"},{"zip":"48045","fips":"26099","name":"Macomb County","state_id":"MI"},{"zip":"48046","fips":"26099","name":"Macomb County","state_id":"MI"},{"zip":"48047","fips":"26099","name":"Macomb County","state_id":"MI"},{"zip":"48048","fips":"26099","name":"Macomb County","state_id":"MI"},{"zip":"48049","fips":"26147","name":"St. Clair County","state_id":"MI"},{"zip":"48050","fips":"26099","name":"Macomb County","state_id":"MI"},{"zip":"48051","fips":"26099","name":"Macomb County","state_id":"MI"},{"zip":"48054","fips":"26147","name":"St. Clair County","state_id":"MI"},{"zip":"48059","fips":"26147","name":"St. Clair County","state_id":"MI"},{"zip":"48060","fips":"26147","name":"St. Clair County","state_id":"MI"},{"zip":"48061","fips":"26147","name":"St. Clair County","state_id":"MI"},{"zip":"48062","fips":"26099","name":"Macomb County","state_id":"MI"},{"zip":"48063","fips":"26147","name":"St. Clair County","state_id":"MI"},{"zip":"48064","fips":"26147","name":"St. Clair County","state_id":"MI"},{"zip":"48065","fips":"26099","name":"Macomb County","state_id":"MI"},{"zip":"48066","fips":"26099","name":"Macomb County","state_id":"MI"},{"zip":"48067","fips":"26125","name":"Oakland County","state_id":"MI"},{"zip":"48068","fips":"26125","name":"Oakland County","state_id":"MI"},{"zip":"48069","fips":"26125","name":"Oakland County","state_id":"MI"},{"zip":"48070","fips":"26125","name":"Oakland County","state_id":"MI"},{"zip":"48071","fips":"26125","name":"Oakland County","state_id":"MI"},{"zip":"48072","fips":"26125","name":"Oakland County","state_id":"MI"},{"zip":"48073","fips":"26125","name":"Oakland County","state_id":"MI"},{"zip":"48074","fips":"26147","name":"St. Clair County","state_id":"MI"},{"zip":"48075","fips":"26125","name":"Oakland County","state_id":"MI"},{"zip":"48076","fips":"26125","name":"Oakland County","state_id":"MI"},{"zip":"48079","fips":"26147","name":"St. Clair County","state_id":"MI"},{"zip":"48080","fips":"26099","name":"Macomb County","state_id":"MI"},{"zip":"48080","fips":"26163","name":"Wayne County","state_id":"MI"},{"zip":"48081","fips":"26099","name":"Macomb County","state_id":"MI"},{"zip":"48082","fips":"26099","name":"Macomb County","state_id":"MI"},{"zip":"48083","fips":"26125","name":"Oakland County","state_id":"MI"},{"zip":"48084","fips":"26125","name":"Oakland County","state_id":"MI"},{"zip":"48085","fips":"26125","name":"Oakland County","state_id":"MI"},{"zip":"48085","fips":"26099","name":"Macomb County","state_id":"MI"},{"zip":"48088","fips":"26099","name":"Macomb County","state_id":"MI"},{"zip":"48089","fips":"26099","name":"Macomb County","state_id":"MI"},{"zip":"48090","fips":"26099","name":"Macomb County","state_id":"MI"},{"zip":"48091","fips":"26099","name":"Macomb County","state_id":"MI"},{"zip":"48092","fips":"26099","name":"Macomb County","state_id":"MI"},{"zip":"48093","fips":"26099","name":"Macomb County","state_id":"MI"},{"zip":"48094","fips":"26099","name":"Macomb County","state_id":"MI"},{"zip":"48095","fips":"26099","name":"Macomb County","state_id":"MI"},{"zip":"48096","fips":"26099","name":"Macomb County","state_id":"MI"},{"zip":"48097","fips":"26147","name":"St. Clair County","state_id":"MI"},{"zip":"48097","fips":"26151","name":"Sanilac County","state_id":"MI"},{"zip":"48098","fips":"26125","name":"Oakland County","state_id":"MI"},{"zip":"48099","fips":"26125","name":"Oakland County","state_id":"MI"}]
