[{"zip":"48101","fips":"26163","name":"Wayne County","state_id":"MI"},{"zip":"48103","fips":"26161","name":"Washtenaw County","state_id":"MI"},{"zip":"48104","fips":"26161","name":"Washtenaw County","state_id":"MI"},{"zip":"48105","fips":"26161","name":"Washtenaw County","state_id":"MI"},{"zip":"48106","fips":"26161","name":"Washtenaw County","state_id":"MI"},{"zip":"48107","fips":"26161","name":"Washtenaw County","state_id":"MI"},{"zip":"48108","fips":"26161","name":"Washtenaw County","state_id":"MI"},{"zip":"48109","fips":"26161","name":"Washtenaw County","state_id":"MI"},{"zip":"48111","fips":"26161","name":"Washtenaw County","state_id":"MI"},{"zip":"48111","fips":"26163","name":"Wayne County","state_id":"MI"},{"zip":"48111","fips":"26115","name":"Monroe County","state_id":"MI"},{"zip":"48113","fips":"26161","name":"Washtenaw County","state_id":"MI"},{"zip":"48114","fips":"26093","name":"Livingston County","state_id":"MI"},{"zip":"48116","fips":"26093","name":"Livingston County","state_id":"MI"},{"zip":"48117","fips":"26163","name":"Wayne County","state_id":"MI"},{"zip":"48117","fips":"26115","name":"Monroe County","state_id":"MI"},{"zip":"48118","fips":"26161","name":"Washtenaw County","state_id":"MI"},{"zip":"48118","fips":"26075","name":"Jackson County","state_id":"MI"},{"zip":"48120","fips":"26163","name":"Wayne County","state_id":"MI"},{"zip":"48121","fips":"26163","name":"Wayne County","state_id":"MI"},{"zip":"48122","fips":"26163","name":"Wayne County","state_id":"MI"},{"zip":"48123","fips":"26163","name":"Wayne County","state_id":"MI"},{"zip":"48124","fips":"26163","name":"Wayne County","state_id":"MI"},{"zip":"48125","fips":"26163","name":"Wayne County","state_id":"MI"},{"zip":"48126","fips":"26163","name":"Wayne County","state_id":"MI"},{"zip":"48127","fips":"26163","name":"Wayne County","state_id":"MI"},{"zip":"48128","fips":"26163","name":"Wayne County","state_id":"MI"},{"zip":"48130","fips":"26161","name":"Washtenaw County","state_id":"MI"},{"zip":"48131","fips":"26115","name":"Monroe County","state_id":"MI"},{"zip":"48133","fips":"26115","name":"Monroe County","state_id":"MI"},{"zip":"48134","fips":"26163","name":"Wayne County","state_id":"MI"},{"zip":"48134","fips":"26115","name":"Monroe County","state_id":"MI"},{"zip":"48135","fips":"26163","name":"Wayne County","state_id":"MI"},{"zip":"48136","fips":"26163","name":"Wayne County","state_id":"MI"},{"zip":"48137","fips":"26161","name":"Washtenaw County","state_id":"MI"},{"zip":"48137","fips":"26093","name":"Livingston County","state_id":"MI"},{"zip":"48138","fips":"26163","name":"Wayne County","state_id":"MI"},{"zip":"48139","fips":"26093","name":"Livingston County","state_id":"MI"},{"zip":"48140","fips":"26115","name":"Monroe County","state_id":"MI"},{"zip":"48141","fips":"26163","name":"Wayne County","state_id":"MI"},{"zip":"48143","fips":"26093","name":"Livingston County","state_id":"MI"},{"zip":"48144","fips":"26115","name":"Monroe County","state_id":"MI"},{"zip":"48145","fips":"26115","name":"Monroe County","state_id":"MI"},{"zip":"48146","fips":"26163","name":"Wayne County","state_id":"MI"},{"zip":"48150","fips":"26163","name":"Wayne County","state_id":"MI"},{"zip":"48151","fips":"26163","name":"Wayne County","state_id":"MI"},{"zip":"48152","fips":"26163","name":"Wayne County","state_id":"MI"},{"zip":"48153","fips":"26163","name":"Wayne County","state_id":"MI"},{"zip":"48154","fips":"26163","name":"Wayne County","state_id":"MI"},{"zip":"48157","fips":"26115","name":"Monroe County","state_id":"MI"},{"zip":"48158","fips":"26161","name":"Washtenaw County","state_id":"MI"},{"zip":"48158","fips":"26075","name":"Jackson County","state_id":"MI"},{"zip":"48159","fips":"26115","name":"Monroe County","state_id":"MI"},{"zip":"48160","fips":"26161","name":"Washtenaw County","state_id":"MI"},{"zip":"48160","fips":"26091","name":"Lenawee County","state_id":"MI"},{"zip":"48160","fips":"26115","name":"Monroe County","state_id":"MI"},{"zip":"48161","fips":"26115","name":"Monroe County","state_id":"MI"},{"zip":"48162","fips":"26115","name":"Monroe County","state_id":"MI"},{"zip":"48164","fips":"26163","name":"Wayne County","state_id":"MI"},{"zip":"48164","fips":"26115","name":"Monroe County","state_id":"MI"},{"zip":"48165","fips":"26125","name":"Oakland County","state_id":"MI"},{"zip":"48166","fips":"26115","name":"Monroe County","state_id":"MI"},{"zip":"48167","fips":"26163","name":"Wayne County","state_id":"MI"},{"zip":"48167","fips":"26125","name":"Oakland County","state_id":"MI"},{"zip":"48167","fips":"26161","name":"Washtenaw County","state_id":"MI"},{"zip":"48168","fips":"26163","name":"Wayne County","state_id":"MI"},{"zip":"48168","fips":"26161","name":"Washtenaw County","state_id":"MI"},{"zip":"48169","fips":"26161","name":"Washtenaw County","state_id":"MI"},{"zip":"48169","fips":"26093","name":"Livingston County","state_id":"MI"},{"zip":"48170","fips":"26163","name":"Wayne County","state_id":"MI"},{"zip":"48170","fips":"26161","name":"Washtenaw County","state_id":"MI"},{"zip":"48173","fips":"26163","name":"Wayne County","state_id":"MI"},{"zip":"48174","fips":"26163","name":"Wayne County","state_id":"MI"},{"zip":"48175","fips":"26161","name":"Washtenaw County","state_id":"MI"},{"zip":"48176","fips":"26091","name":"Lenawee County","state_id":"MI"},{"zip":"48176","fips":"26161","name":"Washtenaw County","state_id":"MI"},{"zip":"48177","fips":"26115","name":"Monroe County","state_id":"MI"},{"zip":"48178","fips":"26125","name":"Oakland County","state_id":"MI"},{"zip":"48178","fips":"26161","name":"Washtenaw County","state_id":"MI"},{"zip":"48178","fips":"26093","name":"Livingston County","state_id":"MI"},{"zip":"48179","fips":"26115","name":"Monroe County","state_id":"MI"},{"zip":"48180","fips":"26163","name":"Wayne County","state_id":"MI"},{"zip":"48182","fips":"26115","name":"Monroe County","state_id":"MI"},{"zip":"48183","fips":"26163","name":"Wayne County","state_id":"MI"},{"zip":"48184","fips":"26163","name":"Wayne County","state_id":"MI"},{"zip":"48185","fips":"26163","name":"Wayne County","state_id":"MI"},{"zip":"48186","fips":"26163","name":"Wayne County","state_id":"MI"},{"zip":"48187","fips":"26163","name":"Wayne County","state_id":"MI"},{"zip":"48188","fips":"26163","name":"Wayne County","state_id":"MI"},{"zip":"48189","fips":"26093","name":"Livingston County","state_id":"MI"},{"zip":"48189","fips":"26161","name":"Washtenaw County","state_id":"MI"},{"zip":"48190","fips":"26161","name":"Washtenaw County","state_id":"MI"},{"zip":"48191","fips":"26161","name":"Washtenaw County","state_id":"MI"},{"zip":"48191","fips":"26115","name":"Monroe County","state_id":"MI"},{"zip":"48192","fips":"26163","name":"Wayne County","state_id":"MI"},{"zip":"48193","fips":"26163","name":"Wayne County","state_id":"MI"},{"zip":"48195","fips":"26163","name":"Wayne County","state_id":"MI"},{"zip":"48197","fips":"26161","name":"Washtenaw County","state_id":"MI"},{"zip":"48198","fips":"26161","name":"Washtenaw County","state_id":"MI"}]
