[{"zip":"48201","fips":"26163","name":"Wayne County","state_id":"MI"},{"zip":"48202","fips":"26163","name":"Wayne County","state_id":"MI"},{"zip":"48203","fips":"26163","name":"Wayne County","state_id":"MI"},{"zip":"48204","fips":"26163","name":"Wayne County","state_id":"MI"},{"zip":"48205","fips":"26163","name":"Wayne County","state_id":"MI"},{"zip":"48206","fips":"26163","name":"Wayne County","state_id":"MI"},{"zip":"48207","fips":"26163","name":"Wayne County","state_id":"MI"},{"zip":"48208","fips":"26163","name":"Wayne County","state_id":"MI"},{"zip":"48209","fips":"26163","name":"Wayne County","state_id":"MI"},{"zip":"48210","fips":"26163","name":"Wayne County","state_id":"MI"},{"zip":"48211","fips":"26163","name":"Wayne County","state_id":"MI"},{"zip":"48212","fips":"26163","name":"Wayne County","state_id":"MI"},{"zip":"48213","fips":"26163","name":"Wayne County","state_id":"MI"},{"zip":"48214","fips":"26163","name":"Wayne County","state_id":"MI"},{"zip":"48215","fips":"26163","name":"Wayne County","state_id":"MI"},{"zip":"48216","fips":"26163","name":"Wayne County","state_id":"MI"},{"zip":"48217","fips":"26163","name":"Wayne County","state_id":"MI"},{"zip":"48218","fips":"26163","name":"Wayne County","state_id":"MI"},{"zip":"48219","fips":"26125","name":"Oakland County","state_id":"MI"},{"zip":"48219","fips":"26163","name":"Wayne County","state_id":"MI"},{"zip":"48220","fips":"26125","name":"Oakland County","state_id":"MI"},{"zip":"48221","fips":"26163","name":"Wayne County","state_id":"MI"},{"zip":"48222","fips":"26163","name":"Wayne County","state_id":"MI"},{"zip":"48223","fips":"26163","name":"Wayne County","state_id":"MI"},{"zip":"48224","fips":"26163","name":"Wayne County","state_id":"MI"},{"zip":"48225","fips":"26163","name":"Wayne County","state_id":"MI"},{"zip":"48226","fips":"26163","name":"Wayne County","state_id":"MI"},{"zip":"48227","fips":"26163","name":"Wayne County","state_id":"MI"},{"zip":"48228","fips":"26163","name":"Wayne County","state_id":"MI"},{"zip":"48229","fips":"26163","name":"Wayne County","state_id":"MI"},{"zip":"48230","fips":"26163","name":"Wayne County","state_id":"MI"},{"zip":"48231","fips":"26163","name":"Wayne County","state_id":"MI"},{"zip":"48232","fips":"26163","name":"Wayne County","state_id":"MI"},{"zip":"48233","fips":"26163","name":"Wayne County","state_id":"MI"},{"zip":"48234","fips":"26163","name":"Wayne County","state_id":"MI"},{"zip":"48235","fips":"26163","name":"Wayne County","state_id":"MI"},{"zip":"48236","fips":"26163","name":"Wayne County","state_id":"MI"},{"zip":"48236","fips":"26099","name":"Macomb County","state_id":"MI"},{"zip":"48237","fips":"26125","name":"Oakland County","state_id":"MI"},{"zip":"48238","fips":"26163","name":"Wayne County","state_id":"MI"},{"zip":"48239","fips":"26163","name":"Wayne County","state_id":"MI"},{"zip":"48240","fips":"26163","name":"Wayne County","state_id":"MI"},{"zip":"48242","fips":"26163","name":"Wayne County","state_id":"MI"},{"zip":"48243","fips":"26163","name":"Wayne County","state_id":"MI"},{"zip":"48244","fips":"26163","name":"Wayne County","state_id":"MI"},{"zip":"48288","fips":"26163","name":"Wayne County","state_id":"MI"}]
