[{"zip":"48301","fips":"26125","name":"Oakland County","state_id":"MI"},{"zip":"48302","fips":"26125","name":"Oakland County","state_id":"MI"},{"zip":"48303","fips":"26125","name":"Oakland County","state_id":"MI"},{"zip":"48304","fips":"26125","name":"Oakland County","state_id":"MI"},{"zip":"48306","fips":"26125","name":"Oakland County","state_id":"MI"},{"zip":"48306","fips":"26099","name":"Macomb County","state_id":"MI"},{"zip":"48307","fips":"26125","name":"Oakland County","state_id":"MI"},{"zip":"48308","fips":"26125","name":"Oakland County","state_id":"MI"},{"zip":"48309","fips":"26125","name":"Oakland County","state_id":"MI"},{"zip":"48310","fips":"26099","name":"Macomb County","state_id":"MI"},{"zip":"48311","fips":"26099","name":"Macomb County","state_id":"MI"},{"zip":"48312","fips":"26099","name":"Macomb County","state_id":"MI"},{"zip":"48313","fips":"26099","name":"Macomb County","state_id":"MI"},{"zip":"48314","fips":"26099","name":"Macomb County","state_id":"MI"},{"zip":"48315","fips":"26099","name":"Macomb County","state_id":"MI"},{"zip":"48316","fips":"26099","name":"Macomb County","state_id":"MI"},{"zip":"48317","fips":"26099","name":"Macomb County","state_id":"MI"},{"zip":"48317","fips":"26125","name":"Oakland County","state_id":"MI"},{"zip":"48318","fips":"26099","name":"Macomb County","state_id":"MI"},{"zip":"48320","fips":"26125","name":"Oakland County","state_id":"MI"},{"zip":"48321","fips":"26125","name":"Oakland County","state_id":"MI"},{"zip":"48322","fips":"26125","name":"Oakland County","state_id":"MI"},{"zip":"48323","fips":"26125","name":"Oakland County","state_id":"MI"},{"zip":"48324","fips":"26125","name":"Oakland County","state_id":"MI"},{"zip":"48325","fips":"26125","name":"Oakland County","state_id":"MI"},{"zip":"48326","fips":"26125","name":"Oakland County","state_id":"MI"},{"zip":"48327","fips":"26125","name":"Oakland County","state_id":"MI"},{"zip":"48328","fips":"26125","name":"Oakland County","state_id":"MI"},{"zip":"48329","fips":"26125","name":"Oakland County","state_id":"MI"},{"zip":"48330","fips":"26125","name":"Oakland County","state_id":"MI"},{"zip":"48331","fips":"26125","name":"Oakland County","state_id":"MI"},{"zip":"48332","fips":"26125","name":"Oakland County","state_id":"MI"},{"zip":"48333","fips":"26125","name":"Oakland County","state_id":"MI"},{"zip":"48334","fips":"26125","name":"Oakland County","state_id":"MI"},{"zip":"48335","fips":"26125","name":"Oakland County","state_id":"MI"},{"zip":"48336","fips":"26125","name":"Oakland County","state_id":"MI"},{"zip":"48340","fips":"26125","name":"Oakland County","state_id":"MI"},{"zip":"48341","fips":"26125","name":"Oakland County","state_id":"MI"},{"zip":"48342","fips":"26125","name":"Oakland County","state_id":"MI"},{"zip":"48343","fips":"26125","name":"Oakland County","state_id":"MI"},{"zip":"48346","fips":"26125","name":"Oakland County","state_id":"MI"},{"zip":"48347","fips":"26125","name":"Oakland County","state_id":"MI"},{"zip":"48348","fips":"26125","name":"Oakland County","state_id":"MI"},{"zip":"48350","fips":"26125","name":"Oakland County","state_id":"MI"},{"zip":"48353","fips":"26125","name":"Oakland County","state_id":"MI"},{"zip":"48353","fips":"26093","name":"Livingston County","state_id":"MI"},{"zip":"48356","fips":"26125","name":"Oakland County","state_id":"MI"},{"zip":"48357","fips":"26125","name":"Oakland County","state_id":"MI"},{"zip":"48359","fips":"26125","name":"Oakland County","state_id":"MI"},{"zip":"48360","fips":"26125","name":"Oakland County","state_id":"MI"},{"zip":"48361","fips":"26125","name":"Oakland County","state_id":"MI"},{"zip":"48362","fips":"26125","name":"Oakland County","state_id":"MI"},{"zip":"48363","fips":"26125","name":"Oakland County","state_id":"MI"},{"zip":"48366","fips":"26125","name":"Oakland County","state_id":"MI"},{"zip":"48367","fips":"26125","name":"Oakland County","state_id":"MI"},{"zip":"48370","fips":"26125","name":"Oakland County","state_id":"MI"},{"zip":"48371","fips":"26087","name":"Lapeer County","state_id":"MI"},{"zip":"48371","fips":"26125","name":"Oakland County","state_id":"MI"},{"zip":"48374","fips":"26125","name":"Oakland County","state_id":"MI"},{"zip":"48375","fips":"26125","name":"Oakland County","state_id":"MI"},{"zip":"48376","fips":"26125","name":"Oakland County","state_id":"MI"},{"zip":"48377","fips":"26125","name":"Oakland County","state_id":"MI"},{"zip":"48380","fips":"26093","name":"Livingston County","state_id":"MI"},{"zip":"48380","fips":"26125","name":"Oakland County","state_id":"MI"},{"zip":"48381","fips":"26125","name":"Oakland County","state_id":"MI"},{"zip":"48382","fips":"26125","name":"Oakland County","state_id":"MI"},{"zip":"48383","fips":"26125","name":"Oakland County","state_id":"MI"},{"zip":"48386","fips":"26125","name":"Oakland County","state_id":"MI"},{"zip":"48387","fips":"26125","name":"Oakland County","state_id":"MI"},{"zip":"48390","fips":"26125","name":"Oakland County","state_id":"MI"},{"zip":"48393","fips":"26125","name":"Oakland County","state_id":"MI"}]
