[{"zip":"48401","fips":"26151","name":"Sanilac County","state_id":"MI"},{"zip":"48410","fips":"26151","name":"Sanilac County","state_id":"MI"},{"zip":"48411","fips":"26049","name":"Genesee County","state_id":"MI"},{"zip":"48412","fips":"26087","name":"Lapeer County","state_id":"MI"},{"zip":"48413","fips":"26063","name":"Huron County","state_id":"MI"},{"zip":"48414","fips":"26155","name":"Shiawassee County","state_id":"MI"},{"zip":"48415","fips":"26157","name":"Tuscola County","state_id":"MI"},{"zip":"48415","fips":"26145","name":"Saginaw County","state_id":"MI"},{"zip":"48415","fips":"26049","name":"Genesee County","state_id":"MI"},{"zip":"48416","fips":"26087","name":"Lapeer County","state_id":"MI"},{"zip":"48416","fips":"26151","name":"Sanilac County","state_id":"MI"},{"zip":"48416","fips":"26147","name":"St. Clair County","state_id":"MI"},{"zip":"48417","fips":"26145","name":"Saginaw County","state_id":"MI"},{"zip":"48417","fips":"26049","name":"Genesee County","state_id":"MI"},{"zip":"48418","fips":"26093","name":"Livingston County","state_id":"MI"},{"zip":"48418","fips":"26155","name":"Shiawassee County","state_id":"MI"},{"zip":"48418","fips":"26049","name":"Genesee County","state_id":"MI"},{"zip":"48419","fips":"26151","name":"Sanilac County","state_id":"MI"},{"zip":"48420","fips":"26145","name":"Saginaw County","state_id":"MI"},{"zip":"48420","fips":"26157","name":"Tuscola County","state_id":"MI"},{"zip":"48420","fips":"26049","name":"Genesee County","state_id":"MI"},{"zip":"48421","fips":"26087","name":"Lapeer County","state_id":"MI"},{"zip":"48421","fips":"26049","name":"Genesee County","state_id":"MI"},{"zip":"48422","fips":"26151","name":"Sanilac County","state_id":"MI"},{"zip":"48423","fips":"26049","name":"Genesee County","state_id":"MI"},{"zip":"48423","fips":"26087","name":"Lapeer County","state_id":"MI"},{"zip":"48426","fips":"26151","name":"Sanilac County","state_id":"MI"},{"zip":"48426","fips":"26157","name":"Tuscola County","state_id":"MI"},{"zip":"48427","fips":"26151","name":"Sanilac County","state_id":"MI"},{"zip":"48428","fips":"26087","name":"Lapeer County","state_id":"MI"},{"zip":"48428","fips":"26125","name":"Oakland County","state_id":"MI"},{"zip":"48429","fips":"26049","name":"Genesee County","state_id":"MI"},{"zip":"48429","fips":"26155","name":"Shiawassee County","state_id":"MI"},{"zip":"48430","fips":"26093","name":"Livingston County","state_id":"MI"},{"zip":"48430","fips":"26125","name":"Oakland County","state_id":"MI"},{"zip":"48430","fips":"26049","name":"Genesee County","state_id":"MI"},{"zip":"48432","fips":"26063","name":"Huron County","state_id":"MI"},{"zip":"48433","fips":"26155","name":"Shiawassee County","state_id":"MI"},{"zip":"48433","fips":"26049","name":"Genesee County","state_id":"MI"},{"zip":"48434","fips":"26151","name":"Sanilac County","state_id":"MI"},{"zip":"48435","fips":"26157","name":"Tuscola County","state_id":"MI"},{"zip":"48435","fips":"26087","name":"Lapeer County","state_id":"MI"},{"zip":"48436","fips":"26049","name":"Genesee County","state_id":"MI"},{"zip":"48436","fips":"26155","name":"Shiawassee County","state_id":"MI"},{"zip":"48437","fips":"26049","name":"Genesee County","state_id":"MI"},{"zip":"48438","fips":"26087","name":"Lapeer County","state_id":"MI"},{"zip":"48438","fips":"26049","name":"Genesee County","state_id":"MI"},{"zip":"48439","fips":"26049","name":"Genesee County","state_id":"MI"},{"zip":"48439","fips":"26125","name":"Oakland County","state_id":"MI"},{"zip":"48440","fips":"26087","name":"Lapeer County","state_id":"MI"},{"zip":"48441","fips":"26151","name":"Sanilac County","state_id":"MI"},{"zip":"48441","fips":"26063","name":"Huron County","state_id":"MI"},{"zip":"48442","fips":"26049","name":"Genesee County","state_id":"MI"},{"zip":"48442","fips":"26093","name":"Livingston County","state_id":"MI"},{"zip":"48442","fips":"26125","name":"Oakland County","state_id":"MI"},{"zip":"48444","fips":"26147","name":"St. Clair County","state_id":"MI"},{"zip":"48444","fips":"26087","name":"Lapeer County","state_id":"MI"},{"zip":"48445","fips":"26063","name":"Huron County","state_id":"MI"},{"zip":"48446","fips":"26087","name":"Lapeer County","state_id":"MI"},{"zip":"48449","fips":"26049","name":"Genesee County","state_id":"MI"},{"zip":"48449","fips":"26155","name":"Shiawassee County","state_id":"MI"},{"zip":"48450","fips":"26151","name":"Sanilac County","state_id":"MI"},{"zip":"48451","fips":"26049","name":"Genesee County","state_id":"MI"},{"zip":"48451","fips":"26093","name":"Livingston County","state_id":"MI"},{"zip":"48453","fips":"26087","name":"Lapeer County","state_id":"MI"},{"zip":"48453","fips":"26157","name":"Tuscola County","state_id":"MI"},{"zip":"48453","fips":"26151","name":"Sanilac County","state_id":"MI"},{"zip":"48454","fips":"26151","name":"Sanilac County","state_id":"MI"},{"zip":"48455","fips":"26087","name":"Lapeer County","state_id":"MI"},{"zip":"48455","fips":"26125","name":"Oakland County","state_id":"MI"},{"zip":"48456","fips":"26151","name":"Sanilac County","state_id":"MI"},{"zip":"48456","fips":"26063","name":"Huron County","state_id":"MI"},{"zip":"48457","fips":"26049","name":"Genesee County","state_id":"MI"},{"zip":"48457","fips":"26145","name":"Saginaw County","state_id":"MI"},{"zip":"48458","fips":"26049","name":"Genesee County","state_id":"MI"},{"zip":"48460","fips":"26155","name":"Shiawassee County","state_id":"MI"},{"zip":"48460","fips":"26145","name":"Saginaw County","state_id":"MI"},{"zip":"48460","fips":"26049","name":"Genesee County","state_id":"MI"},{"zip":"48461","fips":"26087","name":"Lapeer County","state_id":"MI"},{"zip":"48462","fips":"26049","name":"Genesee County","state_id":"MI"},{"zip":"48462","fips":"26125","name":"Oakland County","state_id":"MI"},{"zip":"48462","fips":"26087","name":"Lapeer County","state_id":"MI"},{"zip":"48463","fips":"26087","name":"Lapeer County","state_id":"MI"},{"zip":"48463","fips":"26049","name":"Genesee County","state_id":"MI"},{"zip":"48464","fips":"26049","name":"Genesee County","state_id":"MI"},{"zip":"48464","fips":"26157","name":"Tuscola County","state_id":"MI"},{"zip":"48464","fips":"26087","name":"Lapeer County","state_id":"MI"},{"zip":"48465","fips":"26151","name":"Sanilac County","state_id":"MI"},{"zip":"48466","fips":"26151","name":"Sanilac County","state_id":"MI"},{"zip":"48467","fips":"26063","name":"Huron County","state_id":"MI"},{"zip":"48468","fips":"26063","name":"Huron County","state_id":"MI"},{"zip":"48469","fips":"26151","name":"Sanilac County","state_id":"MI"},{"zip":"48470","fips":"26063","name":"Huron County","state_id":"MI"},{"zip":"48470","fips":"26151","name":"Sanilac County","state_id":"MI"},{"zip":"48471","fips":"26151","name":"Sanilac County","state_id":"MI"},{"zip":"48472","fips":"26151","name":"Sanilac County","state_id":"MI"},{"zip":"48473","fips":"26049","name":"Genesee County","state_id":"MI"},{"zip":"48475","fips":"26063","name":"Huron County","state_id":"MI"},{"zip":"48475","fips":"26151","name":"Sanilac County","state_id":"MI"},{"zip":"48476","fips":"26155","name":"Shiawassee County","state_id":"MI"},{"zip":"48480","fips":"26049","name":"Genesee County","state_id":"MI"}]
