[{"zip":"48601","fips":"26145","name":"Saginaw County","state_id":"MI"},{"zip":"48602","fips":"26145","name":"Saginaw County","state_id":"MI"},{"zip":"48603","fips":"26145","name":"Saginaw County","state_id":"MI"},{"zip":"48604","fips":"26017","name":"Bay County","state_id":"MI"},{"zip":"48604","fips":"26145","name":"Saginaw County","state_id":"MI"},{"zip":"48605","fips":"26145","name":"Saginaw County","state_id":"MI"},{"zip":"48606","fips":"26145","name":"Saginaw County","state_id":"MI"},{"zip":"48607","fips":"26145","name":"Saginaw County","state_id":"MI"},{"zip":"48608","fips":"26145","name":"Saginaw County","state_id":"MI"},{"zip":"48609","fips":"26145","name":"Saginaw County","state_id":"MI"},{"zip":"48610","fips":"26011","name":"Arenac County","state_id":"MI"},{"zip":"48610","fips":"26129","name":"Ogemaw County","state_id":"MI"},{"zip":"48610","fips":"26051","name":"Gladwin County","state_id":"MI"},{"zip":"48611","fips":"26017","name":"Bay County","state_id":"MI"},{"zip":"48612","fips":"26051","name":"Gladwin County","state_id":"MI"},{"zip":"48612","fips":"26111","name":"Midland County","state_id":"MI"},{"zip":"48612","fips":"26035","name":"Clare County","state_id":"MI"},{"zip":"48613","fips":"26011","name":"Arenac County","state_id":"MI"},{"zip":"48613","fips":"26017","name":"Bay County","state_id":"MI"},{"zip":"48613","fips":"26051","name":"Gladwin County","state_id":"MI"},{"zip":"48614","fips":"26057","name":"Gratiot County","state_id":"MI"},{"zip":"48614","fips":"26145","name":"Saginaw County","state_id":"MI"},{"zip":"48615","fips":"26111","name":"Midland County","state_id":"MI"},{"zip":"48615","fips":"26057","name":"Gratiot County","state_id":"MI"},{"zip":"48616","fips":"26155","name":"Shiawassee County","state_id":"MI"},{"zip":"48616","fips":"26145","name":"Saginaw County","state_id":"MI"},{"zip":"48617","fips":"26035","name":"Clare County","state_id":"MI"},{"zip":"48617","fips":"26073","name":"Isabella County","state_id":"MI"},{"zip":"48618","fips":"26073","name":"Isabella County","state_id":"MI"},{"zip":"48618","fips":"26051","name":"Gladwin County","state_id":"MI"},{"zip":"48618","fips":"26111","name":"Midland County","state_id":"MI"},{"zip":"48619","fips":"26119","name":"Montmorency County","state_id":"MI"},{"zip":"48619","fips":"26135","name":"Oscoda County","state_id":"MI"},{"zip":"48620","fips":"26111","name":"Midland County","state_id":"MI"},{"zip":"48621","fips":"26135","name":"Oscoda County","state_id":"MI"},{"zip":"48622","fips":"26073","name":"Isabella County","state_id":"MI"},{"zip":"48622","fips":"26035","name":"Clare County","state_id":"MI"},{"zip":"48623","fips":"26145","name":"Saginaw County","state_id":"MI"},{"zip":"48623","fips":"26017","name":"Bay County","state_id":"MI"},{"zip":"48623","fips":"26111","name":"Midland County","state_id":"MI"},{"zip":"48624","fips":"26143","name":"Roscommon County","state_id":"MI"},{"zip":"48624","fips":"26051","name":"Gladwin County","state_id":"MI"},{"zip":"48624","fips":"26035","name":"Clare County","state_id":"MI"},{"zip":"48624","fips":"26129","name":"Ogemaw County","state_id":"MI"},{"zip":"48625","fips":"26113","name":"Missaukee County","state_id":"MI"},{"zip":"48625","fips":"26035","name":"Clare County","state_id":"MI"},{"zip":"48626","fips":"26145","name":"Saginaw County","state_id":"MI"},{"zip":"48626","fips":"26111","name":"Midland County","state_id":"MI"},{"zip":"48627","fips":"26143","name":"Roscommon County","state_id":"MI"},{"zip":"48628","fips":"26051","name":"Gladwin County","state_id":"MI"},{"zip":"48628","fips":"26111","name":"Midland County","state_id":"MI"},{"zip":"48629","fips":"26143","name":"Roscommon County","state_id":"MI"},{"zip":"48630","fips":"26143","name":"Roscommon County","state_id":"MI"},{"zip":"48631","fips":"26017","name":"Bay County","state_id":"MI"},{"zip":"48632","fips":"26035","name":"Clare County","state_id":"MI"},{"zip":"48632","fips":"26073","name":"Isabella County","state_id":"MI"},{"zip":"48632","fips":"26133","name":"Osceola County","state_id":"MI"},{"zip":"48633","fips":"26035","name":"Clare County","state_id":"MI"},{"zip":"48634","fips":"26017","name":"Bay County","state_id":"MI"},{"zip":"48634","fips":"26111","name":"Midland County","state_id":"MI"},{"zip":"48635","fips":"26129","name":"Ogemaw County","state_id":"MI"},{"zip":"48636","fips":"26135","name":"Oscoda County","state_id":"MI"},{"zip":"48637","fips":"26145","name":"Saginaw County","state_id":"MI"},{"zip":"48637","fips":"26057","name":"Gratiot County","state_id":"MI"},{"zip":"48637","fips":"26111","name":"Midland County","state_id":"MI"},{"zip":"48638","fips":"26145","name":"Saginaw County","state_id":"MI"},{"zip":"48640","fips":"26111","name":"Midland County","state_id":"MI"},{"zip":"48641","fips":"26111","name":"Midland County","state_id":"MI"},{"zip":"48642","fips":"26111","name":"Midland County","state_id":"MI"},{"zip":"48642","fips":"26017","name":"Bay County","state_id":"MI"},{"zip":"48647","fips":"26135","name":"Oscoda County","state_id":"MI"},{"zip":"48649","fips":"26145","name":"Saginaw County","state_id":"MI"},{"zip":"48649","fips":"26155","name":"Shiawassee County","state_id":"MI"},{"zip":"48650","fips":"26011","name":"Arenac County","state_id":"MI"},{"zip":"48650","fips":"26017","name":"Bay County","state_id":"MI"},{"zip":"48651","fips":"26143","name":"Roscommon County","state_id":"MI"},{"zip":"48652","fips":"26051","name":"Gladwin County","state_id":"MI"},{"zip":"48652","fips":"26111","name":"Midland County","state_id":"MI"},{"zip":"48652","fips":"26017","name":"Bay County","state_id":"MI"},{"zip":"48653","fips":"26039","name":"Crawford County","state_id":"MI"},{"zip":"48653","fips":"26143","name":"Roscommon County","state_id":"MI"},{"zip":"48654","fips":"26135","name":"Oscoda County","state_id":"MI"},{"zip":"48654","fips":"26129","name":"Ogemaw County","state_id":"MI"},{"zip":"48655","fips":"26145","name":"Saginaw County","state_id":"MI"},{"zip":"48656","fips":"26143","name":"Roscommon County","state_id":"MI"},{"zip":"48657","fips":"26111","name":"Midland County","state_id":"MI"},{"zip":"48658","fips":"26017","name":"Bay County","state_id":"MI"},{"zip":"48658","fips":"26011","name":"Arenac County","state_id":"MI"},{"zip":"48659","fips":"26017","name":"Bay County","state_id":"MI"},{"zip":"48659","fips":"26129","name":"Ogemaw County","state_id":"MI"},{"zip":"48659","fips":"26011","name":"Arenac County","state_id":"MI"},{"zip":"48661","fips":"26129","name":"Ogemaw County","state_id":"MI"},{"zip":"48662","fips":"26111","name":"Midland County","state_id":"MI"},{"zip":"48662","fips":"26057","name":"Gratiot County","state_id":"MI"},{"zip":"48663","fips":"26145","name":"Saginaw County","state_id":"MI"},{"zip":"48667","fips":"26111","name":"Midland County","state_id":"MI"},{"zip":"48670","fips":"26111","name":"Midland County","state_id":"MI"},{"zip":"48674","fips":"26111","name":"Midland County","state_id":"MI"}]
