[{"zip":"48701","fips":"26157","name":"Tuscola County","state_id":"MI"},{"zip":"48703","fips":"26011","name":"Arenac County","state_id":"MI"},{"zip":"48705","fips":"26001","name":"Alcona County","state_id":"MI"},{"zip":"48706","fips":"26017","name":"Bay County","state_id":"MI"},{"zip":"48707","fips":"26017","name":"Bay County","state_id":"MI"},{"zip":"48708","fips":"26145","name":"Saginaw County","state_id":"MI"},{"zip":"48708","fips":"26017","name":"Bay County","state_id":"MI"},{"zip":"48710","fips":"26017","name":"Bay County","state_id":"MI"},{"zip":"48720","fips":"26063","name":"Huron County","state_id":"MI"},{"zip":"48721","fips":"26001","name":"Alcona County","state_id":"MI"},{"zip":"48722","fips":"26145","name":"Saginaw County","state_id":"MI"},{"zip":"48723","fips":"26157","name":"Tuscola County","state_id":"MI"},{"zip":"48724","fips":"26145","name":"Saginaw County","state_id":"MI"},{"zip":"48725","fips":"26063","name":"Huron County","state_id":"MI"},{"zip":"48726","fips":"26063","name":"Huron County","state_id":"MI"},{"zip":"48726","fips":"26151","name":"Sanilac County","state_id":"MI"},{"zip":"48726","fips":"26157","name":"Tuscola County","state_id":"MI"},{"zip":"48727","fips":"26157","name":"Tuscola County","state_id":"MI"},{"zip":"48727","fips":"26087","name":"Lapeer County","state_id":"MI"},{"zip":"48728","fips":"26135","name":"Oscoda County","state_id":"MI"},{"zip":"48728","fips":"26001","name":"Alcona County","state_id":"MI"},{"zip":"48729","fips":"26157","name":"Tuscola County","state_id":"MI"},{"zip":"48729","fips":"26151","name":"Sanilac County","state_id":"MI"},{"zip":"48730","fips":"26069","name":"Iosco County","state_id":"MI"},{"zip":"48731","fips":"26063","name":"Huron County","state_id":"MI"},{"zip":"48732","fips":"26017","name":"Bay County","state_id":"MI"},{"zip":"48733","fips":"26157","name":"Tuscola County","state_id":"MI"},{"zip":"48734","fips":"26145","name":"Saginaw County","state_id":"MI"},{"zip":"48734","fips":"26157","name":"Tuscola County","state_id":"MI"},{"zip":"48735","fips":"26157","name":"Tuscola County","state_id":"MI"},{"zip":"48735","fips":"26063","name":"Huron County","state_id":"MI"},{"zip":"48737","fips":"26069","name":"Iosco County","state_id":"MI"},{"zip":"48737","fips":"26001","name":"Alcona County","state_id":"MI"},{"zip":"48738","fips":"26069","name":"Iosco County","state_id":"MI"},{"zip":"48738","fips":"26001","name":"Alcona County","state_id":"MI"},{"zip":"48739","fips":"26129","name":"Ogemaw County","state_id":"MI"},{"zip":"48739","fips":"26069","name":"Iosco County","state_id":"MI"},{"zip":"48740","fips":"26001","name":"Alcona County","state_id":"MI"},{"zip":"48741","fips":"26157","name":"Tuscola County","state_id":"MI"},{"zip":"48741","fips":"26151","name":"Sanilac County","state_id":"MI"},{"zip":"48742","fips":"26001","name":"Alcona County","state_id":"MI"},{"zip":"48743","fips":"26069","name":"Iosco County","state_id":"MI"},{"zip":"48744","fips":"26087","name":"Lapeer County","state_id":"MI"},{"zip":"48744","fips":"26157","name":"Tuscola County","state_id":"MI"},{"zip":"48745","fips":"26001","name":"Alcona County","state_id":"MI"},{"zip":"48745","fips":"26069","name":"Iosco County","state_id":"MI"},{"zip":"48746","fips":"26157","name":"Tuscola County","state_id":"MI"},{"zip":"48746","fips":"26049","name":"Genesee County","state_id":"MI"},{"zip":"48747","fips":"26017","name":"Bay County","state_id":"MI"},{"zip":"48747","fips":"26145","name":"Saginaw County","state_id":"MI"},{"zip":"48748","fips":"26069","name":"Iosco County","state_id":"MI"},{"zip":"48749","fips":"26011","name":"Arenac County","state_id":"MI"},{"zip":"48750","fips":"26001","name":"Alcona County","state_id":"MI"},{"zip":"48750","fips":"26069","name":"Iosco County","state_id":"MI"},{"zip":"48754","fips":"26063","name":"Huron County","state_id":"MI"},{"zip":"48755","fips":"26063","name":"Huron County","state_id":"MI"},{"zip":"48756","fips":"26011","name":"Arenac County","state_id":"MI"},{"zip":"48756","fips":"26129","name":"Ogemaw County","state_id":"MI"},{"zip":"48757","fips":"26157","name":"Tuscola County","state_id":"MI"},{"zip":"48757","fips":"26145","name":"Saginaw County","state_id":"MI"},{"zip":"48757","fips":"26017","name":"Bay County","state_id":"MI"},{"zip":"48758","fips":"26157","name":"Tuscola County","state_id":"MI"},{"zip":"48759","fips":"26063","name":"Huron County","state_id":"MI"},{"zip":"48759","fips":"26157","name":"Tuscola County","state_id":"MI"},{"zip":"48760","fips":"26087","name":"Lapeer County","state_id":"MI"},{"zip":"48760","fips":"26157","name":"Tuscola County","state_id":"MI"},{"zip":"48761","fips":"26001","name":"Alcona County","state_id":"MI"},{"zip":"48761","fips":"26135","name":"Oscoda County","state_id":"MI"},{"zip":"48761","fips":"26129","name":"Ogemaw County","state_id":"MI"},{"zip":"48761","fips":"26069","name":"Iosco County","state_id":"MI"},{"zip":"48762","fips":"26007","name":"Alpena County","state_id":"MI"},{"zip":"48762","fips":"26001","name":"Alcona County","state_id":"MI"},{"zip":"48763","fips":"26011","name":"Arenac County","state_id":"MI"},{"zip":"48763","fips":"26069","name":"Iosco County","state_id":"MI"},{"zip":"48765","fips":"26069","name":"Iosco County","state_id":"MI"},{"zip":"48765","fips":"26011","name":"Arenac County","state_id":"MI"},{"zip":"48766","fips":"26011","name":"Arenac County","state_id":"MI"},{"zip":"48766","fips":"26069","name":"Iosco County","state_id":"MI"},{"zip":"48767","fips":"26063","name":"Huron County","state_id":"MI"},{"zip":"48767","fips":"26157","name":"Tuscola County","state_id":"MI"},{"zip":"48768","fips":"26157","name":"Tuscola County","state_id":"MI"},{"zip":"48768","fips":"26145","name":"Saginaw County","state_id":"MI"},{"zip":"48770","fips":"26129","name":"Ogemaw County","state_id":"MI"},{"zip":"48770","fips":"26069","name":"Iosco County","state_id":"MI"},{"zip":"48770","fips":"26011","name":"Arenac County","state_id":"MI"},{"zip":"48787","fips":"26145","name":"Saginaw County","state_id":"MI"}]
