[{"zip":"48801","fips":"26073","name":"Isabella County","state_id":"MI"},{"zip":"48801","fips":"26057","name":"Gratiot County","state_id":"MI"},{"zip":"48804","fips":"26073","name":"Isabella County","state_id":"MI"},{"zip":"48805","fips":"26065","name":"Ingham County","state_id":"MI"},{"zip":"48806","fips":"26037","name":"Clinton County","state_id":"MI"},{"zip":"48806","fips":"26057","name":"Gratiot County","state_id":"MI"},{"zip":"48807","fips":"26057","name":"Gratiot County","state_id":"MI"},{"zip":"48807","fips":"26037","name":"Clinton County","state_id":"MI"},{"zip":"48807","fips":"26145","name":"Saginaw County","state_id":"MI"},{"zip":"48808","fips":"26037","name":"Clinton County","state_id":"MI"},{"zip":"48809","fips":"26081","name":"Kent County","state_id":"MI"},{"zip":"48809","fips":"26117","name":"Montcalm County","state_id":"MI"},{"zip":"48809","fips":"26067","name":"Ionia County","state_id":"MI"},{"zip":"48811","fips":"26057","name":"Gratiot County","state_id":"MI"},{"zip":"48811","fips":"26117","name":"Montcalm County","state_id":"MI"},{"zip":"48812","fips":"26117","name":"Montcalm County","state_id":"MI"},{"zip":"48813","fips":"26025","name":"Calhoun County","state_id":"MI"},{"zip":"48813","fips":"26045","name":"Eaton County","state_id":"MI"},{"zip":"48815","fips":"26067","name":"Ionia County","state_id":"MI"},{"zip":"48815","fips":"26081","name":"Kent County","state_id":"MI"},{"zip":"48816","fips":"26093","name":"Livingston County","state_id":"MI"},{"zip":"48817","fips":"26155","name":"Shiawassee County","state_id":"MI"},{"zip":"48818","fips":"26057","name":"Gratiot County","state_id":"MI"},{"zip":"48818","fips":"26117","name":"Montcalm County","state_id":"MI"},{"zip":"48819","fips":"26065","name":"Ingham County","state_id":"MI"},{"zip":"48820","fips":"26037","name":"Clinton County","state_id":"MI"},{"zip":"48821","fips":"26045","name":"Eaton County","state_id":"MI"},{"zip":"48821","fips":"26065","name":"Ingham County","state_id":"MI"},{"zip":"48822","fips":"26037","name":"Clinton County","state_id":"MI"},{"zip":"48823","fips":"26065","name":"Ingham County","state_id":"MI"},{"zip":"48823","fips":"26037","name":"Clinton County","state_id":"MI"},{"zip":"48824","fips":"26065","name":"Ingham County","state_id":"MI"},{"zip":"48825","fips":"26065","name":"Ingham County","state_id":"MI"},{"zip":"48826","fips":"26065","name":"Ingham County","state_id":"MI"},{"zip":"48827","fips":"26045","name":"Eaton County","state_id":"MI"},{"zip":"48827","fips":"26065","name":"Ingham County","state_id":"MI"},{"zip":"48827","fips":"26075","name":"Jackson County","state_id":"MI"},{"zip":"48829","fips":"26073","name":"Isabella County","state_id":"MI"},{"zip":"48829","fips":"26117","name":"Montcalm County","state_id":"MI"},{"zip":"48830","fips":"26057","name":"Gratiot County","state_id":"MI"},{"zip":"48831","fips":"26057","name":"Gratiot County","state_id":"MI"},{"zip":"48831","fips":"26037","name":"Clinton County","state_id":"MI"},{"zip":"48831","fips":"26155","name":"Shiawassee County","state_id":"MI"},{"zip":"48831","fips":"26145","name":"Saginaw County","state_id":"MI"},{"zip":"48832","fips":"26057","name":"Gratiot County","state_id":"MI"},{"zip":"48833","fips":"26037","name":"Clinton County","state_id":"MI"},{"zip":"48834","fips":"26067","name":"Ionia County","state_id":"MI"},{"zip":"48834","fips":"26117","name":"Montcalm County","state_id":"MI"},{"zip":"48835","fips":"26057","name":"Gratiot County","state_id":"MI"},{"zip":"48835","fips":"26037","name":"Clinton County","state_id":"MI"},{"zip":"48836","fips":"26093","name":"Livingston County","state_id":"MI"},{"zip":"48836","fips":"26155","name":"Shiawassee County","state_id":"MI"},{"zip":"48837","fips":"26037","name":"Clinton County","state_id":"MI"},{"zip":"48837","fips":"26067","name":"Ionia County","state_id":"MI"},{"zip":"48837","fips":"26045","name":"Eaton County","state_id":"MI"},{"zip":"48838","fips":"26081","name":"Kent County","state_id":"MI"},{"zip":"48838","fips":"26067","name":"Ionia County","state_id":"MI"},{"zip":"48838","fips":"26117","name":"Montcalm County","state_id":"MI"},{"zip":"48840","fips":"26037","name":"Clinton County","state_id":"MI"},{"zip":"48840","fips":"26065","name":"Ingham County","state_id":"MI"},{"zip":"48840","fips":"26155","name":"Shiawassee County","state_id":"MI"},{"zip":"48841","fips":"26155","name":"Shiawassee County","state_id":"MI"},{"zip":"48841","fips":"26145","name":"Saginaw County","state_id":"MI"},{"zip":"48842","fips":"26065","name":"Ingham County","state_id":"MI"},{"zip":"48842","fips":"26045","name":"Eaton County","state_id":"MI"},{"zip":"48843","fips":"26093","name":"Livingston County","state_id":"MI"},{"zip":"48844","fips":"26093","name":"Livingston County","state_id":"MI"},{"zip":"48845","fips":"26037","name":"Clinton County","state_id":"MI"},{"zip":"48845","fips":"26057","name":"Gratiot County","state_id":"MI"},{"zip":"48845","fips":"26117","name":"Montcalm County","state_id":"MI"},{"zip":"48845","fips":"26067","name":"Ionia County","state_id":"MI"},{"zip":"48846","fips":"26067","name":"Ionia County","state_id":"MI"},{"zip":"48847","fips":"26057","name":"Gratiot County","state_id":"MI"},{"zip":"48848","fips":"26155","name":"Shiawassee County","state_id":"MI"},{"zip":"48848","fips":"26037","name":"Clinton County","state_id":"MI"},{"zip":"48849","fips":"26045","name":"Eaton County","state_id":"MI"},{"zip":"48849","fips":"26015","name":"Barry County","state_id":"MI"},{"zip":"48849","fips":"26067","name":"Ionia County","state_id":"MI"},{"zip":"48850","fips":"26117","name":"Montcalm County","state_id":"MI"},{"zip":"48850","fips":"26107","name":"Mecosta County","state_id":"MI"},{"zip":"48851","fips":"26067","name":"Ionia County","state_id":"MI"},{"zip":"48852","fips":"26117","name":"Montcalm County","state_id":"MI"},{"zip":"48853","fips":"26037","name":"Clinton County","state_id":"MI"},{"zip":"48854","fips":"26065","name":"Ingham County","state_id":"MI"},{"zip":"48855","fips":"26093","name":"Livingston County","state_id":"MI"},{"zip":"48856","fips":"26057","name":"Gratiot County","state_id":"MI"},{"zip":"48857","fips":"26155","name":"Shiawassee County","state_id":"MI"},{"zip":"48858","fips":"26073","name":"Isabella County","state_id":"MI"},{"zip":"48858","fips":"26111","name":"Midland County","state_id":"MI"},{"zip":"48859","fips":"26073","name":"Isabella County","state_id":"MI"},{"zip":"48860","fips":"26067","name":"Ionia County","state_id":"MI"},{"zip":"48861","fips":"26045","name":"Eaton County","state_id":"MI"},{"zip":"48861","fips":"26067","name":"Ionia County","state_id":"MI"},{"zip":"48862","fips":"26057","name":"Gratiot County","state_id":"MI"},{"zip":"48864","fips":"26065","name":"Ingham County","state_id":"MI"},{"zip":"48865","fips":"26067","name":"Ionia County","state_id":"MI"},{"zip":"48866","fips":"26037","name":"Clinton County","state_id":"MI"},{"zip":"48866","fips":"26155","name":"Shiawassee County","state_id":"MI"},{"zip":"48867","fips":"26155","name":"Shiawassee County","state_id":"MI"},{"zip":"48867","fips":"26145","name":"Saginaw County","state_id":"MI"},{"zip":"48870","fips":"26067","name":"Ionia County","state_id":"MI"},{"zip":"48871","fips":"26057","name":"Gratiot County","state_id":"MI"},{"zip":"48871","fips":"26037","name":"Clinton County","state_id":"MI"},{"zip":"48872","fips":"26065","name":"Ingham County","state_id":"MI"},{"zip":"48872","fips":"26093","name":"Livingston County","state_id":"MI"},{"zip":"48872","fips":"26155","name":"Shiawassee County","state_id":"MI"},{"zip":"48873","fips":"26037","name":"Clinton County","state_id":"MI"},{"zip":"48873","fips":"26067","name":"Ionia County","state_id":"MI"},{"zip":"48874","fips":"26057","name":"Gratiot County","state_id":"MI"},{"zip":"48875","fips":"26067","name":"Ionia County","state_id":"MI"},{"zip":"48875","fips":"26037","name":"Clinton County","state_id":"MI"},{"zip":"48876","fips":"26045","name":"Eaton County","state_id":"MI"},{"zip":"48877","fips":"26057","name":"Gratiot County","state_id":"MI"},{"zip":"48877","fips":"26073","name":"Isabella County","state_id":"MI"},{"zip":"48877","fips":"26117","name":"Montcalm County","state_id":"MI"},{"zip":"48878","fips":"26073","name":"Isabella County","state_id":"MI"},{"zip":"48879","fips":"26057","name":"Gratiot County","state_id":"MI"},{"zip":"48879","fips":"26037","name":"Clinton County","state_id":"MI"},{"zip":"48880","fips":"26111","name":"Midland County","state_id":"MI"},{"zip":"48880","fips":"26057","name":"Gratiot County","state_id":"MI"},{"zip":"48880","fips":"26073","name":"Isabella County","state_id":"MI"},{"zip":"48881","fips":"26067","name":"Ionia County","state_id":"MI"},{"zip":"48882","fips":"26155","name":"Shiawassee County","state_id":"MI"},{"zip":"48883","fips":"26117","name":"Montcalm County","state_id":"MI"},{"zip":"48883","fips":"26073","name":"Isabella County","state_id":"MI"},{"zip":"48883","fips":"26057","name":"Gratiot County","state_id":"MI"},{"zip":"48883","fips":"26111","name":"Midland County","state_id":"MI"},{"zip":"48884","fips":"26117","name":"Montcalm County","state_id":"MI"},{"zip":"48885","fips":"26117","name":"Montcalm County","state_id":"MI"},{"zip":"48886","fips":"26107","name":"Mecosta County","state_id":"MI"},{"zip":"48886","fips":"26117","name":"Montcalm County","state_id":"MI"},{"zip":"48888","fips":"26117","name":"Montcalm County","state_id":"MI"},{"zip":"48889","fips":"26117","name":"Montcalm County","state_id":"MI"},{"zip":"48889","fips":"26057","name":"Gratiot County","state_id":"MI"},{"zip":"48890","fips":"26045","name":"Eaton County","state_id":"MI"},{"zip":"48890","fips":"26067","name":"Ionia County","state_id":"MI"},{"zip":"48891","fips":"26073","name":"Isabella County","state_id":"MI"},{"zip":"48891","fips":"26057","name":"Gratiot County","state_id":"MI"},{"zip":"48891","fips":"26117","name":"Montcalm County","state_id":"MI"},{"zip":"48892","fips":"26065","name":"Ingham County","state_id":"MI"},{"zip":"48892","fips":"26093","name":"Livingston County","state_id":"MI"},{"zip":"48893","fips":"26073","name":"Isabella County","state_id":"MI"},{"zip":"48894","fips":"26067","name":"Ionia County","state_id":"MI"},{"zip":"48894","fips":"26037","name":"Clinton County","state_id":"MI"},{"zip":"48895","fips":"26065","name":"Ingham County","state_id":"MI"},{"zip":"48896","fips":"26073","name":"Isabella County","state_id":"MI"},{"zip":"48897","fips":"26045","name":"Eaton County","state_id":"MI"},{"zip":"48897","fips":"26015","name":"Barry County","state_id":"MI"}]
