[{"zip":"48901","fips":"26065","name":"Ingham County","state_id":"MI"},{"zip":"48906","fips":"26065","name":"Ingham County","state_id":"MI"},{"zip":"48906","fips":"26045","name":"Eaton County","state_id":"MI"},{"zip":"48906","fips":"26037","name":"Clinton County","state_id":"MI"},{"zip":"48908","fips":"26045","name":"Eaton County","state_id":"MI"},{"zip":"48909","fips":"26065","name":"Ingham County","state_id":"MI"},{"zip":"48910","fips":"26065","name":"Ingham County","state_id":"MI"},{"zip":"48911","fips":"26045","name":"Eaton County","state_id":"MI"},{"zip":"48911","fips":"26065","name":"Ingham County","state_id":"MI"},{"zip":"48912","fips":"26065","name":"Ingham County","state_id":"MI"},{"zip":"48915","fips":"26065","name":"Ingham County","state_id":"MI"},{"zip":"48917","fips":"26065","name":"Ingham County","state_id":"MI"},{"zip":"48917","fips":"26045","name":"Eaton County","state_id":"MI"},{"zip":"48924","fips":"26065","name":"Ingham County","state_id":"MI"},{"zip":"48933","fips":"26065","name":"Ingham County","state_id":"MI"},{"zip":"48951","fips":"26037","name":"Clinton County","state_id":"MI"},{"zip":"48956","fips":"26065","name":"Ingham County","state_id":"MI"}]
