[{"zip":"49001","fips":"26077","name":"Kalamazoo County","state_id":"MI"},{"zip":"49002","fips":"26077","name":"Kalamazoo County","state_id":"MI"},{"zip":"49003","fips":"26077","name":"Kalamazoo County","state_id":"MI"},{"zip":"49004","fips":"26077","name":"Kalamazoo County","state_id":"MI"},{"zip":"49005","fips":"26077","name":"Kalamazoo County","state_id":"MI"},{"zip":"49006","fips":"26077","name":"Kalamazoo County","state_id":"MI"},{"zip":"49007","fips":"26077","name":"Kalamazoo County","state_id":"MI"},{"zip":"49008","fips":"26077","name":"Kalamazoo County","state_id":"MI"},{"zip":"49009","fips":"26077","name":"Kalamazoo County","state_id":"MI"},{"zip":"49009","fips":"26159","name":"Van Buren County","state_id":"MI"},{"zip":"49010","fips":"26159","name":"Van Buren County","state_id":"MI"},{"zip":"49010","fips":"26005","name":"Allegan County","state_id":"MI"},{"zip":"49011","fips":"26149","name":"St. Joseph County","state_id":"MI"},{"zip":"49011","fips":"26023","name":"Branch County","state_id":"MI"},{"zip":"49011","fips":"26025","name":"Calhoun County","state_id":"MI"},{"zip":"49012","fips":"26015","name":"Barry County","state_id":"MI"},{"zip":"49012","fips":"26025","name":"Calhoun County","state_id":"MI"},{"zip":"49012","fips":"26077","name":"Kalamazoo County","state_id":"MI"},{"zip":"49013","fips":"26159","name":"Van Buren County","state_id":"MI"},{"zip":"49014","fips":"26025","name":"Calhoun County","state_id":"MI"},{"zip":"49015","fips":"26077","name":"Kalamazoo County","state_id":"MI"},{"zip":"49015","fips":"26025","name":"Calhoun County","state_id":"MI"},{"zip":"49016","fips":"26025","name":"Calhoun County","state_id":"MI"},{"zip":"49017","fips":"26025","name":"Calhoun County","state_id":"MI"},{"zip":"49017","fips":"26015","name":"Barry County","state_id":"MI"},{"zip":"49019","fips":"26077","name":"Kalamazoo County","state_id":"MI"},{"zip":"49020","fips":"26025","name":"Calhoun County","state_id":"MI"},{"zip":"49021","fips":"26015","name":"Barry County","state_id":"MI"},{"zip":"49021","fips":"26045","name":"Eaton County","state_id":"MI"},{"zip":"49021","fips":"26025","name":"Calhoun County","state_id":"MI"},{"zip":"49022","fips":"26021","name":"Berrien County","state_id":"MI"},{"zip":"49022","fips":"26159","name":"Van Buren County","state_id":"MI"},{"zip":"49023","fips":"26021","name":"Berrien County","state_id":"MI"},{"zip":"49024","fips":"26077","name":"Kalamazoo County","state_id":"MI"},{"zip":"49026","fips":"26005","name":"Allegan County","state_id":"MI"},{"zip":"49026","fips":"26159","name":"Van Buren County","state_id":"MI"},{"zip":"49027","fips":"26159","name":"Van Buren County","state_id":"MI"},{"zip":"49028","fips":"26023","name":"Branch County","state_id":"MI"},{"zip":"49029","fips":"26025","name":"Calhoun County","state_id":"MI"},{"zip":"49030","fips":"26149","name":"St. Joseph County","state_id":"MI"},{"zip":"49030","fips":"26023","name":"Branch County","state_id":"MI"},{"zip":"49031","fips":"26027","name":"Cass County","state_id":"MI"},{"zip":"49032","fips":"26149","name":"St. Joseph County","state_id":"MI"},{"zip":"49033","fips":"26025","name":"Calhoun County","state_id":"MI"},{"zip":"49034","fips":"26077","name":"Kalamazoo County","state_id":"MI"},{"zip":"49034","fips":"26025","name":"Calhoun County","state_id":"MI"},{"zip":"49035","fips":"26015","name":"Barry County","state_id":"MI"},{"zip":"49036","fips":"26023","name":"Branch County","state_id":"MI"},{"zip":"49037","fips":"26077","name":"Kalamazoo County","state_id":"MI"},{"zip":"49037","fips":"26025","name":"Calhoun County","state_id":"MI"},{"zip":"49038","fips":"26021","name":"Berrien County","state_id":"MI"},{"zip":"49038","fips":"26159","name":"Van Buren County","state_id":"MI"},{"zip":"49040","fips":"26023","name":"Branch County","state_id":"MI"},{"zip":"49040","fips":"26149","name":"St. Joseph County","state_id":"MI"},{"zip":"49041","fips":"26077","name":"Kalamazoo County","state_id":"MI"},{"zip":"49042","fips":"26149","name":"St. Joseph County","state_id":"MI"},{"zip":"49042","fips":"26027","name":"Cass County","state_id":"MI"},{"zip":"49043","fips":"26159","name":"Van Buren County","state_id":"MI"},{"zip":"49043","fips":"26021","name":"Berrien County","state_id":"MI"},{"zip":"49045","fips":"26159","name":"Van Buren County","state_id":"MI"},{"zip":"49045","fips":"26027","name":"Cass County","state_id":"MI"},{"zip":"49046","fips":"26015","name":"Barry County","state_id":"MI"},{"zip":"49047","fips":"26021","name":"Berrien County","state_id":"MI"},{"zip":"49047","fips":"26027","name":"Cass County","state_id":"MI"},{"zip":"49047","fips":"26159","name":"Van Buren County","state_id":"MI"},{"zip":"49048","fips":"26077","name":"Kalamazoo County","state_id":"MI"},{"zip":"49050","fips":"26015","name":"Barry County","state_id":"MI"},{"zip":"49051","fips":"26025","name":"Calhoun County","state_id":"MI"},{"zip":"49052","fips":"26025","name":"Calhoun County","state_id":"MI"},{"zip":"49052","fips":"26077","name":"Kalamazoo County","state_id":"MI"},{"zip":"49052","fips":"26149","name":"St. Joseph County","state_id":"MI"},{"zip":"49053","fips":"26077","name":"Kalamazoo County","state_id":"MI"},{"zip":"49055","fips":"26005","name":"Allegan County","state_id":"MI"},{"zip":"49055","fips":"26159","name":"Van Buren County","state_id":"MI"},{"zip":"49056","fips":"26159","name":"Van Buren County","state_id":"MI"},{"zip":"49056","fips":"26005","name":"Allegan County","state_id":"MI"},{"zip":"49057","fips":"26159","name":"Van Buren County","state_id":"MI"},{"zip":"49058","fips":"26015","name":"Barry County","state_id":"MI"},{"zip":"49060","fips":"26077","name":"Kalamazoo County","state_id":"MI"},{"zip":"49060","fips":"26015","name":"Barry County","state_id":"MI"},{"zip":"49061","fips":"26027","name":"Cass County","state_id":"MI"},{"zip":"49062","fips":"26159","name":"Van Buren County","state_id":"MI"},{"zip":"49063","fips":"26159","name":"Van Buren County","state_id":"MI"},{"zip":"49064","fips":"26159","name":"Van Buren County","state_id":"MI"},{"zip":"49065","fips":"26077","name":"Kalamazoo County","state_id":"MI"},{"zip":"49065","fips":"26159","name":"Van Buren County","state_id":"MI"},{"zip":"49065","fips":"26027","name":"Cass County","state_id":"MI"},{"zip":"49066","fips":"26149","name":"St. Joseph County","state_id":"MI"},{"zip":"49067","fips":"26027","name":"Cass County","state_id":"MI"},{"zip":"49067","fips":"26149","name":"St. Joseph County","state_id":"MI"},{"zip":"49067","fips":"26159","name":"Van Buren County","state_id":"MI"},{"zip":"49068","fips":"26025","name":"Calhoun County","state_id":"MI"},{"zip":"49070","fips":"26005","name":"Allegan County","state_id":"MI"},{"zip":"49071","fips":"26077","name":"Kalamazoo County","state_id":"MI"},{"zip":"49071","fips":"26159","name":"Van Buren County","state_id":"MI"},{"zip":"49072","fips":"26077","name":"Kalamazoo County","state_id":"MI"},{"zip":"49072","fips":"26149","name":"St. Joseph County","state_id":"MI"},{"zip":"49073","fips":"26045","name":"Eaton County","state_id":"MI"},{"zip":"49073","fips":"26015","name":"Barry County","state_id":"MI"},{"zip":"49074","fips":"26077","name":"Kalamazoo County","state_id":"MI"},{"zip":"49075","fips":"26149","name":"St. Joseph County","state_id":"MI"},{"zip":"49076","fips":"26045","name":"Eaton County","state_id":"MI"},{"zip":"49076","fips":"26025","name":"Calhoun County","state_id":"MI"},{"zip":"49077","fips":"26077","name":"Kalamazoo County","state_id":"MI"},{"zip":"49078","fips":"26077","name":"Kalamazoo County","state_id":"MI"},{"zip":"49078","fips":"26159","name":"Van Buren County","state_id":"MI"},{"zip":"49078","fips":"26005","name":"Allegan County","state_id":"MI"},{"zip":"49079","fips":"26159","name":"Van Buren County","state_id":"MI"},{"zip":"49080","fips":"26005","name":"Allegan County","state_id":"MI"},{"zip":"49080","fips":"26015","name":"Barry County","state_id":"MI"},{"zip":"49080","fips":"26077","name":"Kalamazoo County","state_id":"MI"},{"zip":"49081","fips":"26077","name":"Kalamazoo County","state_id":"MI"},{"zip":"49082","fips":"26059","name":"Hillsdale County","state_id":"MI"},{"zip":"49082","fips":"26023","name":"Branch County","state_id":"MI"},{"zip":"49083","fips":"26015","name":"Barry County","state_id":"MI"},{"zip":"49083","fips":"26077","name":"Kalamazoo County","state_id":"MI"},{"zip":"49084","fips":"26021","name":"Berrien County","state_id":"MI"},{"zip":"49085","fips":"26021","name":"Berrien County","state_id":"MI"},{"zip":"49087","fips":"26149","name":"St. Joseph County","state_id":"MI"},{"zip":"49087","fips":"26159","name":"Van Buren County","state_id":"MI"},{"zip":"49087","fips":"26077","name":"Kalamazoo County","state_id":"MI"},{"zip":"49088","fips":"26077","name":"Kalamazoo County","state_id":"MI"},{"zip":"49089","fips":"26023","name":"Branch County","state_id":"MI"},{"zip":"49090","fips":"26159","name":"Van Buren County","state_id":"MI"},{"zip":"49090","fips":"26005","name":"Allegan County","state_id":"MI"},{"zip":"49091","fips":"26149","name":"St. Joseph County","state_id":"MI"},{"zip":"49092","fips":"26025","name":"Calhoun County","state_id":"MI"},{"zip":"49092","fips":"26023","name":"Branch County","state_id":"MI"},{"zip":"49093","fips":"26149","name":"St. Joseph County","state_id":"MI"},{"zip":"49093","fips":"26027","name":"Cass County","state_id":"MI"},{"zip":"49094","fips":"26025","name":"Calhoun County","state_id":"MI"},{"zip":"49094","fips":"26023","name":"Branch County","state_id":"MI"},{"zip":"49095","fips":"26027","name":"Cass County","state_id":"MI"},{"zip":"49096","fips":"26045","name":"Eaton County","state_id":"MI"},{"zip":"49097","fips":"26149","name":"St. Joseph County","state_id":"MI"},{"zip":"49097","fips":"26077","name":"Kalamazoo County","state_id":"MI"},{"zip":"49098","fips":"26159","name":"Van Buren County","state_id":"MI"},{"zip":"49098","fips":"26021","name":"Berrien County","state_id":"MI"},{"zip":"49099","fips":"26149","name":"St. Joseph County","state_id":"MI"},{"zip":"49099","fips":"26027","name":"Cass County","state_id":"MI"}]
