[{"zip":"49201","fips":"26075","name":"Jackson County","state_id":"MI"},{"zip":"49202","fips":"26075","name":"Jackson County","state_id":"MI"},{"zip":"49203","fips":"26075","name":"Jackson County","state_id":"MI"},{"zip":"49204","fips":"26075","name":"Jackson County","state_id":"MI"},{"zip":"49220","fips":"26059","name":"Hillsdale County","state_id":"MI"},{"zip":"49220","fips":"26091","name":"Lenawee County","state_id":"MI"},{"zip":"49221","fips":"26091","name":"Lenawee County","state_id":"MI"},{"zip":"49224","fips":"26075","name":"Jackson County","state_id":"MI"},{"zip":"49224","fips":"26025","name":"Calhoun County","state_id":"MI"},{"zip":"49227","fips":"26023","name":"Branch County","state_id":"MI"},{"zip":"49227","fips":"26059","name":"Hillsdale County","state_id":"MI"},{"zip":"49228","fips":"26091","name":"Lenawee County","state_id":"MI"},{"zip":"49228","fips":"26115","name":"Monroe County","state_id":"MI"},{"zip":"49229","fips":"26161","name":"Washtenaw County","state_id":"MI"},{"zip":"49229","fips":"26091","name":"Lenawee County","state_id":"MI"},{"zip":"49229","fips":"26115","name":"Monroe County","state_id":"MI"},{"zip":"49230","fips":"26091","name":"Lenawee County","state_id":"MI"},{"zip":"49230","fips":"26161","name":"Washtenaw County","state_id":"MI"},{"zip":"49230","fips":"26075","name":"Jackson County","state_id":"MI"},{"zip":"49232","fips":"26059","name":"Hillsdale County","state_id":"MI"},{"zip":"49233","fips":"26091","name":"Lenawee County","state_id":"MI"},{"zip":"49233","fips":"26075","name":"Jackson County","state_id":"MI"},{"zip":"49233","fips":"26059","name":"Hillsdale County","state_id":"MI"},{"zip":"49234","fips":"26075","name":"Jackson County","state_id":"MI"},{"zip":"49235","fips":"26091","name":"Lenawee County","state_id":"MI"},{"zip":"49236","fips":"26091","name":"Lenawee County","state_id":"MI"},{"zip":"49236","fips":"26161","name":"Washtenaw County","state_id":"MI"},{"zip":"49237","fips":"26025","name":"Calhoun County","state_id":"MI"},{"zip":"49237","fips":"26075","name":"Jackson County","state_id":"MI"},{"zip":"49238","fips":"26115","name":"Monroe County","state_id":"MI"},{"zip":"49238","fips":"26091","name":"Lenawee County","state_id":"MI"},{"zip":"49239","fips":"26059","name":"Hillsdale County","state_id":"MI"},{"zip":"49240","fips":"26075","name":"Jackson County","state_id":"MI"},{"zip":"49240","fips":"26161","name":"Washtenaw County","state_id":"MI"},{"zip":"49241","fips":"26075","name":"Jackson County","state_id":"MI"},{"zip":"49241","fips":"26059","name":"Hillsdale County","state_id":"MI"},{"zip":"49242","fips":"26059","name":"Hillsdale County","state_id":"MI"},{"zip":"49245","fips":"26075","name":"Jackson County","state_id":"MI"},{"zip":"49245","fips":"26023","name":"Branch County","state_id":"MI"},{"zip":"49245","fips":"26025","name":"Calhoun County","state_id":"MI"},{"zip":"49245","fips":"26059","name":"Hillsdale County","state_id":"MI"},{"zip":"49246","fips":"26075","name":"Jackson County","state_id":"MI"},{"zip":"49246","fips":"26059","name":"Hillsdale County","state_id":"MI"},{"zip":"49247","fips":"26091","name":"Lenawee County","state_id":"MI"},{"zip":"49247","fips":"26059","name":"Hillsdale County","state_id":"MI"},{"zip":"49248","fips":"26091","name":"Lenawee County","state_id":"MI"},{"zip":"49249","fips":"26059","name":"Hillsdale County","state_id":"MI"},{"zip":"49249","fips":"26075","name":"Jackson County","state_id":"MI"},{"zip":"49250","fips":"26059","name":"Hillsdale County","state_id":"MI"},{"zip":"49250","fips":"26075","name":"Jackson County","state_id":"MI"},{"zip":"49251","fips":"26065","name":"Ingham County","state_id":"MI"},{"zip":"49251","fips":"26075","name":"Jackson County","state_id":"MI"},{"zip":"49252","fips":"26059","name":"Hillsdale County","state_id":"MI"},{"zip":"49252","fips":"26025","name":"Calhoun County","state_id":"MI"},{"zip":"49252","fips":"26023","name":"Branch County","state_id":"MI"},{"zip":"49252","fips":"26075","name":"Jackson County","state_id":"MI"},{"zip":"49253","fips":"26091","name":"Lenawee County","state_id":"MI"},{"zip":"49254","fips":"26075","name":"Jackson County","state_id":"MI"},{"zip":"49255","fips":"26023","name":"Branch County","state_id":"MI"},{"zip":"49255","fips":"26059","name":"Hillsdale County","state_id":"MI"},{"zip":"49256","fips":"26091","name":"Lenawee County","state_id":"MI"},{"zip":"49257","fips":"26059","name":"Hillsdale County","state_id":"MI"},{"zip":"49258","fips":"26059","name":"Hillsdale County","state_id":"MI"},{"zip":"49259","fips":"26075","name":"Jackson County","state_id":"MI"},{"zip":"49261","fips":"26075","name":"Jackson County","state_id":"MI"},{"zip":"49262","fips":"26059","name":"Hillsdale County","state_id":"MI"},{"zip":"49263","fips":"26075","name":"Jackson County","state_id":"MI"},{"zip":"49264","fips":"26075","name":"Jackson County","state_id":"MI"},{"zip":"49264","fips":"26065","name":"Ingham County","state_id":"MI"},{"zip":"49264","fips":"26045","name":"Eaton County","state_id":"MI"},{"zip":"49265","fips":"26091","name":"Lenawee County","state_id":"MI"},{"zip":"49266","fips":"26059","name":"Hillsdale County","state_id":"MI"},{"zip":"49267","fips":"26091","name":"Lenawee County","state_id":"MI"},{"zip":"49267","fips":"26115","name":"Monroe County","state_id":"MI"},{"zip":"49268","fips":"26091","name":"Lenawee County","state_id":"MI"},{"zip":"49269","fips":"26075","name":"Jackson County","state_id":"MI"},{"zip":"49270","fips":"26115","name":"Monroe County","state_id":"MI"},{"zip":"49271","fips":"26059","name":"Hillsdale County","state_id":"MI"},{"zip":"49272","fips":"26075","name":"Jackson County","state_id":"MI"},{"zip":"49274","fips":"26023","name":"Branch County","state_id":"MI"},{"zip":"49274","fips":"26059","name":"Hillsdale County","state_id":"MI"},{"zip":"49276","fips":"26115","name":"Monroe County","state_id":"MI"},{"zip":"49276","fips":"26091","name":"Lenawee County","state_id":"MI"},{"zip":"49277","fips":"26075","name":"Jackson County","state_id":"MI"},{"zip":"49279","fips":"26091","name":"Lenawee County","state_id":"MI"},{"zip":"49281","fips":"26059","name":"Hillsdale County","state_id":"MI"},{"zip":"49282","fips":"26059","name":"Hillsdale County","state_id":"MI"},{"zip":"49283","fips":"26075","name":"Jackson County","state_id":"MI"},{"zip":"49284","fips":"26025","name":"Calhoun County","state_id":"MI"},{"zip":"49284","fips":"26075","name":"Jackson County","state_id":"MI"},{"zip":"49284","fips":"26045","name":"Eaton County","state_id":"MI"},{"zip":"49285","fips":"26093","name":"Livingston County","state_id":"MI"},{"zip":"49285","fips":"26161","name":"Washtenaw County","state_id":"MI"},{"zip":"49285","fips":"26075","name":"Jackson County","state_id":"MI"},{"zip":"49285","fips":"26065","name":"Ingham County","state_id":"MI"},{"zip":"49286","fips":"26091","name":"Lenawee County","state_id":"MI"},{"zip":"49287","fips":"26091","name":"Lenawee County","state_id":"MI"},{"zip":"49287","fips":"26161","name":"Washtenaw County","state_id":"MI"},{"zip":"49288","fips":"26091","name":"Lenawee County","state_id":"MI"},{"zip":"49288","fips":"26059","name":"Hillsdale County","state_id":"MI"},{"zip":"49289","fips":"26091","name":"Lenawee County","state_id":"MI"}]
