[{"zip":"49301","fips":"26081","name":"Kent County","state_id":"MI"},{"zip":"49302","fips":"26067","name":"Ionia County","state_id":"MI"},{"zip":"49302","fips":"26081","name":"Kent County","state_id":"MI"},{"zip":"49303","fips":"26081","name":"Kent County","state_id":"MI"},{"zip":"49303","fips":"26121","name":"Muskegon County","state_id":"MI"},{"zip":"49303","fips":"26123","name":"Newaygo County","state_id":"MI"},{"zip":"49304","fips":"26123","name":"Newaygo County","state_id":"MI"},{"zip":"49304","fips":"26085","name":"Lake County","state_id":"MI"},{"zip":"49305","fips":"26073","name":"Isabella County","state_id":"MI"},{"zip":"49305","fips":"26107","name":"Mecosta County","state_id":"MI"},{"zip":"49306","fips":"26081","name":"Kent County","state_id":"MI"},{"zip":"49307","fips":"26107","name":"Mecosta County","state_id":"MI"},{"zip":"49307","fips":"26123","name":"Newaygo County","state_id":"MI"},{"zip":"49309","fips":"26123","name":"Newaygo County","state_id":"MI"},{"zip":"49309","fips":"26085","name":"Lake County","state_id":"MI"},{"zip":"49310","fips":"26073","name":"Isabella County","state_id":"MI"},{"zip":"49310","fips":"26107","name":"Mecosta County","state_id":"MI"},{"zip":"49310","fips":"26117","name":"Montcalm County","state_id":"MI"},{"zip":"49311","fips":"26005","name":"Allegan County","state_id":"MI"},{"zip":"49312","fips":"26123","name":"Newaygo County","state_id":"MI"},{"zip":"49314","fips":"26005","name":"Allegan County","state_id":"MI"},{"zip":"49315","fips":"26081","name":"Kent County","state_id":"MI"},{"zip":"49315","fips":"26005","name":"Allegan County","state_id":"MI"},{"zip":"49315","fips":"26139","name":"Ottawa County","state_id":"MI"},{"zip":"49316","fips":"26081","name":"Kent County","state_id":"MI"},{"zip":"49316","fips":"26015","name":"Barry County","state_id":"MI"},{"zip":"49316","fips":"26005","name":"Allegan County","state_id":"MI"},{"zip":"49317","fips":"26081","name":"Kent County","state_id":"MI"},{"zip":"49318","fips":"26139","name":"Ottawa County","state_id":"MI"},{"zip":"49318","fips":"26121","name":"Muskegon County","state_id":"MI"},{"zip":"49318","fips":"26081","name":"Kent County","state_id":"MI"},{"zip":"49319","fips":"26081","name":"Kent County","state_id":"MI"},{"zip":"49320","fips":"26107","name":"Mecosta County","state_id":"MI"},{"zip":"49321","fips":"26081","name":"Kent County","state_id":"MI"},{"zip":"49322","fips":"26117","name":"Montcalm County","state_id":"MI"},{"zip":"49323","fips":"26139","name":"Ottawa County","state_id":"MI"},{"zip":"49323","fips":"26005","name":"Allegan County","state_id":"MI"},{"zip":"49323","fips":"26081","name":"Kent County","state_id":"MI"},{"zip":"49325","fips":"26081","name":"Kent County","state_id":"MI"},{"zip":"49325","fips":"26067","name":"Ionia County","state_id":"MI"},{"zip":"49325","fips":"26015","name":"Barry County","state_id":"MI"},{"zip":"49326","fips":"26081","name":"Kent County","state_id":"MI"},{"zip":"49326","fips":"26117","name":"Montcalm County","state_id":"MI"},{"zip":"49327","fips":"26121","name":"Muskegon County","state_id":"MI"},{"zip":"49327","fips":"26123","name":"Newaygo County","state_id":"MI"},{"zip":"49327","fips":"26081","name":"Kent County","state_id":"MI"},{"zip":"49328","fips":"26005","name":"Allegan County","state_id":"MI"},{"zip":"49329","fips":"26117","name":"Montcalm County","state_id":"MI"},{"zip":"49329","fips":"26107","name":"Mecosta County","state_id":"MI"},{"zip":"49329","fips":"26123","name":"Newaygo County","state_id":"MI"},{"zip":"49330","fips":"26123","name":"Newaygo County","state_id":"MI"},{"zip":"49330","fips":"26081","name":"Kent County","state_id":"MI"},{"zip":"49330","fips":"26139","name":"Ottawa County","state_id":"MI"},{"zip":"49330","fips":"26121","name":"Muskegon County","state_id":"MI"},{"zip":"49331","fips":"26081","name":"Kent County","state_id":"MI"},{"zip":"49331","fips":"26067","name":"Ionia County","state_id":"MI"},{"zip":"49332","fips":"26107","name":"Mecosta County","state_id":"MI"},{"zip":"49333","fips":"26005","name":"Allegan County","state_id":"MI"},{"zip":"49333","fips":"26081","name":"Kent County","state_id":"MI"},{"zip":"49333","fips":"26015","name":"Barry County","state_id":"MI"},{"zip":"49335","fips":"26005","name":"Allegan County","state_id":"MI"},{"zip":"49336","fips":"26107","name":"Mecosta County","state_id":"MI"},{"zip":"49336","fips":"26123","name":"Newaygo County","state_id":"MI"},{"zip":"49336","fips":"26117","name":"Montcalm County","state_id":"MI"},{"zip":"49337","fips":"26107","name":"Mecosta County","state_id":"MI"},{"zip":"49337","fips":"26117","name":"Montcalm County","state_id":"MI"},{"zip":"49337","fips":"26123","name":"Newaygo County","state_id":"MI"},{"zip":"49338","fips":"26123","name":"Newaygo County","state_id":"MI"},{"zip":"49338","fips":"26133","name":"Osceola County","state_id":"MI"},{"zip":"49338","fips":"26107","name":"Mecosta County","state_id":"MI"},{"zip":"49339","fips":"26123","name":"Newaygo County","state_id":"MI"},{"zip":"49339","fips":"26117","name":"Montcalm County","state_id":"MI"},{"zip":"49340","fips":"26107","name":"Mecosta County","state_id":"MI"},{"zip":"49340","fips":"26073","name":"Isabella County","state_id":"MI"},{"zip":"49341","fips":"26081","name":"Kent County","state_id":"MI"},{"zip":"49342","fips":"26107","name":"Mecosta County","state_id":"MI"},{"zip":"49343","fips":"26117","name":"Montcalm County","state_id":"MI"},{"zip":"49343","fips":"26123","name":"Newaygo County","state_id":"MI"},{"zip":"49343","fips":"26081","name":"Kent County","state_id":"MI"},{"zip":"49344","fips":"26015","name":"Barry County","state_id":"MI"},{"zip":"49344","fips":"26005","name":"Allegan County","state_id":"MI"},{"zip":"49345","fips":"26081","name":"Kent County","state_id":"MI"},{"zip":"49345","fips":"26139","name":"Ottawa County","state_id":"MI"},{"zip":"49346","fips":"26107","name":"Mecosta County","state_id":"MI"},{"zip":"49346","fips":"26123","name":"Newaygo County","state_id":"MI"},{"zip":"49347","fips":"26117","name":"Montcalm County","state_id":"MI"},{"zip":"49347","fips":"26081","name":"Kent County","state_id":"MI"},{"zip":"49348","fips":"26081","name":"Kent County","state_id":"MI"},{"zip":"49348","fips":"26005","name":"Allegan County","state_id":"MI"},{"zip":"49348","fips":"26015","name":"Barry County","state_id":"MI"},{"zip":"49349","fips":"26123","name":"Newaygo County","state_id":"MI"},{"zip":"49351","fips":"26081","name":"Kent County","state_id":"MI"}]
