[{"zip":"49401","fips":"26139","name":"Ottawa County","state_id":"MI"},{"zip":"49402","fips":"26105","name":"Mason County","state_id":"MI"},{"zip":"49402","fips":"26085","name":"Lake County","state_id":"MI"},{"zip":"49402","fips":"26127","name":"Oceana County","state_id":"MI"},{"zip":"49403","fips":"26139","name":"Ottawa County","state_id":"MI"},{"zip":"49403","fips":"26081","name":"Kent County","state_id":"MI"},{"zip":"49403","fips":"26121","name":"Muskegon County","state_id":"MI"},{"zip":"49404","fips":"26121","name":"Muskegon County","state_id":"MI"},{"zip":"49404","fips":"26139","name":"Ottawa County","state_id":"MI"},{"zip":"49405","fips":"26105","name":"Mason County","state_id":"MI"},{"zip":"49406","fips":"26005","name":"Allegan County","state_id":"MI"},{"zip":"49408","fips":"26005","name":"Allegan County","state_id":"MI"},{"zip":"49409","fips":"26139","name":"Ottawa County","state_id":"MI"},{"zip":"49410","fips":"26105","name":"Mason County","state_id":"MI"},{"zip":"49411","fips":"26105","name":"Mason County","state_id":"MI"},{"zip":"49411","fips":"26101","name":"Manistee County","state_id":"MI"},{"zip":"49412","fips":"26127","name":"Oceana County","state_id":"MI"},{"zip":"49412","fips":"26121","name":"Muskegon County","state_id":"MI"},{"zip":"49412","fips":"26123","name":"Newaygo County","state_id":"MI"},{"zip":"49413","fips":"26123","name":"Newaygo County","state_id":"MI"},{"zip":"49415","fips":"26121","name":"Muskegon County","state_id":"MI"},{"zip":"49415","fips":"26139","name":"Ottawa County","state_id":"MI"},{"zip":"49416","fips":"26005","name":"Allegan County","state_id":"MI"},{"zip":"49417","fips":"26139","name":"Ottawa County","state_id":"MI"},{"zip":"49418","fips":"26139","name":"Ottawa County","state_id":"MI"},{"zip":"49418","fips":"26081","name":"Kent County","state_id":"MI"},{"zip":"49419","fips":"26005","name":"Allegan County","state_id":"MI"},{"zip":"49420","fips":"26127","name":"Oceana County","state_id":"MI"},{"zip":"49421","fips":"26123","name":"Newaygo County","state_id":"MI"},{"zip":"49421","fips":"26127","name":"Oceana County","state_id":"MI"},{"zip":"49422","fips":"26139","name":"Ottawa County","state_id":"MI"},{"zip":"49423","fips":"26005","name":"Allegan County","state_id":"MI"},{"zip":"49423","fips":"26139","name":"Ottawa County","state_id":"MI"},{"zip":"49424","fips":"26139","name":"Ottawa County","state_id":"MI"},{"zip":"49425","fips":"26127","name":"Oceana County","state_id":"MI"},{"zip":"49425","fips":"26121","name":"Muskegon County","state_id":"MI"},{"zip":"49425","fips":"26123","name":"Newaygo County","state_id":"MI"},{"zip":"49426","fips":"26139","name":"Ottawa County","state_id":"MI"},{"zip":"49426","fips":"26005","name":"Allegan County","state_id":"MI"},{"zip":"49427","fips":"26139","name":"Ottawa County","state_id":"MI"},{"zip":"49428","fips":"26139","name":"Ottawa County","state_id":"MI"},{"zip":"49429","fips":"26139","name":"Ottawa County","state_id":"MI"},{"zip":"49430","fips":"26139","name":"Ottawa County","state_id":"MI"},{"zip":"49431","fips":"26105","name":"Mason County","state_id":"MI"},{"zip":"49434","fips":"26139","name":"Ottawa County","state_id":"MI"},{"zip":"49435","fips":"26081","name":"Kent County","state_id":"MI"},{"zip":"49435","fips":"26139","name":"Ottawa County","state_id":"MI"},{"zip":"49436","fips":"26127","name":"Oceana County","state_id":"MI"},{"zip":"49437","fips":"26127","name":"Oceana County","state_id":"MI"},{"zip":"49437","fips":"26121","name":"Muskegon County","state_id":"MI"},{"zip":"49440","fips":"26121","name":"Muskegon County","state_id":"MI"},{"zip":"49441","fips":"26121","name":"Muskegon County","state_id":"MI"},{"zip":"49442","fips":"26121","name":"Muskegon County","state_id":"MI"},{"zip":"49443","fips":"26121","name":"Muskegon County","state_id":"MI"},{"zip":"49444","fips":"26121","name":"Muskegon County","state_id":"MI"},{"zip":"49445","fips":"26121","name":"Muskegon County","state_id":"MI"},{"zip":"49446","fips":"26127","name":"Oceana County","state_id":"MI"},{"zip":"49448","fips":"26121","name":"Muskegon County","state_id":"MI"},{"zip":"49448","fips":"26139","name":"Ottawa County","state_id":"MI"},{"zip":"49449","fips":"26127","name":"Oceana County","state_id":"MI"},{"zip":"49449","fips":"26105","name":"Mason County","state_id":"MI"},{"zip":"49450","fips":"26005","name":"Allegan County","state_id":"MI"},{"zip":"49451","fips":"26121","name":"Muskegon County","state_id":"MI"},{"zip":"49451","fips":"26139","name":"Ottawa County","state_id":"MI"},{"zip":"49452","fips":"26127","name":"Oceana County","state_id":"MI"},{"zip":"49453","fips":"26005","name":"Allegan County","state_id":"MI"},{"zip":"49454","fips":"26105","name":"Mason County","state_id":"MI"},{"zip":"49455","fips":"26127","name":"Oceana County","state_id":"MI"},{"zip":"49456","fips":"26139","name":"Ottawa County","state_id":"MI"},{"zip":"49456","fips":"26121","name":"Muskegon County","state_id":"MI"},{"zip":"49457","fips":"26123","name":"Newaygo County","state_id":"MI"},{"zip":"49457","fips":"26121","name":"Muskegon County","state_id":"MI"},{"zip":"49458","fips":"26105","name":"Mason County","state_id":"MI"},{"zip":"49459","fips":"26127","name":"Oceana County","state_id":"MI"},{"zip":"49459","fips":"26123","name":"Newaygo County","state_id":"MI"},{"zip":"49460","fips":"26139","name":"Ottawa County","state_id":"MI"},{"zip":"49461","fips":"26121","name":"Muskegon County","state_id":"MI"},{"zip":"49464","fips":"26139","name":"Ottawa County","state_id":"MI"},{"zip":"49464","fips":"26005","name":"Allegan County","state_id":"MI"},{"zip":"49468","fips":"26081","name":"Kent County","state_id":"MI"}]
