[{"zip":"49501","fips":"26081","name":"Kent County","state_id":"MI"},{"zip":"49503","fips":"26081","name":"Kent County","state_id":"MI"},{"zip":"49504","fips":"26081","name":"Kent County","state_id":"MI"},{"zip":"49505","fips":"26081","name":"Kent County","state_id":"MI"},{"zip":"49506","fips":"26081","name":"Kent County","state_id":"MI"},{"zip":"49507","fips":"26081","name":"Kent County","state_id":"MI"},{"zip":"49508","fips":"26081","name":"Kent County","state_id":"MI"},{"zip":"49509","fips":"26081","name":"Kent County","state_id":"MI"},{"zip":"49510","fips":"26081","name":"Kent County","state_id":"MI"},{"zip":"49512","fips":"26081","name":"Kent County","state_id":"MI"},{"zip":"49514","fips":"26081","name":"Kent County","state_id":"MI"},{"zip":"49515","fips":"26081","name":"Kent County","state_id":"MI"},{"zip":"49516","fips":"26081","name":"Kent County","state_id":"MI"},{"zip":"49518","fips":"26081","name":"Kent County","state_id":"MI"},{"zip":"49519","fips":"26081","name":"Kent County","state_id":"MI"},{"zip":"49525","fips":"26081","name":"Kent County","state_id":"MI"},{"zip":"49534","fips":"26139","name":"Ottawa County","state_id":"MI"},{"zip":"49534","fips":"26081","name":"Kent County","state_id":"MI"},{"zip":"49544","fips":"26139","name":"Ottawa County","state_id":"MI"},{"zip":"49544","fips":"26081","name":"Kent County","state_id":"MI"},{"zip":"49546","fips":"26081","name":"Kent County","state_id":"MI"},{"zip":"49548","fips":"26081","name":"Kent County","state_id":"MI"},{"zip":"49560","fips":"26081","name":"Kent County","state_id":"MI"},{"zip":"49588","fips":"26081","name":"Kent County","state_id":"MI"}]
