[{"zip":"49601","fips":"26113","name":"Missaukee County","state_id":"MI"},{"zip":"49601","fips":"26085","name":"Lake County","state_id":"MI"},{"zip":"49601","fips":"26165","name":"Wexford County","state_id":"MI"},{"zip":"49610","fips":"26055","name":"Grand Traverse County","state_id":"MI"},{"zip":"49611","fips":"26009","name":"Antrim County","state_id":"MI"},{"zip":"49612","fips":"26009","name":"Antrim County","state_id":"MI"},{"zip":"49612","fips":"26079","name":"Kalkaska County","state_id":"MI"},{"zip":"49613","fips":"26101","name":"Manistee County","state_id":"MI"},{"zip":"49613","fips":"26019","name":"Benzie County","state_id":"MI"},{"zip":"49614","fips":"26101","name":"Manistee County","state_id":"MI"},{"zip":"49615","fips":"26009","name":"Antrim County","state_id":"MI"},{"zip":"49616","fips":"26101","name":"Manistee County","state_id":"MI"},{"zip":"49616","fips":"26019","name":"Benzie County","state_id":"MI"},{"zip":"49617","fips":"26019","name":"Benzie County","state_id":"MI"},{"zip":"49618","fips":"26165","name":"Wexford County","state_id":"MI"},{"zip":"49619","fips":"26101","name":"Manistee County","state_id":"MI"},{"zip":"49620","fips":"26165","name":"Wexford County","state_id":"MI"},{"zip":"49620","fips":"26055","name":"Grand Traverse County","state_id":"MI"},{"zip":"49621","fips":"26089","name":"Leelanau County","state_id":"MI"},{"zip":"49622","fips":"26009","name":"Antrim County","state_id":"MI"},{"zip":"49623","fips":"26085","name":"Lake County","state_id":"MI"},{"zip":"49625","fips":"26101","name":"Manistee County","state_id":"MI"},{"zip":"49625","fips":"26165","name":"Wexford County","state_id":"MI"},{"zip":"49626","fips":"26101","name":"Manistee County","state_id":"MI"},{"zip":"49627","fips":"26009","name":"Antrim County","state_id":"MI"},{"zip":"49628","fips":"26019","name":"Benzie County","state_id":"MI"},{"zip":"49629","fips":"26009","name":"Antrim County","state_id":"MI"},{"zip":"49630","fips":"26089","name":"Leelanau County","state_id":"MI"},{"zip":"49630","fips":"26019","name":"Benzie County","state_id":"MI"},{"zip":"49631","fips":"26107","name":"Mecosta County","state_id":"MI"},{"zip":"49631","fips":"26133","name":"Osceola County","state_id":"MI"},{"zip":"49632","fips":"26113","name":"Missaukee County","state_id":"MI"},{"zip":"49633","fips":"26055","name":"Grand Traverse County","state_id":"MI"},{"zip":"49633","fips":"26165","name":"Wexford County","state_id":"MI"},{"zip":"49633","fips":"26113","name":"Missaukee County","state_id":"MI"},{"zip":"49633","fips":"26079","name":"Kalkaska County","state_id":"MI"},{"zip":"49634","fips":"26101","name":"Manistee County","state_id":"MI"},{"zip":"49635","fips":"26019","name":"Benzie County","state_id":"MI"},{"zip":"49636","fips":"26089","name":"Leelanau County","state_id":"MI"},{"zip":"49637","fips":"26055","name":"Grand Traverse County","state_id":"MI"},{"zip":"49638","fips":"26101","name":"Manistee County","state_id":"MI"},{"zip":"49638","fips":"26165","name":"Wexford County","state_id":"MI"},{"zip":"49639","fips":"26133","name":"Osceola County","state_id":"MI"},{"zip":"49639","fips":"26107","name":"Mecosta County","state_id":"MI"},{"zip":"49640","fips":"26089","name":"Leelanau County","state_id":"MI"},{"zip":"49640","fips":"26019","name":"Benzie County","state_id":"MI"},{"zip":"49642","fips":"26085","name":"Lake County","state_id":"MI"},{"zip":"49643","fips":"26019","name":"Benzie County","state_id":"MI"},{"zip":"49643","fips":"26055","name":"Grand Traverse County","state_id":"MI"},{"zip":"49644","fips":"26105","name":"Mason County","state_id":"MI"},{"zip":"49644","fips":"26101","name":"Manistee County","state_id":"MI"},{"zip":"49644","fips":"26085","name":"Lake County","state_id":"MI"},{"zip":"49645","fips":"26101","name":"Manistee County","state_id":"MI"},{"zip":"49646","fips":"26079","name":"Kalkaska County","state_id":"MI"},{"zip":"49648","fips":"26009","name":"Antrim County","state_id":"MI"},{"zip":"49649","fips":"26055","name":"Grand Traverse County","state_id":"MI"},{"zip":"49649","fips":"26165","name":"Wexford County","state_id":"MI"},{"zip":"49650","fips":"26089","name":"Leelanau County","state_id":"MI"},{"zip":"49650","fips":"26019","name":"Benzie County","state_id":"MI"},{"zip":"49651","fips":"26113","name":"Missaukee County","state_id":"MI"},{"zip":"49653","fips":"26089","name":"Leelanau County","state_id":"MI"},{"zip":"49654","fips":"26089","name":"Leelanau County","state_id":"MI"},{"zip":"49655","fips":"26085","name":"Lake County","state_id":"MI"},{"zip":"49655","fips":"26133","name":"Osceola County","state_id":"MI"},{"zip":"49656","fips":"26085","name":"Lake County","state_id":"MI"},{"zip":"49657","fips":"26113","name":"Missaukee County","state_id":"MI"},{"zip":"49657","fips":"26133","name":"Osceola County","state_id":"MI"},{"zip":"49657","fips":"26165","name":"Wexford County","state_id":"MI"},{"zip":"49659","fips":"26079","name":"Kalkaska County","state_id":"MI"},{"zip":"49659","fips":"26009","name":"Antrim County","state_id":"MI"},{"zip":"49660","fips":"26101","name":"Manistee County","state_id":"MI"},{"zip":"49660","fips":"26105","name":"Mason County","state_id":"MI"},{"zip":"49663","fips":"26165","name":"Wexford County","state_id":"MI"},{"zip":"49663","fips":"26113","name":"Missaukee County","state_id":"MI"},{"zip":"49664","fips":"26089","name":"Leelanau County","state_id":"MI"},{"zip":"49664","fips":"26019","name":"Benzie County","state_id":"MI"},{"zip":"49665","fips":"26113","name":"Missaukee County","state_id":"MI"},{"zip":"49665","fips":"26035","name":"Clare County","state_id":"MI"},{"zip":"49665","fips":"26133","name":"Osceola County","state_id":"MI"},{"zip":"49666","fips":"26055","name":"Grand Traverse County","state_id":"MI"},{"zip":"49667","fips":"26113","name":"Missaukee County","state_id":"MI"},{"zip":"49668","fips":"26101","name":"Manistee County","state_id":"MI"},{"zip":"49668","fips":"26165","name":"Wexford County","state_id":"MI"},{"zip":"49670","fips":"26089","name":"Leelanau County","state_id":"MI"},{"zip":"49673","fips":"26055","name":"Grand Traverse County","state_id":"MI"},{"zip":"49674","fips":"26089","name":"Leelanau County","state_id":"MI"},{"zip":"49675","fips":"26101","name":"Manistee County","state_id":"MI"},{"zip":"49676","fips":"26009","name":"Antrim County","state_id":"MI"},{"zip":"49676","fips":"26079","name":"Kalkaska County","state_id":"MI"},{"zip":"49677","fips":"26123","name":"Newaygo County","state_id":"MI"},{"zip":"49677","fips":"26133","name":"Osceola County","state_id":"MI"},{"zip":"49677","fips":"26085","name":"Lake County","state_id":"MI"},{"zip":"49679","fips":"26133","name":"Osceola County","state_id":"MI"},{"zip":"49679","fips":"26107","name":"Mecosta County","state_id":"MI"},{"zip":"49679","fips":"26035","name":"Clare County","state_id":"MI"},{"zip":"49680","fips":"26079","name":"Kalkaska County","state_id":"MI"},{"zip":"49682","fips":"26089","name":"Leelanau County","state_id":"MI"},{"zip":"49683","fips":"26101","name":"Manistee County","state_id":"MI"},{"zip":"49683","fips":"26055","name":"Grand Traverse County","state_id":"MI"},{"zip":"49683","fips":"26019","name":"Benzie County","state_id":"MI"},{"zip":"49683","fips":"26165","name":"Wexford County","state_id":"MI"},{"zip":"49684","fips":"26089","name":"Leelanau County","state_id":"MI"},{"zip":"49684","fips":"26019","name":"Benzie County","state_id":"MI"},{"zip":"49684","fips":"26055","name":"Grand Traverse County","state_id":"MI"},{"zip":"49685","fips":"26055","name":"Grand Traverse County","state_id":"MI"},{"zip":"49686","fips":"26055","name":"Grand Traverse County","state_id":"MI"},{"zip":"49688","fips":"26133","name":"Osceola County","state_id":"MI"},{"zip":"49688","fips":"26165","name":"Wexford County","state_id":"MI"},{"zip":"49688","fips":"26085","name":"Lake County","state_id":"MI"},{"zip":"49689","fips":"26165","name":"Wexford County","state_id":"MI"},{"zip":"49689","fips":"26101","name":"Manistee County","state_id":"MI"},{"zip":"49690","fips":"26009","name":"Antrim County","state_id":"MI"},{"zip":"49690","fips":"26079","name":"Kalkaska County","state_id":"MI"},{"zip":"49690","fips":"26055","name":"Grand Traverse County","state_id":"MI"},{"zip":"49696","fips":"26055","name":"Grand Traverse County","state_id":"MI"}]
