[{"zip":"49701","fips":"26031","name":"Cheboygan County","state_id":"MI"},{"zip":"49701","fips":"26047","name":"Emmet County","state_id":"MI"},{"zip":"49705","fips":"26031","name":"Cheboygan County","state_id":"MI"},{"zip":"49706","fips":"26031","name":"Cheboygan County","state_id":"MI"},{"zip":"49706","fips":"26047","name":"Emmet County","state_id":"MI"},{"zip":"49707","fips":"26141","name":"Presque Isle County","state_id":"MI"},{"zip":"49707","fips":"26007","name":"Alpena County","state_id":"MI"},{"zip":"49709","fips":"26119","name":"Montmorency County","state_id":"MI"},{"zip":"49710","fips":"26033","name":"Chippewa County","state_id":"MI"},{"zip":"49712","fips":"26009","name":"Antrim County","state_id":"MI"},{"zip":"49712","fips":"26029","name":"Charlevoix County","state_id":"MI"},{"zip":"49713","fips":"26029","name":"Charlevoix County","state_id":"MI"},{"zip":"49713","fips":"26009","name":"Antrim County","state_id":"MI"},{"zip":"49713","fips":"26047","name":"Emmet County","state_id":"MI"},{"zip":"49715","fips":"26033","name":"Chippewa County","state_id":"MI"},{"zip":"49716","fips":"26047","name":"Emmet County","state_id":"MI"},{"zip":"49716","fips":"26031","name":"Cheboygan County","state_id":"MI"},{"zip":"49717","fips":"26031","name":"Cheboygan County","state_id":"MI"},{"zip":"49718","fips":"26047","name":"Emmet County","state_id":"MI"},{"zip":"49718","fips":"26031","name":"Cheboygan County","state_id":"MI"},{"zip":"49719","fips":"26097","name":"Mackinac County","state_id":"MI"},{"zip":"49719","fips":"26033","name":"Chippewa County","state_id":"MI"},{"zip":"49720","fips":"26009","name":"Antrim County","state_id":"MI"},{"zip":"49720","fips":"26029","name":"Charlevoix County","state_id":"MI"},{"zip":"49720","fips":"26047","name":"Emmet County","state_id":"MI"},{"zip":"49721","fips":"26141","name":"Presque Isle County","state_id":"MI"},{"zip":"49721","fips":"26031","name":"Cheboygan County","state_id":"MI"},{"zip":"49722","fips":"26047","name":"Emmet County","state_id":"MI"},{"zip":"49723","fips":"26047","name":"Emmet County","state_id":"MI"},{"zip":"49724","fips":"26033","name":"Chippewa County","state_id":"MI"},{"zip":"49725","fips":"26033","name":"Chippewa County","state_id":"MI"},{"zip":"49726","fips":"26033","name":"Chippewa County","state_id":"MI"},{"zip":"49727","fips":"26009","name":"Antrim County","state_id":"MI"},{"zip":"49727","fips":"26029","name":"Charlevoix County","state_id":"MI"},{"zip":"49728","fips":"26033","name":"Chippewa County","state_id":"MI"},{"zip":"49729","fips":"26029","name":"Charlevoix County","state_id":"MI"},{"zip":"49729","fips":"26009","name":"Antrim County","state_id":"MI"},{"zip":"49730","fips":"26029","name":"Charlevoix County","state_id":"MI"},{"zip":"49730","fips":"26009","name":"Antrim County","state_id":"MI"},{"zip":"49730","fips":"26137","name":"Otsego County","state_id":"MI"},{"zip":"49733","fips":"26137","name":"Otsego County","state_id":"MI"},{"zip":"49733","fips":"26039","name":"Crawford County","state_id":"MI"},{"zip":"49734","fips":"26137","name":"Otsego County","state_id":"MI"},{"zip":"49735","fips":"26137","name":"Otsego County","state_id":"MI"},{"zip":"49736","fips":"26033","name":"Chippewa County","state_id":"MI"},{"zip":"49738","fips":"26039","name":"Crawford County","state_id":"MI"},{"zip":"49738","fips":"26137","name":"Otsego County","state_id":"MI"},{"zip":"49738","fips":"26079","name":"Kalkaska County","state_id":"MI"},{"zip":"49740","fips":"26047","name":"Emmet County","state_id":"MI"},{"zip":"49743","fips":"26141","name":"Presque Isle County","state_id":"MI"},{"zip":"49744","fips":"26007","name":"Alpena County","state_id":"MI"},{"zip":"49745","fips":"26097","name":"Mackinac County","state_id":"MI"},{"zip":"49746","fips":"26141","name":"Presque Isle County","state_id":"MI"},{"zip":"49746","fips":"26119","name":"Montmorency County","state_id":"MI"},{"zip":"49746","fips":"26007","name":"Alpena County","state_id":"MI"},{"zip":"49747","fips":"26007","name":"Alpena County","state_id":"MI"},{"zip":"49747","fips":"26001","name":"Alcona County","state_id":"MI"},{"zip":"49748","fips":"26033","name":"Chippewa County","state_id":"MI"},{"zip":"49749","fips":"26031","name":"Cheboygan County","state_id":"MI"},{"zip":"49751","fips":"26119","name":"Montmorency County","state_id":"MI"},{"zip":"49751","fips":"26137","name":"Otsego County","state_id":"MI"},{"zip":"49752","fips":"26033","name":"Chippewa County","state_id":"MI"},{"zip":"49753","fips":"26007","name":"Alpena County","state_id":"MI"},{"zip":"49755","fips":"26031","name":"Cheboygan County","state_id":"MI"},{"zip":"49755","fips":"26047","name":"Emmet County","state_id":"MI"},{"zip":"49756","fips":"26135","name":"Oscoda County","state_id":"MI"},{"zip":"49756","fips":"26137","name":"Otsego County","state_id":"MI"},{"zip":"49756","fips":"26039","name":"Crawford County","state_id":"MI"},{"zip":"49756","fips":"26119","name":"Montmorency County","state_id":"MI"},{"zip":"49757","fips":"26097","name":"Mackinac County","state_id":"MI"},{"zip":"49759","fips":"26141","name":"Presque Isle County","state_id":"MI"},{"zip":"49760","fips":"26033","name":"Chippewa County","state_id":"MI"},{"zip":"49760","fips":"26097","name":"Mackinac County","state_id":"MI"},{"zip":"49761","fips":"26031","name":"Cheboygan County","state_id":"MI"},{"zip":"49762","fips":"26097","name":"Mackinac County","state_id":"MI"},{"zip":"49764","fips":"26047","name":"Emmet County","state_id":"MI"},{"zip":"49765","fips":"26031","name":"Cheboygan County","state_id":"MI"},{"zip":"49765","fips":"26141","name":"Presque Isle County","state_id":"MI"},{"zip":"49766","fips":"26007","name":"Alpena County","state_id":"MI"},{"zip":"49768","fips":"26033","name":"Chippewa County","state_id":"MI"},{"zip":"49769","fips":"26031","name":"Cheboygan County","state_id":"MI"},{"zip":"49769","fips":"26047","name":"Emmet County","state_id":"MI"},{"zip":"49770","fips":"26031","name":"Cheboygan County","state_id":"MI"},{"zip":"49770","fips":"26047","name":"Emmet County","state_id":"MI"},{"zip":"49770","fips":"26029","name":"Charlevoix County","state_id":"MI"},{"zip":"49774","fips":"26097","name":"Mackinac County","state_id":"MI"},{"zip":"49774","fips":"26033","name":"Chippewa County","state_id":"MI"},{"zip":"49775","fips":"26097","name":"Mackinac County","state_id":"MI"},{"zip":"49776","fips":"26007","name":"Alpena County","state_id":"MI"},{"zip":"49776","fips":"26141","name":"Presque Isle County","state_id":"MI"},{"zip":"49777","fips":"26141","name":"Presque Isle County","state_id":"MI"},{"zip":"49779","fips":"26141","name":"Presque Isle County","state_id":"MI"},{"zip":"49780","fips":"26033","name":"Chippewa County","state_id":"MI"},{"zip":"49780","fips":"26097","name":"Mackinac County","state_id":"MI"},{"zip":"49781","fips":"26097","name":"Mackinac County","state_id":"MI"},{"zip":"49782","fips":"26029","name":"Charlevoix County","state_id":"MI"},{"zip":"49783","fips":"26033","name":"Chippewa County","state_id":"MI"},{"zip":"49788","fips":"26033","name":"Chippewa County","state_id":"MI"},{"zip":"49791","fips":"26031","name":"Cheboygan County","state_id":"MI"},{"zip":"49792","fips":"26031","name":"Cheboygan County","state_id":"MI"},{"zip":"49793","fips":"26033","name":"Chippewa County","state_id":"MI"},{"zip":"49795","fips":"26029","name":"Charlevoix County","state_id":"MI"},{"zip":"49795","fips":"26031","name":"Cheboygan County","state_id":"MI"},{"zip":"49795","fips":"26137","name":"Otsego County","state_id":"MI"},{"zip":"49796","fips":"26029","name":"Charlevoix County","state_id":"MI"},{"zip":"49797","fips":"26137","name":"Otsego County","state_id":"MI"},{"zip":"49799","fips":"26047","name":"Emmet County","state_id":"MI"},{"zip":"49799","fips":"26031","name":"Cheboygan County","state_id":"MI"}]
