[{"zip":"49801","fips":"26043","name":"Dickinson County","state_id":"MI"},{"zip":"49802","fips":"26043","name":"Dickinson County","state_id":"MI"},{"zip":"49805","fips":"26061","name":"Houghton County","state_id":"MI"},{"zip":"49805","fips":"26083","name":"Keweenaw County","state_id":"MI"},{"zip":"49806","fips":"26003","name":"Alger County","state_id":"MI"},{"zip":"49807","fips":"26041","name":"Delta County","state_id":"MI"},{"zip":"49807","fips":"26109","name":"Menominee County","state_id":"MI"},{"zip":"49808","fips":"26103","name":"Marquette County","state_id":"MI"},{"zip":"49812","fips":"26109","name":"Menominee County","state_id":"MI"},{"zip":"49814","fips":"26103","name":"Marquette County","state_id":"MI"},{"zip":"49815","fips":"26043","name":"Dickinson County","state_id":"MI"},{"zip":"49816","fips":"26003","name":"Alger County","state_id":"MI"},{"zip":"49817","fips":"26041","name":"Delta County","state_id":"MI"},{"zip":"49817","fips":"26153","name":"Schoolcraft County","state_id":"MI"},{"zip":"49818","fips":"26041","name":"Delta County","state_id":"MI"},{"zip":"49818","fips":"26103","name":"Marquette County","state_id":"MI"},{"zip":"49819","fips":"26103","name":"Marquette County","state_id":"MI"},{"zip":"49820","fips":"26097","name":"Mackinac County","state_id":"MI"},{"zip":"49821","fips":"26109","name":"Menominee County","state_id":"MI"},{"zip":"49822","fips":"26103","name":"Marquette County","state_id":"MI"},{"zip":"49822","fips":"26003","name":"Alger County","state_id":"MI"},{"zip":"49825","fips":"26003","name":"Alger County","state_id":"MI"},{"zip":"49826","fips":"26003","name":"Alger County","state_id":"MI"},{"zip":"49827","fips":"26097","name":"Mackinac County","state_id":"MI"},{"zip":"49829","fips":"26041","name":"Delta County","state_id":"MI"},{"zip":"49831","fips":"26043","name":"Dickinson County","state_id":"MI"},{"zip":"49833","fips":"26103","name":"Marquette County","state_id":"MI"},{"zip":"49834","fips":"26043","name":"Dickinson County","state_id":"MI"},{"zip":"49835","fips":"26041","name":"Delta County","state_id":"MI"},{"zip":"49836","fips":"26097","name":"Mackinac County","state_id":"MI"},{"zip":"49836","fips":"26153","name":"Schoolcraft County","state_id":"MI"},{"zip":"49837","fips":"26041","name":"Delta County","state_id":"MI"},{"zip":"49838","fips":"26097","name":"Mackinac County","state_id":"MI"},{"zip":"49839","fips":"26003","name":"Alger County","state_id":"MI"},{"zip":"49840","fips":"26153","name":"Schoolcraft County","state_id":"MI"},{"zip":"49841","fips":"26103","name":"Marquette County","state_id":"MI"},{"zip":"49845","fips":"26109","name":"Menominee County","state_id":"MI"},{"zip":"49847","fips":"26109","name":"Menominee County","state_id":"MI"},{"zip":"49848","fips":"26109","name":"Menominee County","state_id":"MI"},{"zip":"49849","fips":"26103","name":"Marquette County","state_id":"MI"},{"zip":"49852","fips":"26043","name":"Dickinson County","state_id":"MI"},{"zip":"49853","fips":"26097","name":"Mackinac County","state_id":"MI"},{"zip":"49853","fips":"26095","name":"Luce County","state_id":"MI"},{"zip":"49854","fips":"26153","name":"Schoolcraft County","state_id":"MI"},{"zip":"49854","fips":"26041","name":"Delta County","state_id":"MI"},{"zip":"49855","fips":"26103","name":"Marquette County","state_id":"MI"},{"zip":"49858","fips":"26109","name":"Menominee County","state_id":"MI"},{"zip":"49861","fips":"26013","name":"Baraga County","state_id":"MI"},{"zip":"49861","fips":"26103","name":"Marquette County","state_id":"MI"},{"zip":"49862","fips":"26003","name":"Alger County","state_id":"MI"},{"zip":"49863","fips":"26109","name":"Menominee County","state_id":"MI"},{"zip":"49864","fips":"26041","name":"Delta County","state_id":"MI"},{"zip":"49865","fips":"26103","name":"Marquette County","state_id":"MI"},{"zip":"49866","fips":"26103","name":"Marquette County","state_id":"MI"},{"zip":"49868","fips":"26033","name":"Chippewa County","state_id":"MI"},{"zip":"49868","fips":"26095","name":"Luce County","state_id":"MI"},{"zip":"49870","fips":"26043","name":"Dickinson County","state_id":"MI"},{"zip":"49871","fips":"26103","name":"Marquette County","state_id":"MI"},{"zip":"49872","fips":"26041","name":"Delta County","state_id":"MI"},{"zip":"49873","fips":"26109","name":"Menominee County","state_id":"MI"},{"zip":"49873","fips":"26043","name":"Dickinson County","state_id":"MI"},{"zip":"49874","fips":"26109","name":"Menominee County","state_id":"MI"},{"zip":"49876","fips":"26043","name":"Dickinson County","state_id":"MI"},{"zip":"49877","fips":"26043","name":"Dickinson County","state_id":"MI"},{"zip":"49878","fips":"26041","name":"Delta County","state_id":"MI"},{"zip":"49878","fips":"26003","name":"Alger County","state_id":"MI"},{"zip":"49879","fips":"26103","name":"Marquette County","state_id":"MI"},{"zip":"49879","fips":"26071","name":"Iron County","state_id":"MI"},{"zip":"49880","fips":"26041","name":"Delta County","state_id":"MI"},{"zip":"49880","fips":"26103","name":"Marquette County","state_id":"MI"},{"zip":"49881","fips":"26043","name":"Dickinson County","state_id":"MI"},{"zip":"49883","fips":"26153","name":"Schoolcraft County","state_id":"MI"},{"zip":"49883","fips":"26003","name":"Alger County","state_id":"MI"},{"zip":"49884","fips":"26153","name":"Schoolcraft County","state_id":"MI"},{"zip":"49884","fips":"26003","name":"Alger County","state_id":"MI"},{"zip":"49885","fips":"26003","name":"Alger County","state_id":"MI"},{"zip":"49885","fips":"26103","name":"Marquette County","state_id":"MI"},{"zip":"49886","fips":"26109","name":"Menominee County","state_id":"MI"},{"zip":"49887","fips":"26109","name":"Menominee County","state_id":"MI"},{"zip":"49891","fips":"26003","name":"Alger County","state_id":"MI"},{"zip":"49892","fips":"26109","name":"Menominee County","state_id":"MI"},{"zip":"49892","fips":"26043","name":"Dickinson County","state_id":"MI"},{"zip":"49893","fips":"26109","name":"Menominee County","state_id":"MI"},{"zip":"49894","fips":"26041","name":"Delta County","state_id":"MI"},{"zip":"49895","fips":"26003","name":"Alger County","state_id":"MI"},{"zip":"49895","fips":"26153","name":"Schoolcraft County","state_id":"MI"},{"zip":"49895","fips":"26041","name":"Delta County","state_id":"MI"},{"zip":"49896","fips":"26109","name":"Menominee County","state_id":"MI"}]
