[{"zip":"49901","fips":"26061","name":"Houghton County","state_id":"MI"},{"zip":"49901","fips":"26083","name":"Keweenaw County","state_id":"MI"},{"zip":"49902","fips":"26071","name":"Iron County","state_id":"MI"},{"zip":"49903","fips":"26071","name":"Iron County","state_id":"MI"},{"zip":"49905","fips":"26061","name":"Houghton County","state_id":"MI"},{"zip":"49908","fips":"26013","name":"Baraga County","state_id":"MI"},{"zip":"49910","fips":"26131","name":"Ontonagon County","state_id":"MI"},{"zip":"49911","fips":"26053","name":"Gogebic County","state_id":"MI"},{"zip":"49912","fips":"26131","name":"Ontonagon County","state_id":"MI"},{"zip":"49913","fips":"26061","name":"Houghton County","state_id":"MI"},{"zip":"49913","fips":"26083","name":"Keweenaw County","state_id":"MI"},{"zip":"49915","fips":"26071","name":"Iron County","state_id":"MI"},{"zip":"49916","fips":"26061","name":"Houghton County","state_id":"MI"},{"zip":"49917","fips":"26083","name":"Keweenaw County","state_id":"MI"},{"zip":"49917","fips":"26061","name":"Houghton County","state_id":"MI"},{"zip":"49918","fips":"26083","name":"Keweenaw County","state_id":"MI"},{"zip":"49919","fips":"26013","name":"Baraga County","state_id":"MI"},{"zip":"49920","fips":"26043","name":"Dickinson County","state_id":"MI"},{"zip":"49920","fips":"26071","name":"Iron County","state_id":"MI"},{"zip":"49921","fips":"26061","name":"Houghton County","state_id":"MI"},{"zip":"49922","fips":"26061","name":"Houghton County","state_id":"MI"},{"zip":"49925","fips":"26131","name":"Ontonagon County","state_id":"MI"},{"zip":"49927","fips":"26071","name":"Iron County","state_id":"MI"},{"zip":"49929","fips":"26131","name":"Ontonagon County","state_id":"MI"},{"zip":"49930","fips":"26061","name":"Houghton County","state_id":"MI"},{"zip":"49931","fips":"26061","name":"Houghton County","state_id":"MI"},{"zip":"49934","fips":"26061","name":"Houghton County","state_id":"MI"},{"zip":"49935","fips":"26071","name":"Iron County","state_id":"MI"},{"zip":"49938","fips":"26053","name":"Gogebic County","state_id":"MI"},{"zip":"49945","fips":"26061","name":"Houghton County","state_id":"MI"},{"zip":"49945","fips":"26083","name":"Keweenaw County","state_id":"MI"},{"zip":"49946","fips":"26013","name":"Baraga County","state_id":"MI"},{"zip":"49947","fips":"26131","name":"Ontonagon County","state_id":"MI"},{"zip":"49947","fips":"26053","name":"Gogebic County","state_id":"MI"},{"zip":"49948","fips":"26131","name":"Ontonagon County","state_id":"MI"},{"zip":"49950","fips":"26083","name":"Keweenaw County","state_id":"MI"},{"zip":"49952","fips":"26013","name":"Baraga County","state_id":"MI"},{"zip":"49952","fips":"26061","name":"Houghton County","state_id":"MI"},{"zip":"49953","fips":"26131","name":"Ontonagon County","state_id":"MI"},{"zip":"49955","fips":"26061","name":"Houghton County","state_id":"MI"},{"zip":"49958","fips":"26061","name":"Houghton County","state_id":"MI"},{"zip":"49958","fips":"26013","name":"Baraga County","state_id":"MI"},{"zip":"49959","fips":"26053","name":"Gogebic County","state_id":"MI"},{"zip":"49960","fips":"26131","name":"Ontonagon County","state_id":"MI"},{"zip":"49961","fips":"26061","name":"Houghton County","state_id":"MI"},{"zip":"49962","fips":"26013","name":"Baraga County","state_id":"MI"},{"zip":"49963","fips":"26061","name":"Houghton County","state_id":"MI"},{"zip":"49964","fips":"26071","name":"Iron County","state_id":"MI"},{"zip":"49965","fips":"26061","name":"Houghton County","state_id":"MI"},{"zip":"49965","fips":"26131","name":"Ontonagon County","state_id":"MI"},{"zip":"49967","fips":"26071","name":"Iron County","state_id":"MI"},{"zip":"49967","fips":"26131","name":"Ontonagon County","state_id":"MI"},{"zip":"49967","fips":"26061","name":"Houghton County","state_id":"MI"},{"zip":"49968","fips":"26053","name":"Gogebic County","state_id":"MI"},{"zip":"49969","fips":"26053","name":"Gogebic County","state_id":"MI"},{"zip":"49970","fips":"26013","name":"Baraga County","state_id":"MI"},{"zip":"49971","fips":"26131","name":"Ontonagon County","state_id":"MI"}]
