[{"zip":"60002","fips":"17097","name":"Lake County","state_id":"IL"},{"zip":"60004","fips":"17031","name":"Cook County","state_id":"IL"},{"zip":"60005","fips":"17031","name":"Cook County","state_id":"IL"},{"zip":"60006","fips":"17031","name":"Cook County","state_id":"IL"},{"zip":"60007","fips":"17043","name":"DuPage County","state_id":"IL"},{"zip":"60007","fips":"17031","name":"Cook County","state_id":"IL"},{"zip":"60008","fips":"17031","name":"Cook County","state_id":"IL"},{"zip":"60009","fips":"17031","name":"Cook County","state_id":"IL"},{"zip":"60010","fips":"17031","name":"Cook County","state_id":"IL"},{"zip":"60010","fips":"17097","name":"Lake County","state_id":"IL"},{"zip":"60010","fips":"17111","name":"McHenry County","state_id":"IL"},{"zip":"60010","fips":"17089","name":"Kane County","state_id":"IL"},{"zip":"60011","fips":"17031","name":"Cook County","state_id":"IL"},{"zip":"60011","fips":"17097","name":"Lake County","state_id":"IL"},{"zip":"60012","fips":"17111","name":"McHenry County","state_id":"IL"},{"zip":"60013","fips":"17111","name":"McHenry County","state_id":"IL"},{"zip":"60013","fips":"17097","name":"Lake County","state_id":"IL"},{"zip":"60014","fips":"17111","name":"McHenry County","state_id":"IL"},{"zip":"60015","fips":"17031","name":"Cook County","state_id":"IL"},{"zip":"60015","fips":"17097","name":"Lake County","state_id":"IL"},{"zip":"60016","fips":"17031","name":"Cook County","state_id":"IL"},{"zip":"60017","fips":"17031","name":"Cook County","state_id":"IL"},{"zip":"60018","fips":"17043","name":"DuPage County","state_id":"IL"},{"zip":"60018","fips":"17031","name":"Cook County","state_id":"IL"},{"zip":"60020","fips":"17097","name":"Lake County","state_id":"IL"},{"zip":"60020","fips":"17111","name":"McHenry County","state_id":"IL"},{"zip":"60021","fips":"17111","name":"McHenry County","state_id":"IL"},{"zip":"60021","fips":"17097","name":"Lake County","state_id":"IL"},{"zip":"60022","fips":"17031","name":"Cook County","state_id":"IL"},{"zip":"60025","fips":"17031","name":"Cook County","state_id":"IL"},{"zip":"60026","fips":"17031","name":"Cook County","state_id":"IL"},{"zip":"60029","fips":"17031","name":"Cook County","state_id":"IL"},{"zip":"60030","fips":"17097","name":"Lake County","state_id":"IL"},{"zip":"60031","fips":"17097","name":"Lake County","state_id":"IL"},{"zip":"60033","fips":"17111","name":"McHenry County","state_id":"IL"},{"zip":"60033","fips":"17007","name":"Boone County","state_id":"IL"},{"zip":"60034","fips":"17111","name":"McHenry County","state_id":"IL"},{"zip":"60035","fips":"17097","name":"Lake County","state_id":"IL"},{"zip":"60037","fips":"17097","name":"Lake County","state_id":"IL"},{"zip":"60038","fips":"17031","name":"Cook County","state_id":"IL"},{"zip":"60039","fips":"17111","name":"McHenry County","state_id":"IL"},{"zip":"60040","fips":"17097","name":"Lake County","state_id":"IL"},{"zip":"60041","fips":"17097","name":"Lake County","state_id":"IL"},{"zip":"60042","fips":"17097","name":"Lake County","state_id":"IL"},{"zip":"60042","fips":"17111","name":"McHenry County","state_id":"IL"},{"zip":"60043","fips":"17031","name":"Cook County","state_id":"IL"},{"zip":"60044","fips":"17097","name":"Lake County","state_id":"IL"},{"zip":"60045","fips":"17097","name":"Lake County","state_id":"IL"},{"zip":"60046","fips":"17097","name":"Lake County","state_id":"IL"},{"zip":"60047","fips":"17097","name":"Lake County","state_id":"IL"},{"zip":"60048","fips":"17097","name":"Lake County","state_id":"IL"},{"zip":"60050","fips":"17111","name":"McHenry County","state_id":"IL"},{"zip":"60050","fips":"17097","name":"Lake County","state_id":"IL"},{"zip":"60051","fips":"17111","name":"McHenry County","state_id":"IL"},{"zip":"60051","fips":"17097","name":"Lake County","state_id":"IL"},{"zip":"60053","fips":"17031","name":"Cook County","state_id":"IL"},{"zip":"60055","fips":"17031","name":"Cook County","state_id":"IL"},{"zip":"60056","fips":"17031","name":"Cook County","state_id":"IL"},{"zip":"60060","fips":"17097","name":"Lake County","state_id":"IL"},{"zip":"60061","fips":"17097","name":"Lake County","state_id":"IL"},{"zip":"60062","fips":"17031","name":"Cook County","state_id":"IL"},{"zip":"60064","fips":"17097","name":"Lake County","state_id":"IL"},{"zip":"60065","fips":"17031","name":"Cook County","state_id":"IL"},{"zip":"60067","fips":"17031","name":"Cook County","state_id":"IL"},{"zip":"60068","fips":"17031","name":"Cook County","state_id":"IL"},{"zip":"60069","fips":"17097","name":"Lake County","state_id":"IL"},{"zip":"60070","fips":"17031","name":"Cook County","state_id":"IL"},{"zip":"60071","fips":"17111","name":"McHenry County","state_id":"IL"},{"zip":"60072","fips":"17111","name":"McHenry County","state_id":"IL"},{"zip":"60073","fips":"17097","name":"Lake County","state_id":"IL"},{"zip":"60074","fips":"17031","name":"Cook County","state_id":"IL"},{"zip":"60074","fips":"17097","name":"Lake County","state_id":"IL"},{"zip":"60075","fips":"17097","name":"Lake County","state_id":"IL"},{"zip":"60076","fips":"17031","name":"Cook County","state_id":"IL"},{"zip":"60077","fips":"17031","name":"Cook County","state_id":"IL"},{"zip":"60078","fips":"17031","name":"Cook County","state_id":"IL"},{"zip":"60079","fips":"17097","name":"Lake County","state_id":"IL"},{"zip":"60081","fips":"17111","name":"McHenry County","state_id":"IL"},{"zip":"60081","fips":"17097","name":"Lake County","state_id":"IL"},{"zip":"60082","fips":"17031","name":"Cook County","state_id":"IL"},{"zip":"60083","fips":"17097","name":"Lake County","state_id":"IL"},{"zip":"60084","fips":"17097","name":"Lake County","state_id":"IL"},{"zip":"60085","fips":"17097","name":"Lake County","state_id":"IL"},{"zip":"60086","fips":"17097","name":"Lake County","state_id":"IL"},{"zip":"60087","fips":"17097","name":"Lake County","state_id":"IL"},{"zip":"60088","fips":"17097","name":"Lake County","state_id":"IL"},{"zip":"60089","fips":"17097","name":"Lake County","state_id":"IL"},{"zip":"60089","fips":"17031","name":"Cook County","state_id":"IL"},{"zip":"60090","fips":"17097","name":"Lake County","state_id":"IL"},{"zip":"60090","fips":"17031","name":"Cook County","state_id":"IL"},{"zip":"60091","fips":"17031","name":"Cook County","state_id":"IL"},{"zip":"60093","fips":"17031","name":"Cook County","state_id":"IL"},{"zip":"60095","fips":"17031","name":"Cook County","state_id":"IL"},{"zip":"60096","fips":"17097","name":"Lake County","state_id":"IL"},{"zip":"60097","fips":"17111","name":"McHenry County","state_id":"IL"},{"zip":"60098","fips":"17111","name":"McHenry County","state_id":"IL"},{"zip":"60099","fips":"17097","name":"Lake County","state_id":"IL"}]
