[{"zip":"60101","fips":"17043","name":"DuPage County","state_id":"IL"},{"zip":"60102","fips":"17111","name":"McHenry County","state_id":"IL"},{"zip":"60102","fips":"17031","name":"Cook County","state_id":"IL"},{"zip":"60102","fips":"17089","name":"Kane County","state_id":"IL"},{"zip":"60103","fips":"17043","name":"DuPage County","state_id":"IL"},{"zip":"60103","fips":"17031","name":"Cook County","state_id":"IL"},{"zip":"60103","fips":"17089","name":"Kane County","state_id":"IL"},{"zip":"60104","fips":"17031","name":"Cook County","state_id":"IL"},{"zip":"60106","fips":"17043","name":"DuPage County","state_id":"IL"},{"zip":"60107","fips":"17043","name":"DuPage County","state_id":"IL"},{"zip":"60107","fips":"17031","name":"Cook County","state_id":"IL"},{"zip":"60108","fips":"17043","name":"DuPage County","state_id":"IL"},{"zip":"60109","fips":"17089","name":"Kane County","state_id":"IL"},{"zip":"60110","fips":"17089","name":"Kane County","state_id":"IL"},{"zip":"60111","fips":"17037","name":"DeKalb County","state_id":"IL"},{"zip":"60112","fips":"17037","name":"DeKalb County","state_id":"IL"},{"zip":"60113","fips":"17141","name":"Ogle County","state_id":"IL"},{"zip":"60115","fips":"17037","name":"DeKalb County","state_id":"IL"},{"zip":"60117","fips":"17043","name":"DuPage County","state_id":"IL"},{"zip":"60118","fips":"17089","name":"Kane County","state_id":"IL"},{"zip":"60119","fips":"17089","name":"Kane County","state_id":"IL"},{"zip":"60119","fips":"17037","name":"DeKalb County","state_id":"IL"},{"zip":"60120","fips":"17031","name":"Cook County","state_id":"IL"},{"zip":"60120","fips":"17043","name":"DuPage County","state_id":"IL"},{"zip":"60120","fips":"17089","name":"Kane County","state_id":"IL"},{"zip":"60121","fips":"17089","name":"Kane County","state_id":"IL"},{"zip":"60122","fips":"17043","name":"DuPage County","state_id":"IL"},{"zip":"60123","fips":"17089","name":"Kane County","state_id":"IL"},{"zip":"60124","fips":"17089","name":"Kane County","state_id":"IL"},{"zip":"60126","fips":"17031","name":"Cook County","state_id":"IL"},{"zip":"60126","fips":"17043","name":"DuPage County","state_id":"IL"},{"zip":"60129","fips":"17037","name":"DeKalb County","state_id":"IL"},{"zip":"60129","fips":"17141","name":"Ogle County","state_id":"IL"},{"zip":"60130","fips":"17031","name":"Cook County","state_id":"IL"},{"zip":"60131","fips":"17031","name":"Cook County","state_id":"IL"},{"zip":"60133","fips":"17031","name":"Cook County","state_id":"IL"},{"zip":"60133","fips":"17043","name":"DuPage County","state_id":"IL"},{"zip":"60134","fips":"17089","name":"Kane County","state_id":"IL"},{"zip":"60135","fips":"17007","name":"Boone County","state_id":"IL"},{"zip":"60135","fips":"17037","name":"DeKalb County","state_id":"IL"},{"zip":"60135","fips":"17111","name":"McHenry County","state_id":"IL"},{"zip":"60135","fips":"17089","name":"Kane County","state_id":"IL"},{"zip":"60136","fips":"17089","name":"Kane County","state_id":"IL"},{"zip":"60137","fips":"17043","name":"DuPage County","state_id":"IL"},{"zip":"60138","fips":"17043","name":"DuPage County","state_id":"IL"},{"zip":"60139","fips":"17043","name":"DuPage County","state_id":"IL"},{"zip":"60140","fips":"17111","name":"McHenry County","state_id":"IL"},{"zip":"60140","fips":"17037","name":"DeKalb County","state_id":"IL"},{"zip":"60140","fips":"17089","name":"Kane County","state_id":"IL"},{"zip":"60141","fips":"17031","name":"Cook County","state_id":"IL"},{"zip":"60142","fips":"17111","name":"McHenry County","state_id":"IL"},{"zip":"60142","fips":"17089","name":"Kane County","state_id":"IL"},{"zip":"60143","fips":"17043","name":"DuPage County","state_id":"IL"},{"zip":"60143","fips":"17031","name":"Cook County","state_id":"IL"},{"zip":"60144","fips":"17089","name":"Kane County","state_id":"IL"},{"zip":"60145","fips":"17007","name":"Boone County","state_id":"IL"},{"zip":"60145","fips":"17037","name":"DeKalb County","state_id":"IL"},{"zip":"60146","fips":"17037","name":"DeKalb County","state_id":"IL"},{"zip":"60146","fips":"17201","name":"Winnebago County","state_id":"IL"},{"zip":"60146","fips":"17007","name":"Boone County","state_id":"IL"},{"zip":"60146","fips":"17141","name":"Ogle County","state_id":"IL"},{"zip":"60147","fips":"17089","name":"Kane County","state_id":"IL"},{"zip":"60148","fips":"17043","name":"DuPage County","state_id":"IL"},{"zip":"60150","fips":"17037","name":"DeKalb County","state_id":"IL"},{"zip":"60151","fips":"17037","name":"DeKalb County","state_id":"IL"},{"zip":"60151","fips":"17089","name":"Kane County","state_id":"IL"},{"zip":"60152","fips":"17007","name":"Boone County","state_id":"IL"},{"zip":"60152","fips":"17111","name":"McHenry County","state_id":"IL"},{"zip":"60152","fips":"17037","name":"DeKalb County","state_id":"IL"},{"zip":"60153","fips":"17031","name":"Cook County","state_id":"IL"},{"zip":"60154","fips":"17031","name":"Cook County","state_id":"IL"},{"zip":"60155","fips":"17031","name":"Cook County","state_id":"IL"},{"zip":"60156","fips":"17111","name":"McHenry County","state_id":"IL"},{"zip":"60157","fips":"17043","name":"DuPage County","state_id":"IL"},{"zip":"60159","fips":"17031","name":"Cook County","state_id":"IL"},{"zip":"60160","fips":"17031","name":"Cook County","state_id":"IL"},{"zip":"60161","fips":"17031","name":"Cook County","state_id":"IL"},{"zip":"60162","fips":"17031","name":"Cook County","state_id":"IL"},{"zip":"60163","fips":"17031","name":"Cook County","state_id":"IL"},{"zip":"60164","fips":"17031","name":"Cook County","state_id":"IL"},{"zip":"60165","fips":"17031","name":"Cook County","state_id":"IL"},{"zip":"60168","fips":"17031","name":"Cook County","state_id":"IL"},{"zip":"60169","fips":"17031","name":"Cook County","state_id":"IL"},{"zip":"60171","fips":"17031","name":"Cook County","state_id":"IL"},{"zip":"60172","fips":"17043","name":"DuPage County","state_id":"IL"},{"zip":"60172","fips":"17031","name":"Cook County","state_id":"IL"},{"zip":"60173","fips":"17031","name":"Cook County","state_id":"IL"},{"zip":"60174","fips":"17089","name":"Kane County","state_id":"IL"},{"zip":"60174","fips":"17043","name":"DuPage County","state_id":"IL"},{"zip":"60175","fips":"17089","name":"Kane County","state_id":"IL"},{"zip":"60176","fips":"17031","name":"Cook County","state_id":"IL"},{"zip":"60177","fips":"17089","name":"Kane County","state_id":"IL"},{"zip":"60178","fips":"17089","name":"Kane County","state_id":"IL"},{"zip":"60178","fips":"17037","name":"DeKalb County","state_id":"IL"},{"zip":"60179","fips":"17031","name":"Cook County","state_id":"IL"},{"zip":"60180","fips":"17111","name":"McHenry County","state_id":"IL"},{"zip":"60181","fips":"17043","name":"DuPage County","state_id":"IL"},{"zip":"60183","fips":"17089","name":"Kane County","state_id":"IL"},{"zip":"60184","fips":"17089","name":"Kane County","state_id":"IL"},{"zip":"60184","fips":"17043","name":"DuPage County","state_id":"IL"},{"zip":"60185","fips":"17043","name":"DuPage County","state_id":"IL"},{"zip":"60185","fips":"17089","name":"Kane County","state_id":"IL"},{"zip":"60186","fips":"17043","name":"DuPage County","state_id":"IL"},{"zip":"60187","fips":"17043","name":"DuPage County","state_id":"IL"},{"zip":"60188","fips":"17043","name":"DuPage County","state_id":"IL"},{"zip":"60189","fips":"17043","name":"DuPage County","state_id":"IL"},{"zip":"60190","fips":"17043","name":"DuPage County","state_id":"IL"},{"zip":"60191","fips":"17043","name":"DuPage County","state_id":"IL"},{"zip":"60192","fips":"17089","name":"Kane County","state_id":"IL"},{"zip":"60192","fips":"17031","name":"Cook County","state_id":"IL"},{"zip":"60193","fips":"17031","name":"Cook County","state_id":"IL"},{"zip":"60194","fips":"17031","name":"Cook County","state_id":"IL"},{"zip":"60195","fips":"17031","name":"Cook County","state_id":"IL"},{"zip":"60196","fips":"17031","name":"Cook County","state_id":"IL"},{"zip":"60199","fips":"17043","name":"DuPage County","state_id":"IL"}]
