[{"zip":"60401","fips":"17197","name":"Will County","state_id":"IL"},{"zip":"60401","fips":"17091","name":"Kankakee County","state_id":"IL"},{"zip":"60402","fips":"17031","name":"Cook County","state_id":"IL"},{"zip":"60403","fips":"17197","name":"Will County","state_id":"IL"},{"zip":"60404","fips":"17197","name":"Will County","state_id":"IL"},{"zip":"60406","fips":"17031","name":"Cook County","state_id":"IL"},{"zip":"60407","fips":"17197","name":"Will County","state_id":"IL"},{"zip":"60407","fips":"17063","name":"Grundy County","state_id":"IL"},{"zip":"60408","fips":"17197","name":"Will County","state_id":"IL"},{"zip":"60408","fips":"17063","name":"Grundy County","state_id":"IL"},{"zip":"60409","fips":"17031","name":"Cook County","state_id":"IL"},{"zip":"60410","fips":"17197","name":"Will County","state_id":"IL"},{"zip":"60410","fips":"17063","name":"Grundy County","state_id":"IL"},{"zip":"60411","fips":"17031","name":"Cook County","state_id":"IL"},{"zip":"60411","fips":"17197","name":"Will County","state_id":"IL"},{"zip":"60412","fips":"17031","name":"Cook County","state_id":"IL"},{"zip":"60415","fips":"17031","name":"Cook County","state_id":"IL"},{"zip":"60416","fips":"17063","name":"Grundy County","state_id":"IL"},{"zip":"60416","fips":"17197","name":"Will County","state_id":"IL"},{"zip":"60417","fips":"17197","name":"Will County","state_id":"IL"},{"zip":"60417","fips":"17031","name":"Cook County","state_id":"IL"},{"zip":"60418","fips":"17031","name":"Cook County","state_id":"IL"},{"zip":"60419","fips":"17031","name":"Cook County","state_id":"IL"},{"zip":"60420","fips":"17063","name":"Grundy County","state_id":"IL"},{"zip":"60420","fips":"17105","name":"Livingston County","state_id":"IL"},{"zip":"60421","fips":"17197","name":"Will County","state_id":"IL"},{"zip":"60422","fips":"17031","name":"Cook County","state_id":"IL"},{"zip":"60423","fips":"17031","name":"Cook County","state_id":"IL"},{"zip":"60423","fips":"17197","name":"Will County","state_id":"IL"},{"zip":"60424","fips":"17063","name":"Grundy County","state_id":"IL"},{"zip":"60424","fips":"17091","name":"Kankakee County","state_id":"IL"},{"zip":"60425","fips":"17031","name":"Cook County","state_id":"IL"},{"zip":"60426","fips":"17031","name":"Cook County","state_id":"IL"},{"zip":"60428","fips":"17031","name":"Cook County","state_id":"IL"},{"zip":"60429","fips":"17031","name":"Cook County","state_id":"IL"},{"zip":"60430","fips":"17031","name":"Cook County","state_id":"IL"},{"zip":"60431","fips":"17093","name":"Kendall County","state_id":"IL"},{"zip":"60431","fips":"17197","name":"Will County","state_id":"IL"},{"zip":"60432","fips":"17197","name":"Will County","state_id":"IL"},{"zip":"60433","fips":"17197","name":"Will County","state_id":"IL"},{"zip":"60434","fips":"17197","name":"Will County","state_id":"IL"},{"zip":"60435","fips":"17093","name":"Kendall County","state_id":"IL"},{"zip":"60435","fips":"17197","name":"Will County","state_id":"IL"},{"zip":"60436","fips":"17197","name":"Will County","state_id":"IL"},{"zip":"60437","fips":"17099","name":"LaSalle County","state_id":"IL"},{"zip":"60437","fips":"17063","name":"Grundy County","state_id":"IL"},{"zip":"60438","fips":"17031","name":"Cook County","state_id":"IL"},{"zip":"60439","fips":"17043","name":"DuPage County","state_id":"IL"},{"zip":"60439","fips":"17031","name":"Cook County","state_id":"IL"},{"zip":"60439","fips":"17197","name":"Will County","state_id":"IL"},{"zip":"60440","fips":"17043","name":"DuPage County","state_id":"IL"},{"zip":"60440","fips":"17197","name":"Will County","state_id":"IL"},{"zip":"60441","fips":"17197","name":"Will County","state_id":"IL"},{"zip":"60442","fips":"17197","name":"Will County","state_id":"IL"},{"zip":"60443","fips":"17031","name":"Cook County","state_id":"IL"},{"zip":"60444","fips":"17063","name":"Grundy County","state_id":"IL"},{"zip":"60445","fips":"17031","name":"Cook County","state_id":"IL"},{"zip":"60446","fips":"17197","name":"Will County","state_id":"IL"},{"zip":"60447","fips":"17197","name":"Will County","state_id":"IL"},{"zip":"60447","fips":"17093","name":"Kendall County","state_id":"IL"},{"zip":"60447","fips":"17063","name":"Grundy County","state_id":"IL"},{"zip":"60448","fips":"17197","name":"Will County","state_id":"IL"},{"zip":"60448","fips":"17031","name":"Cook County","state_id":"IL"},{"zip":"60449","fips":"17031","name":"Cook County","state_id":"IL"},{"zip":"60449","fips":"17197","name":"Will County","state_id":"IL"},{"zip":"60450","fips":"17063","name":"Grundy County","state_id":"IL"},{"zip":"60450","fips":"17093","name":"Kendall County","state_id":"IL"},{"zip":"60451","fips":"17197","name":"Will County","state_id":"IL"},{"zip":"60452","fips":"17031","name":"Cook County","state_id":"IL"},{"zip":"60453","fips":"17031","name":"Cook County","state_id":"IL"},{"zip":"60454","fips":"17031","name":"Cook County","state_id":"IL"},{"zip":"60455","fips":"17031","name":"Cook County","state_id":"IL"},{"zip":"60456","fips":"17031","name":"Cook County","state_id":"IL"},{"zip":"60457","fips":"17031","name":"Cook County","state_id":"IL"},{"zip":"60458","fips":"17031","name":"Cook County","state_id":"IL"},{"zip":"60459","fips":"17031","name":"Cook County","state_id":"IL"},{"zip":"60460","fips":"17105","name":"Livingston County","state_id":"IL"},{"zip":"60461","fips":"17031","name":"Cook County","state_id":"IL"},{"zip":"60462","fips":"17031","name":"Cook County","state_id":"IL"},{"zip":"60463","fips":"17031","name":"Cook County","state_id":"IL"},{"zip":"60464","fips":"17031","name":"Cook County","state_id":"IL"},{"zip":"60465","fips":"17031","name":"Cook County","state_id":"IL"},{"zip":"60466","fips":"17197","name":"Will County","state_id":"IL"},{"zip":"60466","fips":"17031","name":"Cook County","state_id":"IL"},{"zip":"60467","fips":"17031","name":"Cook County","state_id":"IL"},{"zip":"60467","fips":"17197","name":"Will County","state_id":"IL"},{"zip":"60468","fips":"17091","name":"Kankakee County","state_id":"IL"},{"zip":"60468","fips":"17197","name":"Will County","state_id":"IL"},{"zip":"60469","fips":"17031","name":"Cook County","state_id":"IL"},{"zip":"60470","fips":"17105","name":"Livingston County","state_id":"IL"},{"zip":"60470","fips":"17099","name":"LaSalle County","state_id":"IL"},{"zip":"60470","fips":"17063","name":"Grundy County","state_id":"IL"},{"zip":"60471","fips":"17031","name":"Cook County","state_id":"IL"},{"zip":"60471","fips":"17197","name":"Will County","state_id":"IL"},{"zip":"60472","fips":"17031","name":"Cook County","state_id":"IL"},{"zip":"60473","fips":"17031","name":"Cook County","state_id":"IL"},{"zip":"60474","fips":"17063","name":"Grundy County","state_id":"IL"},{"zip":"60475","fips":"17031","name":"Cook County","state_id":"IL"},{"zip":"60475","fips":"17197","name":"Will County","state_id":"IL"},{"zip":"60476","fips":"17031","name":"Cook County","state_id":"IL"},{"zip":"60477","fips":"17197","name":"Will County","state_id":"IL"},{"zip":"60477","fips":"17031","name":"Cook County","state_id":"IL"},{"zip":"60478","fips":"17031","name":"Cook County","state_id":"IL"},{"zip":"60479","fips":"17063","name":"Grundy County","state_id":"IL"},{"zip":"60480","fips":"17031","name":"Cook County","state_id":"IL"},{"zip":"60481","fips":"17063","name":"Grundy County","state_id":"IL"},{"zip":"60481","fips":"17091","name":"Kankakee County","state_id":"IL"},{"zip":"60481","fips":"17197","name":"Will County","state_id":"IL"},{"zip":"60482","fips":"17031","name":"Cook County","state_id":"IL"},{"zip":"60484","fips":"17197","name":"Will County","state_id":"IL"},{"zip":"60484","fips":"17031","name":"Cook County","state_id":"IL"},{"zip":"60487","fips":"17197","name":"Will County","state_id":"IL"},{"zip":"60487","fips":"17031","name":"Cook County","state_id":"IL"},{"zip":"60490","fips":"17197","name":"Will County","state_id":"IL"},{"zip":"60491","fips":"17031","name":"Cook County","state_id":"IL"},{"zip":"60491","fips":"17197","name":"Will County","state_id":"IL"},{"zip":"60499","fips":"17031","name":"Cook County","state_id":"IL"}]
