[{"zip":"60501","fips":"17031","name":"Cook County","state_id":"IL"},{"zip":"60502","fips":"17089","name":"Kane County","state_id":"IL"},{"zip":"60502","fips":"17043","name":"DuPage County","state_id":"IL"},{"zip":"60503","fips":"17197","name":"Will County","state_id":"IL"},{"zip":"60503","fips":"17093","name":"Kendall County","state_id":"IL"},{"zip":"60503","fips":"17089","name":"Kane County","state_id":"IL"},{"zip":"60504","fips":"17089","name":"Kane County","state_id":"IL"},{"zip":"60504","fips":"17093","name":"Kendall County","state_id":"IL"},{"zip":"60504","fips":"17043","name":"DuPage County","state_id":"IL"},{"zip":"60505","fips":"17089","name":"Kane County","state_id":"IL"},{"zip":"60506","fips":"17089","name":"Kane County","state_id":"IL"},{"zip":"60506","fips":"17093","name":"Kendall County","state_id":"IL"},{"zip":"60507","fips":"17089","name":"Kane County","state_id":"IL"},{"zip":"60510","fips":"17089","name":"Kane County","state_id":"IL"},{"zip":"60511","fips":"17089","name":"Kane County","state_id":"IL"},{"zip":"60511","fips":"17037","name":"DeKalb County","state_id":"IL"},{"zip":"60511","fips":"17093","name":"Kendall County","state_id":"IL"},{"zip":"60512","fips":"17093","name":"Kendall County","state_id":"IL"},{"zip":"60513","fips":"17031","name":"Cook County","state_id":"IL"},{"zip":"60514","fips":"17043","name":"DuPage County","state_id":"IL"},{"zip":"60515","fips":"17043","name":"DuPage County","state_id":"IL"},{"zip":"60516","fips":"17043","name":"DuPage County","state_id":"IL"},{"zip":"60517","fips":"17043","name":"DuPage County","state_id":"IL"},{"zip":"60517","fips":"17197","name":"Will County","state_id":"IL"},{"zip":"60518","fips":"17103","name":"Lee County","state_id":"IL"},{"zip":"60518","fips":"17037","name":"DeKalb County","state_id":"IL"},{"zip":"60518","fips":"17099","name":"LaSalle County","state_id":"IL"},{"zip":"60519","fips":"17043","name":"DuPage County","state_id":"IL"},{"zip":"60520","fips":"17037","name":"DeKalb County","state_id":"IL"},{"zip":"60520","fips":"17089","name":"Kane County","state_id":"IL"},{"zip":"60521","fips":"17031","name":"Cook County","state_id":"IL"},{"zip":"60521","fips":"17043","name":"DuPage County","state_id":"IL"},{"zip":"60522","fips":"17043","name":"DuPage County","state_id":"IL"},{"zip":"60523","fips":"17031","name":"Cook County","state_id":"IL"},{"zip":"60523","fips":"17043","name":"DuPage County","state_id":"IL"},{"zip":"60525","fips":"17031","name":"Cook County","state_id":"IL"},{"zip":"60526","fips":"17031","name":"Cook County","state_id":"IL"},{"zip":"60527","fips":"17043","name":"DuPage County","state_id":"IL"},{"zip":"60527","fips":"17031","name":"Cook County","state_id":"IL"},{"zip":"60530","fips":"17037","name":"DeKalb County","state_id":"IL"},{"zip":"60530","fips":"17103","name":"Lee County","state_id":"IL"},{"zip":"60531","fips":"17099","name":"LaSalle County","state_id":"IL"},{"zip":"60531","fips":"17037","name":"DeKalb County","state_id":"IL"},{"zip":"60532","fips":"17043","name":"DuPage County","state_id":"IL"},{"zip":"60534","fips":"17031","name":"Cook County","state_id":"IL"},{"zip":"60536","fips":"17093","name":"Kendall County","state_id":"IL"},{"zip":"60537","fips":"17099","name":"LaSalle County","state_id":"IL"},{"zip":"60537","fips":"17093","name":"Kendall County","state_id":"IL"},{"zip":"60538","fips":"17089","name":"Kane County","state_id":"IL"},{"zip":"60538","fips":"17093","name":"Kendall County","state_id":"IL"},{"zip":"60539","fips":"17089","name":"Kane County","state_id":"IL"},{"zip":"60540","fips":"17043","name":"DuPage County","state_id":"IL"},{"zip":"60541","fips":"17093","name":"Kendall County","state_id":"IL"},{"zip":"60541","fips":"17063","name":"Grundy County","state_id":"IL"},{"zip":"60541","fips":"17099","name":"LaSalle County","state_id":"IL"},{"zip":"60542","fips":"17089","name":"Kane County","state_id":"IL"},{"zip":"60543","fips":"17089","name":"Kane County","state_id":"IL"},{"zip":"60543","fips":"17197","name":"Will County","state_id":"IL"},{"zip":"60543","fips":"17093","name":"Kendall County","state_id":"IL"},{"zip":"60544","fips":"17197","name":"Will County","state_id":"IL"},{"zip":"60544","fips":"17093","name":"Kendall County","state_id":"IL"},{"zip":"60545","fips":"17089","name":"Kane County","state_id":"IL"},{"zip":"60545","fips":"17093","name":"Kendall County","state_id":"IL"},{"zip":"60546","fips":"17031","name":"Cook County","state_id":"IL"},{"zip":"60548","fips":"17099","name":"LaSalle County","state_id":"IL"},{"zip":"60548","fips":"17037","name":"DeKalb County","state_id":"IL"},{"zip":"60548","fips":"17093","name":"Kendall County","state_id":"IL"},{"zip":"60549","fips":"17099","name":"LaSalle County","state_id":"IL"},{"zip":"60550","fips":"17037","name":"DeKalb County","state_id":"IL"},{"zip":"60551","fips":"17099","name":"LaSalle County","state_id":"IL"},{"zip":"60551","fips":"17093","name":"Kendall County","state_id":"IL"},{"zip":"60552","fips":"17099","name":"LaSalle County","state_id":"IL"},{"zip":"60552","fips":"17037","name":"DeKalb County","state_id":"IL"},{"zip":"60553","fips":"17141","name":"Ogle County","state_id":"IL"},{"zip":"60553","fips":"17037","name":"DeKalb County","state_id":"IL"},{"zip":"60553","fips":"17103","name":"Lee County","state_id":"IL"},{"zip":"60554","fips":"17093","name":"Kendall County","state_id":"IL"},{"zip":"60554","fips":"17089","name":"Kane County","state_id":"IL"},{"zip":"60555","fips":"17043","name":"DuPage County","state_id":"IL"},{"zip":"60556","fips":"17037","name":"DeKalb County","state_id":"IL"},{"zip":"60557","fips":"17099","name":"LaSalle County","state_id":"IL"},{"zip":"60558","fips":"17031","name":"Cook County","state_id":"IL"},{"zip":"60559","fips":"17043","name":"DuPage County","state_id":"IL"},{"zip":"60560","fips":"17093","name":"Kendall County","state_id":"IL"},{"zip":"60561","fips":"17043","name":"DuPage County","state_id":"IL"},{"zip":"60563","fips":"17043","name":"DuPage County","state_id":"IL"},{"zip":"60564","fips":"17043","name":"DuPage County","state_id":"IL"},{"zip":"60564","fips":"17197","name":"Will County","state_id":"IL"},{"zip":"60565","fips":"17197","name":"Will County","state_id":"IL"},{"zip":"60565","fips":"17043","name":"DuPage County","state_id":"IL"},{"zip":"60566","fips":"17043","name":"DuPage County","state_id":"IL"},{"zip":"60567","fips":"17197","name":"Will County","state_id":"IL"},{"zip":"60567","fips":"17043","name":"DuPage County","state_id":"IL"},{"zip":"60569","fips":"17043","name":"DuPage County","state_id":"IL"},{"zip":"60585","fips":"17197","name":"Will County","state_id":"IL"},{"zip":"60585","fips":"17093","name":"Kendall County","state_id":"IL"},{"zip":"60586","fips":"17093","name":"Kendall County","state_id":"IL"},{"zip":"60586","fips":"17197","name":"Will County","state_id":"IL"},{"zip":"60598","fips":"17043","name":"DuPage County","state_id":"IL"},{"zip":"60599","fips":"17043","name":"DuPage County","state_id":"IL"}]
