[{"zip":"60901","fips":"17091","name":"Kankakee County","state_id":"IL"},{"zip":"60910","fips":"17091","name":"Kankakee County","state_id":"IL"},{"zip":"60911","fips":"17053","name":"Ford County","state_id":"IL"},{"zip":"60911","fips":"17075","name":"Iroquois County","state_id":"IL"},{"zip":"60912","fips":"17075","name":"Iroquois County","state_id":"IL"},{"zip":"60913","fips":"17091","name":"Kankakee County","state_id":"IL"},{"zip":"60914","fips":"17091","name":"Kankakee County","state_id":"IL"},{"zip":"60915","fips":"17091","name":"Kankakee County","state_id":"IL"},{"zip":"60917","fips":"17053","name":"Ford County","state_id":"IL"},{"zip":"60917","fips":"17105","name":"Livingston County","state_id":"IL"},{"zip":"60917","fips":"17091","name":"Kankakee County","state_id":"IL"},{"zip":"60918","fips":"17075","name":"Iroquois County","state_id":"IL"},{"zip":"60918","fips":"17053","name":"Ford County","state_id":"IL"},{"zip":"60919","fips":"17053","name":"Ford County","state_id":"IL"},{"zip":"60919","fips":"17091","name":"Kankakee County","state_id":"IL"},{"zip":"60919","fips":"17105","name":"Livingston County","state_id":"IL"},{"zip":"60920","fips":"17105","name":"Livingston County","state_id":"IL"},{"zip":"60921","fips":"17105","name":"Livingston County","state_id":"IL"},{"zip":"60921","fips":"17053","name":"Ford County","state_id":"IL"},{"zip":"60922","fips":"17091","name":"Kankakee County","state_id":"IL"},{"zip":"60922","fips":"17075","name":"Iroquois County","state_id":"IL"},{"zip":"60924","fips":"17075","name":"Iroquois County","state_id":"IL"},{"zip":"60926","fips":"17075","name":"Iroquois County","state_id":"IL"},{"zip":"60927","fips":"17053","name":"Ford County","state_id":"IL"},{"zip":"60927","fips":"17075","name":"Iroquois County","state_id":"IL"},{"zip":"60928","fips":"17075","name":"Iroquois County","state_id":"IL"},{"zip":"60929","fips":"17105","name":"Livingston County","state_id":"IL"},{"zip":"60929","fips":"17053","name":"Ford County","state_id":"IL"},{"zip":"60930","fips":"17075","name":"Iroquois County","state_id":"IL"},{"zip":"60931","fips":"17075","name":"Iroquois County","state_id":"IL"},{"zip":"60932","fips":"17183","name":"Vermilion County","state_id":"IL"},{"zip":"60933","fips":"17053","name":"Ford County","state_id":"IL"},{"zip":"60934","fips":"17105","name":"Livingston County","state_id":"IL"},{"zip":"60935","fips":"17091","name":"Kankakee County","state_id":"IL"},{"zip":"60935","fips":"17197","name":"Will County","state_id":"IL"},{"zip":"60936","fips":"17019","name":"Champaign County","state_id":"IL"},{"zip":"60936","fips":"17053","name":"Ford County","state_id":"IL"},{"zip":"60936","fips":"17113","name":"McLean County","state_id":"IL"},{"zip":"60938","fips":"17075","name":"Iroquois County","state_id":"IL"},{"zip":"60939","fips":"17075","name":"Iroquois County","state_id":"IL"},{"zip":"60940","fips":"17091","name":"Kankakee County","state_id":"IL"},{"zip":"60940","fips":"17197","name":"Will County","state_id":"IL"},{"zip":"60941","fips":"17091","name":"Kankakee County","state_id":"IL"},{"zip":"60941","fips":"17053","name":"Ford County","state_id":"IL"},{"zip":"60941","fips":"17075","name":"Iroquois County","state_id":"IL"},{"zip":"60942","fips":"17075","name":"Iroquois County","state_id":"IL"},{"zip":"60942","fips":"17183","name":"Vermilion County","state_id":"IL"},{"zip":"60944","fips":"17091","name":"Kankakee County","state_id":"IL"},{"zip":"60945","fips":"17075","name":"Iroquois County","state_id":"IL"},{"zip":"60946","fips":"17105","name":"Livingston County","state_id":"IL"},{"zip":"60946","fips":"17053","name":"Ford County","state_id":"IL"},{"zip":"60948","fips":"17075","name":"Iroquois County","state_id":"IL"},{"zip":"60948","fips":"17053","name":"Ford County","state_id":"IL"},{"zip":"60949","fips":"17019","name":"Champaign County","state_id":"IL"},{"zip":"60949","fips":"17053","name":"Ford County","state_id":"IL"},{"zip":"60950","fips":"17091","name":"Kankakee County","state_id":"IL"},{"zip":"60950","fips":"17197","name":"Will County","state_id":"IL"},{"zip":"60951","fips":"17075","name":"Iroquois County","state_id":"IL"},{"zip":"60952","fips":"17053","name":"Ford County","state_id":"IL"},{"zip":"60952","fips":"17105","name":"Livingston County","state_id":"IL"},{"zip":"60953","fips":"17075","name":"Iroquois County","state_id":"IL"},{"zip":"60954","fips":"17091","name":"Kankakee County","state_id":"IL"},{"zip":"60955","fips":"17053","name":"Ford County","state_id":"IL"},{"zip":"60955","fips":"17075","name":"Iroquois County","state_id":"IL"},{"zip":"60956","fips":"17075","name":"Iroquois County","state_id":"IL"},{"zip":"60957","fips":"17019","name":"Champaign County","state_id":"IL"},{"zip":"60957","fips":"17053","name":"Ford County","state_id":"IL"},{"zip":"60958","fips":"17091","name":"Kankakee County","state_id":"IL"},{"zip":"60959","fips":"17053","name":"Ford County","state_id":"IL"},{"zip":"60959","fips":"17105","name":"Livingston County","state_id":"IL"},{"zip":"60960","fips":"17075","name":"Iroquois County","state_id":"IL"},{"zip":"60960","fips":"17019","name":"Champaign County","state_id":"IL"},{"zip":"60960","fips":"17183","name":"Vermilion County","state_id":"IL"},{"zip":"60960","fips":"17053","name":"Ford County","state_id":"IL"},{"zip":"60961","fips":"17091","name":"Kankakee County","state_id":"IL"},{"zip":"60961","fips":"17063","name":"Grundy County","state_id":"IL"},{"zip":"60961","fips":"17105","name":"Livingston County","state_id":"IL"},{"zip":"60962","fips":"17105","name":"Livingston County","state_id":"IL"},{"zip":"60962","fips":"17053","name":"Ford County","state_id":"IL"},{"zip":"60963","fips":"17183","name":"Vermilion County","state_id":"IL"},{"zip":"60964","fips":"17075","name":"Iroquois County","state_id":"IL"},{"zip":"60964","fips":"17091","name":"Kankakee County","state_id":"IL"},{"zip":"60966","fips":"17075","name":"Iroquois County","state_id":"IL"},{"zip":"60967","fips":"17075","name":"Iroquois County","state_id":"IL"},{"zip":"60968","fips":"17053","name":"Ford County","state_id":"IL"},{"zip":"60968","fips":"17075","name":"Iroquois County","state_id":"IL"},{"zip":"60969","fips":"17091","name":"Kankakee County","state_id":"IL"},{"zip":"60970","fips":"17075","name":"Iroquois County","state_id":"IL"},{"zip":"60973","fips":"17075","name":"Iroquois County","state_id":"IL"},{"zip":"60974","fips":"17075","name":"Iroquois County","state_id":"IL"}]
