[{"zip":"61001","fips":"17085","name":"Jo Daviess County","state_id":"IL"},{"zip":"61006","fips":"17103","name":"Lee County","state_id":"IL"},{"zip":"61006","fips":"17141","name":"Ogle County","state_id":"IL"},{"zip":"61007","fips":"17177","name":"Stephenson County","state_id":"IL"},{"zip":"61007","fips":"17141","name":"Ogle County","state_id":"IL"},{"zip":"61008","fips":"17201","name":"Winnebago County","state_id":"IL"},{"zip":"61008","fips":"17007","name":"Boone County","state_id":"IL"},{"zip":"61010","fips":"17141","name":"Ogle County","state_id":"IL"},{"zip":"61011","fips":"17007","name":"Boone County","state_id":"IL"},{"zip":"61011","fips":"17201","name":"Winnebago County","state_id":"IL"},{"zip":"61012","fips":"17007","name":"Boone County","state_id":"IL"},{"zip":"61012","fips":"17111","name":"McHenry County","state_id":"IL"},{"zip":"61013","fips":"17177","name":"Stephenson County","state_id":"IL"},{"zip":"61014","fips":"17015","name":"Carroll County","state_id":"IL"},{"zip":"61014","fips":"17195","name":"Whiteside County","state_id":"IL"},{"zip":"61015","fips":"17141","name":"Ogle County","state_id":"IL"},{"zip":"61016","fips":"17007","name":"Boone County","state_id":"IL"},{"zip":"61016","fips":"17201","name":"Winnebago County","state_id":"IL"},{"zip":"61018","fips":"17177","name":"Stephenson County","state_id":"IL"},{"zip":"61019","fips":"17201","name":"Winnebago County","state_id":"IL"},{"zip":"61019","fips":"17177","name":"Stephenson County","state_id":"IL"},{"zip":"61020","fips":"17141","name":"Ogle County","state_id":"IL"},{"zip":"61020","fips":"17201","name":"Winnebago County","state_id":"IL"},{"zip":"61021","fips":"17103","name":"Lee County","state_id":"IL"},{"zip":"61021","fips":"17141","name":"Ogle County","state_id":"IL"},{"zip":"61024","fips":"17201","name":"Winnebago County","state_id":"IL"},{"zip":"61025","fips":"17085","name":"Jo Daviess County","state_id":"IL"},{"zip":"61027","fips":"17177","name":"Stephenson County","state_id":"IL"},{"zip":"61028","fips":"17085","name":"Jo Daviess County","state_id":"IL"},{"zip":"61028","fips":"17015","name":"Carroll County","state_id":"IL"},{"zip":"61030","fips":"17141","name":"Ogle County","state_id":"IL"},{"zip":"61031","fips":"17141","name":"Ogle County","state_id":"IL"},{"zip":"61031","fips":"17103","name":"Lee County","state_id":"IL"},{"zip":"61032","fips":"17177","name":"Stephenson County","state_id":"IL"},{"zip":"61036","fips":"17085","name":"Jo Daviess County","state_id":"IL"},{"zip":"61037","fips":"17195","name":"Whiteside County","state_id":"IL"},{"zip":"61038","fips":"17007","name":"Boone County","state_id":"IL"},{"zip":"61038","fips":"17111","name":"McHenry County","state_id":"IL"},{"zip":"61039","fips":"17201","name":"Winnebago County","state_id":"IL"},{"zip":"61039","fips":"17141","name":"Ogle County","state_id":"IL"},{"zip":"61039","fips":"17177","name":"Stephenson County","state_id":"IL"},{"zip":"61041","fips":"17085","name":"Jo Daviess County","state_id":"IL"},{"zip":"61042","fips":"17103","name":"Lee County","state_id":"IL"},{"zip":"61042","fips":"17195","name":"Whiteside County","state_id":"IL"},{"zip":"61043","fips":"17141","name":"Ogle County","state_id":"IL"},{"zip":"61044","fips":"17177","name":"Stephenson County","state_id":"IL"},{"zip":"61044","fips":"17085","name":"Jo Daviess County","state_id":"IL"},{"zip":"61046","fips":"17015","name":"Carroll County","state_id":"IL"},{"zip":"61047","fips":"17177","name":"Stephenson County","state_id":"IL"},{"zip":"61047","fips":"17201","name":"Winnebago County","state_id":"IL"},{"zip":"61047","fips":"17141","name":"Ogle County","state_id":"IL"},{"zip":"61048","fips":"17177","name":"Stephenson County","state_id":"IL"},{"zip":"61048","fips":"17085","name":"Jo Daviess County","state_id":"IL"},{"zip":"61049","fips":"17141","name":"Ogle County","state_id":"IL"},{"zip":"61050","fips":"17177","name":"Stephenson County","state_id":"IL"},{"zip":"61051","fips":"17015","name":"Carroll County","state_id":"IL"},{"zip":"61051","fips":"17195","name":"Whiteside County","state_id":"IL"},{"zip":"61051","fips":"17141","name":"Ogle County","state_id":"IL"},{"zip":"61052","fips":"17141","name":"Ogle County","state_id":"IL"},{"zip":"61052","fips":"17037","name":"DeKalb County","state_id":"IL"},{"zip":"61052","fips":"17201","name":"Winnebago County","state_id":"IL"},{"zip":"61053","fips":"17085","name":"Jo Daviess County","state_id":"IL"},{"zip":"61053","fips":"17015","name":"Carroll County","state_id":"IL"},{"zip":"61054","fips":"17141","name":"Ogle County","state_id":"IL"},{"zip":"61057","fips":"17103","name":"Lee County","state_id":"IL"},{"zip":"61059","fips":"17085","name":"Jo Daviess County","state_id":"IL"},{"zip":"61060","fips":"17177","name":"Stephenson County","state_id":"IL"},{"zip":"61061","fips":"17141","name":"Ogle County","state_id":"IL"},{"zip":"61062","fips":"17085","name":"Jo Daviess County","state_id":"IL"},{"zip":"61062","fips":"17015","name":"Carroll County","state_id":"IL"},{"zip":"61062","fips":"17177","name":"Stephenson County","state_id":"IL"},{"zip":"61063","fips":"17177","name":"Stephenson County","state_id":"IL"},{"zip":"61063","fips":"17201","name":"Winnebago County","state_id":"IL"},{"zip":"61064","fips":"17103","name":"Lee County","state_id":"IL"},{"zip":"61064","fips":"17141","name":"Ogle County","state_id":"IL"},{"zip":"61064","fips":"17195","name":"Whiteside County","state_id":"IL"},{"zip":"61064","fips":"17015","name":"Carroll County","state_id":"IL"},{"zip":"61065","fips":"17007","name":"Boone County","state_id":"IL"},{"zip":"61067","fips":"17177","name":"Stephenson County","state_id":"IL"},{"zip":"61068","fips":"17037","name":"DeKalb County","state_id":"IL"},{"zip":"61068","fips":"17141","name":"Ogle County","state_id":"IL"},{"zip":"61068","fips":"17103","name":"Lee County","state_id":"IL"},{"zip":"61070","fips":"17177","name":"Stephenson County","state_id":"IL"},{"zip":"61071","fips":"17103","name":"Lee County","state_id":"IL"},{"zip":"61071","fips":"17195","name":"Whiteside County","state_id":"IL"},{"zip":"61072","fips":"17201","name":"Winnebago County","state_id":"IL"},{"zip":"61073","fips":"17201","name":"Winnebago County","state_id":"IL"},{"zip":"61073","fips":"17007","name":"Boone County","state_id":"IL"},{"zip":"61074","fips":"17085","name":"Jo Daviess County","state_id":"IL"},{"zip":"61074","fips":"17015","name":"Carroll County","state_id":"IL"},{"zip":"61075","fips":"17085","name":"Jo Daviess County","state_id":"IL"},{"zip":"61077","fips":"17201","name":"Winnebago County","state_id":"IL"},{"zip":"61078","fips":"17141","name":"Ogle County","state_id":"IL"},{"zip":"61078","fips":"17177","name":"Stephenson County","state_id":"IL"},{"zip":"61078","fips":"17015","name":"Carroll County","state_id":"IL"},{"zip":"61079","fips":"17201","name":"Winnebago County","state_id":"IL"},{"zip":"61080","fips":"17007","name":"Boone County","state_id":"IL"},{"zip":"61080","fips":"17201","name":"Winnebago County","state_id":"IL"},{"zip":"61081","fips":"17103","name":"Lee County","state_id":"IL"},{"zip":"61081","fips":"17195","name":"Whiteside County","state_id":"IL"},{"zip":"61084","fips":"17201","name":"Winnebago County","state_id":"IL"},{"zip":"61084","fips":"17141","name":"Ogle County","state_id":"IL"},{"zip":"61085","fips":"17085","name":"Jo Daviess County","state_id":"IL"},{"zip":"61087","fips":"17177","name":"Stephenson County","state_id":"IL"},{"zip":"61087","fips":"17085","name":"Jo Daviess County","state_id":"IL"},{"zip":"61088","fips":"17141","name":"Ogle County","state_id":"IL"},{"zip":"61088","fips":"17201","name":"Winnebago County","state_id":"IL"},{"zip":"61089","fips":"17085","name":"Jo Daviess County","state_id":"IL"},{"zip":"61089","fips":"17177","name":"Stephenson County","state_id":"IL"},{"zip":"61091","fips":"17141","name":"Ogle County","state_id":"IL"}]
