[{"zip":"61201","fips":"17161","name":"Rock Island County","state_id":"IL"},{"zip":"61204","fips":"17161","name":"Rock Island County","state_id":"IL"},{"zip":"61230","fips":"17195","name":"Whiteside County","state_id":"IL"},{"zip":"61231","fips":"17131","name":"Mercer County","state_id":"IL"},{"zip":"61232","fips":"17161","name":"Rock Island County","state_id":"IL"},{"zip":"61233","fips":"17073","name":"Henry County","state_id":"IL"},{"zip":"61234","fips":"17011","name":"Bureau County","state_id":"IL"},{"zip":"61234","fips":"17073","name":"Henry County","state_id":"IL"},{"zip":"61235","fips":"17073","name":"Henry County","state_id":"IL"},{"zip":"61236","fips":"17161","name":"Rock Island County","state_id":"IL"},{"zip":"61237","fips":"17161","name":"Rock Island County","state_id":"IL"},{"zip":"61238","fips":"17073","name":"Henry County","state_id":"IL"},{"zip":"61239","fips":"17161","name":"Rock Island County","state_id":"IL"},{"zip":"61240","fips":"17073","name":"Henry County","state_id":"IL"},{"zip":"61240","fips":"17161","name":"Rock Island County","state_id":"IL"},{"zip":"61241","fips":"17073","name":"Henry County","state_id":"IL"},{"zip":"61242","fips":"17161","name":"Rock Island County","state_id":"IL"},{"zip":"61243","fips":"17011","name":"Bureau County","state_id":"IL"},{"zip":"61243","fips":"17103","name":"Lee County","state_id":"IL"},{"zip":"61243","fips":"17195","name":"Whiteside County","state_id":"IL"},{"zip":"61244","fips":"17161","name":"Rock Island County","state_id":"IL"},{"zip":"61250","fips":"17195","name":"Whiteside County","state_id":"IL"},{"zip":"61250","fips":"17073","name":"Henry County","state_id":"IL"},{"zip":"61251","fips":"17195","name":"Whiteside County","state_id":"IL"},{"zip":"61252","fips":"17015","name":"Carroll County","state_id":"IL"},{"zip":"61252","fips":"17195","name":"Whiteside County","state_id":"IL"},{"zip":"61254","fips":"17195","name":"Whiteside County","state_id":"IL"},{"zip":"61254","fips":"17073","name":"Henry County","state_id":"IL"},{"zip":"61256","fips":"17161","name":"Rock Island County","state_id":"IL"},{"zip":"61257","fips":"17161","name":"Rock Island County","state_id":"IL"},{"zip":"61258","fips":"17073","name":"Henry County","state_id":"IL"},{"zip":"61259","fips":"17131","name":"Mercer County","state_id":"IL"},{"zip":"61259","fips":"17161","name":"Rock Island County","state_id":"IL"},{"zip":"61260","fips":"17131","name":"Mercer County","state_id":"IL"},{"zip":"61260","fips":"17161","name":"Rock Island County","state_id":"IL"},{"zip":"61261","fips":"17195","name":"Whiteside County","state_id":"IL"},{"zip":"61262","fips":"17073","name":"Henry County","state_id":"IL"},{"zip":"61262","fips":"17131","name":"Mercer County","state_id":"IL"},{"zip":"61263","fips":"17131","name":"Mercer County","state_id":"IL"},{"zip":"61264","fips":"17131","name":"Mercer County","state_id":"IL"},{"zip":"61264","fips":"17161","name":"Rock Island County","state_id":"IL"},{"zip":"61265","fips":"17161","name":"Rock Island County","state_id":"IL"},{"zip":"61266","fips":"17161","name":"Rock Island County","state_id":"IL"},{"zip":"61270","fips":"17015","name":"Carroll County","state_id":"IL"},{"zip":"61270","fips":"17195","name":"Whiteside County","state_id":"IL"},{"zip":"61272","fips":"17131","name":"Mercer County","state_id":"IL"},{"zip":"61272","fips":"17161","name":"Rock Island County","state_id":"IL"},{"zip":"61273","fips":"17131","name":"Mercer County","state_id":"IL"},{"zip":"61273","fips":"17073","name":"Henry County","state_id":"IL"},{"zip":"61273","fips":"17161","name":"Rock Island County","state_id":"IL"},{"zip":"61274","fips":"17073","name":"Henry County","state_id":"IL"},{"zip":"61275","fips":"17161","name":"Rock Island County","state_id":"IL"},{"zip":"61276","fips":"17131","name":"Mercer County","state_id":"IL"},{"zip":"61277","fips":"17195","name":"Whiteside County","state_id":"IL"},{"zip":"61277","fips":"17073","name":"Henry County","state_id":"IL"},{"zip":"61278","fips":"17161","name":"Rock Island County","state_id":"IL"},{"zip":"61279","fips":"17131","name":"Mercer County","state_id":"IL"},{"zip":"61279","fips":"17161","name":"Rock Island County","state_id":"IL"},{"zip":"61281","fips":"17161","name":"Rock Island County","state_id":"IL"},{"zip":"61281","fips":"17131","name":"Mercer County","state_id":"IL"},{"zip":"61282","fips":"17161","name":"Rock Island County","state_id":"IL"},{"zip":"61283","fips":"17195","name":"Whiteside County","state_id":"IL"},{"zip":"61283","fips":"17011","name":"Bureau County","state_id":"IL"},{"zip":"61283","fips":"17073","name":"Henry County","state_id":"IL"},{"zip":"61284","fips":"17161","name":"Rock Island County","state_id":"IL"},{"zip":"61285","fips":"17015","name":"Carroll County","state_id":"IL"},{"zip":"61299","fips":"17161","name":"Rock Island County","state_id":"IL"}]
