[{"zip":"61301","fips":"17099","name":"LaSalle County","state_id":"IL"},{"zip":"61310","fips":"17103","name":"Lee County","state_id":"IL"},{"zip":"61311","fips":"17105","name":"Livingston County","state_id":"IL"},{"zip":"61311","fips":"17099","name":"LaSalle County","state_id":"IL"},{"zip":"61312","fips":"17011","name":"Bureau County","state_id":"IL"},{"zip":"61313","fips":"17105","name":"Livingston County","state_id":"IL"},{"zip":"61314","fips":"17011","name":"Bureau County","state_id":"IL"},{"zip":"61315","fips":"17011","name":"Bureau County","state_id":"IL"},{"zip":"61316","fips":"17099","name":"LaSalle County","state_id":"IL"},{"zip":"61317","fips":"17011","name":"Bureau County","state_id":"IL"},{"zip":"61318","fips":"17103","name":"Lee County","state_id":"IL"},{"zip":"61319","fips":"17105","name":"Livingston County","state_id":"IL"},{"zip":"61320","fips":"17099","name":"LaSalle County","state_id":"IL"},{"zip":"61320","fips":"17011","name":"Bureau County","state_id":"IL"},{"zip":"61321","fips":"17203","name":"Woodford County","state_id":"IL"},{"zip":"61321","fips":"17123","name":"Marshall County","state_id":"IL"},{"zip":"61321","fips":"17105","name":"Livingston County","state_id":"IL"},{"zip":"61321","fips":"17099","name":"LaSalle County","state_id":"IL"},{"zip":"61322","fips":"17011","name":"Bureau County","state_id":"IL"},{"zip":"61323","fips":"17011","name":"Bureau County","state_id":"IL"},{"zip":"61324","fips":"17103","name":"Lee County","state_id":"IL"},{"zip":"61325","fips":"17099","name":"LaSalle County","state_id":"IL"},{"zip":"61326","fips":"17155","name":"Putnam County","state_id":"IL"},{"zip":"61327","fips":"17155","name":"Putnam County","state_id":"IL"},{"zip":"61328","fips":"17011","name":"Bureau County","state_id":"IL"},{"zip":"61329","fips":"17011","name":"Bureau County","state_id":"IL"},{"zip":"61330","fips":"17103","name":"Lee County","state_id":"IL"},{"zip":"61330","fips":"17011","name":"Bureau County","state_id":"IL"},{"zip":"61331","fips":"17103","name":"Lee County","state_id":"IL"},{"zip":"61332","fips":"17099","name":"LaSalle County","state_id":"IL"},{"zip":"61333","fips":"17105","name":"Livingston County","state_id":"IL"},{"zip":"61333","fips":"17099","name":"LaSalle County","state_id":"IL"},{"zip":"61334","fips":"17123","name":"Marshall County","state_id":"IL"},{"zip":"61334","fips":"17155","name":"Putnam County","state_id":"IL"},{"zip":"61334","fips":"17099","name":"LaSalle County","state_id":"IL"},{"zip":"61335","fips":"17155","name":"Putnam County","state_id":"IL"},{"zip":"61336","fips":"17099","name":"LaSalle County","state_id":"IL"},{"zip":"61336","fips":"17123","name":"Marshall County","state_id":"IL"},{"zip":"61336","fips":"17155","name":"Putnam County","state_id":"IL"},{"zip":"61337","fips":"17011","name":"Bureau County","state_id":"IL"},{"zip":"61338","fips":"17011","name":"Bureau County","state_id":"IL"},{"zip":"61340","fips":"17155","name":"Putnam County","state_id":"IL"},{"zip":"61341","fips":"17099","name":"LaSalle County","state_id":"IL"},{"zip":"61342","fips":"17011","name":"Bureau County","state_id":"IL"},{"zip":"61342","fips":"17099","name":"LaSalle County","state_id":"IL"},{"zip":"61342","fips":"17103","name":"Lee County","state_id":"IL"},{"zip":"61344","fips":"17011","name":"Bureau County","state_id":"IL"},{"zip":"61344","fips":"17073","name":"Henry County","state_id":"IL"},{"zip":"61345","fips":"17011","name":"Bureau County","state_id":"IL"},{"zip":"61346","fips":"17011","name":"Bureau County","state_id":"IL"},{"zip":"61348","fips":"17099","name":"LaSalle County","state_id":"IL"},{"zip":"61349","fips":"17103","name":"Lee County","state_id":"IL"},{"zip":"61349","fips":"17011","name":"Bureau County","state_id":"IL"},{"zip":"61350","fips":"17099","name":"LaSalle County","state_id":"IL"},{"zip":"61353","fips":"17103","name":"Lee County","state_id":"IL"},{"zip":"61353","fips":"17037","name":"DeKalb County","state_id":"IL"},{"zip":"61354","fips":"17099","name":"LaSalle County","state_id":"IL"},{"zip":"61354","fips":"17155","name":"Putnam County","state_id":"IL"},{"zip":"61354","fips":"17011","name":"Bureau County","state_id":"IL"},{"zip":"61356","fips":"17011","name":"Bureau County","state_id":"IL"},{"zip":"61358","fips":"17123","name":"Marshall County","state_id":"IL"},{"zip":"61358","fips":"17099","name":"LaSalle County","state_id":"IL"},{"zip":"61359","fips":"17011","name":"Bureau County","state_id":"IL"},{"zip":"61360","fips":"17099","name":"LaSalle County","state_id":"IL"},{"zip":"61360","fips":"17063","name":"Grundy County","state_id":"IL"},{"zip":"61361","fips":"17073","name":"Henry County","state_id":"IL"},{"zip":"61361","fips":"17011","name":"Bureau County","state_id":"IL"},{"zip":"61362","fips":"17011","name":"Bureau County","state_id":"IL"},{"zip":"61363","fips":"17155","name":"Putnam County","state_id":"IL"},{"zip":"61364","fips":"17105","name":"Livingston County","state_id":"IL"},{"zip":"61364","fips":"17099","name":"LaSalle County","state_id":"IL"},{"zip":"61367","fips":"17103","name":"Lee County","state_id":"IL"},{"zip":"61368","fips":"17011","name":"Bureau County","state_id":"IL"},{"zip":"61369","fips":"17123","name":"Marshall County","state_id":"IL"},{"zip":"61370","fips":"17099","name":"LaSalle County","state_id":"IL"},{"zip":"61371","fips":"17099","name":"LaSalle County","state_id":"IL"},{"zip":"61372","fips":"17099","name":"LaSalle County","state_id":"IL"},{"zip":"61373","fips":"17099","name":"LaSalle County","state_id":"IL"},{"zip":"61374","fips":"17011","name":"Bureau County","state_id":"IL"},{"zip":"61375","fips":"17123","name":"Marshall County","state_id":"IL"},{"zip":"61376","fips":"17011","name":"Bureau County","state_id":"IL"},{"zip":"61376","fips":"17103","name":"Lee County","state_id":"IL"},{"zip":"61376","fips":"17195","name":"Whiteside County","state_id":"IL"},{"zip":"61377","fips":"17123","name":"Marshall County","state_id":"IL"},{"zip":"61377","fips":"17099","name":"LaSalle County","state_id":"IL"},{"zip":"61378","fips":"17103","name":"Lee County","state_id":"IL"},{"zip":"61379","fips":"17011","name":"Bureau County","state_id":"IL"}]
