[{"zip":"61401","fips":"17095","name":"Knox County","state_id":"IL"},{"zip":"61401","fips":"17187","name":"Warren County","state_id":"IL"},{"zip":"61401","fips":"17131","name":"Mercer County","state_id":"IL"},{"zip":"61402","fips":"17095","name":"Knox County","state_id":"IL"},{"zip":"61410","fips":"17187","name":"Warren County","state_id":"IL"},{"zip":"61410","fips":"17095","name":"Knox County","state_id":"IL"},{"zip":"61411","fips":"17109","name":"McDonough County","state_id":"IL"},{"zip":"61412","fips":"17131","name":"Mercer County","state_id":"IL"},{"zip":"61412","fips":"17095","name":"Knox County","state_id":"IL"},{"zip":"61412","fips":"17187","name":"Warren County","state_id":"IL"},{"zip":"61413","fips":"17073","name":"Henry County","state_id":"IL"},{"zip":"61413","fips":"17095","name":"Knox County","state_id":"IL"},{"zip":"61413","fips":"17131","name":"Mercer County","state_id":"IL"},{"zip":"61414","fips":"17073","name":"Henry County","state_id":"IL"},{"zip":"61414","fips":"17095","name":"Knox County","state_id":"IL"},{"zip":"61415","fips":"17057","name":"Fulton County","state_id":"IL"},{"zip":"61415","fips":"17109","name":"McDonough County","state_id":"IL"},{"zip":"61415","fips":"17187","name":"Warren County","state_id":"IL"},{"zip":"61416","fips":"17109","name":"McDonough County","state_id":"IL"},{"zip":"61417","fips":"17187","name":"Warren County","state_id":"IL"},{"zip":"61418","fips":"17187","name":"Warren County","state_id":"IL"},{"zip":"61418","fips":"17071","name":"Henderson County","state_id":"IL"},{"zip":"61419","fips":"17073","name":"Henry County","state_id":"IL"},{"zip":"61420","fips":"17109","name":"McDonough County","state_id":"IL"},{"zip":"61420","fips":"17067","name":"Hancock County","state_id":"IL"},{"zip":"61421","fips":"17175","name":"Stark County","state_id":"IL"},{"zip":"61421","fips":"17011","name":"Bureau County","state_id":"IL"},{"zip":"61421","fips":"17123","name":"Marshall County","state_id":"IL"},{"zip":"61422","fips":"17109","name":"McDonough County","state_id":"IL"},{"zip":"61423","fips":"17095","name":"Knox County","state_id":"IL"},{"zip":"61423","fips":"17187","name":"Warren County","state_id":"IL"},{"zip":"61424","fips":"17123","name":"Marshall County","state_id":"IL"},{"zip":"61425","fips":"17071","name":"Henderson County","state_id":"IL"},{"zip":"61426","fips":"17175","name":"Stark County","state_id":"IL"},{"zip":"61427","fips":"17057","name":"Fulton County","state_id":"IL"},{"zip":"61428","fips":"17095","name":"Knox County","state_id":"IL"},{"zip":"61430","fips":"17095","name":"Knox County","state_id":"IL"},{"zip":"61431","fips":"17057","name":"Fulton County","state_id":"IL"},{"zip":"61432","fips":"17057","name":"Fulton County","state_id":"IL"},{"zip":"61433","fips":"17057","name":"Fulton County","state_id":"IL"},{"zip":"61434","fips":"17175","name":"Stark County","state_id":"IL"},{"zip":"61434","fips":"17095","name":"Knox County","state_id":"IL"},{"zip":"61434","fips":"17073","name":"Henry County","state_id":"IL"},{"zip":"61435","fips":"17187","name":"Warren County","state_id":"IL"},{"zip":"61436","fips":"17095","name":"Knox County","state_id":"IL"},{"zip":"61437","fips":"17071","name":"Henderson County","state_id":"IL"},{"zip":"61438","fips":"17187","name":"Warren County","state_id":"IL"},{"zip":"61438","fips":"17109","name":"McDonough County","state_id":"IL"},{"zip":"61439","fips":"17095","name":"Knox County","state_id":"IL"},{"zip":"61440","fips":"17109","name":"McDonough County","state_id":"IL"},{"zip":"61440","fips":"17169","name":"Schuyler County","state_id":"IL"},{"zip":"61441","fips":"17057","name":"Fulton County","state_id":"IL"},{"zip":"61442","fips":"17131","name":"Mercer County","state_id":"IL"},{"zip":"61443","fips":"17175","name":"Stark County","state_id":"IL"},{"zip":"61443","fips":"17073","name":"Henry County","state_id":"IL"},{"zip":"61443","fips":"17011","name":"Bureau County","state_id":"IL"},{"zip":"61447","fips":"17187","name":"Warren County","state_id":"IL"},{"zip":"61448","fips":"17095","name":"Knox County","state_id":"IL"},{"zip":"61449","fips":"17175","name":"Stark County","state_id":"IL"},{"zip":"61449","fips":"17095","name":"Knox County","state_id":"IL"},{"zip":"61450","fips":"17071","name":"Henderson County","state_id":"IL"},{"zip":"61450","fips":"17109","name":"McDonough County","state_id":"IL"},{"zip":"61450","fips":"17067","name":"Hancock County","state_id":"IL"},{"zip":"61451","fips":"17143","name":"Peoria County","state_id":"IL"},{"zip":"61452","fips":"17109","name":"McDonough County","state_id":"IL"},{"zip":"61452","fips":"17169","name":"Schuyler County","state_id":"IL"},{"zip":"61453","fips":"17071","name":"Henderson County","state_id":"IL"},{"zip":"61453","fips":"17187","name":"Warren County","state_id":"IL"},{"zip":"61454","fips":"17071","name":"Henderson County","state_id":"IL"},{"zip":"61454","fips":"17067","name":"Hancock County","state_id":"IL"},{"zip":"61455","fips":"17109","name":"McDonough County","state_id":"IL"},{"zip":"61458","fips":"17095","name":"Knox County","state_id":"IL"},{"zip":"61459","fips":"17109","name":"McDonough County","state_id":"IL"},{"zip":"61459","fips":"17057","name":"Fulton County","state_id":"IL"},{"zip":"61460","fips":"17071","name":"Henderson County","state_id":"IL"},{"zip":"61460","fips":"17187","name":"Warren County","state_id":"IL"},{"zip":"61462","fips":"17187","name":"Warren County","state_id":"IL"},{"zip":"61465","fips":"17131","name":"Mercer County","state_id":"IL"},{"zip":"61465","fips":"17073","name":"Henry County","state_id":"IL"},{"zip":"61466","fips":"17131","name":"Mercer County","state_id":"IL"},{"zip":"61466","fips":"17095","name":"Knox County","state_id":"IL"},{"zip":"61466","fips":"17187","name":"Warren County","state_id":"IL"},{"zip":"61467","fips":"17095","name":"Knox County","state_id":"IL"},{"zip":"61468","fips":"17073","name":"Henry County","state_id":"IL"},{"zip":"61469","fips":"17071","name":"Henderson County","state_id":"IL"},{"zip":"61470","fips":"17109","name":"McDonough County","state_id":"IL"},{"zip":"61471","fips":"17071","name":"Henderson County","state_id":"IL"},{"zip":"61472","fips":"17095","name":"Knox County","state_id":"IL"},{"zip":"61472","fips":"17131","name":"Mercer County","state_id":"IL"},{"zip":"61473","fips":"17109","name":"McDonough County","state_id":"IL"},{"zip":"61473","fips":"17187","name":"Warren County","state_id":"IL"},{"zip":"61474","fips":"17057","name":"Fulton County","state_id":"IL"},{"zip":"61474","fips":"17095","name":"Knox County","state_id":"IL"},{"zip":"61474","fips":"17187","name":"Warren County","state_id":"IL"},{"zip":"61475","fips":"17187","name":"Warren County","state_id":"IL"},{"zip":"61475","fips":"17109","name":"McDonough County","state_id":"IL"},{"zip":"61476","fips":"17131","name":"Mercer County","state_id":"IL"},{"zip":"61476","fips":"17187","name":"Warren County","state_id":"IL"},{"zip":"61477","fips":"17057","name":"Fulton County","state_id":"IL"},{"zip":"61478","fips":"17187","name":"Warren County","state_id":"IL"},{"zip":"61479","fips":"17143","name":"Peoria County","state_id":"IL"},{"zip":"61479","fips":"17123","name":"Marshall County","state_id":"IL"},{"zip":"61479","fips":"17175","name":"Stark County","state_id":"IL"},{"zip":"61480","fips":"17071","name":"Henderson County","state_id":"IL"},{"zip":"61482","fips":"17057","name":"Fulton County","state_id":"IL"},{"zip":"61482","fips":"17109","name":"McDonough County","state_id":"IL"},{"zip":"61483","fips":"17175","name":"Stark County","state_id":"IL"},{"zip":"61484","fips":"17057","name":"Fulton County","state_id":"IL"},{"zip":"61484","fips":"17109","name":"McDonough County","state_id":"IL"},{"zip":"61484","fips":"17169","name":"Schuyler County","state_id":"IL"},{"zip":"61485","fips":"17095","name":"Knox County","state_id":"IL"},{"zip":"61486","fips":"17131","name":"Mercer County","state_id":"IL"},{"zip":"61488","fips":"17095","name":"Knox County","state_id":"IL"},{"zip":"61489","fips":"17143","name":"Peoria County","state_id":"IL"},{"zip":"61489","fips":"17095","name":"Knox County","state_id":"IL"},{"zip":"61490","fips":"17073","name":"Henry County","state_id":"IL"},{"zip":"61490","fips":"17095","name":"Knox County","state_id":"IL"},{"zip":"61491","fips":"17123","name":"Marshall County","state_id":"IL"},{"zip":"61491","fips":"17175","name":"Stark County","state_id":"IL"}]
