[{"zip":"61501","fips":"17169","name":"Schuyler County","state_id":"IL"},{"zip":"61501","fips":"17057","name":"Fulton County","state_id":"IL"},{"zip":"61516","fips":"17203","name":"Woodford County","state_id":"IL"},{"zip":"61517","fips":"17143","name":"Peoria County","state_id":"IL"},{"zip":"61519","fips":"17057","name":"Fulton County","state_id":"IL"},{"zip":"61520","fips":"17143","name":"Peoria County","state_id":"IL"},{"zip":"61520","fips":"17057","name":"Fulton County","state_id":"IL"},{"zip":"61523","fips":"17123","name":"Marshall County","state_id":"IL"},{"zip":"61523","fips":"17143","name":"Peoria County","state_id":"IL"},{"zip":"61524","fips":"17057","name":"Fulton County","state_id":"IL"},{"zip":"61525","fips":"17143","name":"Peoria County","state_id":"IL"},{"zip":"61526","fips":"17143","name":"Peoria County","state_id":"IL"},{"zip":"61526","fips":"17123","name":"Marshall County","state_id":"IL"},{"zip":"61528","fips":"17143","name":"Peoria County","state_id":"IL"},{"zip":"61529","fips":"17143","name":"Peoria County","state_id":"IL"},{"zip":"61529","fips":"17095","name":"Knox County","state_id":"IL"},{"zip":"61530","fips":"17203","name":"Woodford County","state_id":"IL"},{"zip":"61530","fips":"17179","name":"Tazewell County","state_id":"IL"},{"zip":"61531","fips":"17095","name":"Knox County","state_id":"IL"},{"zip":"61531","fips":"17143","name":"Peoria County","state_id":"IL"},{"zip":"61531","fips":"17057","name":"Fulton County","state_id":"IL"},{"zip":"61532","fips":"17125","name":"Mason County","state_id":"IL"},{"zip":"61533","fips":"17143","name":"Peoria County","state_id":"IL"},{"zip":"61533","fips":"17057","name":"Fulton County","state_id":"IL"},{"zip":"61534","fips":"17125","name":"Mason County","state_id":"IL"},{"zip":"61534","fips":"17179","name":"Tazewell County","state_id":"IL"},{"zip":"61535","fips":"17179","name":"Tazewell County","state_id":"IL"},{"zip":"61536","fips":"17143","name":"Peoria County","state_id":"IL"},{"zip":"61537","fips":"17123","name":"Marshall County","state_id":"IL"},{"zip":"61539","fips":"17143","name":"Peoria County","state_id":"IL"},{"zip":"61540","fips":"17123","name":"Marshall County","state_id":"IL"},{"zip":"61541","fips":"17123","name":"Marshall County","state_id":"IL"},{"zip":"61542","fips":"17057","name":"Fulton County","state_id":"IL"},{"zip":"61543","fips":"17057","name":"Fulton County","state_id":"IL"},{"zip":"61544","fips":"17057","name":"Fulton County","state_id":"IL"},{"zip":"61544","fips":"17095","name":"Knox County","state_id":"IL"},{"zip":"61545","fips":"17203","name":"Woodford County","state_id":"IL"},{"zip":"61546","fips":"17179","name":"Tazewell County","state_id":"IL"},{"zip":"61546","fips":"17125","name":"Mason County","state_id":"IL"},{"zip":"61547","fips":"17143","name":"Peoria County","state_id":"IL"},{"zip":"61548","fips":"17179","name":"Tazewell County","state_id":"IL"},{"zip":"61548","fips":"17203","name":"Woodford County","state_id":"IL"},{"zip":"61550","fips":"17179","name":"Tazewell County","state_id":"IL"},{"zip":"61552","fips":"17143","name":"Peoria County","state_id":"IL"},{"zip":"61553","fips":"17057","name":"Fulton County","state_id":"IL"},{"zip":"61554","fips":"17179","name":"Tazewell County","state_id":"IL"},{"zip":"61555","fips":"17179","name":"Tazewell County","state_id":"IL"},{"zip":"61558","fips":"17179","name":"Tazewell County","state_id":"IL"},{"zip":"61559","fips":"17143","name":"Peoria County","state_id":"IL"},{"zip":"61559","fips":"17175","name":"Stark County","state_id":"IL"},{"zip":"61560","fips":"17155","name":"Putnam County","state_id":"IL"},{"zip":"61560","fips":"17123","name":"Marshall County","state_id":"IL"},{"zip":"61560","fips":"17011","name":"Bureau County","state_id":"IL"},{"zip":"61561","fips":"17203","name":"Woodford County","state_id":"IL"},{"zip":"61562","fips":"17143","name":"Peoria County","state_id":"IL"},{"zip":"61563","fips":"17057","name":"Fulton County","state_id":"IL"},{"zip":"61564","fips":"17179","name":"Tazewell County","state_id":"IL"},{"zip":"61565","fips":"17143","name":"Peoria County","state_id":"IL"},{"zip":"61565","fips":"17123","name":"Marshall County","state_id":"IL"},{"zip":"61567","fips":"17125","name":"Mason County","state_id":"IL"},{"zip":"61568","fips":"17179","name":"Tazewell County","state_id":"IL"},{"zip":"61569","fips":"17143","name":"Peoria County","state_id":"IL"},{"zip":"61569","fips":"17057","name":"Fulton County","state_id":"IL"},{"zip":"61570","fips":"17203","name":"Woodford County","state_id":"IL"},{"zip":"61570","fips":"17123","name":"Marshall County","state_id":"IL"},{"zip":"61571","fips":"17203","name":"Woodford County","state_id":"IL"},{"zip":"61571","fips":"17179","name":"Tazewell County","state_id":"IL"},{"zip":"61572","fips":"17095","name":"Knox County","state_id":"IL"}]
