[{"zip":"61601","fips":"17143","name":"Peoria County","state_id":"IL"},{"zip":"61602","fips":"17143","name":"Peoria County","state_id":"IL"},{"zip":"61603","fips":"17143","name":"Peoria County","state_id":"IL"},{"zip":"61604","fips":"17143","name":"Peoria County","state_id":"IL"},{"zip":"61605","fips":"17143","name":"Peoria County","state_id":"IL"},{"zip":"61606","fips":"17143","name":"Peoria County","state_id":"IL"},{"zip":"61607","fips":"17143","name":"Peoria County","state_id":"IL"},{"zip":"61610","fips":"17179","name":"Tazewell County","state_id":"IL"},{"zip":"61611","fips":"17179","name":"Tazewell County","state_id":"IL"},{"zip":"61611","fips":"17203","name":"Woodford County","state_id":"IL"},{"zip":"61612","fips":"17143","name":"Peoria County","state_id":"IL"},{"zip":"61613","fips":"17143","name":"Peoria County","state_id":"IL"},{"zip":"61614","fips":"17143","name":"Peoria County","state_id":"IL"},{"zip":"61615","fips":"17143","name":"Peoria County","state_id":"IL"},{"zip":"61616","fips":"17143","name":"Peoria County","state_id":"IL"},{"zip":"61625","fips":"17143","name":"Peoria County","state_id":"IL"},{"zip":"61629","fips":"17143","name":"Peoria County","state_id":"IL"},{"zip":"61630","fips":"17143","name":"Peoria County","state_id":"IL"},{"zip":"61633","fips":"17143","name":"Peoria County","state_id":"IL"},{"zip":"61634","fips":"17143","name":"Peoria County","state_id":"IL"},{"zip":"61635","fips":"17179","name":"Tazewell County","state_id":"IL"},{"zip":"61636","fips":"17143","name":"Peoria County","state_id":"IL"},{"zip":"61637","fips":"17143","name":"Peoria County","state_id":"IL"},{"zip":"61638","fips":"17143","name":"Peoria County","state_id":"IL"},{"zip":"61639","fips":"17143","name":"Peoria County","state_id":"IL"},{"zip":"61641","fips":"17143","name":"Peoria County","state_id":"IL"},{"zip":"61643","fips":"17143","name":"Peoria County","state_id":"IL"},{"zip":"61651","fips":"17143","name":"Peoria County","state_id":"IL"},{"zip":"61652","fips":"17143","name":"Peoria County","state_id":"IL"},{"zip":"61653","fips":"17143","name":"Peoria County","state_id":"IL"},{"zip":"61654","fips":"17143","name":"Peoria County","state_id":"IL"},{"zip":"61655","fips":"17143","name":"Peoria County","state_id":"IL"},{"zip":"61656","fips":"17143","name":"Peoria County","state_id":"IL"}]
