[{"zip":"61701","fips":"17113","name":"McLean County","state_id":"IL"},{"zip":"61702","fips":"17113","name":"McLean County","state_id":"IL"},{"zip":"61704","fips":"17113","name":"McLean County","state_id":"IL"},{"zip":"61705","fips":"17113","name":"McLean County","state_id":"IL"},{"zip":"61709","fips":"17113","name":"McLean County","state_id":"IL"},{"zip":"61720","fips":"17113","name":"McLean County","state_id":"IL"},{"zip":"61720","fips":"17053","name":"Ford County","state_id":"IL"},{"zip":"61721","fips":"17179","name":"Tazewell County","state_id":"IL"},{"zip":"61721","fips":"17107","name":"Logan County","state_id":"IL"},{"zip":"61722","fips":"17113","name":"McLean County","state_id":"IL"},{"zip":"61723","fips":"17107","name":"Logan County","state_id":"IL"},{"zip":"61723","fips":"17113","name":"McLean County","state_id":"IL"},{"zip":"61724","fips":"17113","name":"McLean County","state_id":"IL"},{"zip":"61725","fips":"17203","name":"Woodford County","state_id":"IL"},{"zip":"61725","fips":"17113","name":"McLean County","state_id":"IL"},{"zip":"61726","fips":"17105","name":"Livingston County","state_id":"IL"},{"zip":"61726","fips":"17113","name":"McLean County","state_id":"IL"},{"zip":"61727","fips":"17039","name":"De Witt County","state_id":"IL"},{"zip":"61728","fips":"17105","name":"Livingston County","state_id":"IL"},{"zip":"61728","fips":"17113","name":"McLean County","state_id":"IL"},{"zip":"61729","fips":"17113","name":"McLean County","state_id":"IL"},{"zip":"61729","fips":"17203","name":"Woodford County","state_id":"IL"},{"zip":"61730","fips":"17113","name":"McLean County","state_id":"IL"},{"zip":"61731","fips":"17053","name":"Ford County","state_id":"IL"},{"zip":"61731","fips":"17105","name":"Livingston County","state_id":"IL"},{"zip":"61731","fips":"17113","name":"McLean County","state_id":"IL"},{"zip":"61732","fips":"17179","name":"Tazewell County","state_id":"IL"},{"zip":"61732","fips":"17113","name":"McLean County","state_id":"IL"},{"zip":"61732","fips":"17203","name":"Woodford County","state_id":"IL"},{"zip":"61733","fips":"17203","name":"Woodford County","state_id":"IL"},{"zip":"61733","fips":"17179","name":"Tazewell County","state_id":"IL"},{"zip":"61734","fips":"17179","name":"Tazewell County","state_id":"IL"},{"zip":"61735","fips":"17039","name":"De Witt County","state_id":"IL"},{"zip":"61736","fips":"17113","name":"McLean County","state_id":"IL"},{"zip":"61737","fips":"17113","name":"McLean County","state_id":"IL"},{"zip":"61738","fips":"17113","name":"McLean County","state_id":"IL"},{"zip":"61738","fips":"17203","name":"Woodford County","state_id":"IL"},{"zip":"61739","fips":"17113","name":"McLean County","state_id":"IL"},{"zip":"61739","fips":"17105","name":"Livingston County","state_id":"IL"},{"zip":"61740","fips":"17203","name":"Woodford County","state_id":"IL"},{"zip":"61740","fips":"17105","name":"Livingston County","state_id":"IL"},{"zip":"61741","fips":"17105","name":"Livingston County","state_id":"IL"},{"zip":"61742","fips":"17179","name":"Tazewell County","state_id":"IL"},{"zip":"61742","fips":"17203","name":"Woodford County","state_id":"IL"},{"zip":"61743","fips":"17105","name":"Livingston County","state_id":"IL"},{"zip":"61744","fips":"17105","name":"Livingston County","state_id":"IL"},{"zip":"61744","fips":"17113","name":"McLean County","state_id":"IL"},{"zip":"61744","fips":"17203","name":"Woodford County","state_id":"IL"},{"zip":"61745","fips":"17113","name":"McLean County","state_id":"IL"},{"zip":"61745","fips":"17039","name":"De Witt County","state_id":"IL"},{"zip":"61747","fips":"17179","name":"Tazewell County","state_id":"IL"},{"zip":"61748","fips":"17203","name":"Woodford County","state_id":"IL"},{"zip":"61748","fips":"17113","name":"McLean County","state_id":"IL"},{"zip":"61749","fips":"17039","name":"De Witt County","state_id":"IL"},{"zip":"61749","fips":"17107","name":"Logan County","state_id":"IL"},{"zip":"61749","fips":"17115","name":"Macon County","state_id":"IL"},{"zip":"61750","fips":"17039","name":"De Witt County","state_id":"IL"},{"zip":"61751","fips":"17107","name":"Logan County","state_id":"IL"},{"zip":"61752","fips":"17113","name":"McLean County","state_id":"IL"},{"zip":"61752","fips":"17039","name":"De Witt County","state_id":"IL"},{"zip":"61753","fips":"17113","name":"McLean County","state_id":"IL"},{"zip":"61754","fips":"17107","name":"Logan County","state_id":"IL"},{"zip":"61754","fips":"17039","name":"De Witt County","state_id":"IL"},{"zip":"61754","fips":"17113","name":"McLean County","state_id":"IL"},{"zip":"61755","fips":"17179","name":"Tazewell County","state_id":"IL"},{"zip":"61755","fips":"17113","name":"McLean County","state_id":"IL"},{"zip":"61756","fips":"17115","name":"Macon County","state_id":"IL"},{"zip":"61756","fips":"17039","name":"De Witt County","state_id":"IL"},{"zip":"61758","fips":"17113","name":"McLean County","state_id":"IL"},{"zip":"61759","fips":"17113","name":"McLean County","state_id":"IL"},{"zip":"61759","fips":"17179","name":"Tazewell County","state_id":"IL"},{"zip":"61760","fips":"17105","name":"Livingston County","state_id":"IL"},{"zip":"61760","fips":"17123","name":"Marshall County","state_id":"IL"},{"zip":"61760","fips":"17203","name":"Woodford County","state_id":"IL"},{"zip":"61761","fips":"17113","name":"McLean County","state_id":"IL"},{"zip":"61764","fips":"17105","name":"Livingston County","state_id":"IL"},{"zip":"61769","fips":"17105","name":"Livingston County","state_id":"IL"},{"zip":"61770","fips":"17113","name":"McLean County","state_id":"IL"},{"zip":"61771","fips":"17203","name":"Woodford County","state_id":"IL"},{"zip":"61772","fips":"17113","name":"McLean County","state_id":"IL"},{"zip":"61773","fips":"17053","name":"Ford County","state_id":"IL"},{"zip":"61774","fips":"17113","name":"McLean County","state_id":"IL"},{"zip":"61774","fips":"17179","name":"Tazewell County","state_id":"IL"},{"zip":"61775","fips":"17053","name":"Ford County","state_id":"IL"},{"zip":"61775","fips":"17105","name":"Livingston County","state_id":"IL"},{"zip":"61776","fips":"17113","name":"McLean County","state_id":"IL"},{"zip":"61777","fips":"17039","name":"De Witt County","state_id":"IL"},{"zip":"61778","fips":"17039","name":"De Witt County","state_id":"IL"},{"zip":"61790","fips":"17113","name":"McLean County","state_id":"IL"},{"zip":"61791","fips":"17113","name":"McLean County","state_id":"IL"},{"zip":"61799","fips":"17113","name":"McLean County","state_id":"IL"}]
