[{"zip":"61801","fips":"17019","name":"Champaign County","state_id":"IL"},{"zip":"61802","fips":"17019","name":"Champaign County","state_id":"IL"},{"zip":"61803","fips":"17019","name":"Champaign County","state_id":"IL"},{"zip":"61810","fips":"17019","name":"Champaign County","state_id":"IL"},{"zip":"61810","fips":"17045","name":"Edgar County","state_id":"IL"},{"zip":"61810","fips":"17183","name":"Vermilion County","state_id":"IL"},{"zip":"61811","fips":"17183","name":"Vermilion County","state_id":"IL"},{"zip":"61812","fips":"17183","name":"Vermilion County","state_id":"IL"},{"zip":"61813","fips":"17147","name":"Piatt County","state_id":"IL"},{"zip":"61814","fips":"17183","name":"Vermilion County","state_id":"IL"},{"zip":"61815","fips":"17019","name":"Champaign County","state_id":"IL"},{"zip":"61816","fips":"17019","name":"Champaign County","state_id":"IL"},{"zip":"61817","fips":"17183","name":"Vermilion County","state_id":"IL"},{"zip":"61818","fips":"17147","name":"Piatt County","state_id":"IL"},{"zip":"61818","fips":"17115","name":"Macon County","state_id":"IL"},{"zip":"61820","fips":"17019","name":"Champaign County","state_id":"IL"},{"zip":"61821","fips":"17019","name":"Champaign County","state_id":"IL"},{"zip":"61822","fips":"17019","name":"Champaign County","state_id":"IL"},{"zip":"61824","fips":"17019","name":"Champaign County","state_id":"IL"},{"zip":"61825","fips":"17019","name":"Champaign County","state_id":"IL"},{"zip":"61826","fips":"17019","name":"Champaign County","state_id":"IL"},{"zip":"61830","fips":"17147","name":"Piatt County","state_id":"IL"},{"zip":"61830","fips":"17115","name":"Macon County","state_id":"IL"},{"zip":"61831","fips":"17183","name":"Vermilion County","state_id":"IL"},{"zip":"61832","fips":"17183","name":"Vermilion County","state_id":"IL"},{"zip":"61833","fips":"17183","name":"Vermilion County","state_id":"IL"},{"zip":"61834","fips":"17183","name":"Vermilion County","state_id":"IL"},{"zip":"61839","fips":"17147","name":"Piatt County","state_id":"IL"},{"zip":"61839","fips":"17039","name":"De Witt County","state_id":"IL"},{"zip":"61840","fips":"17019","name":"Champaign County","state_id":"IL"},{"zip":"61840","fips":"17053","name":"Ford County","state_id":"IL"},{"zip":"61841","fips":"17183","name":"Vermilion County","state_id":"IL"},{"zip":"61842","fips":"17039","name":"De Witt County","state_id":"IL"},{"zip":"61842","fips":"17113","name":"McLean County","state_id":"IL"},{"zip":"61842","fips":"17147","name":"Piatt County","state_id":"IL"},{"zip":"61843","fips":"17019","name":"Champaign County","state_id":"IL"},{"zip":"61843","fips":"17113","name":"McLean County","state_id":"IL"},{"zip":"61844","fips":"17183","name":"Vermilion County","state_id":"IL"},{"zip":"61845","fips":"17019","name":"Champaign County","state_id":"IL"},{"zip":"61845","fips":"17113","name":"McLean County","state_id":"IL"},{"zip":"61845","fips":"17053","name":"Ford County","state_id":"IL"},{"zip":"61846","fips":"17183","name":"Vermilion County","state_id":"IL"},{"zip":"61847","fips":"17019","name":"Champaign County","state_id":"IL"},{"zip":"61848","fips":"17183","name":"Vermilion County","state_id":"IL"},{"zip":"61849","fips":"17019","name":"Champaign County","state_id":"IL"},{"zip":"61849","fips":"17183","name":"Vermilion County","state_id":"IL"},{"zip":"61850","fips":"17183","name":"Vermilion County","state_id":"IL"},{"zip":"61850","fips":"17045","name":"Edgar County","state_id":"IL"},{"zip":"61851","fips":"17041","name":"Douglas County","state_id":"IL"},{"zip":"61851","fips":"17147","name":"Piatt County","state_id":"IL"},{"zip":"61851","fips":"17019","name":"Champaign County","state_id":"IL"},{"zip":"61852","fips":"17041","name":"Douglas County","state_id":"IL"},{"zip":"61852","fips":"17019","name":"Champaign County","state_id":"IL"},{"zip":"61853","fips":"17019","name":"Champaign County","state_id":"IL"},{"zip":"61853","fips":"17147","name":"Piatt County","state_id":"IL"},{"zip":"61854","fips":"17019","name":"Champaign County","state_id":"IL"},{"zip":"61854","fips":"17113","name":"McLean County","state_id":"IL"},{"zip":"61854","fips":"17147","name":"Piatt County","state_id":"IL"},{"zip":"61855","fips":"17147","name":"Piatt County","state_id":"IL"},{"zip":"61856","fips":"17019","name":"Champaign County","state_id":"IL"},{"zip":"61856","fips":"17147","name":"Piatt County","state_id":"IL"},{"zip":"61857","fips":"17183","name":"Vermilion County","state_id":"IL"},{"zip":"61858","fips":"17183","name":"Vermilion County","state_id":"IL"},{"zip":"61859","fips":"17019","name":"Champaign County","state_id":"IL"},{"zip":"61859","fips":"17183","name":"Vermilion County","state_id":"IL"},{"zip":"61862","fips":"17183","name":"Vermilion County","state_id":"IL"},{"zip":"61862","fips":"17019","name":"Champaign County","state_id":"IL"},{"zip":"61863","fips":"17041","name":"Douglas County","state_id":"IL"},{"zip":"61863","fips":"17019","name":"Champaign County","state_id":"IL"},{"zip":"61864","fips":"17019","name":"Champaign County","state_id":"IL"},{"zip":"61865","fips":"17183","name":"Vermilion County","state_id":"IL"},{"zip":"61866","fips":"17019","name":"Champaign County","state_id":"IL"},{"zip":"61870","fips":"17045","name":"Edgar County","state_id":"IL"},{"zip":"61870","fips":"17183","name":"Vermilion County","state_id":"IL"},{"zip":"61871","fips":"17019","name":"Champaign County","state_id":"IL"},{"zip":"61872","fips":"17041","name":"Douglas County","state_id":"IL"},{"zip":"61872","fips":"17019","name":"Champaign County","state_id":"IL"},{"zip":"61873","fips":"17019","name":"Champaign County","state_id":"IL"},{"zip":"61874","fips":"17019","name":"Champaign County","state_id":"IL"},{"zip":"61875","fips":"17019","name":"Champaign County","state_id":"IL"},{"zip":"61875","fips":"17147","name":"Piatt County","state_id":"IL"},{"zip":"61876","fips":"17183","name":"Vermilion County","state_id":"IL"},{"zip":"61876","fips":"17045","name":"Edgar County","state_id":"IL"},{"zip":"61877","fips":"17019","name":"Champaign County","state_id":"IL"},{"zip":"61878","fips":"17019","name":"Champaign County","state_id":"IL"},{"zip":"61880","fips":"17019","name":"Champaign County","state_id":"IL"},{"zip":"61882","fips":"17147","name":"Piatt County","state_id":"IL"},{"zip":"61882","fips":"17115","name":"Macon County","state_id":"IL"},{"zip":"61882","fips":"17039","name":"De Witt County","state_id":"IL"},{"zip":"61883","fips":"17183","name":"Vermilion County","state_id":"IL"},{"zip":"61884","fips":"17147","name":"Piatt County","state_id":"IL"},{"zip":"61884","fips":"17019","name":"Champaign County","state_id":"IL"}]
