[{"zip":"61910","fips":"17029","name":"Coles County","state_id":"IL"},{"zip":"61910","fips":"17041","name":"Douglas County","state_id":"IL"},{"zip":"61911","fips":"17139","name":"Moultrie County","state_id":"IL"},{"zip":"61911","fips":"17041","name":"Douglas County","state_id":"IL"},{"zip":"61911","fips":"17029","name":"Coles County","state_id":"IL"},{"zip":"61912","fips":"17023","name":"Clark County","state_id":"IL"},{"zip":"61912","fips":"17029","name":"Coles County","state_id":"IL"},{"zip":"61913","fips":"17139","name":"Moultrie County","state_id":"IL"},{"zip":"61913","fips":"17147","name":"Piatt County","state_id":"IL"},{"zip":"61913","fips":"17019","name":"Champaign County","state_id":"IL"},{"zip":"61913","fips":"17041","name":"Douglas County","state_id":"IL"},{"zip":"61914","fips":"17173","name":"Shelby County","state_id":"IL"},{"zip":"61914","fips":"17139","name":"Moultrie County","state_id":"IL"},{"zip":"61914","fips":"17115","name":"Macon County","state_id":"IL"},{"zip":"61917","fips":"17045","name":"Edgar County","state_id":"IL"},{"zip":"61917","fips":"17041","name":"Douglas County","state_id":"IL"},{"zip":"61919","fips":"17041","name":"Douglas County","state_id":"IL"},{"zip":"61920","fips":"17035","name":"Cumberland County","state_id":"IL"},{"zip":"61920","fips":"17029","name":"Coles County","state_id":"IL"},{"zip":"61924","fips":"17045","name":"Edgar County","state_id":"IL"},{"zip":"61925","fips":"17139","name":"Moultrie County","state_id":"IL"},{"zip":"61925","fips":"17115","name":"Macon County","state_id":"IL"},{"zip":"61928","fips":"17139","name":"Moultrie County","state_id":"IL"},{"zip":"61928","fips":"17173","name":"Shelby County","state_id":"IL"},{"zip":"61928","fips":"17029","name":"Coles County","state_id":"IL"},{"zip":"61929","fips":"17147","name":"Piatt County","state_id":"IL"},{"zip":"61929","fips":"17139","name":"Moultrie County","state_id":"IL"},{"zip":"61930","fips":"17041","name":"Douglas County","state_id":"IL"},{"zip":"61930","fips":"17029","name":"Coles County","state_id":"IL"},{"zip":"61931","fips":"17029","name":"Coles County","state_id":"IL"},{"zip":"61932","fips":"17045","name":"Edgar County","state_id":"IL"},{"zip":"61933","fips":"17023","name":"Clark County","state_id":"IL"},{"zip":"61933","fips":"17045","name":"Edgar County","state_id":"IL"},{"zip":"61933","fips":"17029","name":"Coles County","state_id":"IL"},{"zip":"61936","fips":"17147","name":"Piatt County","state_id":"IL"},{"zip":"61937","fips":"17139","name":"Moultrie County","state_id":"IL"},{"zip":"61937","fips":"17147","name":"Piatt County","state_id":"IL"},{"zip":"61937","fips":"17115","name":"Macon County","state_id":"IL"},{"zip":"61938","fips":"17029","name":"Coles County","state_id":"IL"},{"zip":"61938","fips":"17035","name":"Cumberland County","state_id":"IL"},{"zip":"61940","fips":"17045","name":"Edgar County","state_id":"IL"},{"zip":"61941","fips":"17041","name":"Douglas County","state_id":"IL"},{"zip":"61942","fips":"17041","name":"Douglas County","state_id":"IL"},{"zip":"61942","fips":"17045","name":"Edgar County","state_id":"IL"},{"zip":"61943","fips":"17045","name":"Edgar County","state_id":"IL"},{"zip":"61943","fips":"17029","name":"Coles County","state_id":"IL"},{"zip":"61943","fips":"17041","name":"Douglas County","state_id":"IL"},{"zip":"61944","fips":"17045","name":"Edgar County","state_id":"IL"},{"zip":"61944","fips":"17023","name":"Clark County","state_id":"IL"},{"zip":"61949","fips":"17045","name":"Edgar County","state_id":"IL"},{"zip":"61951","fips":"17139","name":"Moultrie County","state_id":"IL"},{"zip":"61951","fips":"17029","name":"Coles County","state_id":"IL"},{"zip":"61951","fips":"17173","name":"Shelby County","state_id":"IL"},{"zip":"61953","fips":"17041","name":"Douglas County","state_id":"IL"},{"zip":"61953","fips":"17019","name":"Champaign County","state_id":"IL"},{"zip":"61955","fips":"17045","name":"Edgar County","state_id":"IL"},{"zip":"61956","fips":"17019","name":"Champaign County","state_id":"IL"},{"zip":"61956","fips":"17041","name":"Douglas County","state_id":"IL"},{"zip":"61957","fips":"17139","name":"Moultrie County","state_id":"IL"},{"zip":"61957","fips":"17173","name":"Shelby County","state_id":"IL"}]
