[{"zip":"62001","fips":"17119","name":"Madison County","state_id":"IL"},{"zip":"62002","fips":"17119","name":"Madison County","state_id":"IL"},{"zip":"62002","fips":"17117","name":"Macoupin County","state_id":"IL"},{"zip":"62006","fips":"17013","name":"Calhoun County","state_id":"IL"},{"zip":"62009","fips":"17117","name":"Macoupin County","state_id":"IL"},{"zip":"62010","fips":"17119","name":"Madison County","state_id":"IL"},{"zip":"62011","fips":"17051","name":"Fayette County","state_id":"IL"},{"zip":"62012","fips":"17117","name":"Macoupin County","state_id":"IL"},{"zip":"62012","fips":"17119","name":"Madison County","state_id":"IL"},{"zip":"62012","fips":"17083","name":"Jersey County","state_id":"IL"},{"zip":"62013","fips":"17013","name":"Calhoun County","state_id":"IL"},{"zip":"62014","fips":"17117","name":"Macoupin County","state_id":"IL"},{"zip":"62015","fips":"17135","name":"Montgomery County","state_id":"IL"},{"zip":"62016","fips":"17061","name":"Greene County","state_id":"IL"},{"zip":"62017","fips":"17005","name":"Bond County","state_id":"IL"},{"zip":"62017","fips":"17135","name":"Montgomery County","state_id":"IL"},{"zip":"62018","fips":"17119","name":"Madison County","state_id":"IL"},{"zip":"62019","fips":"17005","name":"Bond County","state_id":"IL"},{"zip":"62019","fips":"17135","name":"Montgomery County","state_id":"IL"},{"zip":"62021","fips":"17119","name":"Madison County","state_id":"IL"},{"zip":"62021","fips":"17117","name":"Macoupin County","state_id":"IL"},{"zip":"62022","fips":"17083","name":"Jersey County","state_id":"IL"},{"zip":"62023","fips":"17117","name":"Macoupin County","state_id":"IL"},{"zip":"62024","fips":"17119","name":"Madison County","state_id":"IL"},{"zip":"62025","fips":"17119","name":"Madison County","state_id":"IL"},{"zip":"62026","fips":"17119","name":"Madison County","state_id":"IL"},{"zip":"62027","fips":"17061","name":"Greene County","state_id":"IL"},{"zip":"62028","fips":"17083","name":"Jersey County","state_id":"IL"},{"zip":"62030","fips":"17083","name":"Jersey County","state_id":"IL"},{"zip":"62031","fips":"17083","name":"Jersey County","state_id":"IL"},{"zip":"62032","fips":"17135","name":"Montgomery County","state_id":"IL"},{"zip":"62033","fips":"17117","name":"Macoupin County","state_id":"IL"},{"zip":"62034","fips":"17119","name":"Madison County","state_id":"IL"},{"zip":"62035","fips":"17083","name":"Jersey County","state_id":"IL"},{"zip":"62035","fips":"17119","name":"Madison County","state_id":"IL"},{"zip":"62036","fips":"17013","name":"Calhoun County","state_id":"IL"},{"zip":"62037","fips":"17083","name":"Jersey County","state_id":"IL"},{"zip":"62040","fips":"17119","name":"Madison County","state_id":"IL"},{"zip":"62044","fips":"17117","name":"Macoupin County","state_id":"IL"},{"zip":"62044","fips":"17061","name":"Greene County","state_id":"IL"},{"zip":"62045","fips":"17013","name":"Calhoun County","state_id":"IL"},{"zip":"62046","fips":"17119","name":"Madison County","state_id":"IL"},{"zip":"62047","fips":"17013","name":"Calhoun County","state_id":"IL"},{"zip":"62048","fips":"17119","name":"Madison County","state_id":"IL"},{"zip":"62049","fips":"17135","name":"Montgomery County","state_id":"IL"},{"zip":"62050","fips":"17061","name":"Greene County","state_id":"IL"},{"zip":"62051","fips":"17135","name":"Montgomery County","state_id":"IL"},{"zip":"62052","fips":"17083","name":"Jersey County","state_id":"IL"},{"zip":"62053","fips":"17013","name":"Calhoun County","state_id":"IL"},{"zip":"62054","fips":"17061","name":"Greene County","state_id":"IL"},{"zip":"62054","fips":"17083","name":"Jersey County","state_id":"IL"},{"zip":"62056","fips":"17117","name":"Macoupin County","state_id":"IL"},{"zip":"62056","fips":"17135","name":"Montgomery County","state_id":"IL"},{"zip":"62058","fips":"17119","name":"Madison County","state_id":"IL"},{"zip":"62059","fips":"17163","name":"St. Clair County","state_id":"IL"},{"zip":"62060","fips":"17163","name":"St. Clair County","state_id":"IL"},{"zip":"62060","fips":"17119","name":"Madison County","state_id":"IL"},{"zip":"62061","fips":"17119","name":"Madison County","state_id":"IL"},{"zip":"62062","fips":"17119","name":"Madison County","state_id":"IL"},{"zip":"62063","fips":"17083","name":"Jersey County","state_id":"IL"},{"zip":"62063","fips":"17117","name":"Macoupin County","state_id":"IL"},{"zip":"62065","fips":"17013","name":"Calhoun County","state_id":"IL"},{"zip":"62065","fips":"17083","name":"Jersey County","state_id":"IL"},{"zip":"62067","fips":"17119","name":"Madison County","state_id":"IL"},{"zip":"62069","fips":"17135","name":"Montgomery County","state_id":"IL"},{"zip":"62069","fips":"17117","name":"Macoupin County","state_id":"IL"},{"zip":"62070","fips":"17013","name":"Calhoun County","state_id":"IL"},{"zip":"62071","fips":"17163","name":"St. Clair County","state_id":"IL"},{"zip":"62074","fips":"17005","name":"Bond County","state_id":"IL"},{"zip":"62074","fips":"17135","name":"Montgomery County","state_id":"IL"},{"zip":"62074","fips":"17117","name":"Macoupin County","state_id":"IL"},{"zip":"62074","fips":"17119","name":"Madison County","state_id":"IL"},{"zip":"62075","fips":"17135","name":"Montgomery County","state_id":"IL"},{"zip":"62075","fips":"17021","name":"Christian County","state_id":"IL"},{"zip":"62076","fips":"17135","name":"Montgomery County","state_id":"IL"},{"zip":"62077","fips":"17135","name":"Montgomery County","state_id":"IL"},{"zip":"62078","fips":"17061","name":"Greene County","state_id":"IL"},{"zip":"62079","fips":"17083","name":"Jersey County","state_id":"IL"},{"zip":"62079","fips":"17117","name":"Macoupin County","state_id":"IL"},{"zip":"62080","fips":"17135","name":"Montgomery County","state_id":"IL"},{"zip":"62080","fips":"17051","name":"Fayette County","state_id":"IL"},{"zip":"62081","fips":"17117","name":"Macoupin County","state_id":"IL"},{"zip":"62081","fips":"17061","name":"Greene County","state_id":"IL"},{"zip":"62082","fips":"17061","name":"Greene County","state_id":"IL"},{"zip":"62082","fips":"17171","name":"Scott County","state_id":"IL"},{"zip":"62082","fips":"17137","name":"Morgan County","state_id":"IL"},{"zip":"62082","fips":"17117","name":"Macoupin County","state_id":"IL"},{"zip":"62083","fips":"17021","name":"Christian County","state_id":"IL"},{"zip":"62083","fips":"17135","name":"Montgomery County","state_id":"IL"},{"zip":"62084","fips":"17119","name":"Madison County","state_id":"IL"},{"zip":"62085","fips":"17117","name":"Macoupin County","state_id":"IL"},{"zip":"62086","fips":"17135","name":"Montgomery County","state_id":"IL"},{"zip":"62086","fips":"17005","name":"Bond County","state_id":"IL"},{"zip":"62086","fips":"17119","name":"Madison County","state_id":"IL"},{"zip":"62087","fips":"17119","name":"Madison County","state_id":"IL"},{"zip":"62088","fips":"17119","name":"Madison County","state_id":"IL"},{"zip":"62088","fips":"17117","name":"Macoupin County","state_id":"IL"},{"zip":"62089","fips":"17135","name":"Montgomery County","state_id":"IL"},{"zip":"62090","fips":"17119","name":"Madison County","state_id":"IL"},{"zip":"62091","fips":"17135","name":"Montgomery County","state_id":"IL"},{"zip":"62091","fips":"17117","name":"Macoupin County","state_id":"IL"},{"zip":"62092","fips":"17061","name":"Greene County","state_id":"IL"},{"zip":"62093","fips":"17117","name":"Macoupin County","state_id":"IL"},{"zip":"62094","fips":"17135","name":"Montgomery County","state_id":"IL"},{"zip":"62095","fips":"17119","name":"Madison County","state_id":"IL"},{"zip":"62097","fips":"17119","name":"Madison County","state_id":"IL"},{"zip":"62098","fips":"17061","name":"Greene County","state_id":"IL"}]
