[{"zip":"62201","fips":"17163","name":"St. Clair County","state_id":"IL"},{"zip":"62201","fips":"17119","name":"Madison County","state_id":"IL"},{"zip":"62202","fips":"17163","name":"St. Clair County","state_id":"IL"},{"zip":"62203","fips":"17163","name":"St. Clair County","state_id":"IL"},{"zip":"62204","fips":"17163","name":"St. Clair County","state_id":"IL"},{"zip":"62205","fips":"17163","name":"St. Clair County","state_id":"IL"},{"zip":"62206","fips":"17163","name":"St. Clair County","state_id":"IL"},{"zip":"62207","fips":"17163","name":"St. Clair County","state_id":"IL"},{"zip":"62208","fips":"17163","name":"St. Clair County","state_id":"IL"},{"zip":"62214","fips":"17189","name":"Washington County","state_id":"IL"},{"zip":"62215","fips":"17027","name":"Clinton County","state_id":"IL"},{"zip":"62215","fips":"17163","name":"St. Clair County","state_id":"IL"},{"zip":"62216","fips":"17119","name":"Madison County","state_id":"IL"},{"zip":"62216","fips":"17027","name":"Clinton County","state_id":"IL"},{"zip":"62217","fips":"17157","name":"Randolph County","state_id":"IL"},{"zip":"62218","fips":"17027","name":"Clinton County","state_id":"IL"},{"zip":"62219","fips":"17027","name":"Clinton County","state_id":"IL"},{"zip":"62220","fips":"17163","name":"St. Clair County","state_id":"IL"},{"zip":"62221","fips":"17163","name":"St. Clair County","state_id":"IL"},{"zip":"62222","fips":"17163","name":"St. Clair County","state_id":"IL"},{"zip":"62223","fips":"17163","name":"St. Clair County","state_id":"IL"},{"zip":"62225","fips":"17163","name":"St. Clair County","state_id":"IL"},{"zip":"62226","fips":"17163","name":"St. Clair County","state_id":"IL"},{"zip":"62230","fips":"17027","name":"Clinton County","state_id":"IL"},{"zip":"62231","fips":"17005","name":"Bond County","state_id":"IL"},{"zip":"62231","fips":"17027","name":"Clinton County","state_id":"IL"},{"zip":"62232","fips":"17163","name":"St. Clair County","state_id":"IL"},{"zip":"62233","fips":"17157","name":"Randolph County","state_id":"IL"},{"zip":"62234","fips":"17163","name":"St. Clair County","state_id":"IL"},{"zip":"62234","fips":"17119","name":"Madison County","state_id":"IL"},{"zip":"62236","fips":"17163","name":"St. Clair County","state_id":"IL"},{"zip":"62236","fips":"17133","name":"Monroe County","state_id":"IL"},{"zip":"62237","fips":"17145","name":"Perry County","state_id":"IL"},{"zip":"62237","fips":"17189","name":"Washington County","state_id":"IL"},{"zip":"62237","fips":"17157","name":"Randolph County","state_id":"IL"},{"zip":"62238","fips":"17145","name":"Perry County","state_id":"IL"},{"zip":"62238","fips":"17157","name":"Randolph County","state_id":"IL"},{"zip":"62239","fips":"17163","name":"St. Clair County","state_id":"IL"},{"zip":"62240","fips":"17133","name":"Monroe County","state_id":"IL"},{"zip":"62240","fips":"17163","name":"St. Clair County","state_id":"IL"},{"zip":"62241","fips":"17157","name":"Randolph County","state_id":"IL"},{"zip":"62242","fips":"17157","name":"Randolph County","state_id":"IL"},{"zip":"62243","fips":"17163","name":"St. Clair County","state_id":"IL"},{"zip":"62244","fips":"17133","name":"Monroe County","state_id":"IL"},{"zip":"62245","fips":"17027","name":"Clinton County","state_id":"IL"},{"zip":"62246","fips":"17005","name":"Bond County","state_id":"IL"},{"zip":"62246","fips":"17027","name":"Clinton County","state_id":"IL"},{"zip":"62248","fips":"17133","name":"Monroe County","state_id":"IL"},{"zip":"62249","fips":"17119","name":"Madison County","state_id":"IL"},{"zip":"62249","fips":"17027","name":"Clinton County","state_id":"IL"},{"zip":"62249","fips":"17005","name":"Bond County","state_id":"IL"},{"zip":"62250","fips":"17027","name":"Clinton County","state_id":"IL"},{"zip":"62250","fips":"17121","name":"Marion County","state_id":"IL"},{"zip":"62252","fips":"17027","name":"Clinton County","state_id":"IL"},{"zip":"62253","fips":"17027","name":"Clinton County","state_id":"IL"},{"zip":"62253","fips":"17005","name":"Bond County","state_id":"IL"},{"zip":"62254","fips":"17163","name":"St. Clair County","state_id":"IL"},{"zip":"62254","fips":"17119","name":"Madison County","state_id":"IL"},{"zip":"62255","fips":"17163","name":"St. Clair County","state_id":"IL"},{"zip":"62255","fips":"17189","name":"Washington County","state_id":"IL"},{"zip":"62256","fips":"17133","name":"Monroe County","state_id":"IL"},{"zip":"62257","fips":"17189","name":"Washington County","state_id":"IL"},{"zip":"62257","fips":"17163","name":"St. Clair County","state_id":"IL"},{"zip":"62257","fips":"17157","name":"Randolph County","state_id":"IL"},{"zip":"62258","fips":"17163","name":"St. Clair County","state_id":"IL"},{"zip":"62258","fips":"17027","name":"Clinton County","state_id":"IL"},{"zip":"62259","fips":"17157","name":"Randolph County","state_id":"IL"},{"zip":"62260","fips":"17163","name":"St. Clair County","state_id":"IL"},{"zip":"62261","fips":"17157","name":"Randolph County","state_id":"IL"},{"zip":"62262","fips":"17005","name":"Bond County","state_id":"IL"},{"zip":"62262","fips":"17051","name":"Fayette County","state_id":"IL"},{"zip":"62262","fips":"17135","name":"Montgomery County","state_id":"IL"},{"zip":"62263","fips":"17189","name":"Washington County","state_id":"IL"},{"zip":"62263","fips":"17145","name":"Perry County","state_id":"IL"},{"zip":"62264","fips":"17163","name":"St. Clair County","state_id":"IL"},{"zip":"62264","fips":"17133","name":"Monroe County","state_id":"IL"},{"zip":"62265","fips":"17027","name":"Clinton County","state_id":"IL"},{"zip":"62265","fips":"17163","name":"St. Clair County","state_id":"IL"},{"zip":"62266","fips":"17027","name":"Clinton County","state_id":"IL"},{"zip":"62268","fips":"17189","name":"Washington County","state_id":"IL"},{"zip":"62268","fips":"17145","name":"Perry County","state_id":"IL"},{"zip":"62269","fips":"17163","name":"St. Clair County","state_id":"IL"},{"zip":"62269","fips":"17119","name":"Madison County","state_id":"IL"},{"zip":"62271","fips":"17189","name":"Washington County","state_id":"IL"},{"zip":"62272","fips":"17077","name":"Jackson County","state_id":"IL"},{"zip":"62272","fips":"17145","name":"Perry County","state_id":"IL"},{"zip":"62272","fips":"17157","name":"Randolph County","state_id":"IL"},{"zip":"62273","fips":"17119","name":"Madison County","state_id":"IL"},{"zip":"62274","fips":"17145","name":"Perry County","state_id":"IL"},{"zip":"62275","fips":"17119","name":"Madison County","state_id":"IL"},{"zip":"62275","fips":"17005","name":"Bond County","state_id":"IL"},{"zip":"62275","fips":"17027","name":"Clinton County","state_id":"IL"},{"zip":"62277","fips":"17133","name":"Monroe County","state_id":"IL"},{"zip":"62277","fips":"17157","name":"Randolph County","state_id":"IL"},{"zip":"62278","fips":"17157","name":"Randolph County","state_id":"IL"},{"zip":"62278","fips":"17133","name":"Monroe County","state_id":"IL"},{"zip":"62279","fips":"17133","name":"Monroe County","state_id":"IL"},{"zip":"62280","fips":"17077","name":"Jackson County","state_id":"IL"},{"zip":"62280","fips":"17157","name":"Randolph County","state_id":"IL"},{"zip":"62281","fips":"17119","name":"Madison County","state_id":"IL"},{"zip":"62282","fips":"17163","name":"St. Clair County","state_id":"IL"},{"zip":"62284","fips":"17005","name":"Bond County","state_id":"IL"},{"zip":"62285","fips":"17163","name":"St. Clair County","state_id":"IL"},{"zip":"62286","fips":"17145","name":"Perry County","state_id":"IL"},{"zip":"62286","fips":"17157","name":"Randolph County","state_id":"IL"},{"zip":"62288","fips":"17157","name":"Randolph County","state_id":"IL"},{"zip":"62289","fips":"17163","name":"St. Clair County","state_id":"IL"},{"zip":"62292","fips":"17157","name":"Randolph County","state_id":"IL"},{"zip":"62293","fips":"17027","name":"Clinton County","state_id":"IL"},{"zip":"62293","fips":"17163","name":"St. Clair County","state_id":"IL"},{"zip":"62293","fips":"17119","name":"Madison County","state_id":"IL"},{"zip":"62294","fips":"17163","name":"St. Clair County","state_id":"IL"},{"zip":"62294","fips":"17119","name":"Madison County","state_id":"IL"},{"zip":"62295","fips":"17133","name":"Monroe County","state_id":"IL"},{"zip":"62297","fips":"17157","name":"Randolph County","state_id":"IL"},{"zip":"62298","fips":"17133","name":"Monroe County","state_id":"IL"},{"zip":"62298","fips":"17163","name":"St. Clair County","state_id":"IL"}]
