[{"zip":"62301","fips":"17001","name":"Adams County","state_id":"IL"},{"zip":"62305","fips":"17001","name":"Adams County","state_id":"IL"},{"zip":"62306","fips":"17001","name":"Adams County","state_id":"IL"},{"zip":"62311","fips":"17001","name":"Adams County","state_id":"IL"},{"zip":"62311","fips":"17067","name":"Hancock County","state_id":"IL"},{"zip":"62311","fips":"17169","name":"Schuyler County","state_id":"IL"},{"zip":"62312","fips":"17001","name":"Adams County","state_id":"IL"},{"zip":"62312","fips":"17149","name":"Pike County","state_id":"IL"},{"zip":"62313","fips":"17067","name":"Hancock County","state_id":"IL"},{"zip":"62314","fips":"17009","name":"Brown County","state_id":"IL"},{"zip":"62314","fips":"17149","name":"Pike County","state_id":"IL"},{"zip":"62314","fips":"17001","name":"Adams County","state_id":"IL"},{"zip":"62316","fips":"17067","name":"Hancock County","state_id":"IL"},{"zip":"62316","fips":"17001","name":"Adams County","state_id":"IL"},{"zip":"62319","fips":"17169","name":"Schuyler County","state_id":"IL"},{"zip":"62320","fips":"17001","name":"Adams County","state_id":"IL"},{"zip":"62321","fips":"17067","name":"Hancock County","state_id":"IL"},{"zip":"62323","fips":"17149","name":"Pike County","state_id":"IL"},{"zip":"62324","fips":"17001","name":"Adams County","state_id":"IL"},{"zip":"62325","fips":"17001","name":"Adams County","state_id":"IL"},{"zip":"62326","fips":"17067","name":"Hancock County","state_id":"IL"},{"zip":"62326","fips":"17109","name":"McDonough County","state_id":"IL"},{"zip":"62329","fips":"17067","name":"Hancock County","state_id":"IL"},{"zip":"62330","fips":"17067","name":"Hancock County","state_id":"IL"},{"zip":"62330","fips":"17071","name":"Henderson County","state_id":"IL"},{"zip":"62334","fips":"17067","name":"Hancock County","state_id":"IL"},{"zip":"62336","fips":"17067","name":"Hancock County","state_id":"IL"},{"zip":"62338","fips":"17001","name":"Adams County","state_id":"IL"},{"zip":"62339","fips":"17001","name":"Adams County","state_id":"IL"},{"zip":"62340","fips":"17149","name":"Pike County","state_id":"IL"},{"zip":"62341","fips":"17067","name":"Hancock County","state_id":"IL"},{"zip":"62343","fips":"17149","name":"Pike County","state_id":"IL"},{"zip":"62343","fips":"17001","name":"Adams County","state_id":"IL"},{"zip":"62344","fips":"17169","name":"Schuyler County","state_id":"IL"},{"zip":"62345","fips":"17149","name":"Pike County","state_id":"IL"},{"zip":"62346","fips":"17001","name":"Adams County","state_id":"IL"},{"zip":"62346","fips":"17169","name":"Schuyler County","state_id":"IL"},{"zip":"62346","fips":"17067","name":"Hancock County","state_id":"IL"},{"zip":"62347","fips":"17001","name":"Adams County","state_id":"IL"},{"zip":"62348","fips":"17001","name":"Adams County","state_id":"IL"},{"zip":"62349","fips":"17067","name":"Hancock County","state_id":"IL"},{"zip":"62349","fips":"17001","name":"Adams County","state_id":"IL"},{"zip":"62351","fips":"17001","name":"Adams County","state_id":"IL"},{"zip":"62351","fips":"17067","name":"Hancock County","state_id":"IL"},{"zip":"62352","fips":"17149","name":"Pike County","state_id":"IL"},{"zip":"62353","fips":"17009","name":"Brown County","state_id":"IL"},{"zip":"62354","fips":"17067","name":"Hancock County","state_id":"IL"},{"zip":"62355","fips":"17149","name":"Pike County","state_id":"IL"},{"zip":"62355","fips":"17013","name":"Calhoun County","state_id":"IL"},{"zip":"62356","fips":"17149","name":"Pike County","state_id":"IL"},{"zip":"62357","fips":"17149","name":"Pike County","state_id":"IL"},{"zip":"62358","fips":"17067","name":"Hancock County","state_id":"IL"},{"zip":"62359","fips":"17001","name":"Adams County","state_id":"IL"},{"zip":"62360","fips":"17001","name":"Adams County","state_id":"IL"},{"zip":"62361","fips":"17149","name":"Pike County","state_id":"IL"},{"zip":"62362","fips":"17149","name":"Pike County","state_id":"IL"},{"zip":"62363","fips":"17171","name":"Scott County","state_id":"IL"},{"zip":"62363","fips":"17149","name":"Pike County","state_id":"IL"},{"zip":"62365","fips":"17001","name":"Adams County","state_id":"IL"},{"zip":"62366","fips":"17149","name":"Pike County","state_id":"IL"},{"zip":"62367","fips":"17109","name":"McDonough County","state_id":"IL"},{"zip":"62367","fips":"17067","name":"Hancock County","state_id":"IL"},{"zip":"62367","fips":"17169","name":"Schuyler County","state_id":"IL"},{"zip":"62370","fips":"17149","name":"Pike County","state_id":"IL"},{"zip":"62373","fips":"17001","name":"Adams County","state_id":"IL"},{"zip":"62373","fips":"17067","name":"Hancock County","state_id":"IL"},{"zip":"62374","fips":"17109","name":"McDonough County","state_id":"IL"},{"zip":"62374","fips":"17067","name":"Hancock County","state_id":"IL"},{"zip":"62375","fips":"17009","name":"Brown County","state_id":"IL"},{"zip":"62376","fips":"17001","name":"Adams County","state_id":"IL"},{"zip":"62378","fips":"17009","name":"Brown County","state_id":"IL"},{"zip":"62379","fips":"17001","name":"Adams County","state_id":"IL"},{"zip":"62379","fips":"17067","name":"Hancock County","state_id":"IL"},{"zip":"62380","fips":"17067","name":"Hancock County","state_id":"IL"}]
