[{"zip":"62401","fips":"17049","name":"Effingham County","state_id":"IL"},{"zip":"62401","fips":"17173","name":"Shelby County","state_id":"IL"},{"zip":"62410","fips":"17101","name":"Lawrence County","state_id":"IL"},{"zip":"62410","fips":"17185","name":"Wabash County","state_id":"IL"},{"zip":"62411","fips":"17049","name":"Effingham County","state_id":"IL"},{"zip":"62411","fips":"17051","name":"Fayette County","state_id":"IL"},{"zip":"62413","fips":"17023","name":"Clark County","state_id":"IL"},{"zip":"62413","fips":"17033","name":"Crawford County","state_id":"IL"},{"zip":"62414","fips":"17049","name":"Effingham County","state_id":"IL"},{"zip":"62414","fips":"17173","name":"Shelby County","state_id":"IL"},{"zip":"62414","fips":"17051","name":"Fayette County","state_id":"IL"},{"zip":"62417","fips":"17101","name":"Lawrence County","state_id":"IL"},{"zip":"62418","fips":"17051","name":"Fayette County","state_id":"IL"},{"zip":"62419","fips":"17159","name":"Richland County","state_id":"IL"},{"zip":"62420","fips":"17029","name":"Coles County","state_id":"IL"},{"zip":"62420","fips":"17035","name":"Cumberland County","state_id":"IL"},{"zip":"62420","fips":"17023","name":"Clark County","state_id":"IL"},{"zip":"62420","fips":"17079","name":"Jasper County","state_id":"IL"},{"zip":"62421","fips":"17159","name":"Richland County","state_id":"IL"},{"zip":"62421","fips":"17033","name":"Crawford County","state_id":"IL"},{"zip":"62422","fips":"17173","name":"Shelby County","state_id":"IL"},{"zip":"62422","fips":"17051","name":"Fayette County","state_id":"IL"},{"zip":"62423","fips":"17045","name":"Edgar County","state_id":"IL"},{"zip":"62423","fips":"17023","name":"Clark County","state_id":"IL"},{"zip":"62424","fips":"17079","name":"Jasper County","state_id":"IL"},{"zip":"62424","fips":"17049","name":"Effingham County","state_id":"IL"},{"zip":"62424","fips":"17025","name":"Clay County","state_id":"IL"},{"zip":"62425","fips":"17159","name":"Richland County","state_id":"IL"},{"zip":"62425","fips":"17079","name":"Jasper County","state_id":"IL"},{"zip":"62426","fips":"17025","name":"Clay County","state_id":"IL"},{"zip":"62426","fips":"17049","name":"Effingham County","state_id":"IL"},{"zip":"62427","fips":"17101","name":"Lawrence County","state_id":"IL"},{"zip":"62427","fips":"17033","name":"Crawford County","state_id":"IL"},{"zip":"62428","fips":"17035","name":"Cumberland County","state_id":"IL"},{"zip":"62428","fips":"17079","name":"Jasper County","state_id":"IL"},{"zip":"62431","fips":"17173","name":"Shelby County","state_id":"IL"},{"zip":"62431","fips":"17051","name":"Fayette County","state_id":"IL"},{"zip":"62432","fips":"17079","name":"Jasper County","state_id":"IL"},{"zip":"62432","fips":"17035","name":"Cumberland County","state_id":"IL"},{"zip":"62433","fips":"17033","name":"Crawford County","state_id":"IL"},{"zip":"62434","fips":"17079","name":"Jasper County","state_id":"IL"},{"zip":"62434","fips":"17025","name":"Clay County","state_id":"IL"},{"zip":"62436","fips":"17079","name":"Jasper County","state_id":"IL"},{"zip":"62436","fips":"17035","name":"Cumberland County","state_id":"IL"},{"zip":"62438","fips":"17173","name":"Shelby County","state_id":"IL"},{"zip":"62439","fips":"17101","name":"Lawrence County","state_id":"IL"},{"zip":"62440","fips":"17029","name":"Coles County","state_id":"IL"},{"zip":"62440","fips":"17035","name":"Cumberland County","state_id":"IL"},{"zip":"62441","fips":"17023","name":"Clark County","state_id":"IL"},{"zip":"62441","fips":"17045","name":"Edgar County","state_id":"IL"},{"zip":"62442","fips":"17023","name":"Clark County","state_id":"IL"},{"zip":"62442","fips":"17033","name":"Crawford County","state_id":"IL"},{"zip":"62443","fips":"17025","name":"Clay County","state_id":"IL"},{"zip":"62443","fips":"17049","name":"Effingham County","state_id":"IL"},{"zip":"62444","fips":"17173","name":"Shelby County","state_id":"IL"},{"zip":"62445","fips":"17035","name":"Cumberland County","state_id":"IL"},{"zip":"62445","fips":"17079","name":"Jasper County","state_id":"IL"},{"zip":"62445","fips":"17049","name":"Effingham County","state_id":"IL"},{"zip":"62446","fips":"17191","name":"Wayne County","state_id":"IL"},{"zip":"62447","fips":"17173","name":"Shelby County","state_id":"IL"},{"zip":"62447","fips":"17035","name":"Cumberland County","state_id":"IL"},{"zip":"62448","fips":"17159","name":"Richland County","state_id":"IL"},{"zip":"62448","fips":"17025","name":"Clay County","state_id":"IL"},{"zip":"62448","fips":"17079","name":"Jasper County","state_id":"IL"},{"zip":"62449","fips":"17023","name":"Clark County","state_id":"IL"},{"zip":"62449","fips":"17079","name":"Jasper County","state_id":"IL"},{"zip":"62449","fips":"17033","name":"Crawford County","state_id":"IL"},{"zip":"62450","fips":"17159","name":"Richland County","state_id":"IL"},{"zip":"62451","fips":"17033","name":"Crawford County","state_id":"IL"},{"zip":"62452","fips":"17159","name":"Richland County","state_id":"IL"},{"zip":"62454","fips":"17033","name":"Crawford County","state_id":"IL"},{"zip":"62458","fips":"17049","name":"Effingham County","state_id":"IL"},{"zip":"62458","fips":"17051","name":"Fayette County","state_id":"IL"},{"zip":"62459","fips":"17079","name":"Jasper County","state_id":"IL"},{"zip":"62460","fips":"17185","name":"Wabash County","state_id":"IL"},{"zip":"62460","fips":"17101","name":"Lawrence County","state_id":"IL"},{"zip":"62461","fips":"17173","name":"Shelby County","state_id":"IL"},{"zip":"62461","fips":"17049","name":"Effingham County","state_id":"IL"},{"zip":"62462","fips":"17035","name":"Cumberland County","state_id":"IL"},{"zip":"62462","fips":"17173","name":"Shelby County","state_id":"IL"},{"zip":"62462","fips":"17049","name":"Effingham County","state_id":"IL"},{"zip":"62463","fips":"17173","name":"Shelby County","state_id":"IL"},{"zip":"62464","fips":"17033","name":"Crawford County","state_id":"IL"},{"zip":"62465","fips":"17173","name":"Shelby County","state_id":"IL"},{"zip":"62466","fips":"17159","name":"Richland County","state_id":"IL"},{"zip":"62466","fips":"17101","name":"Lawrence County","state_id":"IL"},{"zip":"62466","fips":"17033","name":"Crawford County","state_id":"IL"},{"zip":"62467","fips":"17049","name":"Effingham County","state_id":"IL"},{"zip":"62467","fips":"17079","name":"Jasper County","state_id":"IL"},{"zip":"62467","fips":"17035","name":"Cumberland County","state_id":"IL"},{"zip":"62468","fips":"17035","name":"Cumberland County","state_id":"IL"},{"zip":"62469","fips":"17035","name":"Cumberland County","state_id":"IL"},{"zip":"62469","fips":"17029","name":"Coles County","state_id":"IL"},{"zip":"62471","fips":"17051","name":"Fayette County","state_id":"IL"},{"zip":"62473","fips":"17049","name":"Effingham County","state_id":"IL"},{"zip":"62474","fips":"17023","name":"Clark County","state_id":"IL"},{"zip":"62474","fips":"17029","name":"Coles County","state_id":"IL"},{"zip":"62475","fips":"17079","name":"Jasper County","state_id":"IL"},{"zip":"62476","fips":"17185","name":"Wabash County","state_id":"IL"},{"zip":"62476","fips":"17047","name":"Edwards County","state_id":"IL"},{"zip":"62476","fips":"17159","name":"Richland County","state_id":"IL"},{"zip":"62477","fips":"17023","name":"Clark County","state_id":"IL"},{"zip":"62478","fips":"17023","name":"Clark County","state_id":"IL"},{"zip":"62478","fips":"17033","name":"Crawford County","state_id":"IL"},{"zip":"62479","fips":"17049","name":"Effingham County","state_id":"IL"},{"zip":"62479","fips":"17079","name":"Jasper County","state_id":"IL"},{"zip":"62480","fips":"17079","name":"Jasper County","state_id":"IL"},{"zip":"62481","fips":"17023","name":"Clark County","state_id":"IL"},{"zip":"62481","fips":"17079","name":"Jasper County","state_id":"IL"}]
