[{"zip":"62501","fips":"17039","name":"De Witt County","state_id":"IL"},{"zip":"62501","fips":"17115","name":"Macon County","state_id":"IL"},{"zip":"62510","fips":"17173","name":"Shelby County","state_id":"IL"},{"zip":"62510","fips":"17021","name":"Christian County","state_id":"IL"},{"zip":"62512","fips":"17107","name":"Logan County","state_id":"IL"},{"zip":"62512","fips":"17039","name":"De Witt County","state_id":"IL"},{"zip":"62513","fips":"17021","name":"Christian County","state_id":"IL"},{"zip":"62513","fips":"17115","name":"Macon County","state_id":"IL"},{"zip":"62514","fips":"17115","name":"Macon County","state_id":"IL"},{"zip":"62515","fips":"17167","name":"Sangamon County","state_id":"IL"},{"zip":"62517","fips":"17021","name":"Christian County","state_id":"IL"},{"zip":"62518","fips":"17107","name":"Logan County","state_id":"IL"},{"zip":"62519","fips":"17107","name":"Logan County","state_id":"IL"},{"zip":"62520","fips":"17167","name":"Sangamon County","state_id":"IL"},{"zip":"62521","fips":"17115","name":"Macon County","state_id":"IL"},{"zip":"62522","fips":"17115","name":"Macon County","state_id":"IL"},{"zip":"62523","fips":"17115","name":"Macon County","state_id":"IL"},{"zip":"62524","fips":"17115","name":"Macon County","state_id":"IL"},{"zip":"62525","fips":"17115","name":"Macon County","state_id":"IL"},{"zip":"62526","fips":"17115","name":"Macon County","state_id":"IL"},{"zip":"62530","fips":"17167","name":"Sangamon County","state_id":"IL"},{"zip":"62531","fips":"17021","name":"Christian County","state_id":"IL"},{"zip":"62532","fips":"17115","name":"Macon County","state_id":"IL"},{"zip":"62533","fips":"17135","name":"Montgomery County","state_id":"IL"},{"zip":"62534","fips":"17173","name":"Shelby County","state_id":"IL"},{"zip":"62535","fips":"17115","name":"Macon County","state_id":"IL"},{"zip":"62536","fips":"17167","name":"Sangamon County","state_id":"IL"},{"zip":"62537","fips":"17115","name":"Macon County","state_id":"IL"},{"zip":"62538","fips":"17021","name":"Christian County","state_id":"IL"},{"zip":"62538","fips":"17135","name":"Montgomery County","state_id":"IL"},{"zip":"62539","fips":"17115","name":"Macon County","state_id":"IL"},{"zip":"62539","fips":"17167","name":"Sangamon County","state_id":"IL"},{"zip":"62540","fips":"17021","name":"Christian County","state_id":"IL"},{"zip":"62541","fips":"17107","name":"Logan County","state_id":"IL"},{"zip":"62543","fips":"17115","name":"Macon County","state_id":"IL"},{"zip":"62543","fips":"17107","name":"Logan County","state_id":"IL"},{"zip":"62544","fips":"17173","name":"Shelby County","state_id":"IL"},{"zip":"62544","fips":"17115","name":"Macon County","state_id":"IL"},{"zip":"62545","fips":"17167","name":"Sangamon County","state_id":"IL"},{"zip":"62545","fips":"17021","name":"Christian County","state_id":"IL"},{"zip":"62546","fips":"17021","name":"Christian County","state_id":"IL"},{"zip":"62546","fips":"17135","name":"Montgomery County","state_id":"IL"},{"zip":"62547","fips":"17115","name":"Macon County","state_id":"IL"},{"zip":"62547","fips":"17021","name":"Christian County","state_id":"IL"},{"zip":"62548","fips":"17167","name":"Sangamon County","state_id":"IL"},{"zip":"62548","fips":"17107","name":"Logan County","state_id":"IL"},{"zip":"62549","fips":"17115","name":"Macon County","state_id":"IL"},{"zip":"62550","fips":"17173","name":"Shelby County","state_id":"IL"},{"zip":"62550","fips":"17115","name":"Macon County","state_id":"IL"},{"zip":"62550","fips":"17021","name":"Christian County","state_id":"IL"},{"zip":"62551","fips":"17115","name":"Macon County","state_id":"IL"},{"zip":"62553","fips":"17173","name":"Shelby County","state_id":"IL"},{"zip":"62553","fips":"17135","name":"Montgomery County","state_id":"IL"},{"zip":"62554","fips":"17115","name":"Macon County","state_id":"IL"},{"zip":"62555","fips":"17021","name":"Christian County","state_id":"IL"},{"zip":"62556","fips":"17021","name":"Christian County","state_id":"IL"},{"zip":"62557","fips":"17021","name":"Christian County","state_id":"IL"},{"zip":"62557","fips":"17135","name":"Montgomery County","state_id":"IL"},{"zip":"62557","fips":"17173","name":"Shelby County","state_id":"IL"},{"zip":"62558","fips":"17021","name":"Christian County","state_id":"IL"},{"zip":"62558","fips":"17135","name":"Montgomery County","state_id":"IL"},{"zip":"62558","fips":"17167","name":"Sangamon County","state_id":"IL"},{"zip":"62560","fips":"17117","name":"Macoupin County","state_id":"IL"},{"zip":"62560","fips":"17135","name":"Montgomery County","state_id":"IL"},{"zip":"62561","fips":"17167","name":"Sangamon County","state_id":"IL"},{"zip":"62563","fips":"17167","name":"Sangamon County","state_id":"IL"},{"zip":"62563","fips":"17021","name":"Christian County","state_id":"IL"},{"zip":"62565","fips":"17173","name":"Shelby County","state_id":"IL"},{"zip":"62567","fips":"17021","name":"Christian County","state_id":"IL"},{"zip":"62568","fips":"17021","name":"Christian County","state_id":"IL"},{"zip":"62570","fips":"17021","name":"Christian County","state_id":"IL"},{"zip":"62571","fips":"17173","name":"Shelby County","state_id":"IL"},{"zip":"62572","fips":"17117","name":"Macoupin County","state_id":"IL"},{"zip":"62572","fips":"17135","name":"Montgomery County","state_id":"IL"},{"zip":"62573","fips":"17115","name":"Macon County","state_id":"IL"}]
