[{"zip":"62601","fips":"17137","name":"Morgan County","state_id":"IL"},{"zip":"62610","fips":"17171","name":"Scott County","state_id":"IL"},{"zip":"62611","fips":"17137","name":"Morgan County","state_id":"IL"},{"zip":"62611","fips":"17017","name":"Cass County","state_id":"IL"},{"zip":"62612","fips":"17129","name":"Menard County","state_id":"IL"},{"zip":"62612","fips":"17167","name":"Sangamon County","state_id":"IL"},{"zip":"62612","fips":"17017","name":"Cass County","state_id":"IL"},{"zip":"62612","fips":"17137","name":"Morgan County","state_id":"IL"},{"zip":"62613","fips":"17107","name":"Logan County","state_id":"IL"},{"zip":"62613","fips":"17129","name":"Menard County","state_id":"IL"},{"zip":"62613","fips":"17167","name":"Sangamon County","state_id":"IL"},{"zip":"62615","fips":"17167","name":"Sangamon County","state_id":"IL"},{"zip":"62617","fips":"17125","name":"Mason County","state_id":"IL"},{"zip":"62618","fips":"17017","name":"Cass County","state_id":"IL"},{"zip":"62618","fips":"17169","name":"Schuyler County","state_id":"IL"},{"zip":"62621","fips":"17171","name":"Scott County","state_id":"IL"},{"zip":"62621","fips":"17137","name":"Morgan County","state_id":"IL"},{"zip":"62622","fips":"17017","name":"Cass County","state_id":"IL"},{"zip":"62624","fips":"17169","name":"Schuyler County","state_id":"IL"},{"zip":"62625","fips":"17167","name":"Sangamon County","state_id":"IL"},{"zip":"62625","fips":"17129","name":"Menard County","state_id":"IL"},{"zip":"62626","fips":"17117","name":"Macoupin County","state_id":"IL"},{"zip":"62627","fips":"17017","name":"Cass County","state_id":"IL"},{"zip":"62627","fips":"17125","name":"Mason County","state_id":"IL"},{"zip":"62628","fips":"17171","name":"Scott County","state_id":"IL"},{"zip":"62628","fips":"17137","name":"Morgan County","state_id":"IL"},{"zip":"62629","fips":"17167","name":"Sangamon County","state_id":"IL"},{"zip":"62630","fips":"17117","name":"Macoupin County","state_id":"IL"},{"zip":"62631","fips":"17137","name":"Morgan County","state_id":"IL"},{"zip":"62633","fips":"17125","name":"Mason County","state_id":"IL"},{"zip":"62634","fips":"17107","name":"Logan County","state_id":"IL"},{"zip":"62635","fips":"17107","name":"Logan County","state_id":"IL"},{"zip":"62635","fips":"17179","name":"Tazewell County","state_id":"IL"},{"zip":"62638","fips":"17137","name":"Morgan County","state_id":"IL"},{"zip":"62638","fips":"17117","name":"Macoupin County","state_id":"IL"},{"zip":"62639","fips":"17169","name":"Schuyler County","state_id":"IL"},{"zip":"62640","fips":"17117","name":"Macoupin County","state_id":"IL"},{"zip":"62640","fips":"17135","name":"Montgomery County","state_id":"IL"},{"zip":"62642","fips":"17129","name":"Menard County","state_id":"IL"},{"zip":"62643","fips":"17107","name":"Logan County","state_id":"IL"},{"zip":"62644","fips":"17125","name":"Mason County","state_id":"IL"},{"zip":"62644","fips":"17057","name":"Fulton County","state_id":"IL"},{"zip":"62649","fips":"17117","name":"Macoupin County","state_id":"IL"},{"zip":"62649","fips":"17061","name":"Greene County","state_id":"IL"},{"zip":"62650","fips":"17137","name":"Morgan County","state_id":"IL"},{"zip":"62650","fips":"17171","name":"Scott County","state_id":"IL"},{"zip":"62651","fips":"17137","name":"Morgan County","state_id":"IL"},{"zip":"62655","fips":"17125","name":"Mason County","state_id":"IL"},{"zip":"62656","fips":"17107","name":"Logan County","state_id":"IL"},{"zip":"62659","fips":"17129","name":"Menard County","state_id":"IL"},{"zip":"62660","fips":"17137","name":"Morgan County","state_id":"IL"},{"zip":"62661","fips":"17167","name":"Sangamon County","state_id":"IL"},{"zip":"62662","fips":"17167","name":"Sangamon County","state_id":"IL"},{"zip":"62663","fips":"17171","name":"Scott County","state_id":"IL"},{"zip":"62664","fips":"17107","name":"Logan County","state_id":"IL"},{"zip":"62664","fips":"17125","name":"Mason County","state_id":"IL"},{"zip":"62665","fips":"17171","name":"Scott County","state_id":"IL"},{"zip":"62665","fips":"17137","name":"Morgan County","state_id":"IL"},{"zip":"62665","fips":"17017","name":"Cass County","state_id":"IL"},{"zip":"62666","fips":"17129","name":"Menard County","state_id":"IL"},{"zip":"62666","fips":"17107","name":"Logan County","state_id":"IL"},{"zip":"62667","fips":"17137","name":"Morgan County","state_id":"IL"},{"zip":"62667","fips":"17117","name":"Macoupin County","state_id":"IL"},{"zip":"62668","fips":"17137","name":"Morgan County","state_id":"IL"},{"zip":"62668","fips":"17117","name":"Macoupin County","state_id":"IL"},{"zip":"62668","fips":"17171","name":"Scott County","state_id":"IL"},{"zip":"62670","fips":"17167","name":"Sangamon County","state_id":"IL"},{"zip":"62670","fips":"17137","name":"Morgan County","state_id":"IL"},{"zip":"62671","fips":"17107","name":"Logan County","state_id":"IL"},{"zip":"62671","fips":"17125","name":"Mason County","state_id":"IL"},{"zip":"62672","fips":"17117","name":"Macoupin County","state_id":"IL"},{"zip":"62673","fips":"17017","name":"Cass County","state_id":"IL"},{"zip":"62673","fips":"17129","name":"Menard County","state_id":"IL"},{"zip":"62674","fips":"17117","name":"Macoupin County","state_id":"IL"},{"zip":"62675","fips":"17129","name":"Menard County","state_id":"IL"},{"zip":"62675","fips":"17017","name":"Cass County","state_id":"IL"},{"zip":"62677","fips":"17017","name":"Cass County","state_id":"IL"},{"zip":"62677","fips":"17167","name":"Sangamon County","state_id":"IL"},{"zip":"62677","fips":"17137","name":"Morgan County","state_id":"IL"},{"zip":"62681","fips":"17169","name":"Schuyler County","state_id":"IL"},{"zip":"62682","fips":"17179","name":"Tazewell County","state_id":"IL"},{"zip":"62682","fips":"17125","name":"Mason County","state_id":"IL"},{"zip":"62682","fips":"17107","name":"Logan County","state_id":"IL"},{"zip":"62684","fips":"17167","name":"Sangamon County","state_id":"IL"},{"zip":"62685","fips":"17117","name":"Macoupin County","state_id":"IL"},{"zip":"62688","fips":"17129","name":"Menard County","state_id":"IL"},{"zip":"62689","fips":"17167","name":"Sangamon County","state_id":"IL"},{"zip":"62690","fips":"17117","name":"Macoupin County","state_id":"IL"},{"zip":"62690","fips":"17167","name":"Sangamon County","state_id":"IL"},{"zip":"62690","fips":"17135","name":"Montgomery County","state_id":"IL"},{"zip":"62691","fips":"17017","name":"Cass County","state_id":"IL"},{"zip":"62692","fips":"17167","name":"Sangamon County","state_id":"IL"},{"zip":"62692","fips":"17137","name":"Morgan County","state_id":"IL"},{"zip":"62693","fips":"17107","name":"Logan County","state_id":"IL"},{"zip":"62693","fips":"17129","name":"Menard County","state_id":"IL"},{"zip":"62693","fips":"17167","name":"Sangamon County","state_id":"IL"},{"zip":"62694","fips":"17137","name":"Morgan County","state_id":"IL"},{"zip":"62694","fips":"17171","name":"Scott County","state_id":"IL"},{"zip":"62695","fips":"17137","name":"Morgan County","state_id":"IL"}]
