[{"zip":"62701","fips":"17167","name":"Sangamon County","state_id":"IL"},{"zip":"62702","fips":"17167","name":"Sangamon County","state_id":"IL"},{"zip":"62703","fips":"17167","name":"Sangamon County","state_id":"IL"},{"zip":"62704","fips":"17167","name":"Sangamon County","state_id":"IL"},{"zip":"62705","fips":"17167","name":"Sangamon County","state_id":"IL"},{"zip":"62706","fips":"17167","name":"Sangamon County","state_id":"IL"},{"zip":"62707","fips":"17167","name":"Sangamon County","state_id":"IL"},{"zip":"62708","fips":"17167","name":"Sangamon County","state_id":"IL"},{"zip":"62711","fips":"17167","name":"Sangamon County","state_id":"IL"},{"zip":"62712","fips":"17167","name":"Sangamon County","state_id":"IL"},{"zip":"62715","fips":"17167","name":"Sangamon County","state_id":"IL"},{"zip":"62716","fips":"17167","name":"Sangamon County","state_id":"IL"},{"zip":"62719","fips":"17167","name":"Sangamon County","state_id":"IL"},{"zip":"62722","fips":"17167","name":"Sangamon County","state_id":"IL"},{"zip":"62723","fips":"17167","name":"Sangamon County","state_id":"IL"},{"zip":"62726","fips":"17167","name":"Sangamon County","state_id":"IL"},{"zip":"62736","fips":"17167","name":"Sangamon County","state_id":"IL"},{"zip":"62739","fips":"17167","name":"Sangamon County","state_id":"IL"},{"zip":"62756","fips":"17167","name":"Sangamon County","state_id":"IL"},{"zip":"62757","fips":"17167","name":"Sangamon County","state_id":"IL"},{"zip":"62762","fips":"17167","name":"Sangamon County","state_id":"IL"},{"zip":"62763","fips":"17167","name":"Sangamon County","state_id":"IL"},{"zip":"62764","fips":"17167","name":"Sangamon County","state_id":"IL"},{"zip":"62765","fips":"17167","name":"Sangamon County","state_id":"IL"},{"zip":"62766","fips":"17167","name":"Sangamon County","state_id":"IL"},{"zip":"62767","fips":"17167","name":"Sangamon County","state_id":"IL"},{"zip":"62769","fips":"17167","name":"Sangamon County","state_id":"IL"},{"zip":"62776","fips":"17167","name":"Sangamon County","state_id":"IL"},{"zip":"62781","fips":"17167","name":"Sangamon County","state_id":"IL"},{"zip":"62791","fips":"17167","name":"Sangamon County","state_id":"IL"},{"zip":"62796","fips":"17167","name":"Sangamon County","state_id":"IL"}]
