[{"zip":"62801","fips":"17081","name":"Jefferson County","state_id":"IL"},{"zip":"62801","fips":"17121","name":"Marion County","state_id":"IL"},{"zip":"62801","fips":"17189","name":"Washington County","state_id":"IL"},{"zip":"62801","fips":"17027","name":"Clinton County","state_id":"IL"},{"zip":"62803","fips":"17189","name":"Washington County","state_id":"IL"},{"zip":"62806","fips":"17047","name":"Edwards County","state_id":"IL"},{"zip":"62807","fips":"17121","name":"Marion County","state_id":"IL"},{"zip":"62808","fips":"17189","name":"Washington County","state_id":"IL"},{"zip":"62808","fips":"17081","name":"Jefferson County","state_id":"IL"},{"zip":"62809","fips":"17191","name":"Wayne County","state_id":"IL"},{"zip":"62810","fips":"17081","name":"Jefferson County","state_id":"IL"},{"zip":"62810","fips":"17055","name":"Franklin County","state_id":"IL"},{"zip":"62810","fips":"17065","name":"Hamilton County","state_id":"IL"},{"zip":"62811","fips":"17185","name":"Wabash County","state_id":"IL"},{"zip":"62812","fips":"17055","name":"Franklin County","state_id":"IL"},{"zip":"62814","fips":"17081","name":"Jefferson County","state_id":"IL"},{"zip":"62814","fips":"17191","name":"Wayne County","state_id":"IL"},{"zip":"62815","fips":"17047","name":"Edwards County","state_id":"IL"},{"zip":"62816","fips":"17081","name":"Jefferson County","state_id":"IL"},{"zip":"62817","fips":"17165","name":"Saline County","state_id":"IL"},{"zip":"62817","fips":"17065","name":"Hamilton County","state_id":"IL"},{"zip":"62818","fips":"17185","name":"Wabash County","state_id":"IL"},{"zip":"62818","fips":"17047","name":"Edwards County","state_id":"IL"},{"zip":"62819","fips":"17055","name":"Franklin County","state_id":"IL"},{"zip":"62820","fips":"17191","name":"Wayne County","state_id":"IL"},{"zip":"62820","fips":"17193","name":"White County","state_id":"IL"},{"zip":"62821","fips":"17193","name":"White County","state_id":"IL"},{"zip":"62821","fips":"17059","name":"Gallatin County","state_id":"IL"},{"zip":"62822","fips":"17055","name":"Franklin County","state_id":"IL"},{"zip":"62823","fips":"17191","name":"Wayne County","state_id":"IL"},{"zip":"62824","fips":"17025","name":"Clay County","state_id":"IL"},{"zip":"62824","fips":"17191","name":"Wayne County","state_id":"IL"},{"zip":"62825","fips":"17055","name":"Franklin County","state_id":"IL"},{"zip":"62827","fips":"17193","name":"White County","state_id":"IL"},{"zip":"62828","fips":"17065","name":"Hamilton County","state_id":"IL"},{"zip":"62828","fips":"17191","name":"Wayne County","state_id":"IL"},{"zip":"62829","fips":"17065","name":"Hamilton County","state_id":"IL"},{"zip":"62830","fips":"17081","name":"Jefferson County","state_id":"IL"},{"zip":"62830","fips":"17121","name":"Marion County","state_id":"IL"},{"zip":"62831","fips":"17081","name":"Jefferson County","state_id":"IL"},{"zip":"62831","fips":"17145","name":"Perry County","state_id":"IL"},{"zip":"62831","fips":"17189","name":"Washington County","state_id":"IL"},{"zip":"62832","fips":"17145","name":"Perry County","state_id":"IL"},{"zip":"62832","fips":"17077","name":"Jackson County","state_id":"IL"},{"zip":"62833","fips":"17191","name":"Wayne County","state_id":"IL"},{"zip":"62833","fips":"17047","name":"Edwards County","state_id":"IL"},{"zip":"62834","fips":"17193","name":"White County","state_id":"IL"},{"zip":"62835","fips":"17193","name":"White County","state_id":"IL"},{"zip":"62835","fips":"17065","name":"Hamilton County","state_id":"IL"},{"zip":"62836","fips":"17081","name":"Jefferson County","state_id":"IL"},{"zip":"62836","fips":"17055","name":"Franklin County","state_id":"IL"},{"zip":"62837","fips":"17191","name":"Wayne County","state_id":"IL"},{"zip":"62838","fips":"17049","name":"Effingham County","state_id":"IL"},{"zip":"62838","fips":"17025","name":"Clay County","state_id":"IL"},{"zip":"62838","fips":"17121","name":"Marion County","state_id":"IL"},{"zip":"62838","fips":"17051","name":"Fayette County","state_id":"IL"},{"zip":"62839","fips":"17191","name":"Wayne County","state_id":"IL"},{"zip":"62839","fips":"17025","name":"Clay County","state_id":"IL"},{"zip":"62840","fips":"17055","name":"Franklin County","state_id":"IL"},{"zip":"62841","fips":"17199","name":"Williamson County","state_id":"IL"},{"zip":"62842","fips":"17191","name":"Wayne County","state_id":"IL"},{"zip":"62843","fips":"17191","name":"Wayne County","state_id":"IL"},{"zip":"62844","fips":"17047","name":"Edwards County","state_id":"IL"},{"zip":"62844","fips":"17193","name":"White County","state_id":"IL"},{"zip":"62846","fips":"17081","name":"Jefferson County","state_id":"IL"},{"zip":"62848","fips":"17189","name":"Washington County","state_id":"IL"},{"zip":"62849","fips":"17121","name":"Marion County","state_id":"IL"},{"zip":"62850","fips":"17191","name":"Wayne County","state_id":"IL"},{"zip":"62851","fips":"17191","name":"Wayne County","state_id":"IL"},{"zip":"62851","fips":"17121","name":"Marion County","state_id":"IL"},{"zip":"62851","fips":"17081","name":"Jefferson County","state_id":"IL"},{"zip":"62852","fips":"17185","name":"Wabash County","state_id":"IL"},{"zip":"62853","fips":"17081","name":"Jefferson County","state_id":"IL"},{"zip":"62853","fips":"17121","name":"Marion County","state_id":"IL"},{"zip":"62854","fips":"17051","name":"Fayette County","state_id":"IL"},{"zip":"62854","fips":"17025","name":"Clay County","state_id":"IL"},{"zip":"62854","fips":"17121","name":"Marion County","state_id":"IL"},{"zip":"62856","fips":"17055","name":"Franklin County","state_id":"IL"},{"zip":"62858","fips":"17025","name":"Clay County","state_id":"IL"},{"zip":"62859","fips":"17065","name":"Hamilton County","state_id":"IL"},{"zip":"62860","fips":"17065","name":"Hamilton County","state_id":"IL"},{"zip":"62860","fips":"17055","name":"Franklin County","state_id":"IL"},{"zip":"62861","fips":"17193","name":"White County","state_id":"IL"},{"zip":"62862","fips":"17193","name":"White County","state_id":"IL"},{"zip":"62863","fips":"17185","name":"Wabash County","state_id":"IL"},{"zip":"62864","fips":"17081","name":"Jefferson County","state_id":"IL"},{"zip":"62865","fips":"17055","name":"Franklin County","state_id":"IL"},{"zip":"62867","fips":"17059","name":"Gallatin County","state_id":"IL"},{"zip":"62867","fips":"17193","name":"White County","state_id":"IL"},{"zip":"62868","fips":"17159","name":"Richland County","state_id":"IL"},{"zip":"62868","fips":"17191","name":"Wayne County","state_id":"IL"},{"zip":"62868","fips":"17025","name":"Clay County","state_id":"IL"},{"zip":"62869","fips":"17065","name":"Hamilton County","state_id":"IL"},{"zip":"62869","fips":"17193","name":"White County","state_id":"IL"},{"zip":"62869","fips":"17059","name":"Gallatin County","state_id":"IL"},{"zip":"62869","fips":"17165","name":"Saline County","state_id":"IL"},{"zip":"62870","fips":"17121","name":"Marion County","state_id":"IL"},{"zip":"62871","fips":"17059","name":"Gallatin County","state_id":"IL"},{"zip":"62872","fips":"17081","name":"Jefferson County","state_id":"IL"},{"zip":"62874","fips":"17055","name":"Franklin County","state_id":"IL"},{"zip":"62875","fips":"17027","name":"Clinton County","state_id":"IL"},{"zip":"62875","fips":"17051","name":"Fayette County","state_id":"IL"},{"zip":"62875","fips":"17121","name":"Marion County","state_id":"IL"},{"zip":"62876","fips":"17189","name":"Washington County","state_id":"IL"},{"zip":"62877","fips":"17081","name":"Jefferson County","state_id":"IL"},{"zip":"62877","fips":"17189","name":"Washington County","state_id":"IL"},{"zip":"62878","fips":"17191","name":"Wayne County","state_id":"IL"},{"zip":"62879","fips":"17025","name":"Clay County","state_id":"IL"},{"zip":"62880","fips":"17051","name":"Fayette County","state_id":"IL"},{"zip":"62881","fips":"17121","name":"Marion County","state_id":"IL"},{"zip":"62882","fips":"17121","name":"Marion County","state_id":"IL"},{"zip":"62882","fips":"17027","name":"Clinton County","state_id":"IL"},{"zip":"62883","fips":"17145","name":"Perry County","state_id":"IL"},{"zip":"62883","fips":"17055","name":"Franklin County","state_id":"IL"},{"zip":"62883","fips":"17081","name":"Jefferson County","state_id":"IL"},{"zip":"62884","fips":"17081","name":"Jefferson County","state_id":"IL"},{"zip":"62884","fips":"17055","name":"Franklin County","state_id":"IL"},{"zip":"62885","fips":"17121","name":"Marion County","state_id":"IL"},{"zip":"62885","fips":"17051","name":"Fayette County","state_id":"IL"},{"zip":"62886","fips":"17191","name":"Wayne County","state_id":"IL"},{"zip":"62887","fips":"17065","name":"Hamilton County","state_id":"IL"},{"zip":"62887","fips":"17193","name":"White County","state_id":"IL"},{"zip":"62888","fips":"17145","name":"Perry County","state_id":"IL"},{"zip":"62889","fips":"17081","name":"Jefferson County","state_id":"IL"},{"zip":"62889","fips":"17121","name":"Marion County","state_id":"IL"},{"zip":"62890","fips":"17065","name":"Hamilton County","state_id":"IL"},{"zip":"62890","fips":"17199","name":"Williamson County","state_id":"IL"},{"zip":"62890","fips":"17055","name":"Franklin County","state_id":"IL"},{"zip":"62890","fips":"17165","name":"Saline County","state_id":"IL"},{"zip":"62891","fips":"17055","name":"Franklin County","state_id":"IL"},{"zip":"62892","fips":"17121","name":"Marion County","state_id":"IL"},{"zip":"62892","fips":"17051","name":"Fayette County","state_id":"IL"},{"zip":"62893","fips":"17081","name":"Jefferson County","state_id":"IL"},{"zip":"62893","fips":"17121","name":"Marion County","state_id":"IL"},{"zip":"62894","fips":"17081","name":"Jefferson County","state_id":"IL"},{"zip":"62895","fips":"17191","name":"Wayne County","state_id":"IL"},{"zip":"62895","fips":"17065","name":"Hamilton County","state_id":"IL"},{"zip":"62896","fips":"17199","name":"Williamson County","state_id":"IL"},{"zip":"62896","fips":"17055","name":"Franklin County","state_id":"IL"},{"zip":"62897","fips":"17055","name":"Franklin County","state_id":"IL"},{"zip":"62898","fips":"17081","name":"Jefferson County","state_id":"IL"},{"zip":"62899","fips":"17191","name":"Wayne County","state_id":"IL"},{"zip":"62899","fips":"17025","name":"Clay County","state_id":"IL"},{"zip":"62899","fips":"17121","name":"Marion County","state_id":"IL"}]
