[{"zip":"62901","fips":"17199","name":"Williamson County","state_id":"IL"},{"zip":"62901","fips":"17077","name":"Jackson County","state_id":"IL"},{"zip":"62902","fips":"17181","name":"Union County","state_id":"IL"},{"zip":"62902","fips":"17199","name":"Williamson County","state_id":"IL"},{"zip":"62902","fips":"17077","name":"Jackson County","state_id":"IL"},{"zip":"62902","fips":"17087","name":"Johnson County","state_id":"IL"},{"zip":"62903","fips":"17077","name":"Jackson County","state_id":"IL"},{"zip":"62905","fips":"17181","name":"Union County","state_id":"IL"},{"zip":"62905","fips":"17077","name":"Jackson County","state_id":"IL"},{"zip":"62906","fips":"17181","name":"Union County","state_id":"IL"},{"zip":"62907","fips":"17077","name":"Jackson County","state_id":"IL"},{"zip":"62907","fips":"17145","name":"Perry County","state_id":"IL"},{"zip":"62907","fips":"17157","name":"Randolph County","state_id":"IL"},{"zip":"62908","fips":"17087","name":"Johnson County","state_id":"IL"},{"zip":"62908","fips":"17127","name":"Massac County","state_id":"IL"},{"zip":"62909","fips":"17087","name":"Johnson County","state_id":"IL"},{"zip":"62910","fips":"17151","name":"Pope County","state_id":"IL"},{"zip":"62910","fips":"17127","name":"Massac County","state_id":"IL"},{"zip":"62912","fips":"17087","name":"Johnson County","state_id":"IL"},{"zip":"62912","fips":"17181","name":"Union County","state_id":"IL"},{"zip":"62914","fips":"17003","name":"Alexander County","state_id":"IL"},{"zip":"62915","fips":"17199","name":"Williamson County","state_id":"IL"},{"zip":"62916","fips":"17145","name":"Perry County","state_id":"IL"},{"zip":"62916","fips":"17157","name":"Randolph County","state_id":"IL"},{"zip":"62916","fips":"17077","name":"Jackson County","state_id":"IL"},{"zip":"62917","fips":"17199","name":"Williamson County","state_id":"IL"},{"zip":"62917","fips":"17165","name":"Saline County","state_id":"IL"},{"zip":"62918","fips":"17077","name":"Jackson County","state_id":"IL"},{"zip":"62918","fips":"17199","name":"Williamson County","state_id":"IL"},{"zip":"62919","fips":"17069","name":"Hardin County","state_id":"IL"},{"zip":"62920","fips":"17181","name":"Union County","state_id":"IL"},{"zip":"62920","fips":"17077","name":"Jackson County","state_id":"IL"},{"zip":"62921","fips":"17199","name":"Williamson County","state_id":"IL"},{"zip":"62922","fips":"17087","name":"Johnson County","state_id":"IL"},{"zip":"62922","fips":"17199","name":"Williamson County","state_id":"IL"},{"zip":"62923","fips":"17153","name":"Pulaski County","state_id":"IL"},{"zip":"62923","fips":"17181","name":"Union County","state_id":"IL"},{"zip":"62923","fips":"17087","name":"Johnson County","state_id":"IL"},{"zip":"62924","fips":"17199","name":"Williamson County","state_id":"IL"},{"zip":"62924","fips":"17077","name":"Jackson County","state_id":"IL"},{"zip":"62926","fips":"17181","name":"Union County","state_id":"IL"},{"zip":"62926","fips":"17153","name":"Pulaski County","state_id":"IL"},{"zip":"62927","fips":"17077","name":"Jackson County","state_id":"IL"},{"zip":"62928","fips":"17151","name":"Pope County","state_id":"IL"},{"zip":"62930","fips":"17059","name":"Gallatin County","state_id":"IL"},{"zip":"62930","fips":"17065","name":"Hamilton County","state_id":"IL"},{"zip":"62930","fips":"17165","name":"Saline County","state_id":"IL"},{"zip":"62931","fips":"17059","name":"Gallatin County","state_id":"IL"},{"zip":"62931","fips":"17069","name":"Hardin County","state_id":"IL"},{"zip":"62932","fips":"17077","name":"Jackson County","state_id":"IL"},{"zip":"62932","fips":"17055","name":"Franklin County","state_id":"IL"},{"zip":"62933","fips":"17199","name":"Williamson County","state_id":"IL"},{"zip":"62934","fips":"17165","name":"Saline County","state_id":"IL"},{"zip":"62934","fips":"17059","name":"Gallatin County","state_id":"IL"},{"zip":"62935","fips":"17165","name":"Saline County","state_id":"IL"},{"zip":"62935","fips":"17065","name":"Hamilton County","state_id":"IL"},{"zip":"62938","fips":"17127","name":"Massac County","state_id":"IL"},{"zip":"62938","fips":"17087","name":"Johnson County","state_id":"IL"},{"zip":"62938","fips":"17151","name":"Pope County","state_id":"IL"},{"zip":"62939","fips":"17087","name":"Johnson County","state_id":"IL"},{"zip":"62939","fips":"17199","name":"Williamson County","state_id":"IL"},{"zip":"62939","fips":"17181","name":"Union County","state_id":"IL"},{"zip":"62940","fips":"17077","name":"Jackson County","state_id":"IL"},{"zip":"62941","fips":"17153","name":"Pulaski County","state_id":"IL"},{"zip":"62941","fips":"17127","name":"Massac County","state_id":"IL"},{"zip":"62942","fips":"17077","name":"Jackson County","state_id":"IL"},{"zip":"62943","fips":"17087","name":"Johnson County","state_id":"IL"},{"zip":"62943","fips":"17127","name":"Massac County","state_id":"IL"},{"zip":"62943","fips":"17151","name":"Pope County","state_id":"IL"},{"zip":"62946","fips":"17165","name":"Saline County","state_id":"IL"},{"zip":"62947","fips":"17151","name":"Pope County","state_id":"IL"},{"zip":"62947","fips":"17069","name":"Hardin County","state_id":"IL"},{"zip":"62947","fips":"17165","name":"Saline County","state_id":"IL"},{"zip":"62948","fips":"17199","name":"Williamson County","state_id":"IL"},{"zip":"62949","fips":"17199","name":"Williamson County","state_id":"IL"},{"zip":"62950","fips":"17077","name":"Jackson County","state_id":"IL"},{"zip":"62951","fips":"17199","name":"Williamson County","state_id":"IL"},{"zip":"62952","fips":"17003","name":"Alexander County","state_id":"IL"},{"zip":"62952","fips":"17181","name":"Union County","state_id":"IL"},{"zip":"62953","fips":"17127","name":"Massac County","state_id":"IL"},{"zip":"62954","fips":"17059","name":"Gallatin County","state_id":"IL"},{"zip":"62956","fips":"17127","name":"Massac County","state_id":"IL"},{"zip":"62956","fips":"17153","name":"Pulaski County","state_id":"IL"},{"zip":"62957","fips":"17181","name":"Union County","state_id":"IL"},{"zip":"62957","fips":"17003","name":"Alexander County","state_id":"IL"},{"zip":"62958","fips":"17077","name":"Jackson County","state_id":"IL"},{"zip":"62958","fips":"17181","name":"Union County","state_id":"IL"},{"zip":"62958","fips":"17199","name":"Williamson County","state_id":"IL"},{"zip":"62959","fips":"17199","name":"Williamson County","state_id":"IL"},{"zip":"62960","fips":"17151","name":"Pope County","state_id":"IL"},{"zip":"62960","fips":"17127","name":"Massac County","state_id":"IL"},{"zip":"62961","fips":"17181","name":"Union County","state_id":"IL"},{"zip":"62962","fips":"17003","name":"Alexander County","state_id":"IL"},{"zip":"62963","fips":"17153","name":"Pulaski County","state_id":"IL"},{"zip":"62964","fips":"17153","name":"Pulaski County","state_id":"IL"},{"zip":"62965","fips":"17165","name":"Saline County","state_id":"IL"},{"zip":"62966","fips":"17077","name":"Jackson County","state_id":"IL"},{"zip":"62967","fips":"17199","name":"Williamson County","state_id":"IL"},{"zip":"62967","fips":"17087","name":"Johnson County","state_id":"IL"},{"zip":"62969","fips":"17003","name":"Alexander County","state_id":"IL"},{"zip":"62970","fips":"17153","name":"Pulaski County","state_id":"IL"},{"zip":"62972","fips":"17151","name":"Pope County","state_id":"IL"},{"zip":"62972","fips":"17165","name":"Saline County","state_id":"IL"},{"zip":"62972","fips":"17087","name":"Johnson County","state_id":"IL"},{"zip":"62972","fips":"17199","name":"Williamson County","state_id":"IL"},{"zip":"62973","fips":"17153","name":"Pulaski County","state_id":"IL"},{"zip":"62974","fips":"17199","name":"Williamson County","state_id":"IL"},{"zip":"62975","fips":"17077","name":"Jackson County","state_id":"IL"},{"zip":"62976","fips":"17153","name":"Pulaski County","state_id":"IL"},{"zip":"62977","fips":"17165","name":"Saline County","state_id":"IL"},{"zip":"62979","fips":"17059","name":"Gallatin County","state_id":"IL"},{"zip":"62982","fips":"17069","name":"Hardin County","state_id":"IL"},{"zip":"62983","fips":"17055","name":"Franklin County","state_id":"IL"},{"zip":"62984","fips":"17059","name":"Gallatin County","state_id":"IL"},{"zip":"62985","fips":"17087","name":"Johnson County","state_id":"IL"},{"zip":"62985","fips":"17151","name":"Pope County","state_id":"IL"},{"zip":"62987","fips":"17151","name":"Pope County","state_id":"IL"},{"zip":"62987","fips":"17199","name":"Williamson County","state_id":"IL"},{"zip":"62987","fips":"17165","name":"Saline County","state_id":"IL"},{"zip":"62988","fips":"17003","name":"Alexander County","state_id":"IL"},{"zip":"62988","fips":"17181","name":"Union County","state_id":"IL"},{"zip":"62990","fips":"17003","name":"Alexander County","state_id":"IL"},{"zip":"62992","fips":"17003","name":"Alexander County","state_id":"IL"},{"zip":"62992","fips":"17153","name":"Pulaski County","state_id":"IL"},{"zip":"62993","fips":"17003","name":"Alexander County","state_id":"IL"},{"zip":"62994","fips":"17077","name":"Jackson County","state_id":"IL"},{"zip":"62995","fips":"17087","name":"Johnson County","state_id":"IL"},{"zip":"62996","fips":"17153","name":"Pulaski County","state_id":"IL"},{"zip":"62997","fips":"17145","name":"Perry County","state_id":"IL"},{"zip":"62998","fips":"17181","name":"Union County","state_id":"IL"},{"zip":"62999","fips":"17055","name":"Franklin County","state_id":"IL"}]
