[{"zip":"63005","fips":"29071","name":"Franklin County","state_id":"MO"},{"zip":"63005","fips":"29189","name":"St. Louis County","state_id":"MO"},{"zip":"63006","fips":"29189","name":"St. Louis County","state_id":"MO"},{"zip":"63010","fips":"29099","name":"Jefferson County","state_id":"MO"},{"zip":"63011","fips":"29189","name":"St. Louis County","state_id":"MO"},{"zip":"63012","fips":"29099","name":"Jefferson County","state_id":"MO"},{"zip":"63013","fips":"29071","name":"Franklin County","state_id":"MO"},{"zip":"63014","fips":"29073","name":"Gasconade County","state_id":"MO"},{"zip":"63014","fips":"29071","name":"Franklin County","state_id":"MO"},{"zip":"63015","fips":"29099","name":"Jefferson County","state_id":"MO"},{"zip":"63015","fips":"29071","name":"Franklin County","state_id":"MO"},{"zip":"63016","fips":"29099","name":"Jefferson County","state_id":"MO"},{"zip":"63017","fips":"29189","name":"St. Louis County","state_id":"MO"},{"zip":"63019","fips":"29099","name":"Jefferson County","state_id":"MO"},{"zip":"63020","fips":"29221","name":"Washington County","state_id":"MO"},{"zip":"63020","fips":"29187","name":"St. Francois County","state_id":"MO"},{"zip":"63020","fips":"29099","name":"Jefferson County","state_id":"MO"},{"zip":"63021","fips":"29189","name":"St. Louis County","state_id":"MO"},{"zip":"63022","fips":"29189","name":"St. Louis County","state_id":"MO"},{"zip":"63023","fips":"29099","name":"Jefferson County","state_id":"MO"},{"zip":"63023","fips":"29221","name":"Washington County","state_id":"MO"},{"zip":"63024","fips":"29189","name":"St. Louis County","state_id":"MO"},{"zip":"63025","fips":"29099","name":"Jefferson County","state_id":"MO"},{"zip":"63025","fips":"29189","name":"St. Louis County","state_id":"MO"},{"zip":"63026","fips":"29189","name":"St. Louis County","state_id":"MO"},{"zip":"63026","fips":"29099","name":"Jefferson County","state_id":"MO"},{"zip":"63028","fips":"29187","name":"St. Francois County","state_id":"MO"},{"zip":"63028","fips":"29186","name":"Ste. Genevieve County","state_id":"MO"},{"zip":"63028","fips":"29099","name":"Jefferson County","state_id":"MO"},{"zip":"63030","fips":"29099","name":"Jefferson County","state_id":"MO"},{"zip":"63030","fips":"29221","name":"Washington County","state_id":"MO"},{"zip":"63031","fips":"29189","name":"St. Louis County","state_id":"MO"},{"zip":"63032","fips":"29189","name":"St. Louis County","state_id":"MO"},{"zip":"63033","fips":"29189","name":"St. Louis County","state_id":"MO"},{"zip":"63034","fips":"29189","name":"St. Louis County","state_id":"MO"},{"zip":"63036","fips":"29186","name":"Ste. Genevieve County","state_id":"MO"},{"zip":"63036","fips":"29187","name":"St. Francois County","state_id":"MO"},{"zip":"63037","fips":"29073","name":"Gasconade County","state_id":"MO"},{"zip":"63037","fips":"29071","name":"Franklin County","state_id":"MO"},{"zip":"63038","fips":"29189","name":"St. Louis County","state_id":"MO"},{"zip":"63039","fips":"29071","name":"Franklin County","state_id":"MO"},{"zip":"63040","fips":"29189","name":"St. Louis County","state_id":"MO"},{"zip":"63041","fips":"29071","name":"Franklin County","state_id":"MO"},{"zip":"63041","fips":"29099","name":"Jefferson County","state_id":"MO"},{"zip":"63042","fips":"29189","name":"St. Louis County","state_id":"MO"},{"zip":"63043","fips":"29189","name":"St. Louis County","state_id":"MO"},{"zip":"63044","fips":"29189","name":"St. Louis County","state_id":"MO"},{"zip":"63045","fips":"29189","name":"St. Louis County","state_id":"MO"},{"zip":"63047","fips":"29099","name":"Jefferson County","state_id":"MO"},{"zip":"63048","fips":"29099","name":"Jefferson County","state_id":"MO"},{"zip":"63049","fips":"29099","name":"Jefferson County","state_id":"MO"},{"zip":"63049","fips":"29189","name":"St. Louis County","state_id":"MO"},{"zip":"63050","fips":"29099","name":"Jefferson County","state_id":"MO"},{"zip":"63051","fips":"29099","name":"Jefferson County","state_id":"MO"},{"zip":"63052","fips":"29099","name":"Jefferson County","state_id":"MO"},{"zip":"63053","fips":"29099","name":"Jefferson County","state_id":"MO"},{"zip":"63055","fips":"29071","name":"Franklin County","state_id":"MO"},{"zip":"63056","fips":"29071","name":"Franklin County","state_id":"MO"},{"zip":"63057","fips":"29099","name":"Jefferson County","state_id":"MO"},{"zip":"63060","fips":"29071","name":"Franklin County","state_id":"MO"},{"zip":"63060","fips":"29221","name":"Washington County","state_id":"MO"},{"zip":"63061","fips":"29099","name":"Jefferson County","state_id":"MO"},{"zip":"63061","fips":"29071","name":"Franklin County","state_id":"MO"},{"zip":"63065","fips":"29099","name":"Jefferson County","state_id":"MO"},{"zip":"63066","fips":"29099","name":"Jefferson County","state_id":"MO"},{"zip":"63068","fips":"29071","name":"Franklin County","state_id":"MO"},{"zip":"63068","fips":"29073","name":"Gasconade County","state_id":"MO"},{"zip":"63069","fips":"29071","name":"Franklin County","state_id":"MO"},{"zip":"63069","fips":"29189","name":"St. Louis County","state_id":"MO"},{"zip":"63069","fips":"29099","name":"Jefferson County","state_id":"MO"},{"zip":"63070","fips":"29099","name":"Jefferson County","state_id":"MO"},{"zip":"63071","fips":"29221","name":"Washington County","state_id":"MO"},{"zip":"63072","fips":"29099","name":"Jefferson County","state_id":"MO"},{"zip":"63072","fips":"29071","name":"Franklin County","state_id":"MO"},{"zip":"63073","fips":"29071","name":"Franklin County","state_id":"MO"},{"zip":"63074","fips":"29189","name":"St. Louis County","state_id":"MO"},{"zip":"63077","fips":"29071","name":"Franklin County","state_id":"MO"},{"zip":"63079","fips":"29071","name":"Franklin County","state_id":"MO"},{"zip":"63080","fips":"29221","name":"Washington County","state_id":"MO"},{"zip":"63080","fips":"29055","name":"Crawford County","state_id":"MO"},{"zip":"63080","fips":"29071","name":"Franklin County","state_id":"MO"},{"zip":"63084","fips":"29071","name":"Franklin County","state_id":"MO"},{"zip":"63087","fips":"29187","name":"St. Francois County","state_id":"MO"},{"zip":"63087","fips":"29099","name":"Jefferson County","state_id":"MO"},{"zip":"63088","fips":"29189","name":"St. Louis County","state_id":"MO"},{"zip":"63089","fips":"29071","name":"Franklin County","state_id":"MO"},{"zip":"63090","fips":"29071","name":"Franklin County","state_id":"MO"},{"zip":"63091","fips":"29073","name":"Gasconade County","state_id":"MO"},{"zip":"63091","fips":"29071","name":"Franklin County","state_id":"MO"}]
