[{"zip":"63101","fips":"29510","name":"St. Louis city","state_id":"MO"},{"zip":"63102","fips":"29510","name":"St. Louis city","state_id":"MO"},{"zip":"63103","fips":"29510","name":"St. Louis city","state_id":"MO"},{"zip":"63104","fips":"29510","name":"St. Louis city","state_id":"MO"},{"zip":"63105","fips":"29189","name":"St. Louis County","state_id":"MO"},{"zip":"63105","fips":"29510","name":"St. Louis city","state_id":"MO"},{"zip":"63106","fips":"29510","name":"St. Louis city","state_id":"MO"},{"zip":"63107","fips":"29510","name":"St. Louis city","state_id":"MO"},{"zip":"63108","fips":"29510","name":"St. Louis city","state_id":"MO"},{"zip":"63109","fips":"29510","name":"St. Louis city","state_id":"MO"},{"zip":"63110","fips":"29510","name":"St. Louis city","state_id":"MO"},{"zip":"63111","fips":"29510","name":"St. Louis city","state_id":"MO"},{"zip":"63112","fips":"29510","name":"St. Louis city","state_id":"MO"},{"zip":"63112","fips":"29189","name":"St. Louis County","state_id":"MO"},{"zip":"63113","fips":"29510","name":"St. Louis city","state_id":"MO"},{"zip":"63114","fips":"29189","name":"St. Louis County","state_id":"MO"},{"zip":"63115","fips":"29510","name":"St. Louis city","state_id":"MO"},{"zip":"63116","fips":"29510","name":"St. Louis city","state_id":"MO"},{"zip":"63117","fips":"29510","name":"St. Louis city","state_id":"MO"},{"zip":"63117","fips":"29189","name":"St. Louis County","state_id":"MO"},{"zip":"63118","fips":"29510","name":"St. Louis city","state_id":"MO"},{"zip":"63119","fips":"29510","name":"St. Louis city","state_id":"MO"},{"zip":"63119","fips":"29189","name":"St. Louis County","state_id":"MO"},{"zip":"63120","fips":"29510","name":"St. Louis city","state_id":"MO"},{"zip":"63120","fips":"29189","name":"St. Louis County","state_id":"MO"},{"zip":"63121","fips":"29189","name":"St. Louis County","state_id":"MO"},{"zip":"63122","fips":"29189","name":"St. Louis County","state_id":"MO"},{"zip":"63123","fips":"29510","name":"St. Louis city","state_id":"MO"},{"zip":"63123","fips":"29189","name":"St. Louis County","state_id":"MO"},{"zip":"63124","fips":"29189","name":"St. Louis County","state_id":"MO"},{"zip":"63125","fips":"29189","name":"St. Louis County","state_id":"MO"},{"zip":"63125","fips":"29510","name":"St. Louis city","state_id":"MO"},{"zip":"63126","fips":"29189","name":"St. Louis County","state_id":"MO"},{"zip":"63127","fips":"29189","name":"St. Louis County","state_id":"MO"},{"zip":"63128","fips":"29189","name":"St. Louis County","state_id":"MO"},{"zip":"63129","fips":"29189","name":"St. Louis County","state_id":"MO"},{"zip":"63130","fips":"29510","name":"St. Louis city","state_id":"MO"},{"zip":"63130","fips":"29189","name":"St. Louis County","state_id":"MO"},{"zip":"63131","fips":"29189","name":"St. Louis County","state_id":"MO"},{"zip":"63132","fips":"29189","name":"St. Louis County","state_id":"MO"},{"zip":"63133","fips":"29510","name":"St. Louis city","state_id":"MO"},{"zip":"63133","fips":"29189","name":"St. Louis County","state_id":"MO"},{"zip":"63134","fips":"29189","name":"St. Louis County","state_id":"MO"},{"zip":"63135","fips":"29189","name":"St. Louis County","state_id":"MO"},{"zip":"63136","fips":"29510","name":"St. Louis city","state_id":"MO"},{"zip":"63136","fips":"29189","name":"St. Louis County","state_id":"MO"},{"zip":"63137","fips":"29510","name":"St. Louis city","state_id":"MO"},{"zip":"63137","fips":"29189","name":"St. Louis County","state_id":"MO"},{"zip":"63138","fips":"29510","name":"St. Louis city","state_id":"MO"},{"zip":"63138","fips":"29189","name":"St. Louis County","state_id":"MO"},{"zip":"63139","fips":"29510","name":"St. Louis city","state_id":"MO"},{"zip":"63140","fips":"29189","name":"St. Louis County","state_id":"MO"},{"zip":"63141","fips":"29189","name":"St. Louis County","state_id":"MO"},{"zip":"63143","fips":"29510","name":"St. Louis city","state_id":"MO"},{"zip":"63143","fips":"29189","name":"St. Louis County","state_id":"MO"},{"zip":"63144","fips":"29189","name":"St. Louis County","state_id":"MO"},{"zip":"63145","fips":"29189","name":"St. Louis County","state_id":"MO"},{"zip":"63146","fips":"29189","name":"St. Louis County","state_id":"MO"},{"zip":"63147","fips":"29510","name":"St. Louis city","state_id":"MO"},{"zip":"63150","fips":"29510","name":"St. Louis city","state_id":"MO"},{"zip":"63151","fips":"29189","name":"St. Louis County","state_id":"MO"},{"zip":"63155","fips":"29510","name":"St. Louis city","state_id":"MO"},{"zip":"63156","fips":"29510","name":"St. Louis city","state_id":"MO"},{"zip":"63160","fips":"29510","name":"St. Louis city","state_id":"MO"},{"zip":"63164","fips":"29510","name":"St. Louis city","state_id":"MO"},{"zip":"63166","fips":"29510","name":"St. Louis city","state_id":"MO"},{"zip":"63167","fips":"29189","name":"St. Louis County","state_id":"MO"},{"zip":"63171","fips":"29189","name":"St. Louis County","state_id":"MO"},{"zip":"63177","fips":"29510","name":"St. Louis city","state_id":"MO"},{"zip":"63178","fips":"29510","name":"St. Louis city","state_id":"MO"},{"zip":"63180","fips":"29510","name":"St. Louis city","state_id":"MO"}]
