[{"zip":"63301","fips":"29183","name":"St. Charles County","state_id":"MO"},{"zip":"63302","fips":"29183","name":"St. Charles County","state_id":"MO"},{"zip":"63303","fips":"29183","name":"St. Charles County","state_id":"MO"},{"zip":"63304","fips":"29183","name":"St. Charles County","state_id":"MO"},{"zip":"63330","fips":"29163","name":"Pike County","state_id":"MO"},{"zip":"63332","fips":"29183","name":"St. Charles County","state_id":"MO"},{"zip":"63333","fips":"29139","name":"Montgomery County","state_id":"MO"},{"zip":"63333","fips":"29113","name":"Lincoln County","state_id":"MO"},{"zip":"63334","fips":"29113","name":"Lincoln County","state_id":"MO"},{"zip":"63334","fips":"29163","name":"Pike County","state_id":"MO"},{"zip":"63336","fips":"29163","name":"Pike County","state_id":"MO"},{"zip":"63338","fips":"29183","name":"St. Charles County","state_id":"MO"},{"zip":"63339","fips":"29163","name":"Pike County","state_id":"MO"},{"zip":"63341","fips":"29183","name":"St. Charles County","state_id":"MO"},{"zip":"63342","fips":"29219","name":"Warren County","state_id":"MO"},{"zip":"63343","fips":"29163","name":"Pike County","state_id":"MO"},{"zip":"63343","fips":"29113","name":"Lincoln County","state_id":"MO"},{"zip":"63344","fips":"29113","name":"Lincoln County","state_id":"MO"},{"zip":"63344","fips":"29163","name":"Pike County","state_id":"MO"},{"zip":"63345","fips":"29007","name":"Audrain County","state_id":"MO"},{"zip":"63346","fips":"29183","name":"St. Charles County","state_id":"MO"},{"zip":"63347","fips":"29113","name":"Lincoln County","state_id":"MO"},{"zip":"63348","fips":"29183","name":"St. Charles County","state_id":"MO"},{"zip":"63348","fips":"29113","name":"Lincoln County","state_id":"MO"},{"zip":"63348","fips":"29219","name":"Warren County","state_id":"MO"},{"zip":"63349","fips":"29219","name":"Warren County","state_id":"MO"},{"zip":"63349","fips":"29113","name":"Lincoln County","state_id":"MO"},{"zip":"63350","fips":"29139","name":"Montgomery County","state_id":"MO"},{"zip":"63351","fips":"29139","name":"Montgomery County","state_id":"MO"},{"zip":"63351","fips":"29219","name":"Warren County","state_id":"MO"},{"zip":"63352","fips":"29007","name":"Audrain County","state_id":"MO"},{"zip":"63352","fips":"29173","name":"Ralls County","state_id":"MO"},{"zip":"63353","fips":"29163","name":"Pike County","state_id":"MO"},{"zip":"63357","fips":"29219","name":"Warren County","state_id":"MO"},{"zip":"63357","fips":"29183","name":"St. Charles County","state_id":"MO"},{"zip":"63359","fips":"29139","name":"Montgomery County","state_id":"MO"},{"zip":"63359","fips":"29113","name":"Lincoln County","state_id":"MO"},{"zip":"63359","fips":"29163","name":"Pike County","state_id":"MO"},{"zip":"63359","fips":"29007","name":"Audrain County","state_id":"MO"},{"zip":"63361","fips":"29027","name":"Callaway County","state_id":"MO"},{"zip":"63361","fips":"29139","name":"Montgomery County","state_id":"MO"},{"zip":"63362","fips":"29113","name":"Lincoln County","state_id":"MO"},{"zip":"63363","fips":"29219","name":"Warren County","state_id":"MO"},{"zip":"63363","fips":"29139","name":"Montgomery County","state_id":"MO"},{"zip":"63365","fips":"29183","name":"St. Charles County","state_id":"MO"},{"zip":"63366","fips":"29183","name":"St. Charles County","state_id":"MO"},{"zip":"63367","fips":"29183","name":"St. Charles County","state_id":"MO"},{"zip":"63368","fips":"29183","name":"St. Charles County","state_id":"MO"},{"zip":"63369","fips":"29113","name":"Lincoln County","state_id":"MO"},{"zip":"63373","fips":"29183","name":"St. Charles County","state_id":"MO"},{"zip":"63376","fips":"29183","name":"St. Charles County","state_id":"MO"},{"zip":"63377","fips":"29113","name":"Lincoln County","state_id":"MO"},{"zip":"63378","fips":"29219","name":"Warren County","state_id":"MO"},{"zip":"63379","fips":"29113","name":"Lincoln County","state_id":"MO"},{"zip":"63379","fips":"29219","name":"Warren County","state_id":"MO"},{"zip":"63380","fips":"29219","name":"Warren County","state_id":"MO"},{"zip":"63381","fips":"29139","name":"Montgomery County","state_id":"MO"},{"zip":"63381","fips":"29113","name":"Lincoln County","state_id":"MO"},{"zip":"63381","fips":"29219","name":"Warren County","state_id":"MO"},{"zip":"63382","fips":"29007","name":"Audrain County","state_id":"MO"},{"zip":"63382","fips":"29163","name":"Pike County","state_id":"MO"},{"zip":"63382","fips":"29173","name":"Ralls County","state_id":"MO"},{"zip":"63383","fips":"29113","name":"Lincoln County","state_id":"MO"},{"zip":"63383","fips":"29219","name":"Warren County","state_id":"MO"},{"zip":"63384","fips":"29139","name":"Montgomery County","state_id":"MO"},{"zip":"63384","fips":"29007","name":"Audrain County","state_id":"MO"},{"zip":"63384","fips":"29027","name":"Callaway County","state_id":"MO"},{"zip":"63385","fips":"29183","name":"St. Charles County","state_id":"MO"},{"zip":"63386","fips":"29183","name":"St. Charles County","state_id":"MO"},{"zip":"63387","fips":"29113","name":"Lincoln County","state_id":"MO"},{"zip":"63388","fips":"29027","name":"Callaway County","state_id":"MO"},{"zip":"63389","fips":"29113","name":"Lincoln County","state_id":"MO"},{"zip":"63390","fips":"29113","name":"Lincoln County","state_id":"MO"},{"zip":"63390","fips":"29219","name":"Warren County","state_id":"MO"}]
