[{"zip":"63401","fips":"29127","name":"Marion County","state_id":"MO"},{"zip":"63401","fips":"29173","name":"Ralls County","state_id":"MO"},{"zip":"63430","fips":"29045","name":"Clark County","state_id":"MO"},{"zip":"63431","fips":"29121","name":"Macon County","state_id":"MO"},{"zip":"63432","fips":"29045","name":"Clark County","state_id":"MO"},{"zip":"63432","fips":"29199","name":"Scotland County","state_id":"MO"},{"zip":"63433","fips":"29163","name":"Pike County","state_id":"MO"},{"zip":"63434","fips":"29205","name":"Shelby County","state_id":"MO"},{"zip":"63435","fips":"29045","name":"Clark County","state_id":"MO"},{"zip":"63435","fips":"29111","name":"Lewis County","state_id":"MO"},{"zip":"63436","fips":"29173","name":"Ralls County","state_id":"MO"},{"zip":"63437","fips":"29137","name":"Monroe County","state_id":"MO"},{"zip":"63437","fips":"29121","name":"Macon County","state_id":"MO"},{"zip":"63437","fips":"29205","name":"Shelby County","state_id":"MO"},{"zip":"63438","fips":"29127","name":"Marion County","state_id":"MO"},{"zip":"63438","fips":"29111","name":"Lewis County","state_id":"MO"},{"zip":"63439","fips":"29127","name":"Marion County","state_id":"MO"},{"zip":"63439","fips":"29205","name":"Shelby County","state_id":"MO"},{"zip":"63440","fips":"29127","name":"Marion County","state_id":"MO"},{"zip":"63440","fips":"29111","name":"Lewis County","state_id":"MO"},{"zip":"63440","fips":"29205","name":"Shelby County","state_id":"MO"},{"zip":"63441","fips":"29173","name":"Ralls County","state_id":"MO"},{"zip":"63441","fips":"29163","name":"Pike County","state_id":"MO"},{"zip":"63442","fips":"29199","name":"Scotland County","state_id":"MO"},{"zip":"63443","fips":"29127","name":"Marion County","state_id":"MO"},{"zip":"63443","fips":"29205","name":"Shelby County","state_id":"MO"},{"zip":"63443","fips":"29137","name":"Monroe County","state_id":"MO"},{"zip":"63445","fips":"29045","name":"Clark County","state_id":"MO"},{"zip":"63446","fips":"29111","name":"Lewis County","state_id":"MO"},{"zip":"63446","fips":"29103","name":"Knox County","state_id":"MO"},{"zip":"63447","fips":"29111","name":"Lewis County","state_id":"MO"},{"zip":"63448","fips":"29111","name":"Lewis County","state_id":"MO"},{"zip":"63450","fips":"29205","name":"Shelby County","state_id":"MO"},{"zip":"63451","fips":"29121","name":"Macon County","state_id":"MO"},{"zip":"63451","fips":"29205","name":"Shelby County","state_id":"MO"},{"zip":"63452","fips":"29111","name":"Lewis County","state_id":"MO"},{"zip":"63453","fips":"29045","name":"Clark County","state_id":"MO"},{"zip":"63454","fips":"29111","name":"Lewis County","state_id":"MO"},{"zip":"63454","fips":"29127","name":"Marion County","state_id":"MO"},{"zip":"63456","fips":"29127","name":"Marion County","state_id":"MO"},{"zip":"63456","fips":"29137","name":"Monroe County","state_id":"MO"},{"zip":"63456","fips":"29173","name":"Ralls County","state_id":"MO"},{"zip":"63457","fips":"29111","name":"Lewis County","state_id":"MO"},{"zip":"63458","fips":"29103","name":"Knox County","state_id":"MO"},{"zip":"63459","fips":"29173","name":"Ralls County","state_id":"MO"},{"zip":"63459","fips":"29163","name":"Pike County","state_id":"MO"},{"zip":"63460","fips":"29103","name":"Knox County","state_id":"MO"},{"zip":"63461","fips":"29173","name":"Ralls County","state_id":"MO"},{"zip":"63461","fips":"29127","name":"Marion County","state_id":"MO"},{"zip":"63462","fips":"29173","name":"Ralls County","state_id":"MO"},{"zip":"63462","fips":"29137","name":"Monroe County","state_id":"MO"},{"zip":"63463","fips":"29127","name":"Marion County","state_id":"MO"},{"zip":"63465","fips":"29045","name":"Clark County","state_id":"MO"},{"zip":"63466","fips":"29045","name":"Clark County","state_id":"MO"},{"zip":"63467","fips":"29173","name":"Ralls County","state_id":"MO"},{"zip":"63468","fips":"29205","name":"Shelby County","state_id":"MO"},{"zip":"63468","fips":"29137","name":"Monroe County","state_id":"MO"},{"zip":"63469","fips":"29205","name":"Shelby County","state_id":"MO"},{"zip":"63471","fips":"29127","name":"Marion County","state_id":"MO"},{"zip":"63471","fips":"29111","name":"Lewis County","state_id":"MO"},{"zip":"63472","fips":"29045","name":"Clark County","state_id":"MO"},{"zip":"63473","fips":"29111","name":"Lewis County","state_id":"MO"},{"zip":"63474","fips":"29111","name":"Lewis County","state_id":"MO"},{"zip":"63474","fips":"29045","name":"Clark County","state_id":"MO"}]
