[{"zip":"63501","fips":"29001","name":"Adair County","state_id":"MO"},{"zip":"63530","fips":"29103","name":"Knox County","state_id":"MO"},{"zip":"63530","fips":"29121","name":"Macon County","state_id":"MO"},{"zip":"63531","fips":"29103","name":"Knox County","state_id":"MO"},{"zip":"63532","fips":"29121","name":"Macon County","state_id":"MO"},{"zip":"63533","fips":"29103","name":"Knox County","state_id":"MO"},{"zip":"63533","fips":"29001","name":"Adair County","state_id":"MO"},{"zip":"63534","fips":"29175","name":"Randolph County","state_id":"MO"},{"zip":"63534","fips":"29121","name":"Macon County","state_id":"MO"},{"zip":"63535","fips":"29197","name":"Schuyler County","state_id":"MO"},{"zip":"63536","fips":"29197","name":"Schuyler County","state_id":"MO"},{"zip":"63537","fips":"29103","name":"Knox County","state_id":"MO"},{"zip":"63538","fips":"29121","name":"Macon County","state_id":"MO"},{"zip":"63539","fips":"29121","name":"Macon County","state_id":"MO"},{"zip":"63540","fips":"29001","name":"Adair County","state_id":"MO"},{"zip":"63541","fips":"29197","name":"Schuyler County","state_id":"MO"},{"zip":"63543","fips":"29199","name":"Scotland County","state_id":"MO"},{"zip":"63544","fips":"29171","name":"Putnam County","state_id":"MO"},{"zip":"63544","fips":"29001","name":"Adair County","state_id":"MO"},{"zip":"63544","fips":"29211","name":"Sullivan County","state_id":"MO"},{"zip":"63545","fips":"29211","name":"Sullivan County","state_id":"MO"},{"zip":"63546","fips":"29197","name":"Schuyler County","state_id":"MO"},{"zip":"63546","fips":"29001","name":"Adair County","state_id":"MO"},{"zip":"63547","fips":"29001","name":"Adair County","state_id":"MO"},{"zip":"63547","fips":"29103","name":"Knox County","state_id":"MO"},{"zip":"63548","fips":"29197","name":"Schuyler County","state_id":"MO"},{"zip":"63549","fips":"29121","name":"Macon County","state_id":"MO"},{"zip":"63549","fips":"29001","name":"Adair County","state_id":"MO"},{"zip":"63551","fips":"29171","name":"Putnam County","state_id":"MO"},{"zip":"63552","fips":"29121","name":"Macon County","state_id":"MO"},{"zip":"63555","fips":"29199","name":"Scotland County","state_id":"MO"},{"zip":"63556","fips":"29211","name":"Sullivan County","state_id":"MO"},{"zip":"63557","fips":"29001","name":"Adair County","state_id":"MO"},{"zip":"63557","fips":"29115","name":"Linn County","state_id":"MO"},{"zip":"63557","fips":"29121","name":"Macon County","state_id":"MO"},{"zip":"63557","fips":"29211","name":"Sullivan County","state_id":"MO"},{"zip":"63558","fips":"29121","name":"Macon County","state_id":"MO"},{"zip":"63558","fips":"29041","name":"Chariton County","state_id":"MO"},{"zip":"63559","fips":"29171","name":"Putnam County","state_id":"MO"},{"zip":"63559","fips":"29001","name":"Adair County","state_id":"MO"},{"zip":"63560","fips":"29211","name":"Sullivan County","state_id":"MO"},{"zip":"63560","fips":"29171","name":"Putnam County","state_id":"MO"},{"zip":"63561","fips":"29197","name":"Schuyler County","state_id":"MO"},{"zip":"63563","fips":"29103","name":"Knox County","state_id":"MO"},{"zip":"63563","fips":"29199","name":"Scotland County","state_id":"MO"},{"zip":"63565","fips":"29171","name":"Putnam County","state_id":"MO"},{"zip":"63565","fips":"29211","name":"Sullivan County","state_id":"MO"},{"zip":"63566","fips":"29211","name":"Sullivan County","state_id":"MO"},{"zip":"63566","fips":"29115","name":"Linn County","state_id":"MO"},{"zip":"63567","fips":"29171","name":"Putnam County","state_id":"MO"}]
