[{"zip":"63601","fips":"29221","name":"Washington County","state_id":"MO"},{"zip":"63601","fips":"29187","name":"St. Francois County","state_id":"MO"},{"zip":"63620","fips":"29123","name":"Madison County","state_id":"MO"},{"zip":"63620","fips":"29179","name":"Reynolds County","state_id":"MO"},{"zip":"63620","fips":"29093","name":"Iron County","state_id":"MO"},{"zip":"63621","fips":"29093","name":"Iron County","state_id":"MO"},{"zip":"63621","fips":"29123","name":"Madison County","state_id":"MO"},{"zip":"63622","fips":"29221","name":"Washington County","state_id":"MO"},{"zip":"63623","fips":"29093","name":"Iron County","state_id":"MO"},{"zip":"63624","fips":"29187","name":"St. Francois County","state_id":"MO"},{"zip":"63624","fips":"29093","name":"Iron County","state_id":"MO"},{"zip":"63624","fips":"29221","name":"Washington County","state_id":"MO"},{"zip":"63625","fips":"29179","name":"Reynolds County","state_id":"MO"},{"zip":"63626","fips":"29221","name":"Washington County","state_id":"MO"},{"zip":"63626","fips":"29187","name":"St. Francois County","state_id":"MO"},{"zip":"63627","fips":"29186","name":"Ste. Genevieve County","state_id":"MO"},{"zip":"63627","fips":"29099","name":"Jefferson County","state_id":"MO"},{"zip":"63628","fips":"29221","name":"Washington County","state_id":"MO"},{"zip":"63628","fips":"29187","name":"St. Francois County","state_id":"MO"},{"zip":"63628","fips":"29186","name":"Ste. Genevieve County","state_id":"MO"},{"zip":"63628","fips":"29099","name":"Jefferson County","state_id":"MO"},{"zip":"63629","fips":"29065","name":"Dent County","state_id":"MO"},{"zip":"63629","fips":"29179","name":"Reynolds County","state_id":"MO"},{"zip":"63630","fips":"29221","name":"Washington County","state_id":"MO"},{"zip":"63630","fips":"29187","name":"St. Francois County","state_id":"MO"},{"zip":"63631","fips":"29221","name":"Washington County","state_id":"MO"},{"zip":"63631","fips":"29093","name":"Iron County","state_id":"MO"},{"zip":"63633","fips":"29179","name":"Reynolds County","state_id":"MO"},{"zip":"63636","fips":"29123","name":"Madison County","state_id":"MO"},{"zip":"63636","fips":"29093","name":"Iron County","state_id":"MO"},{"zip":"63637","fips":"29187","name":"St. Francois County","state_id":"MO"},{"zip":"63638","fips":"29179","name":"Reynolds County","state_id":"MO"},{"zip":"63638","fips":"29223","name":"Wayne County","state_id":"MO"},{"zip":"63638","fips":"29065","name":"Dent County","state_id":"MO"},{"zip":"63640","fips":"29186","name":"Ste. Genevieve County","state_id":"MO"},{"zip":"63640","fips":"29123","name":"Madison County","state_id":"MO"},{"zip":"63640","fips":"29187","name":"St. Francois County","state_id":"MO"},{"zip":"63645","fips":"29157","name":"Perry County","state_id":"MO"},{"zip":"63645","fips":"29186","name":"Ste. Genevieve County","state_id":"MO"},{"zip":"63645","fips":"29187","name":"St. Francois County","state_id":"MO"},{"zip":"63645","fips":"29123","name":"Madison County","state_id":"MO"},{"zip":"63648","fips":"29187","name":"St. Francois County","state_id":"MO"},{"zip":"63648","fips":"29221","name":"Washington County","state_id":"MO"},{"zip":"63650","fips":"29187","name":"St. Francois County","state_id":"MO"},{"zip":"63650","fips":"29093","name":"Iron County","state_id":"MO"},{"zip":"63650","fips":"29123","name":"Madison County","state_id":"MO"},{"zip":"63651","fips":"29187","name":"St. Francois County","state_id":"MO"},{"zip":"63653","fips":"29187","name":"St. Francois County","state_id":"MO"},{"zip":"63654","fips":"29187","name":"St. Francois County","state_id":"MO"},{"zip":"63654","fips":"29179","name":"Reynolds County","state_id":"MO"},{"zip":"63655","fips":"29123","name":"Madison County","state_id":"MO"},{"zip":"63656","fips":"29093","name":"Iron County","state_id":"MO"},{"zip":"63660","fips":"29221","name":"Washington County","state_id":"MO"},{"zip":"63660","fips":"29187","name":"St. Francois County","state_id":"MO"},{"zip":"63662","fips":"29017","name":"Bollinger County","state_id":"MO"},{"zip":"63663","fips":"29093","name":"Iron County","state_id":"MO"},{"zip":"63664","fips":"29221","name":"Washington County","state_id":"MO"},{"zip":"63665","fips":"29179","name":"Reynolds County","state_id":"MO"},{"zip":"63666","fips":"29179","name":"Reynolds County","state_id":"MO"},{"zip":"63670","fips":"29186","name":"Ste. Genevieve County","state_id":"MO"},{"zip":"63673","fips":"29157","name":"Perry County","state_id":"MO"},{"zip":"63673","fips":"29186","name":"Ste. Genevieve County","state_id":"MO"},{"zip":"63674","fips":"29221","name":"Washington County","state_id":"MO"},{"zip":"63675","fips":"29093","name":"Iron County","state_id":"MO"}]
