[{"zip":"63701","fips":"29031","name":"Cape Girardeau County","state_id":"MO"},{"zip":"63702","fips":"29031","name":"Cape Girardeau County","state_id":"MO"},{"zip":"63703","fips":"29031","name":"Cape Girardeau County","state_id":"MO"},{"zip":"63730","fips":"29031","name":"Cape Girardeau County","state_id":"MO"},{"zip":"63730","fips":"29017","name":"Bollinger County","state_id":"MO"},{"zip":"63730","fips":"29207","name":"Stoddard County","state_id":"MO"},{"zip":"63732","fips":"29157","name":"Perry County","state_id":"MO"},{"zip":"63732","fips":"29031","name":"Cape Girardeau County","state_id":"MO"},{"zip":"63735","fips":"29207","name":"Stoddard County","state_id":"MO"},{"zip":"63735","fips":"29201","name":"Scott County","state_id":"MO"},{"zip":"63736","fips":"29201","name":"Scott County","state_id":"MO"},{"zip":"63737","fips":"29157","name":"Perry County","state_id":"MO"},{"zip":"63738","fips":"29207","name":"Stoddard County","state_id":"MO"},{"zip":"63739","fips":"29031","name":"Cape Girardeau County","state_id":"MO"},{"zip":"63740","fips":"29031","name":"Cape Girardeau County","state_id":"MO"},{"zip":"63740","fips":"29201","name":"Scott County","state_id":"MO"},{"zip":"63742","fips":"29201","name":"Scott County","state_id":"MO"},{"zip":"63743","fips":"29031","name":"Cape Girardeau County","state_id":"MO"},{"zip":"63744","fips":"29031","name":"Cape Girardeau County","state_id":"MO"},{"zip":"63745","fips":"29031","name":"Cape Girardeau County","state_id":"MO"},{"zip":"63746","fips":"29157","name":"Perry County","state_id":"MO"},{"zip":"63747","fips":"29031","name":"Cape Girardeau County","state_id":"MO"},{"zip":"63748","fips":"29157","name":"Perry County","state_id":"MO"},{"zip":"63750","fips":"29017","name":"Bollinger County","state_id":"MO"},{"zip":"63751","fips":"29017","name":"Bollinger County","state_id":"MO"},{"zip":"63751","fips":"29123","name":"Madison County","state_id":"MO"},{"zip":"63752","fips":"29031","name":"Cape Girardeau County","state_id":"MO"},{"zip":"63755","fips":"29031","name":"Cape Girardeau County","state_id":"MO"},{"zip":"63758","fips":"29201","name":"Scott County","state_id":"MO"},{"zip":"63760","fips":"29017","name":"Bollinger County","state_id":"MO"},{"zip":"63763","fips":"29223","name":"Wayne County","state_id":"MO"},{"zip":"63764","fips":"29017","name":"Bollinger County","state_id":"MO"},{"zip":"63764","fips":"29031","name":"Cape Girardeau County","state_id":"MO"},{"zip":"63766","fips":"29031","name":"Cape Girardeau County","state_id":"MO"},{"zip":"63767","fips":"29201","name":"Scott County","state_id":"MO"},{"zip":"63769","fips":"29031","name":"Cape Girardeau County","state_id":"MO"},{"zip":"63770","fips":"29031","name":"Cape Girardeau County","state_id":"MO"},{"zip":"63770","fips":"29157","name":"Perry County","state_id":"MO"},{"zip":"63771","fips":"29207","name":"Stoddard County","state_id":"MO"},{"zip":"63771","fips":"29201","name":"Scott County","state_id":"MO"},{"zip":"63771","fips":"29031","name":"Cape Girardeau County","state_id":"MO"},{"zip":"63774","fips":"29201","name":"Scott County","state_id":"MO"},{"zip":"63775","fips":"29157","name":"Perry County","state_id":"MO"},{"zip":"63775","fips":"29031","name":"Cape Girardeau County","state_id":"MO"},{"zip":"63776","fips":"29157","name":"Perry County","state_id":"MO"},{"zip":"63779","fips":"29031","name":"Cape Girardeau County","state_id":"MO"},{"zip":"63780","fips":"29201","name":"Scott County","state_id":"MO"},{"zip":"63780","fips":"29031","name":"Cape Girardeau County","state_id":"MO"},{"zip":"63781","fips":"29017","name":"Bollinger County","state_id":"MO"},{"zip":"63781","fips":"29157","name":"Perry County","state_id":"MO"},{"zip":"63782","fips":"29017","name":"Bollinger County","state_id":"MO"},{"zip":"63783","fips":"29157","name":"Perry County","state_id":"MO"},{"zip":"63784","fips":"29201","name":"Scott County","state_id":"MO"},{"zip":"63785","fips":"29031","name":"Cape Girardeau County","state_id":"MO"},{"zip":"63787","fips":"29017","name":"Bollinger County","state_id":"MO"}]
