[{"zip":"63801","fips":"29143","name":"New Madrid County","state_id":"MO"},{"zip":"63801","fips":"29201","name":"Scott County","state_id":"MO"},{"zip":"63801","fips":"29207","name":"Stoddard County","state_id":"MO"},{"zip":"63801","fips":"29133","name":"Mississippi County","state_id":"MO"},{"zip":"63820","fips":"29133","name":"Mississippi County","state_id":"MO"},{"zip":"63821","fips":"29069","name":"Dunklin County","state_id":"MO"},{"zip":"63822","fips":"29143","name":"New Madrid County","state_id":"MO"},{"zip":"63822","fips":"29207","name":"Stoddard County","state_id":"MO"},{"zip":"63822","fips":"29069","name":"Dunklin County","state_id":"MO"},{"zip":"63823","fips":"29133","name":"Mississippi County","state_id":"MO"},{"zip":"63823","fips":"29201","name":"Scott County","state_id":"MO"},{"zip":"63824","fips":"29201","name":"Scott County","state_id":"MO"},{"zip":"63825","fips":"29207","name":"Stoddard County","state_id":"MO"},{"zip":"63826","fips":"29155","name":"Pemiscot County","state_id":"MO"},{"zip":"63827","fips":"29155","name":"Pemiscot County","state_id":"MO"},{"zip":"63828","fips":"29143","name":"New Madrid County","state_id":"MO"},{"zip":"63829","fips":"29069","name":"Dunklin County","state_id":"MO"},{"zip":"63830","fips":"29155","name":"Pemiscot County","state_id":"MO"},{"zip":"63833","fips":"29143","name":"New Madrid County","state_id":"MO"},{"zip":"63833","fips":"29207","name":"Stoddard County","state_id":"MO"},{"zip":"63834","fips":"29201","name":"Scott County","state_id":"MO"},{"zip":"63834","fips":"29133","name":"Mississippi County","state_id":"MO"},{"zip":"63837","fips":"29069","name":"Dunklin County","state_id":"MO"},{"zip":"63837","fips":"29143","name":"New Madrid County","state_id":"MO"},{"zip":"63839","fips":"29155","name":"Pemiscot County","state_id":"MO"},{"zip":"63840","fips":"29155","name":"Pemiscot County","state_id":"MO"},{"zip":"63841","fips":"29207","name":"Stoddard County","state_id":"MO"},{"zip":"63845","fips":"29143","name":"New Madrid County","state_id":"MO"},{"zip":"63845","fips":"29133","name":"Mississippi County","state_id":"MO"},{"zip":"63846","fips":"29207","name":"Stoddard County","state_id":"MO"},{"zip":"63847","fips":"29069","name":"Dunklin County","state_id":"MO"},{"zip":"63848","fips":"29155","name":"Pemiscot County","state_id":"MO"},{"zip":"63848","fips":"29143","name":"New Madrid County","state_id":"MO"},{"zip":"63849","fips":"29155","name":"Pemiscot County","state_id":"MO"},{"zip":"63849","fips":"29069","name":"Dunklin County","state_id":"MO"},{"zip":"63850","fips":"29207","name":"Stoddard County","state_id":"MO"},{"zip":"63851","fips":"29155","name":"Pemiscot County","state_id":"MO"},{"zip":"63852","fips":"29155","name":"Pemiscot County","state_id":"MO"},{"zip":"63852","fips":"29069","name":"Dunklin County","state_id":"MO"},{"zip":"63853","fips":"29155","name":"Pemiscot County","state_id":"MO"},{"zip":"63855","fips":"29069","name":"Dunklin County","state_id":"MO"},{"zip":"63855","fips":"29155","name":"Pemiscot County","state_id":"MO"},{"zip":"63857","fips":"29069","name":"Dunklin County","state_id":"MO"},{"zip":"63857","fips":"29155","name":"Pemiscot County","state_id":"MO"},{"zip":"63860","fips":"29143","name":"New Madrid County","state_id":"MO"},{"zip":"63862","fips":"29143","name":"New Madrid County","state_id":"MO"},{"zip":"63863","fips":"29069","name":"Dunklin County","state_id":"MO"},{"zip":"63866","fips":"29143","name":"New Madrid County","state_id":"MO"},{"zip":"63867","fips":"29143","name":"New Madrid County","state_id":"MO"},{"zip":"63868","fips":"29143","name":"New Madrid County","state_id":"MO"},{"zip":"63869","fips":"29143","name":"New Madrid County","state_id":"MO"},{"zip":"63870","fips":"29143","name":"New Madrid County","state_id":"MO"},{"zip":"63870","fips":"29207","name":"Stoddard County","state_id":"MO"},{"zip":"63873","fips":"29155","name":"Pemiscot County","state_id":"MO"},{"zip":"63873","fips":"29143","name":"New Madrid County","state_id":"MO"},{"zip":"63874","fips":"29143","name":"New Madrid County","state_id":"MO"},{"zip":"63875","fips":"29069","name":"Dunklin County","state_id":"MO"},{"zip":"63876","fips":"29069","name":"Dunklin County","state_id":"MO"},{"zip":"63877","fips":"29069","name":"Dunklin County","state_id":"MO"},{"zip":"63877","fips":"29155","name":"Pemiscot County","state_id":"MO"},{"zip":"63878","fips":"29143","name":"New Madrid County","state_id":"MO"},{"zip":"63879","fips":"29155","name":"Pemiscot County","state_id":"MO"},{"zip":"63880","fips":"29069","name":"Dunklin County","state_id":"MO"},{"zip":"63881","fips":"29133","name":"Mississippi County","state_id":"MO"},{"zip":"63882","fips":"29133","name":"Mississippi County","state_id":"MO"}]
