[{"zip":"63901","fips":"29035","name":"Carter County","state_id":"MO"},{"zip":"63901","fips":"29023","name":"Butler County","state_id":"MO"},{"zip":"63902","fips":"29023","name":"Butler County","state_id":"MO"},{"zip":"63931","fips":"29181","name":"Ripley County","state_id":"MO"},{"zip":"63932","fips":"29023","name":"Butler County","state_id":"MO"},{"zip":"63933","fips":"29069","name":"Dunklin County","state_id":"MO"},{"zip":"63934","fips":"29223","name":"Wayne County","state_id":"MO"},{"zip":"63935","fips":"29181","name":"Ripley County","state_id":"MO"},{"zip":"63936","fips":"29207","name":"Stoddard County","state_id":"MO"},{"zip":"63937","fips":"29035","name":"Carter County","state_id":"MO"},{"zip":"63937","fips":"29023","name":"Butler County","state_id":"MO"},{"zip":"63939","fips":"29181","name":"Ripley County","state_id":"MO"},{"zip":"63940","fips":"29023","name":"Butler County","state_id":"MO"},{"zip":"63941","fips":"29035","name":"Carter County","state_id":"MO"},{"zip":"63942","fips":"29181","name":"Ripley County","state_id":"MO"},{"zip":"63943","fips":"29035","name":"Carter County","state_id":"MO"},{"zip":"63944","fips":"29223","name":"Wayne County","state_id":"MO"},{"zip":"63945","fips":"29023","name":"Butler County","state_id":"MO"},{"zip":"63950","fips":"29223","name":"Wayne County","state_id":"MO"},{"zip":"63951","fips":"29223","name":"Wayne County","state_id":"MO"},{"zip":"63952","fips":"29223","name":"Wayne County","state_id":"MO"},{"zip":"63953","fips":"29181","name":"Ripley County","state_id":"MO"},{"zip":"63954","fips":"29023","name":"Butler County","state_id":"MO"},{"zip":"63955","fips":"29181","name":"Ripley County","state_id":"MO"},{"zip":"63956","fips":"29223","name":"Wayne County","state_id":"MO"},{"zip":"63957","fips":"29179","name":"Reynolds County","state_id":"MO"},{"zip":"63957","fips":"29223","name":"Wayne County","state_id":"MO"},{"zip":"63960","fips":"29207","name":"Stoddard County","state_id":"MO"},{"zip":"63960","fips":"29223","name":"Wayne County","state_id":"MO"},{"zip":"63961","fips":"29023","name":"Butler County","state_id":"MO"},{"zip":"63962","fips":"29023","name":"Butler County","state_id":"MO"},{"zip":"63964","fips":"29223","name":"Wayne County","state_id":"MO"},{"zip":"63965","fips":"29179","name":"Reynolds County","state_id":"MO"},{"zip":"63965","fips":"29035","name":"Carter County","state_id":"MO"},{"zip":"63966","fips":"29023","name":"Butler County","state_id":"MO"},{"zip":"63966","fips":"29223","name":"Wayne County","state_id":"MO"},{"zip":"63967","fips":"29223","name":"Wayne County","state_id":"MO"},{"zip":"63967","fips":"29023","name":"Butler County","state_id":"MO"}]
