[{"zip":"64001","fips":"29107","name":"Lafayette County","state_id":"MO"},{"zip":"64002","fips":"29095","name":"Jackson County","state_id":"MO"},{"zip":"64011","fips":"29101","name":"Johnson County","state_id":"MO"},{"zip":"64011","fips":"29107","name":"Lafayette County","state_id":"MO"},{"zip":"64012","fips":"29037","name":"Cass County","state_id":"MO"},{"zip":"64013","fips":"29095","name":"Jackson County","state_id":"MO"},{"zip":"64014","fips":"29095","name":"Jackson County","state_id":"MO"},{"zip":"64015","fips":"29095","name":"Jackson County","state_id":"MO"},{"zip":"64016","fips":"29095","name":"Jackson County","state_id":"MO"},{"zip":"64017","fips":"29177","name":"Ray County","state_id":"MO"},{"zip":"64017","fips":"29107","name":"Lafayette County","state_id":"MO"},{"zip":"64018","fips":"29165","name":"Platte County","state_id":"MO"},{"zip":"64019","fips":"29101","name":"Johnson County","state_id":"MO"},{"zip":"64020","fips":"29107","name":"Lafayette County","state_id":"MO"},{"zip":"64020","fips":"29195","name":"Saline County","state_id":"MO"},{"zip":"64020","fips":"29101","name":"Johnson County","state_id":"MO"},{"zip":"64020","fips":"29159","name":"Pettis County","state_id":"MO"},{"zip":"64021","fips":"29107","name":"Lafayette County","state_id":"MO"},{"zip":"64022","fips":"29107","name":"Lafayette County","state_id":"MO"},{"zip":"64024","fips":"29047","name":"Clay County","state_id":"MO"},{"zip":"64024","fips":"29177","name":"Ray County","state_id":"MO"},{"zip":"64028","fips":"29165","name":"Platte County","state_id":"MO"},{"zip":"64029","fips":"29095","name":"Jackson County","state_id":"MO"},{"zip":"64030","fips":"29095","name":"Jackson County","state_id":"MO"},{"zip":"64034","fips":"29037","name":"Cass County","state_id":"MO"},{"zip":"64034","fips":"29095","name":"Jackson County","state_id":"MO"},{"zip":"64035","fips":"29033","name":"Carroll County","state_id":"MO"},{"zip":"64035","fips":"29177","name":"Ray County","state_id":"MO"},{"zip":"64036","fips":"29177","name":"Ray County","state_id":"MO"},{"zip":"64037","fips":"29107","name":"Lafayette County","state_id":"MO"},{"zip":"64037","fips":"29101","name":"Johnson County","state_id":"MO"},{"zip":"64040","fips":"29037","name":"Cass County","state_id":"MO"},{"zip":"64040","fips":"29101","name":"Johnson County","state_id":"MO"},{"zip":"64048","fips":"29047","name":"Clay County","state_id":"MO"},{"zip":"64048","fips":"29049","name":"Clinton County","state_id":"MO"},{"zip":"64050","fips":"29095","name":"Jackson County","state_id":"MO"},{"zip":"64051","fips":"29095","name":"Jackson County","state_id":"MO"},{"zip":"64052","fips":"29095","name":"Jackson County","state_id":"MO"},{"zip":"64053","fips":"29095","name":"Jackson County","state_id":"MO"},{"zip":"64054","fips":"29095","name":"Jackson County","state_id":"MO"},{"zip":"64055","fips":"29095","name":"Jackson County","state_id":"MO"},{"zip":"64056","fips":"29095","name":"Jackson County","state_id":"MO"},{"zip":"64057","fips":"29095","name":"Jackson County","state_id":"MO"},{"zip":"64058","fips":"29095","name":"Jackson County","state_id":"MO"},{"zip":"64060","fips":"29047","name":"Clay County","state_id":"MO"},{"zip":"64061","fips":"29101","name":"Johnson County","state_id":"MO"},{"zip":"64061","fips":"29095","name":"Jackson County","state_id":"MO"},{"zip":"64061","fips":"29037","name":"Cass County","state_id":"MO"},{"zip":"64062","fips":"29047","name":"Clay County","state_id":"MO"},{"zip":"64062","fips":"29049","name":"Clinton County","state_id":"MO"},{"zip":"64062","fips":"29177","name":"Ray County","state_id":"MO"},{"zip":"64062","fips":"29025","name":"Caldwell County","state_id":"MO"},{"zip":"64063","fips":"29095","name":"Jackson County","state_id":"MO"},{"zip":"64064","fips":"29095","name":"Jackson County","state_id":"MO"},{"zip":"64065","fips":"29095","name":"Jackson County","state_id":"MO"},{"zip":"64066","fips":"29095","name":"Jackson County","state_id":"MO"},{"zip":"64067","fips":"29107","name":"Lafayette County","state_id":"MO"},{"zip":"64068","fips":"29047","name":"Clay County","state_id":"MO"},{"zip":"64069","fips":"29047","name":"Clay County","state_id":"MO"},{"zip":"64070","fips":"29101","name":"Johnson County","state_id":"MO"},{"zip":"64070","fips":"29107","name":"Lafayette County","state_id":"MO"},{"zip":"64070","fips":"29037","name":"Cass County","state_id":"MO"},{"zip":"64070","fips":"29095","name":"Jackson County","state_id":"MO"},{"zip":"64071","fips":"29101","name":"Johnson County","state_id":"MO"},{"zip":"64071","fips":"29107","name":"Lafayette County","state_id":"MO"},{"zip":"64072","fips":"29047","name":"Clay County","state_id":"MO"},{"zip":"64073","fips":"29047","name":"Clay County","state_id":"MO"},{"zip":"64074","fips":"29107","name":"Lafayette County","state_id":"MO"},{"zip":"64074","fips":"29095","name":"Jackson County","state_id":"MO"},{"zip":"64075","fips":"29107","name":"Lafayette County","state_id":"MO"},{"zip":"64075","fips":"29095","name":"Jackson County","state_id":"MO"},{"zip":"64076","fips":"29107","name":"Lafayette County","state_id":"MO"},{"zip":"64076","fips":"29101","name":"Johnson County","state_id":"MO"},{"zip":"64077","fips":"29047","name":"Clay County","state_id":"MO"},{"zip":"64077","fips":"29177","name":"Ray County","state_id":"MO"},{"zip":"64078","fips":"29037","name":"Cass County","state_id":"MO"},{"zip":"64079","fips":"29165","name":"Platte County","state_id":"MO"},{"zip":"64080","fips":"29037","name":"Cass County","state_id":"MO"},{"zip":"64080","fips":"29101","name":"Johnson County","state_id":"MO"},{"zip":"64080","fips":"29095","name":"Jackson County","state_id":"MO"},{"zip":"64081","fips":"29095","name":"Jackson County","state_id":"MO"},{"zip":"64082","fips":"29037","name":"Cass County","state_id":"MO"},{"zip":"64082","fips":"29095","name":"Jackson County","state_id":"MO"},{"zip":"64083","fips":"29037","name":"Cass County","state_id":"MO"},{"zip":"64084","fips":"29177","name":"Ray County","state_id":"MO"},{"zip":"64085","fips":"29177","name":"Ray County","state_id":"MO"},{"zip":"64086","fips":"29095","name":"Jackson County","state_id":"MO"},{"zip":"64088","fips":"29095","name":"Jackson County","state_id":"MO"},{"zip":"64089","fips":"29049","name":"Clinton County","state_id":"MO"},{"zip":"64089","fips":"29047","name":"Clay County","state_id":"MO"},{"zip":"64089","fips":"29165","name":"Platte County","state_id":"MO"},{"zip":"64090","fips":"29037","name":"Cass County","state_id":"MO"},{"zip":"64092","fips":"29165","name":"Platte County","state_id":"MO"},{"zip":"64093","fips":"29101","name":"Johnson County","state_id":"MO"},{"zip":"64096","fips":"29107","name":"Lafayette County","state_id":"MO"},{"zip":"64096","fips":"29195","name":"Saline County","state_id":"MO"},{"zip":"64097","fips":"29107","name":"Lafayette County","state_id":"MO"},{"zip":"64098","fips":"29165","name":"Platte County","state_id":"MO"}]
