[{"zip":"64101","fips":"29095","name":"Jackson County","state_id":"MO"},{"zip":"64102","fips":"29095","name":"Jackson County","state_id":"MO"},{"zip":"64105","fips":"29095","name":"Jackson County","state_id":"MO"},{"zip":"64106","fips":"29095","name":"Jackson County","state_id":"MO"},{"zip":"64108","fips":"29095","name":"Jackson County","state_id":"MO"},{"zip":"64109","fips":"29095","name":"Jackson County","state_id":"MO"},{"zip":"64110","fips":"29095","name":"Jackson County","state_id":"MO"},{"zip":"64111","fips":"29095","name":"Jackson County","state_id":"MO"},{"zip":"64112","fips":"29095","name":"Jackson County","state_id":"MO"},{"zip":"64113","fips":"29095","name":"Jackson County","state_id":"MO"},{"zip":"64114","fips":"29047","name":"Clay County","state_id":"MO"},{"zip":"64114","fips":"29095","name":"Jackson County","state_id":"MO"},{"zip":"64116","fips":"29047","name":"Clay County","state_id":"MO"},{"zip":"64117","fips":"29047","name":"Clay County","state_id":"MO"},{"zip":"64118","fips":"29047","name":"Clay County","state_id":"MO"},{"zip":"64118","fips":"29165","name":"Platte County","state_id":"MO"},{"zip":"64119","fips":"29047","name":"Clay County","state_id":"MO"},{"zip":"64120","fips":"29095","name":"Jackson County","state_id":"MO"},{"zip":"64121","fips":"29095","name":"Jackson County","state_id":"MO"},{"zip":"64123","fips":"29095","name":"Jackson County","state_id":"MO"},{"zip":"64124","fips":"29095","name":"Jackson County","state_id":"MO"},{"zip":"64125","fips":"29095","name":"Jackson County","state_id":"MO"},{"zip":"64126","fips":"29095","name":"Jackson County","state_id":"MO"},{"zip":"64127","fips":"29095","name":"Jackson County","state_id":"MO"},{"zip":"64128","fips":"29095","name":"Jackson County","state_id":"MO"},{"zip":"64129","fips":"29095","name":"Jackson County","state_id":"MO"},{"zip":"64130","fips":"29095","name":"Jackson County","state_id":"MO"},{"zip":"64131","fips":"29095","name":"Jackson County","state_id":"MO"},{"zip":"64132","fips":"29095","name":"Jackson County","state_id":"MO"},{"zip":"64133","fips":"29165","name":"Platte County","state_id":"MO"},{"zip":"64133","fips":"29095","name":"Jackson County","state_id":"MO"},{"zip":"64134","fips":"29095","name":"Jackson County","state_id":"MO"},{"zip":"64136","fips":"29095","name":"Jackson County","state_id":"MO"},{"zip":"64137","fips":"29095","name":"Jackson County","state_id":"MO"},{"zip":"64138","fips":"29095","name":"Jackson County","state_id":"MO"},{"zip":"64139","fips":"29095","name":"Jackson County","state_id":"MO"},{"zip":"64141","fips":"29095","name":"Jackson County","state_id":"MO"},{"zip":"64144","fips":"29047","name":"Clay County","state_id":"MO"},{"zip":"64145","fips":"29095","name":"Jackson County","state_id":"MO"},{"zip":"64146","fips":"29095","name":"Jackson County","state_id":"MO"},{"zip":"64147","fips":"29095","name":"Jackson County","state_id":"MO"},{"zip":"64147","fips":"29037","name":"Cass County","state_id":"MO"},{"zip":"64148","fips":"29095","name":"Jackson County","state_id":"MO"},{"zip":"64149","fips":"29095","name":"Jackson County","state_id":"MO"},{"zip":"64150","fips":"29165","name":"Platte County","state_id":"MO"},{"zip":"64150","fips":"29047","name":"Clay County","state_id":"MO"},{"zip":"64151","fips":"29047","name":"Clay County","state_id":"MO"},{"zip":"64151","fips":"29165","name":"Platte County","state_id":"MO"},{"zip":"64152","fips":"29165","name":"Platte County","state_id":"MO"},{"zip":"64153","fips":"29165","name":"Platte County","state_id":"MO"},{"zip":"64154","fips":"29165","name":"Platte County","state_id":"MO"},{"zip":"64155","fips":"29165","name":"Platte County","state_id":"MO"},{"zip":"64155","fips":"29047","name":"Clay County","state_id":"MO"},{"zip":"64156","fips":"29047","name":"Clay County","state_id":"MO"},{"zip":"64157","fips":"29047","name":"Clay County","state_id":"MO"},{"zip":"64158","fips":"29047","name":"Clay County","state_id":"MO"},{"zip":"64158","fips":"29095","name":"Jackson County","state_id":"MO"},{"zip":"64161","fips":"29047","name":"Clay County","state_id":"MO"},{"zip":"64162","fips":"29047","name":"Clay County","state_id":"MO"},{"zip":"64163","fips":"29165","name":"Platte County","state_id":"MO"},{"zip":"64164","fips":"29165","name":"Platte County","state_id":"MO"},{"zip":"64165","fips":"29047","name":"Clay County","state_id":"MO"},{"zip":"64166","fips":"29047","name":"Clay County","state_id":"MO"},{"zip":"64167","fips":"29047","name":"Clay County","state_id":"MO"},{"zip":"64168","fips":"29165","name":"Platte County","state_id":"MO"},{"zip":"64170","fips":"29095","name":"Jackson County","state_id":"MO"},{"zip":"64171","fips":"29095","name":"Jackson County","state_id":"MO"},{"zip":"64188","fips":"29047","name":"Clay County","state_id":"MO"},{"zip":"64190","fips":"29165","name":"Platte County","state_id":"MO"},{"zip":"64197","fips":"29095","name":"Jackson County","state_id":"MO"},{"zip":"64198","fips":"29095","name":"Jackson County","state_id":"MO"},{"zip":"64199","fips":"29095","name":"Jackson County","state_id":"MO"}]
