[{"zip":"64401","fips":"29021","name":"Buchanan County","state_id":"MO"},{"zip":"64402","fips":"29081","name":"Harrison County","state_id":"MO"},{"zip":"64402","fips":"29075","name":"Gentry County","state_id":"MO"},{"zip":"64420","fips":"29227","name":"Worth County","state_id":"MO"},{"zip":"64421","fips":"29003","name":"Andrew County","state_id":"MO"},{"zip":"64422","fips":"29063","name":"DeKalb County","state_id":"MO"},{"zip":"64423","fips":"29003","name":"Andrew County","state_id":"MO"},{"zip":"64423","fips":"29147","name":"Nodaway County","state_id":"MO"},{"zip":"64424","fips":"29081","name":"Harrison County","state_id":"MO"},{"zip":"64426","fips":"29081","name":"Harrison County","state_id":"MO"},{"zip":"64427","fips":"29003","name":"Andrew County","state_id":"MO"},{"zip":"64427","fips":"29147","name":"Nodaway County","state_id":"MO"},{"zip":"64428","fips":"29005","name":"Atchison County","state_id":"MO"},{"zip":"64428","fips":"29147","name":"Nodaway County","state_id":"MO"},{"zip":"64429","fips":"29063","name":"DeKalb County","state_id":"MO"},{"zip":"64429","fips":"29061","name":"Daviess County","state_id":"MO"},{"zip":"64429","fips":"29025","name":"Caldwell County","state_id":"MO"},{"zip":"64429","fips":"29049","name":"Clinton County","state_id":"MO"},{"zip":"64430","fips":"29021","name":"Buchanan County","state_id":"MO"},{"zip":"64430","fips":"29063","name":"DeKalb County","state_id":"MO"},{"zip":"64430","fips":"29003","name":"Andrew County","state_id":"MO"},{"zip":"64431","fips":"29147","name":"Nodaway County","state_id":"MO"},{"zip":"64432","fips":"29147","name":"Nodaway County","state_id":"MO"},{"zip":"64433","fips":"29147","name":"Nodaway County","state_id":"MO"},{"zip":"64434","fips":"29147","name":"Nodaway County","state_id":"MO"},{"zip":"64436","fips":"29021","name":"Buchanan County","state_id":"MO"},{"zip":"64436","fips":"29003","name":"Andrew County","state_id":"MO"},{"zip":"64437","fips":"29005","name":"Atchison County","state_id":"MO"},{"zip":"64437","fips":"29087","name":"Holt County","state_id":"MO"},{"zip":"64438","fips":"29075","name":"Gentry County","state_id":"MO"},{"zip":"64439","fips":"29021","name":"Buchanan County","state_id":"MO"},{"zip":"64439","fips":"29165","name":"Platte County","state_id":"MO"},{"zip":"64440","fips":"29165","name":"Platte County","state_id":"MO"},{"zip":"64440","fips":"29021","name":"Buchanan County","state_id":"MO"},{"zip":"64441","fips":"29075","name":"Gentry County","state_id":"MO"},{"zip":"64441","fips":"29227","name":"Worth County","state_id":"MO"},{"zip":"64442","fips":"29081","name":"Harrison County","state_id":"MO"},{"zip":"64443","fips":"29021","name":"Buchanan County","state_id":"MO"},{"zip":"64444","fips":"29049","name":"Clinton County","state_id":"MO"},{"zip":"64444","fips":"29021","name":"Buchanan County","state_id":"MO"},{"zip":"64444","fips":"29165","name":"Platte County","state_id":"MO"},{"zip":"64445","fips":"29147","name":"Nodaway County","state_id":"MO"},{"zip":"64446","fips":"29087","name":"Holt County","state_id":"MO"},{"zip":"64446","fips":"29005","name":"Atchison County","state_id":"MO"},{"zip":"64448","fips":"29021","name":"Buchanan County","state_id":"MO"},{"zip":"64449","fips":"29003","name":"Andrew County","state_id":"MO"},{"zip":"64451","fips":"29087","name":"Holt County","state_id":"MO"},{"zip":"64453","fips":"29075","name":"Gentry County","state_id":"MO"},{"zip":"64454","fips":"29049","name":"Clinton County","state_id":"MO"},{"zip":"64454","fips":"29021","name":"Buchanan County","state_id":"MO"},{"zip":"64455","fips":"29147","name":"Nodaway County","state_id":"MO"},{"zip":"64455","fips":"29003","name":"Andrew County","state_id":"MO"},{"zip":"64456","fips":"29081","name":"Harrison County","state_id":"MO"},{"zip":"64456","fips":"29227","name":"Worth County","state_id":"MO"},{"zip":"64457","fips":"29003","name":"Andrew County","state_id":"MO"},{"zip":"64457","fips":"29147","name":"Nodaway County","state_id":"MO"},{"zip":"64458","fips":"29081","name":"Harrison County","state_id":"MO"},{"zip":"64458","fips":"29227","name":"Worth County","state_id":"MO"},{"zip":"64459","fips":"29003","name":"Andrew County","state_id":"MO"},{"zip":"64461","fips":"29147","name":"Nodaway County","state_id":"MO"},{"zip":"64463","fips":"29063","name":"DeKalb County","state_id":"MO"},{"zip":"64463","fips":"29003","name":"Andrew County","state_id":"MO"},{"zip":"64463","fips":"29075","name":"Gentry County","state_id":"MO"},{"zip":"64465","fips":"29049","name":"Clinton County","state_id":"MO"},{"zip":"64465","fips":"29025","name":"Caldwell County","state_id":"MO"},{"zip":"64466","fips":"29087","name":"Holt County","state_id":"MO"},{"zip":"64467","fips":"29081","name":"Harrison County","state_id":"MO"},{"zip":"64468","fips":"29147","name":"Nodaway County","state_id":"MO"},{"zip":"64469","fips":"29063","name":"DeKalb County","state_id":"MO"},{"zip":"64469","fips":"29075","name":"Gentry County","state_id":"MO"},{"zip":"64470","fips":"29087","name":"Holt County","state_id":"MO"},{"zip":"64471","fips":"29075","name":"Gentry County","state_id":"MO"},{"zip":"64471","fips":"29081","name":"Harrison County","state_id":"MO"},{"zip":"64473","fips":"29087","name":"Holt County","state_id":"MO"},{"zip":"64474","fips":"29063","name":"DeKalb County","state_id":"MO"},{"zip":"64474","fips":"29049","name":"Clinton County","state_id":"MO"},{"zip":"64475","fips":"29227","name":"Worth County","state_id":"MO"},{"zip":"64475","fips":"29147","name":"Nodaway County","state_id":"MO"},{"zip":"64476","fips":"29147","name":"Nodaway County","state_id":"MO"},{"zip":"64477","fips":"29049","name":"Clinton County","state_id":"MO"},{"zip":"64479","fips":"29147","name":"Nodaway County","state_id":"MO"},{"zip":"64479","fips":"29075","name":"Gentry County","state_id":"MO"},{"zip":"64480","fips":"29003","name":"Andrew County","state_id":"MO"},{"zip":"64481","fips":"29081","name":"Harrison County","state_id":"MO"},{"zip":"64482","fips":"29005","name":"Atchison County","state_id":"MO"},{"zip":"64483","fips":"29003","name":"Andrew County","state_id":"MO"},{"zip":"64484","fips":"29165","name":"Platte County","state_id":"MO"},{"zip":"64484","fips":"29021","name":"Buchanan County","state_id":"MO"},{"zip":"64485","fips":"29003","name":"Andrew County","state_id":"MO"},{"zip":"64486","fips":"29147","name":"Nodaway County","state_id":"MO"},{"zip":"64486","fips":"29227","name":"Worth County","state_id":"MO"},{"zip":"64487","fips":"29005","name":"Atchison County","state_id":"MO"},{"zip":"64487","fips":"29087","name":"Holt County","state_id":"MO"},{"zip":"64487","fips":"29147","name":"Nodaway County","state_id":"MO"},{"zip":"64489","fips":"29147","name":"Nodaway County","state_id":"MO"},{"zip":"64489","fips":"29075","name":"Gentry County","state_id":"MO"},{"zip":"64490","fips":"29021","name":"Buchanan County","state_id":"MO"},{"zip":"64490","fips":"29049","name":"Clinton County","state_id":"MO"},{"zip":"64490","fips":"29063","name":"DeKalb County","state_id":"MO"},{"zip":"64491","fips":"29005","name":"Atchison County","state_id":"MO"},{"zip":"64492","fips":"29047","name":"Clay County","state_id":"MO"},{"zip":"64492","fips":"29049","name":"Clinton County","state_id":"MO"},{"zip":"64492","fips":"29165","name":"Platte County","state_id":"MO"},{"zip":"64493","fips":"29049","name":"Clinton County","state_id":"MO"},{"zip":"64494","fips":"29063","name":"DeKalb County","state_id":"MO"},{"zip":"64494","fips":"29003","name":"Andrew County","state_id":"MO"},{"zip":"64496","fips":"29005","name":"Atchison County","state_id":"MO"},{"zip":"64497","fips":"29061","name":"Daviess County","state_id":"MO"},{"zip":"64497","fips":"29063","name":"DeKalb County","state_id":"MO"},{"zip":"64498","fips":"29005","name":"Atchison County","state_id":"MO"},{"zip":"64499","fips":"29227","name":"Worth County","state_id":"MO"},{"zip":"64499","fips":"29075","name":"Gentry County","state_id":"MO"}]
