[{"zip":"64601","fips":"29061","name":"Daviess County","state_id":"MO"},{"zip":"64601","fips":"29117","name":"Livingston County","state_id":"MO"},{"zip":"64620","fips":"29061","name":"Daviess County","state_id":"MO"},{"zip":"64622","fips":"29033","name":"Carroll County","state_id":"MO"},{"zip":"64623","fips":"29033","name":"Carroll County","state_id":"MO"},{"zip":"64624","fips":"29117","name":"Livingston County","state_id":"MO"},{"zip":"64624","fips":"29177","name":"Ray County","state_id":"MO"},{"zip":"64624","fips":"29033","name":"Carroll County","state_id":"MO"},{"zip":"64624","fips":"29025","name":"Caldwell County","state_id":"MO"},{"zip":"64625","fips":"29025","name":"Caldwell County","state_id":"MO"},{"zip":"64625","fips":"29117","name":"Livingston County","state_id":"MO"},{"zip":"64625","fips":"29061","name":"Daviess County","state_id":"MO"},{"zip":"64628","fips":"29041","name":"Chariton County","state_id":"MO"},{"zip":"64628","fips":"29115","name":"Linn County","state_id":"MO"},{"zip":"64630","fips":"29115","name":"Linn County","state_id":"MO"},{"zip":"64630","fips":"29211","name":"Sullivan County","state_id":"MO"},{"zip":"64631","fips":"29115","name":"Linn County","state_id":"MO"},{"zip":"64631","fips":"29121","name":"Macon County","state_id":"MO"},{"zip":"64632","fips":"29129","name":"Mercer County","state_id":"MO"},{"zip":"64632","fips":"29081","name":"Harrison County","state_id":"MO"},{"zip":"64633","fips":"29033","name":"Carroll County","state_id":"MO"},{"zip":"64635","fips":"29115","name":"Linn County","state_id":"MO"},{"zip":"64635","fips":"29117","name":"Livingston County","state_id":"MO"},{"zip":"64635","fips":"29079","name":"Grundy County","state_id":"MO"},{"zip":"64636","fips":"29081","name":"Harrison County","state_id":"MO"},{"zip":"64636","fips":"29061","name":"Daviess County","state_id":"MO"},{"zip":"64637","fips":"29177","name":"Ray County","state_id":"MO"},{"zip":"64637","fips":"29025","name":"Caldwell County","state_id":"MO"},{"zip":"64638","fips":"29033","name":"Carroll County","state_id":"MO"},{"zip":"64638","fips":"29117","name":"Livingston County","state_id":"MO"},{"zip":"64639","fips":"29033","name":"Carroll County","state_id":"MO"},{"zip":"64640","fips":"29061","name":"Daviess County","state_id":"MO"},{"zip":"64641","fips":"29079","name":"Grundy County","state_id":"MO"},{"zip":"64641","fips":"29211","name":"Sullivan County","state_id":"MO"},{"zip":"64642","fips":"29061","name":"Daviess County","state_id":"MO"},{"zip":"64642","fips":"29081","name":"Harrison County","state_id":"MO"},{"zip":"64642","fips":"29079","name":"Grundy County","state_id":"MO"},{"zip":"64643","fips":"29033","name":"Carroll County","state_id":"MO"},{"zip":"64643","fips":"29117","name":"Livingston County","state_id":"MO"},{"zip":"64644","fips":"29025","name":"Caldwell County","state_id":"MO"},{"zip":"64644","fips":"29061","name":"Daviess County","state_id":"MO"},{"zip":"64645","fips":"29129","name":"Mercer County","state_id":"MO"},{"zip":"64645","fips":"29211","name":"Sullivan County","state_id":"MO"},{"zip":"64646","fips":"29115","name":"Linn County","state_id":"MO"},{"zip":"64646","fips":"29211","name":"Sullivan County","state_id":"MO"},{"zip":"64647","fips":"29061","name":"Daviess County","state_id":"MO"},{"zip":"64647","fips":"29013","name":"Bates County","state_id":"MO"},{"zip":"64648","fips":"29061","name":"Daviess County","state_id":"MO"},{"zip":"64648","fips":"29117","name":"Livingston County","state_id":"MO"},{"zip":"64648","fips":"29079","name":"Grundy County","state_id":"MO"},{"zip":"64649","fips":"29025","name":"Caldwell County","state_id":"MO"},{"zip":"64649","fips":"29061","name":"Daviess County","state_id":"MO"},{"zip":"64650","fips":"29025","name":"Caldwell County","state_id":"MO"},{"zip":"64651","fips":"29115","name":"Linn County","state_id":"MO"},{"zip":"64652","fips":"29079","name":"Grundy County","state_id":"MO"},{"zip":"64652","fips":"29211","name":"Sullivan County","state_id":"MO"},{"zip":"64652","fips":"29115","name":"Linn County","state_id":"MO"},{"zip":"64653","fips":"29115","name":"Linn County","state_id":"MO"},{"zip":"64654","fips":"29061","name":"Daviess County","state_id":"MO"},{"zip":"64655","fips":"29171","name":"Putnam County","state_id":"MO"},{"zip":"64656","fips":"29117","name":"Livingston County","state_id":"MO"},{"zip":"64657","fips":"29061","name":"Daviess County","state_id":"MO"},{"zip":"64657","fips":"29075","name":"Gentry County","state_id":"MO"},{"zip":"64657","fips":"29081","name":"Harrison County","state_id":"MO"},{"zip":"64658","fips":"29041","name":"Chariton County","state_id":"MO"},{"zip":"64658","fips":"29115","name":"Linn County","state_id":"MO"},{"zip":"64658","fips":"29121","name":"Macon County","state_id":"MO"},{"zip":"64659","fips":"29115","name":"Linn County","state_id":"MO"},{"zip":"64660","fips":"29041","name":"Chariton County","state_id":"MO"},{"zip":"64661","fips":"29129","name":"Mercer County","state_id":"MO"},{"zip":"64664","fips":"29117","name":"Livingston County","state_id":"MO"},{"zip":"64667","fips":"29129","name":"Mercer County","state_id":"MO"},{"zip":"64667","fips":"29211","name":"Sullivan County","state_id":"MO"},{"zip":"64667","fips":"29171","name":"Putnam County","state_id":"MO"},{"zip":"64668","fips":"29177","name":"Ray County","state_id":"MO"},{"zip":"64668","fips":"29033","name":"Carroll County","state_id":"MO"},{"zip":"64670","fips":"29063","name":"DeKalb County","state_id":"MO"},{"zip":"64670","fips":"29061","name":"Daviess County","state_id":"MO"},{"zip":"64670","fips":"29081","name":"Harrison County","state_id":"MO"},{"zip":"64670","fips":"29075","name":"Gentry County","state_id":"MO"},{"zip":"64671","fips":"29025","name":"Caldwell County","state_id":"MO"},{"zip":"64671","fips":"29177","name":"Ray County","state_id":"MO"},{"zip":"64672","fips":"29129","name":"Mercer County","state_id":"MO"},{"zip":"64672","fips":"29171","name":"Putnam County","state_id":"MO"},{"zip":"64673","fips":"29129","name":"Mercer County","state_id":"MO"},{"zip":"64673","fips":"29081","name":"Harrison County","state_id":"MO"},{"zip":"64674","fips":"29115","name":"Linn County","state_id":"MO"},{"zip":"64676","fips":"29041","name":"Chariton County","state_id":"MO"},{"zip":"64679","fips":"29079","name":"Grundy County","state_id":"MO"},{"zip":"64679","fips":"29129","name":"Mercer County","state_id":"MO"},{"zip":"64680","fips":"29033","name":"Carroll County","state_id":"MO"},{"zip":"64681","fips":"29115","name":"Linn County","state_id":"MO"},{"zip":"64681","fips":"29041","name":"Chariton County","state_id":"MO"},{"zip":"64682","fips":"29033","name":"Carroll County","state_id":"MO"},{"zip":"64683","fips":"29079","name":"Grundy County","state_id":"MO"},{"zip":"64683","fips":"29117","name":"Livingston County","state_id":"MO"},{"zip":"64683","fips":"29061","name":"Daviess County","state_id":"MO"},{"zip":"64686","fips":"29117","name":"Livingston County","state_id":"MO"},{"zip":"64688","fips":"29117","name":"Livingston County","state_id":"MO"},{"zip":"64688","fips":"29115","name":"Linn County","state_id":"MO"},{"zip":"64689","fips":"29061","name":"Daviess County","state_id":"MO"}]
