[{"zip":"64701","fips":"29037","name":"Cass County","state_id":"MO"},{"zip":"64720","fips":"29013","name":"Bates County","state_id":"MO"},{"zip":"64720","fips":"29037","name":"Cass County","state_id":"MO"},{"zip":"64722","fips":"29013","name":"Bates County","state_id":"MO"},{"zip":"64723","fips":"29013","name":"Bates County","state_id":"MO"},{"zip":"64724","fips":"29083","name":"Henry County","state_id":"MO"},{"zip":"64724","fips":"29185","name":"St. Clair County","state_id":"MO"},{"zip":"64724","fips":"29013","name":"Bates County","state_id":"MO"},{"zip":"64725","fips":"29037","name":"Cass County","state_id":"MO"},{"zip":"64725","fips":"29013","name":"Bates County","state_id":"MO"},{"zip":"64726","fips":"29101","name":"Johnson County","state_id":"MO"},{"zip":"64726","fips":"29083","name":"Henry County","state_id":"MO"},{"zip":"64728","fips":"29217","name":"Vernon County","state_id":"MO"},{"zip":"64728","fips":"29011","name":"Barton County","state_id":"MO"},{"zip":"64730","fips":"29013","name":"Bates County","state_id":"MO"},{"zip":"64733","fips":"29083","name":"Henry County","state_id":"MO"},{"zip":"64733","fips":"29101","name":"Johnson County","state_id":"MO"},{"zip":"64734","fips":"29037","name":"Cass County","state_id":"MO"},{"zip":"64735","fips":"29015","name":"Benton County","state_id":"MO"},{"zip":"64735","fips":"29083","name":"Henry County","state_id":"MO"},{"zip":"64738","fips":"29185","name":"St. Clair County","state_id":"MO"},{"zip":"64739","fips":"29037","name":"Cass County","state_id":"MO"},{"zip":"64739","fips":"29101","name":"Johnson County","state_id":"MO"},{"zip":"64739","fips":"29083","name":"Henry County","state_id":"MO"},{"zip":"64740","fips":"29185","name":"St. Clair County","state_id":"MO"},{"zip":"64740","fips":"29083","name":"Henry County","state_id":"MO"},{"zip":"64741","fips":"29217","name":"Vernon County","state_id":"MO"},{"zip":"64742","fips":"29037","name":"Cass County","state_id":"MO"},{"zip":"64742","fips":"29013","name":"Bates County","state_id":"MO"},{"zip":"64743","fips":"29037","name":"Cass County","state_id":"MO"},{"zip":"64744","fips":"29185","name":"St. Clair County","state_id":"MO"},{"zip":"64744","fips":"29217","name":"Vernon County","state_id":"MO"},{"zip":"64744","fips":"29039","name":"Cedar County","state_id":"MO"},{"zip":"64745","fips":"29013","name":"Bates County","state_id":"MO"},{"zip":"64746","fips":"29037","name":"Cass County","state_id":"MO"},{"zip":"64747","fips":"29037","name":"Cass County","state_id":"MO"},{"zip":"64747","fips":"29101","name":"Johnson County","state_id":"MO"},{"zip":"64748","fips":"29011","name":"Barton County","state_id":"MO"},{"zip":"64748","fips":"29057","name":"Dade County","state_id":"MO"},{"zip":"64748","fips":"29109","name":"Lawrence County","state_id":"MO"},{"zip":"64748","fips":"29097","name":"Jasper County","state_id":"MO"},{"zip":"64750","fips":"29217","name":"Vernon County","state_id":"MO"},{"zip":"64752","fips":"29217","name":"Vernon County","state_id":"MO"},{"zip":"64752","fips":"29013","name":"Bates County","state_id":"MO"},{"zip":"64755","fips":"29097","name":"Jasper County","state_id":"MO"},{"zip":"64755","fips":"29011","name":"Barton County","state_id":"MO"},{"zip":"64756","fips":"29039","name":"Cedar County","state_id":"MO"},{"zip":"64756","fips":"29057","name":"Dade County","state_id":"MO"},{"zip":"64759","fips":"29057","name":"Dade County","state_id":"MO"},{"zip":"64759","fips":"29011","name":"Barton County","state_id":"MO"},{"zip":"64761","fips":"29083","name":"Henry County","state_id":"MO"},{"zip":"64761","fips":"29101","name":"Johnson County","state_id":"MO"},{"zip":"64762","fips":"29011","name":"Barton County","state_id":"MO"},{"zip":"64763","fips":"29185","name":"St. Clair County","state_id":"MO"},{"zip":"64765","fips":"29217","name":"Vernon County","state_id":"MO"},{"zip":"64767","fips":"29217","name":"Vernon County","state_id":"MO"},{"zip":"64769","fips":"29011","name":"Barton County","state_id":"MO"},{"zip":"64770","fips":"29185","name":"St. Clair County","state_id":"MO"},{"zip":"64770","fips":"29013","name":"Bates County","state_id":"MO"},{"zip":"64770","fips":"29083","name":"Henry County","state_id":"MO"},{"zip":"64771","fips":"29217","name":"Vernon County","state_id":"MO"},{"zip":"64772","fips":"29217","name":"Vernon County","state_id":"MO"},{"zip":"64776","fips":"29185","name":"St. Clair County","state_id":"MO"},{"zip":"64776","fips":"29015","name":"Benton County","state_id":"MO"},{"zip":"64778","fips":"29217","name":"Vernon County","state_id":"MO"},{"zip":"64779","fips":"29013","name":"Bates County","state_id":"MO"},{"zip":"64779","fips":"29217","name":"Vernon County","state_id":"MO"},{"zip":"64780","fips":"29013","name":"Bates County","state_id":"MO"},{"zip":"64780","fips":"29185","name":"St. Clair County","state_id":"MO"},{"zip":"64781","fips":"29185","name":"St. Clair County","state_id":"MO"},{"zip":"64783","fips":"29217","name":"Vernon County","state_id":"MO"},{"zip":"64783","fips":"29185","name":"St. Clair County","state_id":"MO"},{"zip":"64784","fips":"29217","name":"Vernon County","state_id":"MO"},{"zip":"64784","fips":"29011","name":"Barton County","state_id":"MO"},{"zip":"64784","fips":"29039","name":"Cedar County","state_id":"MO"},{"zip":"64788","fips":"29083","name":"Henry County","state_id":"MO"},{"zip":"64788","fips":"29013","name":"Bates County","state_id":"MO"},{"zip":"64790","fips":"29217","name":"Vernon County","state_id":"MO"}]
