[{"zip":"64801","fips":"29097","name":"Jasper County","state_id":"MO"},{"zip":"64802","fips":"29097","name":"Jasper County","state_id":"MO"},{"zip":"64803","fips":"29097","name":"Jasper County","state_id":"MO"},{"zip":"64804","fips":"29145","name":"Newton County","state_id":"MO"},{"zip":"64804","fips":"29097","name":"Jasper County","state_id":"MO"},{"zip":"64830","fips":"29097","name":"Jasper County","state_id":"MO"},{"zip":"64831","fips":"29119","name":"McDonald County","state_id":"MO"},{"zip":"64832","fips":"29097","name":"Jasper County","state_id":"MO"},{"zip":"64832","fips":"29011","name":"Barton County","state_id":"MO"},{"zip":"64833","fips":"29097","name":"Jasper County","state_id":"MO"},{"zip":"64834","fips":"29097","name":"Jasper County","state_id":"MO"},{"zip":"64835","fips":"29097","name":"Jasper County","state_id":"MO"},{"zip":"64836","fips":"29097","name":"Jasper County","state_id":"MO"},{"zip":"64840","fips":"29097","name":"Jasper County","state_id":"MO"},{"zip":"64840","fips":"29145","name":"Newton County","state_id":"MO"},{"zip":"64841","fips":"29097","name":"Jasper County","state_id":"MO"},{"zip":"64842","fips":"29145","name":"Newton County","state_id":"MO"},{"zip":"64842","fips":"29009","name":"Barry County","state_id":"MO"},{"zip":"64843","fips":"29119","name":"McDonald County","state_id":"MO"},{"zip":"64843","fips":"29145","name":"Newton County","state_id":"MO"},{"zip":"64844","fips":"29145","name":"Newton County","state_id":"MO"},{"zip":"64847","fips":"29119","name":"McDonald County","state_id":"MO"},{"zip":"64848","fips":"29097","name":"Jasper County","state_id":"MO"},{"zip":"64848","fips":"29109","name":"Lawrence County","state_id":"MO"},{"zip":"64849","fips":"29097","name":"Jasper County","state_id":"MO"},{"zip":"64850","fips":"29119","name":"McDonald County","state_id":"MO"},{"zip":"64850","fips":"29145","name":"Newton County","state_id":"MO"},{"zip":"64854","fips":"29119","name":"McDonald County","state_id":"MO"},{"zip":"64855","fips":"29011","name":"Barton County","state_id":"MO"},{"zip":"64855","fips":"29097","name":"Jasper County","state_id":"MO"},{"zip":"64856","fips":"29119","name":"McDonald County","state_id":"MO"},{"zip":"64857","fips":"29097","name":"Jasper County","state_id":"MO"},{"zip":"64858","fips":"29145","name":"Newton County","state_id":"MO"},{"zip":"64859","fips":"29097","name":"Jasper County","state_id":"MO"},{"zip":"64861","fips":"29145","name":"Newton County","state_id":"MO"},{"zip":"64861","fips":"29009","name":"Barry County","state_id":"MO"},{"zip":"64861","fips":"29119","name":"McDonald County","state_id":"MO"},{"zip":"64862","fips":"29097","name":"Jasper County","state_id":"MO"},{"zip":"64862","fips":"29145","name":"Newton County","state_id":"MO"},{"zip":"64862","fips":"29109","name":"Lawrence County","state_id":"MO"},{"zip":"64863","fips":"29119","name":"McDonald County","state_id":"MO"},{"zip":"64864","fips":"29145","name":"Newton County","state_id":"MO"},{"zip":"64865","fips":"29119","name":"McDonald County","state_id":"MO"},{"zip":"64865","fips":"29145","name":"Newton County","state_id":"MO"},{"zip":"64866","fips":"29145","name":"Newton County","state_id":"MO"},{"zip":"64867","fips":"29145","name":"Newton County","state_id":"MO"},{"zip":"64867","fips":"29119","name":"McDonald County","state_id":"MO"},{"zip":"64868","fips":"29119","name":"McDonald County","state_id":"MO"},{"zip":"64870","fips":"29097","name":"Jasper County","state_id":"MO"},{"zip":"64873","fips":"29097","name":"Jasper County","state_id":"MO"},{"zip":"64873","fips":"29145","name":"Newton County","state_id":"MO"},{"zip":"64873","fips":"29109","name":"Lawrence County","state_id":"MO"},{"zip":"64874","fips":"29009","name":"Barry County","state_id":"MO"}]
