[{"zip":"65001","fips":"29151","name":"Osage County","state_id":"MO"},{"zip":"65001","fips":"29125","name":"Maries County","state_id":"MO"},{"zip":"65010","fips":"29019","name":"Boone County","state_id":"MO"},{"zip":"65011","fips":"29135","name":"Moniteau County","state_id":"MO"},{"zip":"65011","fips":"29141","name":"Morgan County","state_id":"MO"},{"zip":"65013","fips":"29125","name":"Maries County","state_id":"MO"},{"zip":"65013","fips":"29151","name":"Osage County","state_id":"MO"},{"zip":"65014","fips":"29073","name":"Gasconade County","state_id":"MO"},{"zip":"65014","fips":"29125","name":"Maries County","state_id":"MO"},{"zip":"65014","fips":"29151","name":"Osage County","state_id":"MO"},{"zip":"65016","fips":"29151","name":"Osage County","state_id":"MO"},{"zip":"65017","fips":"29029","name":"Camden County","state_id":"MO"},{"zip":"65017","fips":"29131","name":"Miller County","state_id":"MO"},{"zip":"65018","fips":"29053","name":"Cooper County","state_id":"MO"},{"zip":"65018","fips":"29051","name":"Cole County","state_id":"MO"},{"zip":"65018","fips":"29135","name":"Moniteau County","state_id":"MO"},{"zip":"65020","fips":"29029","name":"Camden County","state_id":"MO"},{"zip":"65020","fips":"29105","name":"Laclede County","state_id":"MO"},{"zip":"65023","fips":"29135","name":"Moniteau County","state_id":"MO"},{"zip":"65023","fips":"29051","name":"Cole County","state_id":"MO"},{"zip":"65024","fips":"29151","name":"Osage County","state_id":"MO"},{"zip":"65025","fips":"29053","name":"Cooper County","state_id":"MO"},{"zip":"65025","fips":"29135","name":"Moniteau County","state_id":"MO"},{"zip":"65026","fips":"29131","name":"Miller County","state_id":"MO"},{"zip":"65026","fips":"29141","name":"Morgan County","state_id":"MO"},{"zip":"65026","fips":"29135","name":"Moniteau County","state_id":"MO"},{"zip":"65032","fips":"29051","name":"Cole County","state_id":"MO"},{"zip":"65032","fips":"29131","name":"Miller County","state_id":"MO"},{"zip":"65034","fips":"29141","name":"Morgan County","state_id":"MO"},{"zip":"65034","fips":"29135","name":"Moniteau County","state_id":"MO"},{"zip":"65035","fips":"29151","name":"Osage County","state_id":"MO"},{"zip":"65037","fips":"29141","name":"Morgan County","state_id":"MO"},{"zip":"65037","fips":"29029","name":"Camden County","state_id":"MO"},{"zip":"65038","fips":"29141","name":"Morgan County","state_id":"MO"},{"zip":"65039","fips":"29027","name":"Callaway County","state_id":"MO"},{"zip":"65039","fips":"29019","name":"Boone County","state_id":"MO"},{"zip":"65040","fips":"29051","name":"Cole County","state_id":"MO"},{"zip":"65040","fips":"29131","name":"Miller County","state_id":"MO"},{"zip":"65041","fips":"29139","name":"Montgomery County","state_id":"MO"},{"zip":"65041","fips":"29219","name":"Warren County","state_id":"MO"},{"zip":"65041","fips":"29073","name":"Gasconade County","state_id":"MO"},{"zip":"65042","fips":"29135","name":"Moniteau County","state_id":"MO"},{"zip":"65043","fips":"29027","name":"Callaway County","state_id":"MO"},{"zip":"65046","fips":"29053","name":"Cooper County","state_id":"MO"},{"zip":"65046","fips":"29051","name":"Cole County","state_id":"MO"},{"zip":"65046","fips":"29135","name":"Moniteau County","state_id":"MO"},{"zip":"65047","fips":"29029","name":"Camden County","state_id":"MO"},{"zip":"65047","fips":"29131","name":"Miller County","state_id":"MO"},{"zip":"65048","fips":"29151","name":"Osage County","state_id":"MO"},{"zip":"65049","fips":"29131","name":"Miller County","state_id":"MO"},{"zip":"65049","fips":"29029","name":"Camden County","state_id":"MO"},{"zip":"65050","fips":"29135","name":"Moniteau County","state_id":"MO"},{"zip":"65051","fips":"29151","name":"Osage County","state_id":"MO"},{"zip":"65052","fips":"29029","name":"Camden County","state_id":"MO"},{"zip":"65053","fips":"29051","name":"Cole County","state_id":"MO"},{"zip":"65054","fips":"29151","name":"Osage County","state_id":"MO"},{"zip":"65055","fips":"29135","name":"Moniteau County","state_id":"MO"},{"zip":"65058","fips":"29051","name":"Cole County","state_id":"MO"},{"zip":"65058","fips":"29151","name":"Osage County","state_id":"MO"},{"zip":"65058","fips":"29125","name":"Maries County","state_id":"MO"},{"zip":"65058","fips":"29131","name":"Miller County","state_id":"MO"},{"zip":"65059","fips":"29027","name":"Callaway County","state_id":"MO"},{"zip":"65061","fips":"29073","name":"Gasconade County","state_id":"MO"},{"zip":"65061","fips":"29151","name":"Osage County","state_id":"MO"},{"zip":"65062","fips":"29073","name":"Gasconade County","state_id":"MO"},{"zip":"65062","fips":"29151","name":"Osage County","state_id":"MO"},{"zip":"65063","fips":"29027","name":"Callaway County","state_id":"MO"},{"zip":"65064","fips":"29135","name":"Moniteau County","state_id":"MO"},{"zip":"65064","fips":"29131","name":"Miller County","state_id":"MO"},{"zip":"65065","fips":"29029","name":"Camden County","state_id":"MO"},{"zip":"65065","fips":"29131","name":"Miller County","state_id":"MO"},{"zip":"65066","fips":"29071","name":"Franklin County","state_id":"MO"},{"zip":"65066","fips":"29055","name":"Crawford County","state_id":"MO"},{"zip":"65066","fips":"29073","name":"Gasconade County","state_id":"MO"},{"zip":"65067","fips":"29027","name":"Callaway County","state_id":"MO"},{"zip":"65068","fips":"29053","name":"Cooper County","state_id":"MO"},{"zip":"65068","fips":"29135","name":"Moniteau County","state_id":"MO"},{"zip":"65069","fips":"29027","name":"Callaway County","state_id":"MO"},{"zip":"65069","fips":"29139","name":"Montgomery County","state_id":"MO"},{"zip":"65072","fips":"29131","name":"Miller County","state_id":"MO"},{"zip":"65072","fips":"29141","name":"Morgan County","state_id":"MO"},{"zip":"65074","fips":"29131","name":"Miller County","state_id":"MO"},{"zip":"65074","fips":"29135","name":"Moniteau County","state_id":"MO"},{"zip":"65074","fips":"29051","name":"Cole County","state_id":"MO"},{"zip":"65075","fips":"29131","name":"Miller County","state_id":"MO"},{"zip":"65076","fips":"29051","name":"Cole County","state_id":"MO"},{"zip":"65076","fips":"29151","name":"Osage County","state_id":"MO"},{"zip":"65077","fips":"29027","name":"Callaway County","state_id":"MO"},{"zip":"65078","fips":"29141","name":"Morgan County","state_id":"MO"},{"zip":"65078","fips":"29159","name":"Pettis County","state_id":"MO"},{"zip":"65078","fips":"29015","name":"Benton County","state_id":"MO"},{"zip":"65079","fips":"29029","name":"Camden County","state_id":"MO"},{"zip":"65079","fips":"29131","name":"Miller County","state_id":"MO"},{"zip":"65079","fips":"29141","name":"Morgan County","state_id":"MO"},{"zip":"65080","fips":"29027","name":"Callaway County","state_id":"MO"},{"zip":"65081","fips":"29141","name":"Morgan County","state_id":"MO"},{"zip":"65081","fips":"29053","name":"Cooper County","state_id":"MO"},{"zip":"65081","fips":"29135","name":"Moniteau County","state_id":"MO"},{"zip":"65082","fips":"29131","name":"Miller County","state_id":"MO"},{"zip":"65083","fips":"29131","name":"Miller County","state_id":"MO"},{"zip":"65084","fips":"29135","name":"Moniteau County","state_id":"MO"},{"zip":"65084","fips":"29141","name":"Morgan County","state_id":"MO"},{"zip":"65085","fips":"29151","name":"Osage County","state_id":"MO"}]
