[{"zip":"65201","fips":"29027","name":"Callaway County","state_id":"MO"},{"zip":"65201","fips":"29019","name":"Boone County","state_id":"MO"},{"zip":"65202","fips":"29019","name":"Boone County","state_id":"MO"},{"zip":"65202","fips":"29027","name":"Callaway County","state_id":"MO"},{"zip":"65203","fips":"29019","name":"Boone County","state_id":"MO"},{"zip":"65205","fips":"29019","name":"Boone County","state_id":"MO"},{"zip":"65211","fips":"29019","name":"Boone County","state_id":"MO"},{"zip":"65212","fips":"29019","name":"Boone County","state_id":"MO"},{"zip":"65215","fips":"29019","name":"Boone County","state_id":"MO"},{"zip":"65216","fips":"29019","name":"Boone County","state_id":"MO"},{"zip":"65217","fips":"29019","name":"Boone County","state_id":"MO"},{"zip":"65218","fips":"29019","name":"Boone County","state_id":"MO"},{"zip":"65230","fips":"29089","name":"Howard County","state_id":"MO"},{"zip":"65230","fips":"29175","name":"Randolph County","state_id":"MO"},{"zip":"65231","fips":"29007","name":"Audrain County","state_id":"MO"},{"zip":"65231","fips":"29027","name":"Callaway County","state_id":"MO"},{"zip":"65232","fips":"29007","name":"Audrain County","state_id":"MO"},{"zip":"65233","fips":"29053","name":"Cooper County","state_id":"MO"},{"zip":"65236","fips":"29041","name":"Chariton County","state_id":"MO"},{"zip":"65237","fips":"29053","name":"Cooper County","state_id":"MO"},{"zip":"65239","fips":"29175","name":"Randolph County","state_id":"MO"},{"zip":"65240","fips":"29027","name":"Callaway County","state_id":"MO"},{"zip":"65240","fips":"29019","name":"Boone County","state_id":"MO"},{"zip":"65240","fips":"29137","name":"Monroe County","state_id":"MO"},{"zip":"65240","fips":"29007","name":"Audrain County","state_id":"MO"},{"zip":"65243","fips":"29175","name":"Randolph County","state_id":"MO"},{"zip":"65243","fips":"29007","name":"Audrain County","state_id":"MO"},{"zip":"65243","fips":"29137","name":"Monroe County","state_id":"MO"},{"zip":"65243","fips":"29019","name":"Boone County","state_id":"MO"},{"zip":"65243","fips":"29089","name":"Howard County","state_id":"MO"},{"zip":"65244","fips":"29041","name":"Chariton County","state_id":"MO"},{"zip":"65244","fips":"29175","name":"Randolph County","state_id":"MO"},{"zip":"65246","fips":"29041","name":"Chariton County","state_id":"MO"},{"zip":"65247","fips":"29121","name":"Macon County","state_id":"MO"},{"zip":"65247","fips":"29175","name":"Randolph County","state_id":"MO"},{"zip":"65248","fips":"29089","name":"Howard County","state_id":"MO"},{"zip":"65250","fips":"29089","name":"Howard County","state_id":"MO"},{"zip":"65251","fips":"29027","name":"Callaway County","state_id":"MO"},{"zip":"65254","fips":"29089","name":"Howard County","state_id":"MO"},{"zip":"65254","fips":"29041","name":"Chariton County","state_id":"MO"},{"zip":"65255","fips":"29019","name":"Boone County","state_id":"MO"},{"zip":"65256","fips":"29019","name":"Boone County","state_id":"MO"},{"zip":"65256","fips":"29089","name":"Howard County","state_id":"MO"},{"zip":"65257","fips":"29175","name":"Randolph County","state_id":"MO"},{"zip":"65257","fips":"29089","name":"Howard County","state_id":"MO"},{"zip":"65258","fips":"29137","name":"Monroe County","state_id":"MO"},{"zip":"65259","fips":"29175","name":"Randolph County","state_id":"MO"},{"zip":"65260","fips":"29175","name":"Randolph County","state_id":"MO"},{"zip":"65260","fips":"29137","name":"Monroe County","state_id":"MO"},{"zip":"65260","fips":"29121","name":"Macon County","state_id":"MO"},{"zip":"65261","fips":"29041","name":"Chariton County","state_id":"MO"},{"zip":"65262","fips":"29027","name":"Callaway County","state_id":"MO"},{"zip":"65263","fips":"29175","name":"Randolph County","state_id":"MO"},{"zip":"65263","fips":"29137","name":"Monroe County","state_id":"MO"},{"zip":"65264","fips":"29007","name":"Audrain County","state_id":"MO"},{"zip":"65264","fips":"29027","name":"Callaway County","state_id":"MO"},{"zip":"65264","fips":"29139","name":"Montgomery County","state_id":"MO"},{"zip":"65265","fips":"29027","name":"Callaway County","state_id":"MO"},{"zip":"65265","fips":"29007","name":"Audrain County","state_id":"MO"},{"zip":"65265","fips":"29137","name":"Monroe County","state_id":"MO"},{"zip":"65270","fips":"29137","name":"Monroe County","state_id":"MO"},{"zip":"65270","fips":"29175","name":"Randolph County","state_id":"MO"},{"zip":"65274","fips":"29089","name":"Howard County","state_id":"MO"},{"zip":"65275","fips":"29137","name":"Monroe County","state_id":"MO"},{"zip":"65276","fips":"29053","name":"Cooper County","state_id":"MO"},{"zip":"65278","fips":"29175","name":"Randolph County","state_id":"MO"},{"zip":"65279","fips":"29089","name":"Howard County","state_id":"MO"},{"zip":"65279","fips":"29019","name":"Boone County","state_id":"MO"},{"zip":"65280","fips":"29007","name":"Audrain County","state_id":"MO"},{"zip":"65281","fips":"29089","name":"Howard County","state_id":"MO"},{"zip":"65281","fips":"29115","name":"Linn County","state_id":"MO"},{"zip":"65281","fips":"29175","name":"Randolph County","state_id":"MO"},{"zip":"65281","fips":"29041","name":"Chariton County","state_id":"MO"},{"zip":"65282","fips":"29137","name":"Monroe County","state_id":"MO"},{"zip":"65283","fips":"29137","name":"Monroe County","state_id":"MO"},{"zip":"65284","fips":"29019","name":"Boone County","state_id":"MO"},{"zip":"65284","fips":"29007","name":"Audrain County","state_id":"MO"},{"zip":"65285","fips":"29007","name":"Audrain County","state_id":"MO"},{"zip":"65286","fips":"29041","name":"Chariton County","state_id":"MO"},{"zip":"65287","fips":"29053","name":"Cooper County","state_id":"MO"},{"zip":"65287","fips":"29135","name":"Moniteau County","state_id":"MO"},{"zip":"65299","fips":"29019","name":"Boone County","state_id":"MO"}]
