[{"zip":"65301","fips":"29053","name":"Cooper County","state_id":"MO"},{"zip":"65301","fips":"29159","name":"Pettis County","state_id":"MO"},{"zip":"65302","fips":"29159","name":"Pettis County","state_id":"MO"},{"zip":"65305","fips":"29101","name":"Johnson County","state_id":"MO"},{"zip":"65320","fips":"29195","name":"Saline County","state_id":"MO"},{"zip":"65321","fips":"29107","name":"Lafayette County","state_id":"MO"},{"zip":"65321","fips":"29195","name":"Saline County","state_id":"MO"},{"zip":"65322","fips":"29195","name":"Saline County","state_id":"MO"},{"zip":"65322","fips":"29053","name":"Cooper County","state_id":"MO"},{"zip":"65323","fips":"29083","name":"Henry County","state_id":"MO"},{"zip":"65324","fips":"29015","name":"Benton County","state_id":"MO"},{"zip":"65324","fips":"29029","name":"Camden County","state_id":"MO"},{"zip":"65325","fips":"29141","name":"Morgan County","state_id":"MO"},{"zip":"65325","fips":"29159","name":"Pettis County","state_id":"MO"},{"zip":"65325","fips":"29015","name":"Benton County","state_id":"MO"},{"zip":"65326","fips":"29029","name":"Camden County","state_id":"MO"},{"zip":"65326","fips":"29015","name":"Benton County","state_id":"MO"},{"zip":"65327","fips":"29195","name":"Saline County","state_id":"MO"},{"zip":"65329","fips":"29141","name":"Morgan County","state_id":"MO"},{"zip":"65330","fips":"29195","name":"Saline County","state_id":"MO"},{"zip":"65332","fips":"29101","name":"Johnson County","state_id":"MO"},{"zip":"65332","fips":"29159","name":"Pettis County","state_id":"MO"},{"zip":"65333","fips":"29195","name":"Saline County","state_id":"MO"},{"zip":"65333","fips":"29159","name":"Pettis County","state_id":"MO"},{"zip":"65334","fips":"29159","name":"Pettis County","state_id":"MO"},{"zip":"65335","fips":"29015","name":"Benton County","state_id":"MO"},{"zip":"65335","fips":"29159","name":"Pettis County","state_id":"MO"},{"zip":"65336","fips":"29159","name":"Pettis County","state_id":"MO"},{"zip":"65336","fips":"29101","name":"Johnson County","state_id":"MO"},{"zip":"65337","fips":"29159","name":"Pettis County","state_id":"MO"},{"zip":"65337","fips":"29101","name":"Johnson County","state_id":"MO"},{"zip":"65338","fips":"29015","name":"Benton County","state_id":"MO"},{"zip":"65339","fips":"29195","name":"Saline County","state_id":"MO"},{"zip":"65340","fips":"29195","name":"Saline County","state_id":"MO"},{"zip":"65340","fips":"29159","name":"Pettis County","state_id":"MO"},{"zip":"65344","fips":"29195","name":"Saline County","state_id":"MO"},{"zip":"65345","fips":"29015","name":"Benton County","state_id":"MO"},{"zip":"65345","fips":"29141","name":"Morgan County","state_id":"MO"},{"zip":"65345","fips":"29159","name":"Pettis County","state_id":"MO"},{"zip":"65347","fips":"29159","name":"Pettis County","state_id":"MO"},{"zip":"65347","fips":"29195","name":"Saline County","state_id":"MO"},{"zip":"65347","fips":"29053","name":"Cooper County","state_id":"MO"},{"zip":"65348","fips":"29053","name":"Cooper County","state_id":"MO"},{"zip":"65348","fips":"29159","name":"Pettis County","state_id":"MO"},{"zip":"65348","fips":"29141","name":"Morgan County","state_id":"MO"},{"zip":"65349","fips":"29195","name":"Saline County","state_id":"MO"},{"zip":"65350","fips":"29159","name":"Pettis County","state_id":"MO"},{"zip":"65350","fips":"29053","name":"Cooper County","state_id":"MO"},{"zip":"65350","fips":"29141","name":"Morgan County","state_id":"MO"},{"zip":"65351","fips":"29101","name":"Johnson County","state_id":"MO"},{"zip":"65351","fips":"29195","name":"Saline County","state_id":"MO"},{"zip":"65351","fips":"29159","name":"Pettis County","state_id":"MO"},{"zip":"65351","fips":"29107","name":"Lafayette County","state_id":"MO"},{"zip":"65354","fips":"29053","name":"Cooper County","state_id":"MO"},{"zip":"65354","fips":"29141","name":"Morgan County","state_id":"MO"},{"zip":"65355","fips":"29015","name":"Benton County","state_id":"MO"},{"zip":"65355","fips":"29085","name":"Hickory County","state_id":"MO"},{"zip":"65360","fips":"29159","name":"Pettis County","state_id":"MO"},{"zip":"65360","fips":"29101","name":"Johnson County","state_id":"MO"},{"zip":"65360","fips":"29083","name":"Henry County","state_id":"MO"},{"zip":"65360","fips":"29015","name":"Benton County","state_id":"MO"}]
