[{"zip":"65401","fips":"29161","name":"Phelps County","state_id":"MO"},{"zip":"65401","fips":"29125","name":"Maries County","state_id":"MO"},{"zip":"65401","fips":"29065","name":"Dent County","state_id":"MO"},{"zip":"65402","fips":"29161","name":"Phelps County","state_id":"MO"},{"zip":"65409","fips":"29161","name":"Phelps County","state_id":"MO"},{"zip":"65436","fips":"29215","name":"Texas County","state_id":"MO"},{"zip":"65436","fips":"29161","name":"Phelps County","state_id":"MO"},{"zip":"65438","fips":"29203","name":"Shannon County","state_id":"MO"},{"zip":"65438","fips":"29091","name":"Howell County","state_id":"MO"},{"zip":"65438","fips":"29149","name":"Oregon County","state_id":"MO"},{"zip":"65439","fips":"29093","name":"Iron County","state_id":"MO"},{"zip":"65440","fips":"29093","name":"Iron County","state_id":"MO"},{"zip":"65440","fips":"29179","name":"Reynolds County","state_id":"MO"},{"zip":"65440","fips":"29065","name":"Dent County","state_id":"MO"},{"zip":"65441","fips":"29073","name":"Gasconade County","state_id":"MO"},{"zip":"65441","fips":"29055","name":"Crawford County","state_id":"MO"},{"zip":"65441","fips":"29071","name":"Franklin County","state_id":"MO"},{"zip":"65441","fips":"29221","name":"Washington County","state_id":"MO"},{"zip":"65443","fips":"29125","name":"Maries County","state_id":"MO"},{"zip":"65444","fips":"29215","name":"Texas County","state_id":"MO"},{"zip":"65446","fips":"29055","name":"Crawford County","state_id":"MO"},{"zip":"65449","fips":"29055","name":"Crawford County","state_id":"MO"},{"zip":"65449","fips":"29161","name":"Phelps County","state_id":"MO"},{"zip":"65452","fips":"29169","name":"Pulaski County","state_id":"MO"},{"zip":"65452","fips":"29029","name":"Camden County","state_id":"MO"},{"zip":"65452","fips":"29131","name":"Miller County","state_id":"MO"},{"zip":"65453","fips":"29161","name":"Phelps County","state_id":"MO"},{"zip":"65453","fips":"29073","name":"Gasconade County","state_id":"MO"},{"zip":"65453","fips":"29055","name":"Crawford County","state_id":"MO"},{"zip":"65453","fips":"29071","name":"Franklin County","state_id":"MO"},{"zip":"65456","fips":"29055","name":"Crawford County","state_id":"MO"},{"zip":"65457","fips":"29169","name":"Pulaski County","state_id":"MO"},{"zip":"65459","fips":"29161","name":"Phelps County","state_id":"MO"},{"zip":"65459","fips":"29131","name":"Miller County","state_id":"MO"},{"zip":"65459","fips":"29125","name":"Maries County","state_id":"MO"},{"zip":"65459","fips":"29169","name":"Pulaski County","state_id":"MO"},{"zip":"65461","fips":"29169","name":"Pulaski County","state_id":"MO"},{"zip":"65461","fips":"29161","name":"Phelps County","state_id":"MO"},{"zip":"65462","fips":"29065","name":"Dent County","state_id":"MO"},{"zip":"65462","fips":"29161","name":"Phelps County","state_id":"MO"},{"zip":"65463","fips":"29105","name":"Laclede County","state_id":"MO"},{"zip":"65463","fips":"29059","name":"Dallas County","state_id":"MO"},{"zip":"65464","fips":"29215","name":"Texas County","state_id":"MO"},{"zip":"65466","fips":"29203","name":"Shannon County","state_id":"MO"},{"zip":"65468","fips":"29215","name":"Texas County","state_id":"MO"},{"zip":"65470","fips":"29105","name":"Laclede County","state_id":"MO"},{"zip":"65470","fips":"29229","name":"Wright County","state_id":"MO"},{"zip":"65470","fips":"29215","name":"Texas County","state_id":"MO"},{"zip":"65473","fips":"29169","name":"Pulaski County","state_id":"MO"},{"zip":"65479","fips":"29203","name":"Shannon County","state_id":"MO"},{"zip":"65479","fips":"29215","name":"Texas County","state_id":"MO"},{"zip":"65483","fips":"29215","name":"Texas County","state_id":"MO"},{"zip":"65484","fips":"29215","name":"Texas County","state_id":"MO"},{"zip":"65486","fips":"29131","name":"Miller County","state_id":"MO"}]
