[{"zip":"65501","fips":"29065","name":"Dent County","state_id":"MO"},{"zip":"65529","fips":"29161","name":"Phelps County","state_id":"MO"},{"zip":"65532","fips":"29065","name":"Dent County","state_id":"MO"},{"zip":"65534","fips":"29169","name":"Pulaski County","state_id":"MO"},{"zip":"65534","fips":"29105","name":"Laclede County","state_id":"MO"},{"zip":"65535","fips":"29055","name":"Crawford County","state_id":"MO"},{"zip":"65536","fips":"29029","name":"Camden County","state_id":"MO"},{"zip":"65536","fips":"29105","name":"Laclede County","state_id":"MO"},{"zip":"65536","fips":"29059","name":"Dallas County","state_id":"MO"},{"zip":"65541","fips":"29215","name":"Texas County","state_id":"MO"},{"zip":"65541","fips":"29065","name":"Dent County","state_id":"MO"},{"zip":"65542","fips":"29161","name":"Phelps County","state_id":"MO"},{"zip":"65542","fips":"29215","name":"Texas County","state_id":"MO"},{"zip":"65542","fips":"29065","name":"Dent County","state_id":"MO"},{"zip":"65543","fips":"29105","name":"Laclede County","state_id":"MO"},{"zip":"65543","fips":"29229","name":"Wright County","state_id":"MO"},{"zip":"65546","fips":"29203","name":"Shannon County","state_id":"MO"},{"zip":"65548","fips":"29203","name":"Shannon County","state_id":"MO"},{"zip":"65548","fips":"29215","name":"Texas County","state_id":"MO"},{"zip":"65548","fips":"29091","name":"Howell County","state_id":"MO"},{"zip":"65550","fips":"29161","name":"Phelps County","state_id":"MO"},{"zip":"65550","fips":"29169","name":"Pulaski County","state_id":"MO"},{"zip":"65552","fips":"29169","name":"Pulaski County","state_id":"MO"},{"zip":"65552","fips":"29105","name":"Laclede County","state_id":"MO"},{"zip":"65552","fips":"29215","name":"Texas County","state_id":"MO"},{"zip":"65555","fips":"29215","name":"Texas County","state_id":"MO"},{"zip":"65556","fips":"29169","name":"Pulaski County","state_id":"MO"},{"zip":"65556","fips":"29105","name":"Laclede County","state_id":"MO"},{"zip":"65556","fips":"29029","name":"Camden County","state_id":"MO"},{"zip":"65557","fips":"29215","name":"Texas County","state_id":"MO"},{"zip":"65559","fips":"29161","name":"Phelps County","state_id":"MO"},{"zip":"65559","fips":"29055","name":"Crawford County","state_id":"MO"},{"zip":"65559","fips":"29125","name":"Maries County","state_id":"MO"},{"zip":"65560","fips":"29065","name":"Dent County","state_id":"MO"},{"zip":"65560","fips":"29055","name":"Crawford County","state_id":"MO"},{"zip":"65560","fips":"29215","name":"Texas County","state_id":"MO"},{"zip":"65560","fips":"29179","name":"Reynolds County","state_id":"MO"},{"zip":"65560","fips":"29161","name":"Phelps County","state_id":"MO"},{"zip":"65560","fips":"29203","name":"Shannon County","state_id":"MO"},{"zip":"65564","fips":"29215","name":"Texas County","state_id":"MO"},{"zip":"65565","fips":"29055","name":"Crawford County","state_id":"MO"},{"zip":"65565","fips":"29221","name":"Washington County","state_id":"MO"},{"zip":"65566","fips":"29093","name":"Iron County","state_id":"MO"},{"zip":"65566","fips":"29055","name":"Crawford County","state_id":"MO"},{"zip":"65567","fips":"29029","name":"Camden County","state_id":"MO"},{"zip":"65567","fips":"29105","name":"Laclede County","state_id":"MO"},{"zip":"65570","fips":"29215","name":"Texas County","state_id":"MO"},{"zip":"65571","fips":"29215","name":"Texas County","state_id":"MO"},{"zip":"65571","fips":"29203","name":"Shannon County","state_id":"MO"},{"zip":"65580","fips":"29125","name":"Maries County","state_id":"MO"},{"zip":"65582","fips":"29151","name":"Osage County","state_id":"MO"},{"zip":"65582","fips":"29125","name":"Maries County","state_id":"MO"},{"zip":"65583","fips":"29169","name":"Pulaski County","state_id":"MO"},{"zip":"65584","fips":"29169","name":"Pulaski County","state_id":"MO"},{"zip":"65586","fips":"29055","name":"Crawford County","state_id":"MO"},{"zip":"65588","fips":"29203","name":"Shannon County","state_id":"MO"},{"zip":"65589","fips":"29215","name":"Texas County","state_id":"MO"},{"zip":"65590","fips":"29105","name":"Laclede County","state_id":"MO"},{"zip":"65590","fips":"29059","name":"Dallas County","state_id":"MO"},{"zip":"65591","fips":"29131","name":"Miller County","state_id":"MO"},{"zip":"65591","fips":"29029","name":"Camden County","state_id":"MO"}]
