[{"zip":"65601","fips":"29057","name":"Dade County","state_id":"MO"},{"zip":"65601","fips":"29039","name":"Cedar County","state_id":"MO"},{"zip":"65601","fips":"29167","name":"Polk County","state_id":"MO"},{"zip":"65603","fips":"29057","name":"Dade County","state_id":"MO"},{"zip":"65604","fips":"29109","name":"Lawrence County","state_id":"MO"},{"zip":"65604","fips":"29077","name":"Greene County","state_id":"MO"},{"zip":"65604","fips":"29057","name":"Dade County","state_id":"MO"},{"zip":"65605","fips":"29209","name":"Stone County","state_id":"MO"},{"zip":"65605","fips":"29009","name":"Barry County","state_id":"MO"},{"zip":"65605","fips":"29109","name":"Lawrence County","state_id":"MO"},{"zip":"65606","fips":"29149","name":"Oregon County","state_id":"MO"},{"zip":"65607","fips":"29039","name":"Cedar County","state_id":"MO"},{"zip":"65608","fips":"29213","name":"Taney County","state_id":"MO"},{"zip":"65608","fips":"29153","name":"Ozark County","state_id":"MO"},{"zip":"65608","fips":"29067","name":"Douglas County","state_id":"MO"},{"zip":"65609","fips":"29153","name":"Ozark County","state_id":"MO"},{"zip":"65609","fips":"29091","name":"Howell County","state_id":"MO"},{"zip":"65610","fips":"29043","name":"Christian County","state_id":"MO"},{"zip":"65610","fips":"29109","name":"Lawrence County","state_id":"MO"},{"zip":"65610","fips":"29209","name":"Stone County","state_id":"MO"},{"zip":"65610","fips":"29077","name":"Greene County","state_id":"MO"},{"zip":"65611","fips":"29213","name":"Taney County","state_id":"MO"},{"zip":"65611","fips":"29209","name":"Stone County","state_id":"MO"},{"zip":"65612","fips":"29109","name":"Lawrence County","state_id":"MO"},{"zip":"65612","fips":"29077","name":"Greene County","state_id":"MO"},{"zip":"65613","fips":"29167","name":"Polk County","state_id":"MO"},{"zip":"65614","fips":"29213","name":"Taney County","state_id":"MO"},{"zip":"65614","fips":"29043","name":"Christian County","state_id":"MO"},{"zip":"65615","fips":"29213","name":"Taney County","state_id":"MO"},{"zip":"65616","fips":"29209","name":"Stone County","state_id":"MO"},{"zip":"65616","fips":"29213","name":"Taney County","state_id":"MO"},{"zip":"65617","fips":"29077","name":"Greene County","state_id":"MO"},{"zip":"65617","fips":"29167","name":"Polk County","state_id":"MO"},{"zip":"65618","fips":"29153","name":"Ozark County","state_id":"MO"},{"zip":"65619","fips":"29077","name":"Greene County","state_id":"MO"},{"zip":"65619","fips":"29043","name":"Christian County","state_id":"MO"},{"zip":"65620","fips":"29043","name":"Christian County","state_id":"MO"},{"zip":"65622","fips":"29059","name":"Dallas County","state_id":"MO"},{"zip":"65622","fips":"29167","name":"Polk County","state_id":"MO"},{"zip":"65623","fips":"29009","name":"Barry County","state_id":"MO"},{"zip":"65624","fips":"29209","name":"Stone County","state_id":"MO"},{"zip":"65625","fips":"29009","name":"Barry County","state_id":"MO"},{"zip":"65626","fips":"29091","name":"Howell County","state_id":"MO"},{"zip":"65626","fips":"29153","name":"Ozark County","state_id":"MO"},{"zip":"65627","fips":"29213","name":"Taney County","state_id":"MO"},{"zip":"65629","fips":"29043","name":"Christian County","state_id":"MO"},{"zip":"65630","fips":"29213","name":"Taney County","state_id":"MO"},{"zip":"65630","fips":"29043","name":"Christian County","state_id":"MO"},{"zip":"65631","fips":"29209","name":"Stone County","state_id":"MO"},{"zip":"65631","fips":"29043","name":"Christian County","state_id":"MO"},{"zip":"65632","fips":"29225","name":"Webster County","state_id":"MO"},{"zip":"65632","fips":"29059","name":"Dallas County","state_id":"MO"},{"zip":"65632","fips":"29105","name":"Laclede County","state_id":"MO"},{"zip":"65633","fips":"29209","name":"Stone County","state_id":"MO"},{"zip":"65633","fips":"29009","name":"Barry County","state_id":"MO"},{"zip":"65634","fips":"29015","name":"Benton County","state_id":"MO"},{"zip":"65634","fips":"29085","name":"Hickory County","state_id":"MO"},{"zip":"65634","fips":"29029","name":"Camden County","state_id":"MO"},{"zip":"65635","fips":"29057","name":"Dade County","state_id":"MO"},{"zip":"65635","fips":"29039","name":"Cedar County","state_id":"MO"},{"zip":"65636","fips":"29225","name":"Webster County","state_id":"MO"},{"zip":"65637","fips":"29091","name":"Howell County","state_id":"MO"},{"zip":"65637","fips":"29153","name":"Ozark County","state_id":"MO"},{"zip":"65638","fips":"29153","name":"Ozark County","state_id":"MO"},{"zip":"65638","fips":"29067","name":"Douglas County","state_id":"MO"},{"zip":"65640","fips":"29039","name":"Cedar County","state_id":"MO"},{"zip":"65640","fips":"29167","name":"Polk County","state_id":"MO"},{"zip":"65641","fips":"29009","name":"Barry County","state_id":"MO"},{"zip":"65644","fips":"29059","name":"Dallas County","state_id":"MO"},{"zip":"65644","fips":"29225","name":"Webster County","state_id":"MO"},{"zip":"65646","fips":"29057","name":"Dade County","state_id":"MO"},{"zip":"65646","fips":"29109","name":"Lawrence County","state_id":"MO"},{"zip":"65647","fips":"29119","name":"McDonald County","state_id":"MO"},{"zip":"65647","fips":"29009","name":"Barry County","state_id":"MO"},{"zip":"65648","fips":"29077","name":"Greene County","state_id":"MO"},{"zip":"65648","fips":"29059","name":"Dallas County","state_id":"MO"},{"zip":"65648","fips":"29225","name":"Webster County","state_id":"MO"},{"zip":"65648","fips":"29167","name":"Polk County","state_id":"MO"},{"zip":"65649","fips":"29167","name":"Polk County","state_id":"MO"},{"zip":"65649","fips":"29039","name":"Cedar County","state_id":"MO"},{"zip":"65650","fips":"29167","name":"Polk County","state_id":"MO"},{"zip":"65652","fips":"29225","name":"Webster County","state_id":"MO"},{"zip":"65652","fips":"29043","name":"Christian County","state_id":"MO"},{"zip":"65652","fips":"29067","name":"Douglas County","state_id":"MO"},{"zip":"65653","fips":"29043","name":"Christian County","state_id":"MO"},{"zip":"65653","fips":"29213","name":"Taney County","state_id":"MO"},{"zip":"65654","fips":"29109","name":"Lawrence County","state_id":"MO"},{"zip":"65655","fips":"29153","name":"Ozark County","state_id":"MO"},{"zip":"65656","fips":"29009","name":"Barry County","state_id":"MO"},{"zip":"65656","fips":"29209","name":"Stone County","state_id":"MO"},{"zip":"65656","fips":"29043","name":"Christian County","state_id":"MO"},{"zip":"65657","fips":"29043","name":"Christian County","state_id":"MO"},{"zip":"65658","fips":"29009","name":"Barry County","state_id":"MO"},{"zip":"65660","fips":"29229","name":"Wright County","state_id":"MO"},{"zip":"65660","fips":"29215","name":"Texas County","state_id":"MO"},{"zip":"65661","fips":"29057","name":"Dade County","state_id":"MO"},{"zip":"65662","fips":"29225","name":"Webster County","state_id":"MO"},{"zip":"65662","fips":"29105","name":"Laclede County","state_id":"MO"},{"zip":"65662","fips":"29229","name":"Wright County","state_id":"MO"},{"zip":"65663","fips":"29167","name":"Polk County","state_id":"MO"},{"zip":"65664","fips":"29109","name":"Lawrence County","state_id":"MO"},{"zip":"65666","fips":"29153","name":"Ozark County","state_id":"MO"},{"zip":"65667","fips":"29229","name":"Wright County","state_id":"MO"},{"zip":"65667","fips":"29225","name":"Webster County","state_id":"MO"},{"zip":"65668","fips":"29085","name":"Hickory County","state_id":"MO"},{"zip":"65669","fips":"29043","name":"Christian County","state_id":"MO"},{"zip":"65669","fips":"29209","name":"Stone County","state_id":"MO"},{"zip":"65672","fips":"29213","name":"Taney County","state_id":"MO"},{"zip":"65673","fips":"29213","name":"Taney County","state_id":"MO"},{"zip":"65674","fips":"29167","name":"Polk County","state_id":"MO"},{"zip":"65674","fips":"29039","name":"Cedar County","state_id":"MO"},{"zip":"65674","fips":"29185","name":"St. Clair County","state_id":"MO"},{"zip":"65675","fips":"29209","name":"Stone County","state_id":"MO"},{"zip":"65676","fips":"29153","name":"Ozark County","state_id":"MO"},{"zip":"65679","fips":"29213","name":"Taney County","state_id":"MO"},{"zip":"65680","fips":"29213","name":"Taney County","state_id":"MO"},{"zip":"65681","fips":"29209","name":"Stone County","state_id":"MO"},{"zip":"65682","fips":"29109","name":"Lawrence County","state_id":"MO"},{"zip":"65682","fips":"29057","name":"Dade County","state_id":"MO"},{"zip":"65685","fips":"29167","name":"Polk County","state_id":"MO"},{"zip":"65685","fips":"29059","name":"Dallas County","state_id":"MO"},{"zip":"65686","fips":"29209","name":"Stone County","state_id":"MO"},{"zip":"65688","fips":"29091","name":"Howell County","state_id":"MO"},{"zip":"65689","fips":"29091","name":"Howell County","state_id":"MO"},{"zip":"65689","fips":"29215","name":"Texas County","state_id":"MO"},{"zip":"65690","fips":"29149","name":"Oregon County","state_id":"MO"},{"zip":"65692","fips":"29091","name":"Howell County","state_id":"MO"},{"zip":"65692","fips":"29149","name":"Oregon County","state_id":"MO"}]
