[{"zip":"65702","fips":"29229","name":"Wright County","state_id":"MO"},{"zip":"65704","fips":"29229","name":"Wright County","state_id":"MO"},{"zip":"65705","fips":"29209","name":"Stone County","state_id":"MO"},{"zip":"65705","fips":"29043","name":"Christian County","state_id":"MO"},{"zip":"65705","fips":"29109","name":"Lawrence County","state_id":"MO"},{"zip":"65706","fips":"29225","name":"Webster County","state_id":"MO"},{"zip":"65706","fips":"29229","name":"Wright County","state_id":"MO"},{"zip":"65706","fips":"29077","name":"Greene County","state_id":"MO"},{"zip":"65707","fips":"29109","name":"Lawrence County","state_id":"MO"},{"zip":"65708","fips":"29109","name":"Lawrence County","state_id":"MO"},{"zip":"65708","fips":"29009","name":"Barry County","state_id":"MO"},{"zip":"65710","fips":"29167","name":"Polk County","state_id":"MO"},{"zip":"65711","fips":"29229","name":"Wright County","state_id":"MO"},{"zip":"65711","fips":"29215","name":"Texas County","state_id":"MO"},{"zip":"65712","fips":"29109","name":"Lawrence County","state_id":"MO"},{"zip":"65713","fips":"29225","name":"Webster County","state_id":"MO"},{"zip":"65713","fips":"29229","name":"Wright County","state_id":"MO"},{"zip":"65713","fips":"29105","name":"Laclede County","state_id":"MO"},{"zip":"65714","fips":"29209","name":"Stone County","state_id":"MO"},{"zip":"65714","fips":"29043","name":"Christian County","state_id":"MO"},{"zip":"65715","fips":"29153","name":"Ozark County","state_id":"MO"},{"zip":"65717","fips":"29229","name":"Wright County","state_id":"MO"},{"zip":"65720","fips":"29067","name":"Douglas County","state_id":"MO"},{"zip":"65720","fips":"29043","name":"Christian County","state_id":"MO"},{"zip":"65721","fips":"29043","name":"Christian County","state_id":"MO"},{"zip":"65721","fips":"29077","name":"Greene County","state_id":"MO"},{"zip":"65722","fips":"29105","name":"Laclede County","state_id":"MO"},{"zip":"65722","fips":"29059","name":"Dallas County","state_id":"MO"},{"zip":"65723","fips":"29145","name":"Newton County","state_id":"MO"},{"zip":"65723","fips":"29109","name":"Lawrence County","state_id":"MO"},{"zip":"65723","fips":"29009","name":"Barry County","state_id":"MO"},{"zip":"65724","fips":"29085","name":"Hickory County","state_id":"MO"},{"zip":"65724","fips":"29167","name":"Polk County","state_id":"MO"},{"zip":"65725","fips":"29077","name":"Greene County","state_id":"MO"},{"zip":"65725","fips":"29167","name":"Polk County","state_id":"MO"},{"zip":"65726","fips":"29213","name":"Taney County","state_id":"MO"},{"zip":"65727","fips":"29167","name":"Polk County","state_id":"MO"},{"zip":"65728","fips":"29043","name":"Christian County","state_id":"MO"},{"zip":"65728","fips":"29209","name":"Stone County","state_id":"MO"},{"zip":"65729","fips":"29153","name":"Ozark County","state_id":"MO"},{"zip":"65730","fips":"29119","name":"McDonald County","state_id":"MO"},{"zip":"65731","fips":"29213","name":"Taney County","state_id":"MO"},{"zip":"65732","fips":"29059","name":"Dallas County","state_id":"MO"},{"zip":"65732","fips":"29085","name":"Hickory County","state_id":"MO"},{"zip":"65733","fips":"29213","name":"Taney County","state_id":"MO"},{"zip":"65733","fips":"29153","name":"Ozark County","state_id":"MO"},{"zip":"65734","fips":"29145","name":"Newton County","state_id":"MO"},{"zip":"65734","fips":"29009","name":"Barry County","state_id":"MO"},{"zip":"65735","fips":"29085","name":"Hickory County","state_id":"MO"},{"zip":"65735","fips":"29185","name":"St. Clair County","state_id":"MO"},{"zip":"65735","fips":"29015","name":"Benton County","state_id":"MO"},{"zip":"65737","fips":"29213","name":"Taney County","state_id":"MO"},{"zip":"65737","fips":"29043","name":"Christian County","state_id":"MO"},{"zip":"65737","fips":"29209","name":"Stone County","state_id":"MO"},{"zip":"65738","fips":"29043","name":"Christian County","state_id":"MO"},{"zip":"65738","fips":"29109","name":"Lawrence County","state_id":"MO"},{"zip":"65738","fips":"29077","name":"Greene County","state_id":"MO"},{"zip":"65739","fips":"29213","name":"Taney County","state_id":"MO"},{"zip":"65740","fips":"29213","name":"Taney County","state_id":"MO"},{"zip":"65741","fips":"29153","name":"Ozark County","state_id":"MO"},{"zip":"65742","fips":"29077","name":"Greene County","state_id":"MO"},{"zip":"65742","fips":"29225","name":"Webster County","state_id":"MO"},{"zip":"65742","fips":"29043","name":"Christian County","state_id":"MO"},{"zip":"65744","fips":"29213","name":"Taney County","state_id":"MO"},{"zip":"65745","fips":"29119","name":"McDonald County","state_id":"MO"},{"zip":"65745","fips":"29009","name":"Barry County","state_id":"MO"},{"zip":"65746","fips":"29229","name":"Wright County","state_id":"MO"},{"zip":"65746","fips":"29225","name":"Webster County","state_id":"MO"},{"zip":"65747","fips":"29009","name":"Barry County","state_id":"MO"},{"zip":"65747","fips":"29209","name":"Stone County","state_id":"MO"},{"zip":"65752","fips":"29109","name":"Lawrence County","state_id":"MO"},{"zip":"65752","fips":"29057","name":"Dade County","state_id":"MO"},{"zip":"65753","fips":"29043","name":"Christian County","state_id":"MO"},{"zip":"65754","fips":"29043","name":"Christian County","state_id":"MO"},{"zip":"65754","fips":"29209","name":"Stone County","state_id":"MO"},{"zip":"65755","fips":"29067","name":"Douglas County","state_id":"MO"},{"zip":"65755","fips":"29153","name":"Ozark County","state_id":"MO"},{"zip":"65756","fips":"29109","name":"Lawrence County","state_id":"MO"},{"zip":"65757","fips":"29225","name":"Webster County","state_id":"MO"},{"zip":"65757","fips":"29077","name":"Greene County","state_id":"MO"},{"zip":"65759","fips":"29043","name":"Christian County","state_id":"MO"},{"zip":"65759","fips":"29213","name":"Taney County","state_id":"MO"},{"zip":"65760","fips":"29153","name":"Ozark County","state_id":"MO"},{"zip":"65761","fips":"29153","name":"Ozark County","state_id":"MO"},{"zip":"65761","fips":"29213","name":"Taney County","state_id":"MO"},{"zip":"65762","fips":"29153","name":"Ozark County","state_id":"MO"},{"zip":"65764","fips":"29059","name":"Dallas County","state_id":"MO"},{"zip":"65765","fips":"29077","name":"Greene County","state_id":"MO"},{"zip":"65766","fips":"29153","name":"Ozark County","state_id":"MO"},{"zip":"65767","fips":"29167","name":"Polk County","state_id":"MO"},{"zip":"65767","fips":"29059","name":"Dallas County","state_id":"MO"},{"zip":"65767","fips":"29085","name":"Hickory County","state_id":"MO"},{"zip":"65768","fips":"29067","name":"Douglas County","state_id":"MO"},{"zip":"65769","fips":"29109","name":"Lawrence County","state_id":"MO"},{"zip":"65769","fips":"29009","name":"Barry County","state_id":"MO"},{"zip":"65770","fips":"29167","name":"Polk County","state_id":"MO"},{"zip":"65770","fips":"29057","name":"Dade County","state_id":"MO"},{"zip":"65770","fips":"29077","name":"Greene County","state_id":"MO"},{"zip":"65771","fips":"29043","name":"Christian County","state_id":"MO"},{"zip":"65771","fips":"29213","name":"Taney County","state_id":"MO"},{"zip":"65772","fips":"29119","name":"McDonald County","state_id":"MO"},{"zip":"65772","fips":"29009","name":"Barry County","state_id":"MO"},{"zip":"65773","fips":"29153","name":"Ozark County","state_id":"MO"},{"zip":"65774","fips":"29085","name":"Hickory County","state_id":"MO"},{"zip":"65774","fips":"29185","name":"St. Clair County","state_id":"MO"},{"zip":"65775","fips":"29067","name":"Douglas County","state_id":"MO"},{"zip":"65775","fips":"29091","name":"Howell County","state_id":"MO"},{"zip":"65777","fips":"29091","name":"Howell County","state_id":"MO"},{"zip":"65778","fips":"29149","name":"Oregon County","state_id":"MO"},{"zip":"65779","fips":"29085","name":"Hickory County","state_id":"MO"},{"zip":"65779","fips":"29015","name":"Benton County","state_id":"MO"},{"zip":"65781","fips":"29167","name":"Polk County","state_id":"MO"},{"zip":"65781","fips":"29077","name":"Greene County","state_id":"MO"},{"zip":"65783","fips":"29059","name":"Dallas County","state_id":"MO"},{"zip":"65784","fips":"29153","name":"Ozark County","state_id":"MO"},{"zip":"65785","fips":"29185","name":"St. Clair County","state_id":"MO"},{"zip":"65785","fips":"29057","name":"Dade County","state_id":"MO"},{"zip":"65785","fips":"29039","name":"Cedar County","state_id":"MO"},{"zip":"65786","fips":"29029","name":"Camden County","state_id":"MO"},{"zip":"65786","fips":"29059","name":"Dallas County","state_id":"MO"},{"zip":"65787","fips":"29029","name":"Camden County","state_id":"MO"},{"zip":"65788","fips":"29091","name":"Howell County","state_id":"MO"},{"zip":"65789","fips":"29091","name":"Howell County","state_id":"MO"},{"zip":"65790","fips":"29153","name":"Ozark County","state_id":"MO"},{"zip":"65790","fips":"29091","name":"Howell County","state_id":"MO"},{"zip":"65791","fips":"29091","name":"Howell County","state_id":"MO"},{"zip":"65791","fips":"29149","name":"Oregon County","state_id":"MO"},{"zip":"65793","fips":"29215","name":"Texas County","state_id":"MO"},{"zip":"65793","fips":"29091","name":"Howell County","state_id":"MO"}]
