[{"zip":"65801","fips":"29077","name":"Greene County","state_id":"MO"},{"zip":"65802","fips":"29077","name":"Greene County","state_id":"MO"},{"zip":"65803","fips":"29077","name":"Greene County","state_id":"MO"},{"zip":"65804","fips":"29077","name":"Greene County","state_id":"MO"},{"zip":"65805","fips":"29077","name":"Greene County","state_id":"MO"},{"zip":"65806","fips":"29077","name":"Greene County","state_id":"MO"},{"zip":"65807","fips":"29077","name":"Greene County","state_id":"MO"},{"zip":"65808","fips":"29077","name":"Greene County","state_id":"MO"},{"zip":"65809","fips":"29077","name":"Greene County","state_id":"MO"},{"zip":"65810","fips":"29077","name":"Greene County","state_id":"MO"},{"zip":"65814","fips":"29077","name":"Greene County","state_id":"MO"},{"zip":"65890","fips":"29077","name":"Greene County","state_id":"MO"},{"zip":"65897","fips":"29077","name":"Greene County","state_id":"MO"},{"zip":"65898","fips":"29077","name":"Greene County","state_id":"MO"},{"zip":"65899","fips":"29077","name":"Greene County","state_id":"MO"}]
