[{"zip":"66002","fips":"20005","name":"Atchison County","state_id":"KS"},{"zip":"66002","fips":"20087","name":"Jefferson County","state_id":"KS"},{"zip":"66002","fips":"20043","name":"Doniphan County","state_id":"KS"},{"zip":"66002","fips":"20103","name":"Leavenworth County","state_id":"KS"},{"zip":"66006","fips":"20045","name":"Douglas County","state_id":"KS"},{"zip":"66006","fips":"20059","name":"Franklin County","state_id":"KS"},{"zip":"66007","fips":"20103","name":"Leavenworth County","state_id":"KS"},{"zip":"66007","fips":"20209","name":"Wyandotte County","state_id":"KS"},{"zip":"66008","fips":"20043","name":"Doniphan County","state_id":"KS"},{"zip":"66010","fips":"20011","name":"Bourbon County","state_id":"KS"},{"zip":"66010","fips":"20003","name":"Anderson County","state_id":"KS"},{"zip":"66010","fips":"20107","name":"Linn County","state_id":"KS"},{"zip":"66012","fips":"20103","name":"Leavenworth County","state_id":"KS"},{"zip":"66012","fips":"20209","name":"Wyandotte County","state_id":"KS"},{"zip":"66013","fips":"20121","name":"Miami County","state_id":"KS"},{"zip":"66013","fips":"20091","name":"Johnson County","state_id":"KS"},{"zip":"66014","fips":"20003","name":"Anderson County","state_id":"KS"},{"zip":"66014","fips":"20107","name":"Linn County","state_id":"KS"},{"zip":"66015","fips":"20001","name":"Allen County","state_id":"KS"},{"zip":"66015","fips":"20003","name":"Anderson County","state_id":"KS"},{"zip":"66016","fips":"20005","name":"Atchison County","state_id":"KS"},{"zip":"66017","fips":"20013","name":"Brown County","state_id":"KS"},{"zip":"66017","fips":"20043","name":"Doniphan County","state_id":"KS"},{"zip":"66018","fips":"20091","name":"Johnson County","state_id":"KS"},{"zip":"66020","fips":"20103","name":"Leavenworth County","state_id":"KS"},{"zip":"66021","fips":"20045","name":"Douglas County","state_id":"KS"},{"zip":"66021","fips":"20121","name":"Miami County","state_id":"KS"},{"zip":"66021","fips":"20091","name":"Johnson County","state_id":"KS"},{"zip":"66023","fips":"20005","name":"Atchison County","state_id":"KS"},{"zip":"66024","fips":"20043","name":"Doniphan County","state_id":"KS"},{"zip":"66025","fips":"20045","name":"Douglas County","state_id":"KS"},{"zip":"66025","fips":"20091","name":"Johnson County","state_id":"KS"},{"zip":"66026","fips":"20107","name":"Linn County","state_id":"KS"},{"zip":"66026","fips":"20121","name":"Miami County","state_id":"KS"},{"zip":"66027","fips":"20103","name":"Leavenworth County","state_id":"KS"},{"zip":"66030","fips":"20121","name":"Miami County","state_id":"KS"},{"zip":"66030","fips":"20091","name":"Johnson County","state_id":"KS"},{"zip":"66031","fips":"20091","name":"Johnson County","state_id":"KS"},{"zip":"66032","fips":"20003","name":"Anderson County","state_id":"KS"},{"zip":"66033","fips":"20107","name":"Linn County","state_id":"KS"},{"zip":"66033","fips":"20059","name":"Franklin County","state_id":"KS"},{"zip":"66033","fips":"20003","name":"Anderson County","state_id":"KS"},{"zip":"66035","fips":"20043","name":"Doniphan County","state_id":"KS"},{"zip":"66036","fips":"20121","name":"Miami County","state_id":"KS"},{"zip":"66039","fips":"20001","name":"Allen County","state_id":"KS"},{"zip":"66039","fips":"20003","name":"Anderson County","state_id":"KS"},{"zip":"66040","fips":"20107","name":"Linn County","state_id":"KS"},{"zip":"66040","fips":"20121","name":"Miami County","state_id":"KS"},{"zip":"66041","fips":"20013","name":"Brown County","state_id":"KS"},{"zip":"66041","fips":"20043","name":"Doniphan County","state_id":"KS"},{"zip":"66041","fips":"20005","name":"Atchison County","state_id":"KS"},{"zip":"66042","fips":"20059","name":"Franklin County","state_id":"KS"},{"zip":"66042","fips":"20107","name":"Linn County","state_id":"KS"},{"zip":"66042","fips":"20121","name":"Miami County","state_id":"KS"},{"zip":"66043","fips":"20103","name":"Leavenworth County","state_id":"KS"},{"zip":"66044","fips":"20087","name":"Jefferson County","state_id":"KS"},{"zip":"66044","fips":"20103","name":"Leavenworth County","state_id":"KS"},{"zip":"66044","fips":"20045","name":"Douglas County","state_id":"KS"},{"zip":"66045","fips":"20045","name":"Douglas County","state_id":"KS"},{"zip":"66046","fips":"20045","name":"Douglas County","state_id":"KS"},{"zip":"66047","fips":"20045","name":"Douglas County","state_id":"KS"},{"zip":"66048","fips":"20103","name":"Leavenworth County","state_id":"KS"},{"zip":"66048","fips":"20209","name":"Wyandotte County","state_id":"KS"},{"zip":"66049","fips":"20045","name":"Douglas County","state_id":"KS"},{"zip":"66050","fips":"20177","name":"Shawnee County","state_id":"KS"},{"zip":"66050","fips":"20045","name":"Douglas County","state_id":"KS"},{"zip":"66051","fips":"20091","name":"Johnson County","state_id":"KS"},{"zip":"66052","fips":"20103","name":"Leavenworth County","state_id":"KS"},{"zip":"66053","fips":"20121","name":"Miami County","state_id":"KS"},{"zip":"66054","fips":"20087","name":"Jefferson County","state_id":"KS"},{"zip":"66054","fips":"20103","name":"Leavenworth County","state_id":"KS"},{"zip":"66056","fips":"20107","name":"Linn County","state_id":"KS"},{"zip":"66056","fips":"20011","name":"Bourbon County","state_id":"KS"},{"zip":"66058","fips":"20085","name":"Jackson County","state_id":"KS"},{"zip":"66058","fips":"20005","name":"Atchison County","state_id":"KS"},{"zip":"66060","fips":"20005","name":"Atchison County","state_id":"KS"},{"zip":"66060","fips":"20087","name":"Jefferson County","state_id":"KS"},{"zip":"66061","fips":"20091","name":"Johnson County","state_id":"KS"},{"zip":"66062","fips":"20091","name":"Johnson County","state_id":"KS"},{"zip":"66063","fips":"20091","name":"Johnson County","state_id":"KS"},{"zip":"66064","fips":"20107","name":"Linn County","state_id":"KS"},{"zip":"66064","fips":"20121","name":"Miami County","state_id":"KS"},{"zip":"66064","fips":"20059","name":"Franklin County","state_id":"KS"},{"zip":"66066","fips":"20087","name":"Jefferson County","state_id":"KS"},{"zip":"66067","fips":"20059","name":"Franklin County","state_id":"KS"},{"zip":"66070","fips":"20087","name":"Jefferson County","state_id":"KS"},{"zip":"66071","fips":"20121","name":"Miami County","state_id":"KS"},{"zip":"66072","fips":"20107","name":"Linn County","state_id":"KS"},{"zip":"66072","fips":"20121","name":"Miami County","state_id":"KS"},{"zip":"66073","fips":"20087","name":"Jefferson County","state_id":"KS"},{"zip":"66075","fips":"20107","name":"Linn County","state_id":"KS"},{"zip":"66076","fips":"20059","name":"Franklin County","state_id":"KS"},{"zip":"66078","fips":"20059","name":"Franklin County","state_id":"KS"},{"zip":"66079","fips":"20121","name":"Miami County","state_id":"KS"},{"zip":"66079","fips":"20059","name":"Franklin County","state_id":"KS"},{"zip":"66080","fips":"20003","name":"Anderson County","state_id":"KS"},{"zip":"66080","fips":"20059","name":"Franklin County","state_id":"KS"},{"zip":"66083","fips":"20091","name":"Johnson County","state_id":"KS"},{"zip":"66083","fips":"20121","name":"Miami County","state_id":"KS"},{"zip":"66085","fips":"20091","name":"Johnson County","state_id":"KS"},{"zip":"66086","fips":"20103","name":"Leavenworth County","state_id":"KS"},{"zip":"66086","fips":"20087","name":"Jefferson County","state_id":"KS"},{"zip":"66087","fips":"20043","name":"Doniphan County","state_id":"KS"},{"zip":"66088","fips":"20005","name":"Atchison County","state_id":"KS"},{"zip":"66088","fips":"20087","name":"Jefferson County","state_id":"KS"},{"zip":"66090","fips":"20043","name":"Doniphan County","state_id":"KS"},{"zip":"66091","fips":"20003","name":"Anderson County","state_id":"KS"},{"zip":"66092","fips":"20059","name":"Franklin County","state_id":"KS"},{"zip":"66092","fips":"20121","name":"Miami County","state_id":"KS"},{"zip":"66092","fips":"20045","name":"Douglas County","state_id":"KS"},{"zip":"66093","fips":"20003","name":"Anderson County","state_id":"KS"},{"zip":"66093","fips":"20031","name":"Coffey County","state_id":"KS"},{"zip":"66094","fips":"20043","name":"Doniphan County","state_id":"KS"},{"zip":"66094","fips":"20013","name":"Brown County","state_id":"KS"},{"zip":"66095","fips":"20139","name":"Osage County","state_id":"KS"},{"zip":"66095","fips":"20031","name":"Coffey County","state_id":"KS"},{"zip":"66095","fips":"20003","name":"Anderson County","state_id":"KS"},{"zip":"66095","fips":"20059","name":"Franklin County","state_id":"KS"},{"zip":"66097","fips":"20087","name":"Jefferson County","state_id":"KS"},{"zip":"66097","fips":"20103","name":"Leavenworth County","state_id":"KS"}]
