[{"zip":"66101","fips":"20209","name":"Wyandotte County","state_id":"KS"},{"zip":"66102","fips":"20209","name":"Wyandotte County","state_id":"KS"},{"zip":"66103","fips":"20209","name":"Wyandotte County","state_id":"KS"},{"zip":"66104","fips":"20209","name":"Wyandotte County","state_id":"KS"},{"zip":"66105","fips":"20209","name":"Wyandotte County","state_id":"KS"},{"zip":"66106","fips":"20209","name":"Wyandotte County","state_id":"KS"},{"zip":"66106","fips":"20091","name":"Johnson County","state_id":"KS"},{"zip":"66109","fips":"20209","name":"Wyandotte County","state_id":"KS"},{"zip":"66109","fips":"20103","name":"Leavenworth County","state_id":"KS"},{"zip":"66111","fips":"20209","name":"Wyandotte County","state_id":"KS"},{"zip":"66112","fips":"20209","name":"Wyandotte County","state_id":"KS"},{"zip":"66115","fips":"20209","name":"Wyandotte County","state_id":"KS"},{"zip":"66117","fips":"20209","name":"Wyandotte County","state_id":"KS"},{"zip":"66118","fips":"20209","name":"Wyandotte County","state_id":"KS"},{"zip":"66119","fips":"20209","name":"Wyandotte County","state_id":"KS"},{"zip":"66160","fips":"20209","name":"Wyandotte County","state_id":"KS"}]
