[{"zip":"66201","fips":"20091","name":"Johnson County","state_id":"KS"},{"zip":"66202","fips":"20091","name":"Johnson County","state_id":"KS"},{"zip":"66203","fips":"20091","name":"Johnson County","state_id":"KS"},{"zip":"66204","fips":"20091","name":"Johnson County","state_id":"KS"},{"zip":"66205","fips":"20091","name":"Johnson County","state_id":"KS"},{"zip":"66206","fips":"20091","name":"Johnson County","state_id":"KS"},{"zip":"66207","fips":"20091","name":"Johnson County","state_id":"KS"},{"zip":"66208","fips":"20091","name":"Johnson County","state_id":"KS"},{"zip":"66209","fips":"20091","name":"Johnson County","state_id":"KS"},{"zip":"66210","fips":"20091","name":"Johnson County","state_id":"KS"},{"zip":"66211","fips":"20091","name":"Johnson County","state_id":"KS"},{"zip":"66212","fips":"20091","name":"Johnson County","state_id":"KS"},{"zip":"66213","fips":"20091","name":"Johnson County","state_id":"KS"},{"zip":"66214","fips":"20091","name":"Johnson County","state_id":"KS"},{"zip":"66215","fips":"20091","name":"Johnson County","state_id":"KS"},{"zip":"66216","fips":"20091","name":"Johnson County","state_id":"KS"},{"zip":"66216","fips":"20209","name":"Wyandotte County","state_id":"KS"},{"zip":"66217","fips":"20209","name":"Wyandotte County","state_id":"KS"},{"zip":"66217","fips":"20091","name":"Johnson County","state_id":"KS"},{"zip":"66218","fips":"20091","name":"Johnson County","state_id":"KS"},{"zip":"66219","fips":"20091","name":"Johnson County","state_id":"KS"},{"zip":"66220","fips":"20091","name":"Johnson County","state_id":"KS"},{"zip":"66221","fips":"20091","name":"Johnson County","state_id":"KS"},{"zip":"66223","fips":"20091","name":"Johnson County","state_id":"KS"},{"zip":"66224","fips":"20091","name":"Johnson County","state_id":"KS"},{"zip":"66225","fips":"20091","name":"Johnson County","state_id":"KS"},{"zip":"66226","fips":"20091","name":"Johnson County","state_id":"KS"},{"zip":"66227","fips":"20091","name":"Johnson County","state_id":"KS"},{"zip":"66250","fips":"20091","name":"Johnson County","state_id":"KS"},{"zip":"66251","fips":"20091","name":"Johnson County","state_id":"KS"},{"zip":"66276","fips":"20091","name":"Johnson County","state_id":"KS"},{"zip":"66282","fips":"20091","name":"Johnson County","state_id":"KS"},{"zip":"66283","fips":"20091","name":"Johnson County","state_id":"KS"},{"zip":"66285","fips":"20091","name":"Johnson County","state_id":"KS"},{"zip":"66286","fips":"20091","name":"Johnson County","state_id":"KS"}]
