[{"zip":"66401","fips":"20197","name":"Wabaunsee County","state_id":"KS"},{"zip":"66401","fips":"20061","name":"Geary County","state_id":"KS"},{"zip":"66402","fips":"20177","name":"Shawnee County","state_id":"KS"},{"zip":"66402","fips":"20139","name":"Osage County","state_id":"KS"},{"zip":"66403","fips":"20131","name":"Nemaha County","state_id":"KS"},{"zip":"66403","fips":"20117","name":"Marshall County","state_id":"KS"},{"zip":"66404","fips":"20131","name":"Nemaha County","state_id":"KS"},{"zip":"66404","fips":"20117","name":"Marshall County","state_id":"KS"},{"zip":"66406","fips":"20117","name":"Marshall County","state_id":"KS"},{"zip":"66407","fips":"20197","name":"Wabaunsee County","state_id":"KS"},{"zip":"66407","fips":"20149","name":"Pottawatomie County","state_id":"KS"},{"zip":"66408","fips":"20131","name":"Nemaha County","state_id":"KS"},{"zip":"66409","fips":"20139","name":"Osage County","state_id":"KS"},{"zip":"66409","fips":"20177","name":"Shawnee County","state_id":"KS"},{"zip":"66409","fips":"20045","name":"Douglas County","state_id":"KS"},{"zip":"66411","fips":"20161","name":"Riley County","state_id":"KS"},{"zip":"66411","fips":"20117","name":"Marshall County","state_id":"KS"},{"zip":"66412","fips":"20117","name":"Marshall County","state_id":"KS"},{"zip":"66412","fips":"20201","name":"Washington County","state_id":"KS"},{"zip":"66413","fips":"20139","name":"Osage County","state_id":"KS"},{"zip":"66413","fips":"20197","name":"Wabaunsee County","state_id":"KS"},{"zip":"66414","fips":"20139","name":"Osage County","state_id":"KS"},{"zip":"66414","fips":"20177","name":"Shawnee County","state_id":"KS"},{"zip":"66415","fips":"20131","name":"Nemaha County","state_id":"KS"},{"zip":"66416","fips":"20131","name":"Nemaha County","state_id":"KS"},{"zip":"66416","fips":"20085","name":"Jackson County","state_id":"KS"},{"zip":"66417","fips":"20131","name":"Nemaha County","state_id":"KS"},{"zip":"66418","fips":"20085","name":"Jackson County","state_id":"KS"},{"zip":"66419","fips":"20087","name":"Jefferson County","state_id":"KS"},{"zip":"66419","fips":"20085","name":"Jackson County","state_id":"KS"},{"zip":"66420","fips":"20177","name":"Shawnee County","state_id":"KS"},{"zip":"66422","fips":"20149","name":"Pottawatomie County","state_id":"KS"},{"zip":"66422","fips":"20085","name":"Jackson County","state_id":"KS"},{"zip":"66423","fips":"20197","name":"Wabaunsee County","state_id":"KS"},{"zip":"66424","fips":"20005","name":"Atchison County","state_id":"KS"},{"zip":"66424","fips":"20013","name":"Brown County","state_id":"KS"},{"zip":"66425","fips":"20013","name":"Brown County","state_id":"KS"},{"zip":"66427","fips":"20117","name":"Marshall County","state_id":"KS"},{"zip":"66427","fips":"20149","name":"Pottawatomie County","state_id":"KS"},{"zip":"66428","fips":"20131","name":"Nemaha County","state_id":"KS"},{"zip":"66428","fips":"20085","name":"Jackson County","state_id":"KS"},{"zip":"66429","fips":"20087","name":"Jefferson County","state_id":"KS"},{"zip":"66431","fips":"20177","name":"Shawnee County","state_id":"KS"},{"zip":"66431","fips":"20197","name":"Wabaunsee County","state_id":"KS"},{"zip":"66432","fips":"20131","name":"Nemaha County","state_id":"KS"},{"zip":"66432","fips":"20149","name":"Pottawatomie County","state_id":"KS"},{"zip":"66432","fips":"20085","name":"Jackson County","state_id":"KS"},{"zip":"66434","fips":"20013","name":"Brown County","state_id":"KS"},{"zip":"66436","fips":"20005","name":"Atchison County","state_id":"KS"},{"zip":"66436","fips":"20085","name":"Jackson County","state_id":"KS"},{"zip":"66436","fips":"20087","name":"Jefferson County","state_id":"KS"},{"zip":"66438","fips":"20117","name":"Marshall County","state_id":"KS"},{"zip":"66439","fips":"20085","name":"Jackson County","state_id":"KS"},{"zip":"66439","fips":"20013","name":"Brown County","state_id":"KS"},{"zip":"66439","fips":"20005","name":"Atchison County","state_id":"KS"},{"zip":"66440","fips":"20085","name":"Jackson County","state_id":"KS"},{"zip":"66441","fips":"20041","name":"Dickinson County","state_id":"KS"},{"zip":"66441","fips":"20061","name":"Geary County","state_id":"KS"},{"zip":"66442","fips":"20161","name":"Riley County","state_id":"KS"},{"zip":"66442","fips":"20061","name":"Geary County","state_id":"KS"},{"zip":"66449","fips":"20161","name":"Riley County","state_id":"KS"},{"zip":"66451","fips":"20139","name":"Osage County","state_id":"KS"}]
