[{"zip":"66501","fips":"20197","name":"Wabaunsee County","state_id":"KS"},{"zip":"66502","fips":"20161","name":"Riley County","state_id":"KS"},{"zip":"66502","fips":"20061","name":"Geary County","state_id":"KS"},{"zip":"66502","fips":"20149","name":"Pottawatomie County","state_id":"KS"},{"zip":"66502","fips":"20197","name":"Wabaunsee County","state_id":"KS"},{"zip":"66503","fips":"20161","name":"Riley County","state_id":"KS"},{"zip":"66505","fips":"20161","name":"Riley County","state_id":"KS"},{"zip":"66506","fips":"20161","name":"Riley County","state_id":"KS"},{"zip":"66507","fips":"20197","name":"Wabaunsee County","state_id":"KS"},{"zip":"66508","fips":"20117","name":"Marshall County","state_id":"KS"},{"zip":"66509","fips":"20085","name":"Jackson County","state_id":"KS"},{"zip":"66510","fips":"20139","name":"Osage County","state_id":"KS"},{"zip":"66512","fips":"20177","name":"Shawnee County","state_id":"KS"},{"zip":"66512","fips":"20087","name":"Jefferson County","state_id":"KS"},{"zip":"66512","fips":"20085","name":"Jackson County","state_id":"KS"},{"zip":"66514","fips":"20161","name":"Riley County","state_id":"KS"},{"zip":"66514","fips":"20061","name":"Geary County","state_id":"KS"},{"zip":"66515","fips":"20013","name":"Brown County","state_id":"KS"},{"zip":"66516","fips":"20085","name":"Jackson County","state_id":"KS"},{"zip":"66516","fips":"20013","name":"Brown County","state_id":"KS"},{"zip":"66517","fips":"20161","name":"Riley County","state_id":"KS"},{"zip":"66518","fips":"20117","name":"Marshall County","state_id":"KS"},{"zip":"66520","fips":"20149","name":"Pottawatomie County","state_id":"KS"},{"zip":"66521","fips":"20117","name":"Marshall County","state_id":"KS"},{"zip":"66521","fips":"20131","name":"Nemaha County","state_id":"KS"},{"zip":"66521","fips":"20149","name":"Pottawatomie County","state_id":"KS"},{"zip":"66522","fips":"20131","name":"Nemaha County","state_id":"KS"},{"zip":"66523","fips":"20111","name":"Lyon County","state_id":"KS"},{"zip":"66523","fips":"20139","name":"Osage County","state_id":"KS"},{"zip":"66524","fips":"20177","name":"Shawnee County","state_id":"KS"},{"zip":"66524","fips":"20059","name":"Franklin County","state_id":"KS"},{"zip":"66524","fips":"20139","name":"Osage County","state_id":"KS"},{"zip":"66524","fips":"20045","name":"Douglas County","state_id":"KS"},{"zip":"66526","fips":"20197","name":"Wabaunsee County","state_id":"KS"},{"zip":"66527","fips":"20013","name":"Brown County","state_id":"KS"},{"zip":"66528","fips":"20139","name":"Osage County","state_id":"KS"},{"zip":"66528","fips":"20059","name":"Franklin County","state_id":"KS"},{"zip":"66531","fips":"20161","name":"Riley County","state_id":"KS"},{"zip":"66532","fips":"20043","name":"Doniphan County","state_id":"KS"},{"zip":"66532","fips":"20013","name":"Brown County","state_id":"KS"},{"zip":"66533","fips":"20177","name":"Shawnee County","state_id":"KS"},{"zip":"66533","fips":"20085","name":"Jackson County","state_id":"KS"},{"zip":"66534","fips":"20131","name":"Nemaha County","state_id":"KS"},{"zip":"66534","fips":"20013","name":"Brown County","state_id":"KS"},{"zip":"66535","fips":"20149","name":"Pottawatomie County","state_id":"KS"},{"zip":"66536","fips":"20197","name":"Wabaunsee County","state_id":"KS"},{"zip":"66536","fips":"20149","name":"Pottawatomie County","state_id":"KS"},{"zip":"66536","fips":"20085","name":"Jackson County","state_id":"KS"},{"zip":"66536","fips":"20177","name":"Shawnee County","state_id":"KS"},{"zip":"66537","fips":"20139","name":"Osage County","state_id":"KS"},{"zip":"66538","fips":"20131","name":"Nemaha County","state_id":"KS"},{"zip":"66539","fips":"20085","name":"Jackson County","state_id":"KS"},{"zip":"66539","fips":"20177","name":"Shawnee County","state_id":"KS"},{"zip":"66540","fips":"20085","name":"Jackson County","state_id":"KS"},{"zip":"66540","fips":"20131","name":"Nemaha County","state_id":"KS"},{"zip":"66540","fips":"20149","name":"Pottawatomie County","state_id":"KS"},{"zip":"66541","fips":"20117","name":"Marshall County","state_id":"KS"},{"zip":"66542","fips":"20177","name":"Shawnee County","state_id":"KS"},{"zip":"66542","fips":"20045","name":"Douglas County","state_id":"KS"},{"zip":"66543","fips":"20139","name":"Osage County","state_id":"KS"},{"zip":"66544","fips":"20117","name":"Marshall County","state_id":"KS"},{"zip":"66544","fips":"20131","name":"Nemaha County","state_id":"KS"},{"zip":"66546","fips":"20177","name":"Shawnee County","state_id":"KS"},{"zip":"66546","fips":"20139","name":"Osage County","state_id":"KS"},{"zip":"66547","fips":"20197","name":"Wabaunsee County","state_id":"KS"},{"zip":"66547","fips":"20149","name":"Pottawatomie County","state_id":"KS"},{"zip":"66548","fips":"20117","name":"Marshall County","state_id":"KS"},{"zip":"66548","fips":"20161","name":"Riley County","state_id":"KS"},{"zip":"66548","fips":"20201","name":"Washington County","state_id":"KS"},{"zip":"66549","fips":"20117","name":"Marshall County","state_id":"KS"},{"zip":"66549","fips":"20149","name":"Pottawatomie County","state_id":"KS"},{"zip":"66550","fips":"20085","name":"Jackson County","state_id":"KS"},{"zip":"66550","fips":"20131","name":"Nemaha County","state_id":"KS"},{"zip":"66550","fips":"20013","name":"Brown County","state_id":"KS"},{"zip":"66552","fips":"20085","name":"Jackson County","state_id":"KS"},{"zip":"66552","fips":"20005","name":"Atchison County","state_id":"KS"},{"zip":"66554","fips":"20161","name":"Riley County","state_id":"KS"}]
