[{"zip":"66601","fips":"20177","name":"Shawnee County","state_id":"KS"},{"zip":"66603","fips":"20177","name":"Shawnee County","state_id":"KS"},{"zip":"66604","fips":"20177","name":"Shawnee County","state_id":"KS"},{"zip":"66605","fips":"20177","name":"Shawnee County","state_id":"KS"},{"zip":"66606","fips":"20177","name":"Shawnee County","state_id":"KS"},{"zip":"66607","fips":"20177","name":"Shawnee County","state_id":"KS"},{"zip":"66608","fips":"20177","name":"Shawnee County","state_id":"KS"},{"zip":"66609","fips":"20177","name":"Shawnee County","state_id":"KS"},{"zip":"66610","fips":"20197","name":"Wabaunsee County","state_id":"KS"},{"zip":"66610","fips":"20177","name":"Shawnee County","state_id":"KS"},{"zip":"66611","fips":"20177","name":"Shawnee County","state_id":"KS"},{"zip":"66612","fips":"20177","name":"Shawnee County","state_id":"KS"},{"zip":"66614","fips":"20177","name":"Shawnee County","state_id":"KS"},{"zip":"66614","fips":"20197","name":"Wabaunsee County","state_id":"KS"},{"zip":"66615","fips":"20177","name":"Shawnee County","state_id":"KS"},{"zip":"66615","fips":"20197","name":"Wabaunsee County","state_id":"KS"},{"zip":"66616","fips":"20177","name":"Shawnee County","state_id":"KS"},{"zip":"66617","fips":"20087","name":"Jefferson County","state_id":"KS"},{"zip":"66617","fips":"20177","name":"Shawnee County","state_id":"KS"},{"zip":"66617","fips":"20085","name":"Jackson County","state_id":"KS"},{"zip":"66618","fips":"20085","name":"Jackson County","state_id":"KS"},{"zip":"66618","fips":"20177","name":"Shawnee County","state_id":"KS"},{"zip":"66619","fips":"20177","name":"Shawnee County","state_id":"KS"},{"zip":"66620","fips":"20177","name":"Shawnee County","state_id":"KS"},{"zip":"66621","fips":"20177","name":"Shawnee County","state_id":"KS"},{"zip":"66622","fips":"20177","name":"Shawnee County","state_id":"KS"},{"zip":"66624","fips":"20177","name":"Shawnee County","state_id":"KS"},{"zip":"66625","fips":"20177","name":"Shawnee County","state_id":"KS"},{"zip":"66626","fips":"20177","name":"Shawnee County","state_id":"KS"},{"zip":"66629","fips":"20177","name":"Shawnee County","state_id":"KS"},{"zip":"66630","fips":"20177","name":"Shawnee County","state_id":"KS"},{"zip":"66636","fips":"20177","name":"Shawnee County","state_id":"KS"},{"zip":"66647","fips":"20177","name":"Shawnee County","state_id":"KS"},{"zip":"66667","fips":"20177","name":"Shawnee County","state_id":"KS"},{"zip":"66675","fips":"20177","name":"Shawnee County","state_id":"KS"},{"zip":"66683","fips":"20177","name":"Shawnee County","state_id":"KS"},{"zip":"66699","fips":"20177","name":"Shawnee County","state_id":"KS"}]
