[{"zip":"66701","fips":"20011","name":"Bourbon County","state_id":"KS"},{"zip":"66701","fips":"20037","name":"Crawford County","state_id":"KS"},{"zip":"66710","fips":"20205","name":"Wilson County","state_id":"KS"},{"zip":"66711","fips":"20037","name":"Crawford County","state_id":"KS"},{"zip":"66711","fips":"20011","name":"Bourbon County","state_id":"KS"},{"zip":"66712","fips":"20037","name":"Crawford County","state_id":"KS"},{"zip":"66713","fips":"20021","name":"Cherokee County","state_id":"KS"},{"zip":"66714","fips":"20205","name":"Wilson County","state_id":"KS"},{"zip":"66716","fips":"20001","name":"Allen County","state_id":"KS"},{"zip":"66716","fips":"20107","name":"Linn County","state_id":"KS"},{"zip":"66716","fips":"20011","name":"Bourbon County","state_id":"KS"},{"zip":"66717","fips":"20207","name":"Woodson County","state_id":"KS"},{"zip":"66717","fips":"20205","name":"Wilson County","state_id":"KS"},{"zip":"66720","fips":"20205","name":"Wilson County","state_id":"KS"},{"zip":"66720","fips":"20133","name":"Neosho County","state_id":"KS"},{"zip":"66720","fips":"20001","name":"Allen County","state_id":"KS"},{"zip":"66724","fips":"20021","name":"Cherokee County","state_id":"KS"},{"zip":"66724","fips":"20037","name":"Crawford County","state_id":"KS"},{"zip":"66725","fips":"20021","name":"Cherokee County","state_id":"KS"},{"zip":"66728","fips":"20021","name":"Cherokee County","state_id":"KS"},{"zip":"66732","fips":"20001","name":"Allen County","state_id":"KS"},{"zip":"66733","fips":"20133","name":"Neosho County","state_id":"KS"},{"zip":"66734","fips":"20037","name":"Crawford County","state_id":"KS"},{"zip":"66735","fips":"20037","name":"Crawford County","state_id":"KS"},{"zip":"66736","fips":"20207","name":"Woodson County","state_id":"KS"},{"zip":"66736","fips":"20073","name":"Greenwood County","state_id":"KS"},{"zip":"66736","fips":"20049","name":"Elk County","state_id":"KS"},{"zip":"66736","fips":"20205","name":"Wilson County","state_id":"KS"},{"zip":"66736","fips":"20125","name":"Montgomery County","state_id":"KS"},{"zip":"66738","fips":"20011","name":"Bourbon County","state_id":"KS"},{"zip":"66738","fips":"20107","name":"Linn County","state_id":"KS"},{"zip":"66739","fips":"20021","name":"Cherokee County","state_id":"KS"},{"zip":"66740","fips":"20133","name":"Neosho County","state_id":"KS"},{"zip":"66741","fips":"20011","name":"Bourbon County","state_id":"KS"},{"zip":"66742","fips":"20001","name":"Allen County","state_id":"KS"},{"zip":"66743","fips":"20037","name":"Crawford County","state_id":"KS"},{"zip":"66746","fips":"20037","name":"Crawford County","state_id":"KS"},{"zip":"66746","fips":"20011","name":"Bourbon County","state_id":"KS"},{"zip":"66748","fips":"20001","name":"Allen County","state_id":"KS"},{"zip":"66748","fips":"20207","name":"Woodson County","state_id":"KS"},{"zip":"66748","fips":"20133","name":"Neosho County","state_id":"KS"},{"zip":"66749","fips":"20207","name":"Woodson County","state_id":"KS"},{"zip":"66749","fips":"20001","name":"Allen County","state_id":"KS"},{"zip":"66751","fips":"20001","name":"Allen County","state_id":"KS"},{"zip":"66753","fips":"20037","name":"Crawford County","state_id":"KS"},{"zip":"66753","fips":"20099","name":"Labette County","state_id":"KS"},{"zip":"66753","fips":"20133","name":"Neosho County","state_id":"KS"},{"zip":"66753","fips":"20021","name":"Cherokee County","state_id":"KS"},{"zip":"66754","fips":"20107","name":"Linn County","state_id":"KS"},{"zip":"66754","fips":"20011","name":"Bourbon County","state_id":"KS"},{"zip":"66755","fips":"20011","name":"Bourbon County","state_id":"KS"},{"zip":"66755","fips":"20001","name":"Allen County","state_id":"KS"},{"zip":"66756","fips":"20037","name":"Crawford County","state_id":"KS"},{"zip":"66757","fips":"20205","name":"Wilson County","state_id":"KS"},{"zip":"66757","fips":"20125","name":"Montgomery County","state_id":"KS"},{"zip":"66758","fips":"20031","name":"Coffey County","state_id":"KS"},{"zip":"66758","fips":"20001","name":"Allen County","state_id":"KS"},{"zip":"66758","fips":"20003","name":"Anderson County","state_id":"KS"},{"zip":"66758","fips":"20207","name":"Woodson County","state_id":"KS"},{"zip":"66760","fips":"20037","name":"Crawford County","state_id":"KS"},{"zip":"66761","fips":"20207","name":"Woodson County","state_id":"KS"},{"zip":"66762","fips":"20021","name":"Cherokee County","state_id":"KS"},{"zip":"66762","fips":"20037","name":"Crawford County","state_id":"KS"},{"zip":"66763","fips":"20037","name":"Crawford County","state_id":"KS"},{"zip":"66767","fips":"20107","name":"Linn County","state_id":"KS"},{"zip":"66769","fips":"20011","name":"Bourbon County","state_id":"KS"},{"zip":"66770","fips":"20021","name":"Cherokee County","state_id":"KS"},{"zip":"66771","fips":"20133","name":"Neosho County","state_id":"KS"},{"zip":"66772","fips":"20133","name":"Neosho County","state_id":"KS"},{"zip":"66772","fips":"20011","name":"Bourbon County","state_id":"KS"},{"zip":"66772","fips":"20001","name":"Allen County","state_id":"KS"},{"zip":"66773","fips":"20021","name":"Cherokee County","state_id":"KS"},{"zip":"66775","fips":"20133","name":"Neosho County","state_id":"KS"},{"zip":"66775","fips":"20011","name":"Bourbon County","state_id":"KS"},{"zip":"66776","fips":"20133","name":"Neosho County","state_id":"KS"},{"zip":"66776","fips":"20205","name":"Wilson County","state_id":"KS"},{"zip":"66776","fips":"20099","name":"Labette County","state_id":"KS"},{"zip":"66776","fips":"20125","name":"Montgomery County","state_id":"KS"},{"zip":"66777","fips":"20207","name":"Woodson County","state_id":"KS"},{"zip":"66777","fips":"20205","name":"Wilson County","state_id":"KS"},{"zip":"66777","fips":"20073","name":"Greenwood County","state_id":"KS"},{"zip":"66778","fips":"20021","name":"Cherokee County","state_id":"KS"},{"zip":"66779","fips":"20011","name":"Bourbon County","state_id":"KS"},{"zip":"66780","fips":"20011","name":"Bourbon County","state_id":"KS"},{"zip":"66780","fips":"20133","name":"Neosho County","state_id":"KS"},{"zip":"66780","fips":"20037","name":"Crawford County","state_id":"KS"},{"zip":"66781","fips":"20021","name":"Cherokee County","state_id":"KS"},{"zip":"66781","fips":"20037","name":"Crawford County","state_id":"KS"},{"zip":"66782","fips":"20021","name":"Cherokee County","state_id":"KS"},{"zip":"66783","fips":"20207","name":"Woodson County","state_id":"KS"},{"zip":"66783","fips":"20031","name":"Coffey County","state_id":"KS"}]
