[{"zip":"66801","fips":"20111","name":"Lyon County","state_id":"KS"},{"zip":"66801","fips":"20017","name":"Chase County","state_id":"KS"},{"zip":"66830","fips":"20111","name":"Lyon County","state_id":"KS"},{"zip":"66833","fips":"20111","name":"Lyon County","state_id":"KS"},{"zip":"66834","fips":"20061","name":"Geary County","state_id":"KS"},{"zip":"66834","fips":"20127","name":"Morris County","state_id":"KS"},{"zip":"66834","fips":"20197","name":"Wabaunsee County","state_id":"KS"},{"zip":"66835","fips":"20111","name":"Lyon County","state_id":"KS"},{"zip":"66838","fips":"20115","name":"Marion County","state_id":"KS"},{"zip":"66838","fips":"20127","name":"Morris County","state_id":"KS"},{"zip":"66839","fips":"20031","name":"Coffey County","state_id":"KS"},{"zip":"66840","fips":"20017","name":"Chase County","state_id":"KS"},{"zip":"66840","fips":"20115","name":"Marion County","state_id":"KS"},{"zip":"66840","fips":"20015","name":"Butler County","state_id":"KS"},{"zip":"66842","fips":"20015","name":"Butler County","state_id":"KS"},{"zip":"66843","fips":"20115","name":"Marion County","state_id":"KS"},{"zip":"66843","fips":"20017","name":"Chase County","state_id":"KS"},{"zip":"66845","fips":"20017","name":"Chase County","state_id":"KS"},{"zip":"66846","fips":"20111","name":"Lyon County","state_id":"KS"},{"zip":"66846","fips":"20197","name":"Wabaunsee County","state_id":"KS"},{"zip":"66846","fips":"20017","name":"Chase County","state_id":"KS"},{"zip":"66846","fips":"20127","name":"Morris County","state_id":"KS"},{"zip":"66849","fips":"20061","name":"Geary County","state_id":"KS"},{"zip":"66849","fips":"20127","name":"Morris County","state_id":"KS"},{"zip":"66850","fips":"20017","name":"Chase County","state_id":"KS"},{"zip":"66851","fips":"20115","name":"Marion County","state_id":"KS"},{"zip":"66852","fips":"20207","name":"Woodson County","state_id":"KS"},{"zip":"66852","fips":"20031","name":"Coffey County","state_id":"KS"},{"zip":"66852","fips":"20073","name":"Greenwood County","state_id":"KS"},{"zip":"66853","fips":"20073","name":"Greenwood County","state_id":"KS"},{"zip":"66854","fips":"20031","name":"Coffey County","state_id":"KS"},{"zip":"66854","fips":"20111","name":"Lyon County","state_id":"KS"},{"zip":"66855","fips":"20073","name":"Greenwood County","state_id":"KS"},{"zip":"66856","fips":"20139","name":"Osage County","state_id":"KS"},{"zip":"66856","fips":"20031","name":"Coffey County","state_id":"KS"},{"zip":"66857","fips":"20031","name":"Coffey County","state_id":"KS"},{"zip":"66858","fips":"20115","name":"Marion County","state_id":"KS"},{"zip":"66858","fips":"20017","name":"Chase County","state_id":"KS"},{"zip":"66859","fips":"20115","name":"Marion County","state_id":"KS"},{"zip":"66859","fips":"20127","name":"Morris County","state_id":"KS"},{"zip":"66860","fips":"20111","name":"Lyon County","state_id":"KS"},{"zip":"66860","fips":"20073","name":"Greenwood County","state_id":"KS"},{"zip":"66861","fips":"20115","name":"Marion County","state_id":"KS"},{"zip":"66862","fips":"20017","name":"Chase County","state_id":"KS"},{"zip":"66863","fips":"20073","name":"Greenwood County","state_id":"KS"},{"zip":"66864","fips":"20111","name":"Lyon County","state_id":"KS"},{"zip":"66864","fips":"20031","name":"Coffey County","state_id":"KS"},{"zip":"66865","fips":"20111","name":"Lyon County","state_id":"KS"},{"zip":"66865","fips":"20017","name":"Chase County","state_id":"KS"},{"zip":"66866","fips":"20115","name":"Marion County","state_id":"KS"},{"zip":"66866","fips":"20079","name":"Harvey County","state_id":"KS"},{"zip":"66868","fips":"20111","name":"Lyon County","state_id":"KS"},{"zip":"66868","fips":"20031","name":"Coffey County","state_id":"KS"},{"zip":"66868","fips":"20139","name":"Osage County","state_id":"KS"},{"zip":"66869","fips":"20115","name":"Marion County","state_id":"KS"},{"zip":"66869","fips":"20017","name":"Chase County","state_id":"KS"},{"zip":"66870","fips":"20073","name":"Greenwood County","state_id":"KS"},{"zip":"66870","fips":"20207","name":"Woodson County","state_id":"KS"},{"zip":"66871","fips":"20139","name":"Osage County","state_id":"KS"},{"zip":"66871","fips":"20031","name":"Coffey County","state_id":"KS"},{"zip":"66872","fips":"20061","name":"Geary County","state_id":"KS"},{"zip":"66872","fips":"20127","name":"Morris County","state_id":"KS"},{"zip":"66873","fips":"20127","name":"Morris County","state_id":"KS"}]
