[{"zip":"66901","fips":"20029","name":"Cloud County","state_id":"KS"},{"zip":"66901","fips":"20157","name":"Republic County","state_id":"KS"},{"zip":"66901","fips":"20143","name":"Ottawa County","state_id":"KS"},{"zip":"66930","fips":"20157","name":"Republic County","state_id":"KS"},{"zip":"66930","fips":"20029","name":"Cloud County","state_id":"KS"},{"zip":"66932","fips":"20183","name":"Smith County","state_id":"KS"},{"zip":"66933","fips":"20201","name":"Washington County","state_id":"KS"},{"zip":"66933","fips":"20161","name":"Riley County","state_id":"KS"},{"zip":"66935","fips":"20157","name":"Republic County","state_id":"KS"},{"zip":"66935","fips":"20029","name":"Cloud County","state_id":"KS"},{"zip":"66936","fips":"20089","name":"Jewell County","state_id":"KS"},{"zip":"66937","fips":"20201","name":"Washington County","state_id":"KS"},{"zip":"66937","fips":"20027","name":"Clay County","state_id":"KS"},{"zip":"66938","fips":"20027","name":"Clay County","state_id":"KS"},{"zip":"66938","fips":"20201","name":"Washington County","state_id":"KS"},{"zip":"66938","fips":"20029","name":"Cloud County","state_id":"KS"},{"zip":"66938","fips":"20157","name":"Republic County","state_id":"KS"},{"zip":"66939","fips":"20157","name":"Republic County","state_id":"KS"},{"zip":"66939","fips":"20089","name":"Jewell County","state_id":"KS"},{"zip":"66940","fips":"20029","name":"Cloud County","state_id":"KS"},{"zip":"66940","fips":"20157","name":"Republic County","state_id":"KS"},{"zip":"66941","fips":"20183","name":"Smith County","state_id":"KS"},{"zip":"66941","fips":"20089","name":"Jewell County","state_id":"KS"},{"zip":"66942","fips":"20089","name":"Jewell County","state_id":"KS"},{"zip":"66943","fips":"20201","name":"Washington County","state_id":"KS"},{"zip":"66944","fips":"20201","name":"Washington County","state_id":"KS"},{"zip":"66945","fips":"20201","name":"Washington County","state_id":"KS"},{"zip":"66945","fips":"20117","name":"Marshall County","state_id":"KS"},{"zip":"66946","fips":"20201","name":"Washington County","state_id":"KS"},{"zip":"66948","fips":"20157","name":"Republic County","state_id":"KS"},{"zip":"66948","fips":"20029","name":"Cloud County","state_id":"KS"},{"zip":"66948","fips":"20089","name":"Jewell County","state_id":"KS"},{"zip":"66949","fips":"20089","name":"Jewell County","state_id":"KS"},{"zip":"66949","fips":"20157","name":"Republic County","state_id":"KS"},{"zip":"66951","fips":"20183","name":"Smith County","state_id":"KS"},{"zip":"66951","fips":"20147","name":"Phillips County","state_id":"KS"},{"zip":"66952","fips":"20183","name":"Smith County","state_id":"KS"},{"zip":"66953","fips":"20201","name":"Washington County","state_id":"KS"},{"zip":"66955","fips":"20201","name":"Washington County","state_id":"KS"},{"zip":"66956","fips":"20089","name":"Jewell County","state_id":"KS"},{"zip":"66958","fips":"20201","name":"Washington County","state_id":"KS"},{"zip":"66959","fips":"20157","name":"Republic County","state_id":"KS"},{"zip":"66960","fips":"20201","name":"Washington County","state_id":"KS"},{"zip":"66960","fips":"20157","name":"Republic County","state_id":"KS"},{"zip":"66961","fips":"20157","name":"Republic County","state_id":"KS"},{"zip":"66962","fips":"20201","name":"Washington County","state_id":"KS"},{"zip":"66962","fips":"20027","name":"Clay County","state_id":"KS"},{"zip":"66963","fips":"20089","name":"Jewell County","state_id":"KS"},{"zip":"66964","fips":"20157","name":"Republic County","state_id":"KS"},{"zip":"66966","fips":"20157","name":"Republic County","state_id":"KS"},{"zip":"66966","fips":"20029","name":"Cloud County","state_id":"KS"},{"zip":"66967","fips":"20183","name":"Smith County","state_id":"KS"},{"zip":"66968","fips":"20201","name":"Washington County","state_id":"KS"},{"zip":"66970","fips":"20089","name":"Jewell County","state_id":"KS"}]
