[{"zip":"67001","fips":"20173","name":"Sedgwick County","state_id":"KS"},{"zip":"67002","fips":"20015","name":"Butler County","state_id":"KS"},{"zip":"67003","fips":"20077","name":"Harper County","state_id":"KS"},{"zip":"67004","fips":"20191","name":"Sumner County","state_id":"KS"},{"zip":"67004","fips":"20077","name":"Harper County","state_id":"KS"},{"zip":"67004","fips":"20095","name":"Kingman County","state_id":"KS"},{"zip":"67005","fips":"20035","name":"Cowley County","state_id":"KS"},{"zip":"67008","fips":"20015","name":"Butler County","state_id":"KS"},{"zip":"67008","fips":"20035","name":"Cowley County","state_id":"KS"},{"zip":"67009","fips":"20077","name":"Harper County","state_id":"KS"},{"zip":"67009","fips":"20007","name":"Barber County","state_id":"KS"},{"zip":"67010","fips":"20015","name":"Butler County","state_id":"KS"},{"zip":"67012","fips":"20015","name":"Butler County","state_id":"KS"},{"zip":"67013","fips":"20191","name":"Sumner County","state_id":"KS"},{"zip":"67016","fips":"20173","name":"Sedgwick County","state_id":"KS"},{"zip":"67017","fips":"20015","name":"Butler County","state_id":"KS"},{"zip":"67017","fips":"20173","name":"Sedgwick County","state_id":"KS"},{"zip":"67018","fips":"20077","name":"Harper County","state_id":"KS"},{"zip":"67018","fips":"20191","name":"Sumner County","state_id":"KS"},{"zip":"67019","fips":"20035","name":"Cowley County","state_id":"KS"},{"zip":"67020","fips":"20155","name":"Reno County","state_id":"KS"},{"zip":"67020","fips":"20079","name":"Harvey County","state_id":"KS"},{"zip":"67020","fips":"20173","name":"Sedgwick County","state_id":"KS"},{"zip":"67021","fips":"20151","name":"Pratt County","state_id":"KS"},{"zip":"67022","fips":"20191","name":"Sumner County","state_id":"KS"},{"zip":"67023","fips":"20035","name":"Cowley County","state_id":"KS"},{"zip":"67024","fips":"20035","name":"Cowley County","state_id":"KS"},{"zip":"67024","fips":"20019","name":"Chautauqua County","state_id":"KS"},{"zip":"67025","fips":"20155","name":"Reno County","state_id":"KS"},{"zip":"67025","fips":"20095","name":"Kingman County","state_id":"KS"},{"zip":"67025","fips":"20173","name":"Sedgwick County","state_id":"KS"},{"zip":"67026","fips":"20173","name":"Sedgwick County","state_id":"KS"},{"zip":"67026","fips":"20191","name":"Sumner County","state_id":"KS"},{"zip":"67028","fips":"20151","name":"Pratt County","state_id":"KS"},{"zip":"67028","fips":"20097","name":"Kiowa County","state_id":"KS"},{"zip":"67028","fips":"20007","name":"Barber County","state_id":"KS"},{"zip":"67029","fips":"20033","name":"Comanche County","state_id":"KS"},{"zip":"67030","fips":"20173","name":"Sedgwick County","state_id":"KS"},{"zip":"67031","fips":"20173","name":"Sedgwick County","state_id":"KS"},{"zip":"67031","fips":"20191","name":"Sumner County","state_id":"KS"},{"zip":"67035","fips":"20151","name":"Pratt County","state_id":"KS"},{"zip":"67035","fips":"20155","name":"Reno County","state_id":"KS"},{"zip":"67035","fips":"20095","name":"Kingman County","state_id":"KS"},{"zip":"67036","fips":"20077","name":"Harper County","state_id":"KS"},{"zip":"67037","fips":"20173","name":"Sedgwick County","state_id":"KS"},{"zip":"67038","fips":"20035","name":"Cowley County","state_id":"KS"},{"zip":"67039","fips":"20015","name":"Butler County","state_id":"KS"},{"zip":"67039","fips":"20173","name":"Sedgwick County","state_id":"KS"},{"zip":"67039","fips":"20035","name":"Cowley County","state_id":"KS"},{"zip":"67041","fips":"20015","name":"Butler County","state_id":"KS"},{"zip":"67042","fips":"20015","name":"Butler County","state_id":"KS"},{"zip":"67045","fips":"20073","name":"Greenwood County","state_id":"KS"},{"zip":"67045","fips":"20015","name":"Butler County","state_id":"KS"},{"zip":"67047","fips":"20049","name":"Elk County","state_id":"KS"},{"zip":"67047","fips":"20205","name":"Wilson County","state_id":"KS"},{"zip":"67047","fips":"20073","name":"Greenwood County","state_id":"KS"},{"zip":"67049","fips":"20191","name":"Sumner County","state_id":"KS"},{"zip":"67049","fips":"20077","name":"Harper County","state_id":"KS"},{"zip":"67050","fips":"20173","name":"Sedgwick County","state_id":"KS"},{"zip":"67051","fips":"20191","name":"Sumner County","state_id":"KS"},{"zip":"67051","fips":"20035","name":"Cowley County","state_id":"KS"},{"zip":"67052","fips":"20173","name":"Sedgwick County","state_id":"KS"},{"zip":"67053","fips":"20115","name":"Marion County","state_id":"KS"},{"zip":"67054","fips":"20097","name":"Kiowa County","state_id":"KS"},{"zip":"67054","fips":"20047","name":"Edwards County","state_id":"KS"},{"zip":"67055","fips":"20173","name":"Sedgwick County","state_id":"KS"},{"zip":"67056","fips":"20079","name":"Harvey County","state_id":"KS"},{"zip":"67057","fips":"20007","name":"Barber County","state_id":"KS"},{"zip":"67058","fips":"20077","name":"Harper County","state_id":"KS"},{"zip":"67058","fips":"20095","name":"Kingman County","state_id":"KS"},{"zip":"67059","fips":"20151","name":"Pratt County","state_id":"KS"},{"zip":"67059","fips":"20047","name":"Edwards County","state_id":"KS"},{"zip":"67059","fips":"20097","name":"Kiowa County","state_id":"KS"},{"zip":"67060","fips":"20173","name":"Sedgwick County","state_id":"KS"},{"zip":"67061","fips":"20007","name":"Barber County","state_id":"KS"},{"zip":"67061","fips":"20077","name":"Harper County","state_id":"KS"},{"zip":"67062","fips":"20113","name":"McPherson County","state_id":"KS"},{"zip":"67062","fips":"20079","name":"Harvey County","state_id":"KS"},{"zip":"67063","fips":"20115","name":"Marion County","state_id":"KS"},{"zip":"67065","fips":"20007","name":"Barber County","state_id":"KS"},{"zip":"67065","fips":"20151","name":"Pratt County","state_id":"KS"},{"zip":"67066","fips":"20151","name":"Pratt County","state_id":"KS"},{"zip":"67067","fips":"20173","name":"Sedgwick County","state_id":"KS"},{"zip":"67068","fips":"20155","name":"Reno County","state_id":"KS"},{"zip":"67068","fips":"20095","name":"Kingman County","state_id":"KS"},{"zip":"67070","fips":"20007","name":"Barber County","state_id":"KS"},{"zip":"67071","fips":"20007","name":"Barber County","state_id":"KS"},{"zip":"67072","fips":"20015","name":"Butler County","state_id":"KS"},{"zip":"67072","fips":"20035","name":"Cowley County","state_id":"KS"},{"zip":"67073","fips":"20115","name":"Marion County","state_id":"KS"},{"zip":"67074","fips":"20015","name":"Butler County","state_id":"KS"}]
