[{"zip":"67101","fips":"20173","name":"Sedgwick County","state_id":"KS"},{"zip":"67102","fips":"20035","name":"Cowley County","state_id":"KS"},{"zip":"67103","fips":"20191","name":"Sumner County","state_id":"KS"},{"zip":"67104","fips":"20007","name":"Barber County","state_id":"KS"},{"zip":"67105","fips":"20191","name":"Sumner County","state_id":"KS"},{"zip":"67106","fips":"20173","name":"Sedgwick County","state_id":"KS"},{"zip":"67106","fips":"20191","name":"Sumner County","state_id":"KS"},{"zip":"67107","fips":"20113","name":"McPherson County","state_id":"KS"},{"zip":"67107","fips":"20079","name":"Harvey County","state_id":"KS"},{"zip":"67108","fips":"20155","name":"Reno County","state_id":"KS"},{"zip":"67108","fips":"20173","name":"Sedgwick County","state_id":"KS"},{"zip":"67109","fips":"20097","name":"Kiowa County","state_id":"KS"},{"zip":"67110","fips":"20173","name":"Sedgwick County","state_id":"KS"},{"zip":"67110","fips":"20035","name":"Cowley County","state_id":"KS"},{"zip":"67110","fips":"20191","name":"Sumner County","state_id":"KS"},{"zip":"67111","fips":"20095","name":"Kingman County","state_id":"KS"},{"zip":"67112","fips":"20095","name":"Kingman County","state_id":"KS"},{"zip":"67112","fips":"20007","name":"Barber County","state_id":"KS"},{"zip":"67114","fips":"20113","name":"McPherson County","state_id":"KS"},{"zip":"67114","fips":"20079","name":"Harvey County","state_id":"KS"},{"zip":"67114","fips":"20115","name":"Marion County","state_id":"KS"},{"zip":"67114","fips":"20015","name":"Butler County","state_id":"KS"},{"zip":"67117","fips":"20079","name":"Harvey County","state_id":"KS"},{"zip":"67118","fips":"20173","name":"Sedgwick County","state_id":"KS"},{"zip":"67118","fips":"20095","name":"Kingman County","state_id":"KS"},{"zip":"67118","fips":"20191","name":"Sumner County","state_id":"KS"},{"zip":"67119","fips":"20035","name":"Cowley County","state_id":"KS"},{"zip":"67119","fips":"20191","name":"Sumner County","state_id":"KS"},{"zip":"67120","fips":"20191","name":"Sumner County","state_id":"KS"},{"zip":"67120","fips":"20173","name":"Sedgwick County","state_id":"KS"},{"zip":"67122","fips":"20049","name":"Elk County","state_id":"KS"},{"zip":"67122","fips":"20073","name":"Greenwood County","state_id":"KS"},{"zip":"67123","fips":"20015","name":"Butler County","state_id":"KS"},{"zip":"67124","fips":"20151","name":"Pratt County","state_id":"KS"},{"zip":"67127","fips":"20025","name":"Clark County","state_id":"KS"},{"zip":"67127","fips":"20033","name":"Comanche County","state_id":"KS"},{"zip":"67131","fips":"20015","name":"Butler County","state_id":"KS"},{"zip":"67131","fips":"20035","name":"Cowley County","state_id":"KS"},{"zip":"67132","fips":"20015","name":"Butler County","state_id":"KS"},{"zip":"67133","fips":"20015","name":"Butler County","state_id":"KS"},{"zip":"67133","fips":"20173","name":"Sedgwick County","state_id":"KS"},{"zip":"67134","fips":"20007","name":"Barber County","state_id":"KS"},{"zip":"67134","fips":"20151","name":"Pratt County","state_id":"KS"},{"zip":"67135","fips":"20079","name":"Harvey County","state_id":"KS"},{"zip":"67135","fips":"20173","name":"Sedgwick County","state_id":"KS"},{"zip":"67137","fips":"20073","name":"Greenwood County","state_id":"KS"},{"zip":"67137","fips":"20049","name":"Elk County","state_id":"KS"},{"zip":"67138","fips":"20007","name":"Barber County","state_id":"KS"},{"zip":"67138","fips":"20077","name":"Harper County","state_id":"KS"},{"zip":"67140","fips":"20191","name":"Sumner County","state_id":"KS"},{"zip":"67142","fips":"20095","name":"Kingman County","state_id":"KS"},{"zip":"67143","fips":"20007","name":"Barber County","state_id":"KS"},{"zip":"67144","fips":"20015","name":"Butler County","state_id":"KS"},{"zip":"67146","fips":"20035","name":"Cowley County","state_id":"KS"},{"zip":"67146","fips":"20191","name":"Sumner County","state_id":"KS"},{"zip":"67147","fips":"20173","name":"Sedgwick County","state_id":"KS"},{"zip":"67147","fips":"20079","name":"Harvey County","state_id":"KS"},{"zip":"67149","fips":"20173","name":"Sedgwick County","state_id":"KS"},{"zip":"67150","fips":"20077","name":"Harper County","state_id":"KS"},{"zip":"67151","fips":"20115","name":"Marion County","state_id":"KS"},{"zip":"67151","fips":"20079","name":"Harvey County","state_id":"KS"},{"zip":"67152","fips":"20191","name":"Sumner County","state_id":"KS"},{"zip":"67154","fips":"20079","name":"Harvey County","state_id":"KS"},{"zip":"67154","fips":"20015","name":"Butler County","state_id":"KS"},{"zip":"67155","fips":"20033","name":"Comanche County","state_id":"KS"},{"zip":"67156","fips":"20035","name":"Cowley County","state_id":"KS"},{"zip":"67159","fips":"20095","name":"Kingman County","state_id":"KS"},{"zip":"67159","fips":"20077","name":"Harper County","state_id":"KS"}]
