[{"zip":"67201","fips":"20173","name":"Sedgwick County","state_id":"KS"},{"zip":"67202","fips":"20173","name":"Sedgwick County","state_id":"KS"},{"zip":"67203","fips":"20173","name":"Sedgwick County","state_id":"KS"},{"zip":"67204","fips":"20173","name":"Sedgwick County","state_id":"KS"},{"zip":"67205","fips":"20173","name":"Sedgwick County","state_id":"KS"},{"zip":"67206","fips":"20173","name":"Sedgwick County","state_id":"KS"},{"zip":"67207","fips":"20173","name":"Sedgwick County","state_id":"KS"},{"zip":"67208","fips":"20173","name":"Sedgwick County","state_id":"KS"},{"zip":"67209","fips":"20173","name":"Sedgwick County","state_id":"KS"},{"zip":"67210","fips":"20173","name":"Sedgwick County","state_id":"KS"},{"zip":"67211","fips":"20173","name":"Sedgwick County","state_id":"KS"},{"zip":"67212","fips":"20173","name":"Sedgwick County","state_id":"KS"},{"zip":"67213","fips":"20173","name":"Sedgwick County","state_id":"KS"},{"zip":"67214","fips":"20173","name":"Sedgwick County","state_id":"KS"},{"zip":"67215","fips":"20173","name":"Sedgwick County","state_id":"KS"},{"zip":"67216","fips":"20173","name":"Sedgwick County","state_id":"KS"},{"zip":"67217","fips":"20173","name":"Sedgwick County","state_id":"KS"},{"zip":"67218","fips":"20173","name":"Sedgwick County","state_id":"KS"},{"zip":"67219","fips":"20173","name":"Sedgwick County","state_id":"KS"},{"zip":"67220","fips":"20173","name":"Sedgwick County","state_id":"KS"},{"zip":"67221","fips":"20173","name":"Sedgwick County","state_id":"KS"},{"zip":"67223","fips":"20173","name":"Sedgwick County","state_id":"KS"},{"zip":"67226","fips":"20173","name":"Sedgwick County","state_id":"KS"},{"zip":"67227","fips":"20173","name":"Sedgwick County","state_id":"KS"},{"zip":"67228","fips":"20173","name":"Sedgwick County","state_id":"KS"},{"zip":"67228","fips":"20015","name":"Butler County","state_id":"KS"},{"zip":"67230","fips":"20173","name":"Sedgwick County","state_id":"KS"},{"zip":"67230","fips":"20015","name":"Butler County","state_id":"KS"},{"zip":"67232","fips":"20015","name":"Butler County","state_id":"KS"},{"zip":"67232","fips":"20173","name":"Sedgwick County","state_id":"KS"},{"zip":"67235","fips":"20173","name":"Sedgwick County","state_id":"KS"},{"zip":"67260","fips":"20173","name":"Sedgwick County","state_id":"KS"},{"zip":"67275","fips":"20173","name":"Sedgwick County","state_id":"KS"},{"zip":"67276","fips":"20173","name":"Sedgwick County","state_id":"KS"},{"zip":"67277","fips":"20173","name":"Sedgwick County","state_id":"KS"},{"zip":"67278","fips":"20173","name":"Sedgwick County","state_id":"KS"}]
