[{"zip":"67301","fips":"20125","name":"Montgomery County","state_id":"KS"},{"zip":"67330","fips":"20099","name":"Labette County","state_id":"KS"},{"zip":"67332","fips":"20099","name":"Labette County","state_id":"KS"},{"zip":"67333","fips":"20019","name":"Chautauqua County","state_id":"KS"},{"zip":"67333","fips":"20125","name":"Montgomery County","state_id":"KS"},{"zip":"67334","fips":"20019","name":"Chautauqua County","state_id":"KS"},{"zip":"67335","fips":"20205","name":"Wilson County","state_id":"KS"},{"zip":"67335","fips":"20099","name":"Labette County","state_id":"KS"},{"zip":"67335","fips":"20125","name":"Montgomery County","state_id":"KS"},{"zip":"67336","fips":"20021","name":"Cherokee County","state_id":"KS"},{"zip":"67336","fips":"20099","name":"Labette County","state_id":"KS"},{"zip":"67337","fips":"20099","name":"Labette County","state_id":"KS"},{"zip":"67337","fips":"20125","name":"Montgomery County","state_id":"KS"},{"zip":"67340","fips":"20125","name":"Montgomery County","state_id":"KS"},{"zip":"67341","fips":"20099","name":"Labette County","state_id":"KS"},{"zip":"67341","fips":"20133","name":"Neosho County","state_id":"KS"},{"zip":"67342","fips":"20099","name":"Labette County","state_id":"KS"},{"zip":"67344","fips":"20019","name":"Chautauqua County","state_id":"KS"},{"zip":"67344","fips":"20049","name":"Elk County","state_id":"KS"},{"zip":"67344","fips":"20205","name":"Wilson County","state_id":"KS"},{"zip":"67344","fips":"20125","name":"Montgomery County","state_id":"KS"},{"zip":"67345","fips":"20049","name":"Elk County","state_id":"KS"},{"zip":"67346","fips":"20019","name":"Chautauqua County","state_id":"KS"},{"zip":"67346","fips":"20049","name":"Elk County","state_id":"KS"},{"zip":"67347","fips":"20019","name":"Chautauqua County","state_id":"KS"},{"zip":"67347","fips":"20125","name":"Montgomery County","state_id":"KS"},{"zip":"67349","fips":"20019","name":"Chautauqua County","state_id":"KS"},{"zip":"67349","fips":"20049","name":"Elk County","state_id":"KS"},{"zip":"67351","fips":"20125","name":"Montgomery County","state_id":"KS"},{"zip":"67351","fips":"20099","name":"Labette County","state_id":"KS"},{"zip":"67352","fips":"20049","name":"Elk County","state_id":"KS"},{"zip":"67352","fips":"20019","name":"Chautauqua County","state_id":"KS"},{"zip":"67353","fips":"20019","name":"Chautauqua County","state_id":"KS"},{"zip":"67353","fips":"20049","name":"Elk County","state_id":"KS"},{"zip":"67354","fips":"20099","name":"Labette County","state_id":"KS"},{"zip":"67355","fips":"20019","name":"Chautauqua County","state_id":"KS"},{"zip":"67356","fips":"20021","name":"Cherokee County","state_id":"KS"},{"zip":"67356","fips":"20099","name":"Labette County","state_id":"KS"},{"zip":"67357","fips":"20099","name":"Labette County","state_id":"KS"},{"zip":"67357","fips":"20133","name":"Neosho County","state_id":"KS"},{"zip":"67360","fips":"20019","name":"Chautauqua County","state_id":"KS"},{"zip":"67361","fips":"20019","name":"Chautauqua County","state_id":"KS"},{"zip":"67363","fips":"20125","name":"Montgomery County","state_id":"KS"},{"zip":"67364","fips":"20125","name":"Montgomery County","state_id":"KS"}]
