[{"zip":"67401","fips":"20143","name":"Ottawa County","state_id":"KS"},{"zip":"67401","fips":"20169","name":"Saline County","state_id":"KS"},{"zip":"67402","fips":"20169","name":"Saline County","state_id":"KS"},{"zip":"67410","fips":"20027","name":"Clay County","state_id":"KS"},{"zip":"67410","fips":"20041","name":"Dickinson County","state_id":"KS"},{"zip":"67416","fips":"20169","name":"Saline County","state_id":"KS"},{"zip":"67416","fips":"20113","name":"McPherson County","state_id":"KS"},{"zip":"67417","fips":"20029","name":"Cloud County","state_id":"KS"},{"zip":"67418","fips":"20123","name":"Mitchell County","state_id":"KS"},{"zip":"67418","fips":"20143","name":"Ottawa County","state_id":"KS"},{"zip":"67418","fips":"20105","name":"Lincoln County","state_id":"KS"},{"zip":"67420","fips":"20029","name":"Cloud County","state_id":"KS"},{"zip":"67420","fips":"20089","name":"Jewell County","state_id":"KS"},{"zip":"67420","fips":"20123","name":"Mitchell County","state_id":"KS"},{"zip":"67422","fips":"20143","name":"Ottawa County","state_id":"KS"},{"zip":"67423","fips":"20053","name":"Ellsworth County","state_id":"KS"},{"zip":"67423","fips":"20105","name":"Lincoln County","state_id":"KS"},{"zip":"67425","fips":"20169","name":"Saline County","state_id":"KS"},{"zip":"67425","fips":"20053","name":"Ellsworth County","state_id":"KS"},{"zip":"67427","fips":"20009","name":"Barton County","state_id":"KS"},{"zip":"67427","fips":"20159","name":"Rice County","state_id":"KS"},{"zip":"67427","fips":"20053","name":"Ellsworth County","state_id":"KS"},{"zip":"67428","fips":"20115","name":"Marion County","state_id":"KS"},{"zip":"67428","fips":"20113","name":"McPherson County","state_id":"KS"},{"zip":"67430","fips":"20123","name":"Mitchell County","state_id":"KS"},{"zip":"67430","fips":"20089","name":"Jewell County","state_id":"KS"},{"zip":"67430","fips":"20141","name":"Osborne County","state_id":"KS"},{"zip":"67431","fips":"20061","name":"Geary County","state_id":"KS"},{"zip":"67431","fips":"20041","name":"Dickinson County","state_id":"KS"},{"zip":"67432","fips":"20143","name":"Ottawa County","state_id":"KS"},{"zip":"67432","fips":"20027","name":"Clay County","state_id":"KS"},{"zip":"67432","fips":"20161","name":"Riley County","state_id":"KS"},{"zip":"67436","fips":"20029","name":"Cloud County","state_id":"KS"},{"zip":"67436","fips":"20143","name":"Ottawa County","state_id":"KS"},{"zip":"67437","fips":"20183","name":"Smith County","state_id":"KS"},{"zip":"67437","fips":"20141","name":"Osborne County","state_id":"KS"},{"zip":"67438","fips":"20115","name":"Marion County","state_id":"KS"},{"zip":"67439","fips":"20053","name":"Ellsworth County","state_id":"KS"},{"zip":"67441","fips":"20041","name":"Dickinson County","state_id":"KS"},{"zip":"67442","fips":"20169","name":"Saline County","state_id":"KS"},{"zip":"67443","fips":"20113","name":"McPherson County","state_id":"KS"},{"zip":"67444","fips":"20053","name":"Ellsworth County","state_id":"KS"},{"zip":"67444","fips":"20159","name":"Rice County","state_id":"KS"},{"zip":"67445","fips":"20143","name":"Ottawa County","state_id":"KS"},{"zip":"67445","fips":"20029","name":"Cloud County","state_id":"KS"},{"zip":"67446","fips":"20123","name":"Mitchell County","state_id":"KS"},{"zip":"67447","fips":"20161","name":"Riley County","state_id":"KS"},{"zip":"67447","fips":"20027","name":"Clay County","state_id":"KS"},{"zip":"67448","fips":"20169","name":"Saline County","state_id":"KS"},{"zip":"67448","fips":"20113","name":"McPherson County","state_id":"KS"},{"zip":"67448","fips":"20041","name":"Dickinson County","state_id":"KS"},{"zip":"67449","fips":"20127","name":"Morris County","state_id":"KS"},{"zip":"67449","fips":"20041","name":"Dickinson County","state_id":"KS"},{"zip":"67450","fips":"20053","name":"Ellsworth County","state_id":"KS"},{"zip":"67450","fips":"20009","name":"Barton County","state_id":"KS"},{"zip":"67451","fips":"20115","name":"Marion County","state_id":"KS"},{"zip":"67451","fips":"20041","name":"Dickinson County","state_id":"KS"},{"zip":"67452","fips":"20123","name":"Mitchell County","state_id":"KS"},{"zip":"67452","fips":"20105","name":"Lincoln County","state_id":"KS"},{"zip":"67454","fips":"20053","name":"Ellsworth County","state_id":"KS"},{"zip":"67455","fips":"20143","name":"Ottawa County","state_id":"KS"},{"zip":"67455","fips":"20029","name":"Cloud County","state_id":"KS"},{"zip":"67455","fips":"20105","name":"Lincoln County","state_id":"KS"},{"zip":"67456","fips":"20113","name":"McPherson County","state_id":"KS"},{"zip":"67456","fips":"20169","name":"Saline County","state_id":"KS"},{"zip":"67457","fips":"20159","name":"Rice County","state_id":"KS"},{"zip":"67458","fips":"20041","name":"Dickinson County","state_id":"KS"},{"zip":"67458","fips":"20027","name":"Clay County","state_id":"KS"},{"zip":"67458","fips":"20143","name":"Ottawa County","state_id":"KS"},{"zip":"67459","fips":"20053","name":"Ellsworth County","state_id":"KS"},{"zip":"67459","fips":"20159","name":"Rice County","state_id":"KS"},{"zip":"67460","fips":"20113","name":"McPherson County","state_id":"KS"},{"zip":"67464","fips":"20053","name":"Ellsworth County","state_id":"KS"},{"zip":"67464","fips":"20113","name":"McPherson County","state_id":"KS"},{"zip":"67464","fips":"20169","name":"Saline County","state_id":"KS"},{"zip":"67466","fips":"20029","name":"Cloud County","state_id":"KS"},{"zip":"67466","fips":"20027","name":"Clay County","state_id":"KS"},{"zip":"67466","fips":"20143","name":"Ottawa County","state_id":"KS"},{"zip":"67467","fips":"20105","name":"Lincoln County","state_id":"KS"},{"zip":"67467","fips":"20143","name":"Ottawa County","state_id":"KS"},{"zip":"67468","fips":"20027","name":"Clay County","state_id":"KS"},{"zip":"67470","fips":"20169","name":"Saline County","state_id":"KS"},{"zip":"67470","fips":"20143","name":"Ottawa County","state_id":"KS"},{"zip":"67473","fips":"20141","name":"Osborne County","state_id":"KS"},{"zip":"67474","fips":"20183","name":"Smith County","state_id":"KS"},{"zip":"67474","fips":"20141","name":"Osborne County","state_id":"KS"},{"zip":"67475","fips":"20041","name":"Dickinson County","state_id":"KS"},{"zip":"67475","fips":"20115","name":"Marion County","state_id":"KS"},{"zip":"67476","fips":"20113","name":"McPherson County","state_id":"KS"},{"zip":"67478","fips":"20123","name":"Mitchell County","state_id":"KS"},{"zip":"67480","fips":"20143","name":"Ottawa County","state_id":"KS"},{"zip":"67480","fips":"20169","name":"Saline County","state_id":"KS"},{"zip":"67480","fips":"20041","name":"Dickinson County","state_id":"KS"},{"zip":"67481","fips":"20105","name":"Lincoln County","state_id":"KS"},{"zip":"67481","fips":"20167","name":"Russell County","state_id":"KS"},{"zip":"67482","fips":"20041","name":"Dickinson County","state_id":"KS"},{"zip":"67483","fips":"20115","name":"Marion County","state_id":"KS"},{"zip":"67484","fips":"20169","name":"Saline County","state_id":"KS"},{"zip":"67484","fips":"20143","name":"Ottawa County","state_id":"KS"},{"zip":"67484","fips":"20105","name":"Lincoln County","state_id":"KS"},{"zip":"67485","fips":"20123","name":"Mitchell County","state_id":"KS"},{"zip":"67485","fips":"20141","name":"Osborne County","state_id":"KS"},{"zip":"67487","fips":"20061","name":"Geary County","state_id":"KS"},{"zip":"67487","fips":"20027","name":"Clay County","state_id":"KS"},{"zip":"67487","fips":"20041","name":"Dickinson County","state_id":"KS"},{"zip":"67490","fips":"20053","name":"Ellsworth County","state_id":"KS"},{"zip":"67490","fips":"20167","name":"Russell County","state_id":"KS"},{"zip":"67490","fips":"20105","name":"Lincoln County","state_id":"KS"},{"zip":"67491","fips":"20159","name":"Rice County","state_id":"KS"},{"zip":"67491","fips":"20113","name":"McPherson County","state_id":"KS"},{"zip":"67492","fips":"20041","name":"Dickinson County","state_id":"KS"}]
