[{"zip":"67501","fips":"20155","name":"Reno County","state_id":"KS"},{"zip":"67502","fips":"20159","name":"Rice County","state_id":"KS"},{"zip":"67502","fips":"20155","name":"Reno County","state_id":"KS"},{"zip":"67505","fips":"20155","name":"Reno County","state_id":"KS"},{"zip":"67510","fips":"20155","name":"Reno County","state_id":"KS"},{"zip":"67511","fips":"20165","name":"Rush County","state_id":"KS"},{"zip":"67511","fips":"20145","name":"Pawnee County","state_id":"KS"},{"zip":"67511","fips":"20009","name":"Barton County","state_id":"KS"},{"zip":"67512","fips":"20159","name":"Rice County","state_id":"KS"},{"zip":"67512","fips":"20155","name":"Reno County","state_id":"KS"},{"zip":"67513","fips":"20165","name":"Rush County","state_id":"KS"},{"zip":"67514","fips":"20155","name":"Reno County","state_id":"KS"},{"zip":"67515","fips":"20135","name":"Ness County","state_id":"KS"},{"zip":"67516","fips":"20135","name":"Ness County","state_id":"KS"},{"zip":"67518","fips":"20135","name":"Ness County","state_id":"KS"},{"zip":"67519","fips":"20047","name":"Edwards County","state_id":"KS"},{"zip":"67520","fips":"20165","name":"Rush County","state_id":"KS"},{"zip":"67520","fips":"20051","name":"Ellis County","state_id":"KS"},{"zip":"67521","fips":"20135","name":"Ness County","state_id":"KS"},{"zip":"67521","fips":"20195","name":"Trego County","state_id":"KS"},{"zip":"67522","fips":"20155","name":"Reno County","state_id":"KS"},{"zip":"67522","fips":"20079","name":"Harvey County","state_id":"KS"},{"zip":"67523","fips":"20145","name":"Pawnee County","state_id":"KS"},{"zip":"67523","fips":"20083","name":"Hodgeman County","state_id":"KS"},{"zip":"67524","fips":"20159","name":"Rice County","state_id":"KS"},{"zip":"67525","fips":"20009","name":"Barton County","state_id":"KS"},{"zip":"67526","fips":"20185","name":"Stafford County","state_id":"KS"},{"zip":"67526","fips":"20009","name":"Barton County","state_id":"KS"},{"zip":"67526","fips":"20159","name":"Rice County","state_id":"KS"},{"zip":"67529","fips":"20145","name":"Pawnee County","state_id":"KS"},{"zip":"67530","fips":"20185","name":"Stafford County","state_id":"KS"},{"zip":"67530","fips":"20009","name":"Barton County","state_id":"KS"},{"zip":"67543","fips":"20173","name":"Sedgwick County","state_id":"KS"},{"zip":"67543","fips":"20155","name":"Reno County","state_id":"KS"},{"zip":"67544","fips":"20167","name":"Russell County","state_id":"KS"},{"zip":"67544","fips":"20009","name":"Barton County","state_id":"KS"},{"zip":"67545","fips":"20185","name":"Stafford County","state_id":"KS"},{"zip":"67546","fips":"20079","name":"Harvey County","state_id":"KS"},{"zip":"67546","fips":"20155","name":"Reno County","state_id":"KS"},{"zip":"67546","fips":"20113","name":"McPherson County","state_id":"KS"},{"zip":"67546","fips":"20159","name":"Rice County","state_id":"KS"},{"zip":"67547","fips":"20083","name":"Hodgeman County","state_id":"KS"},{"zip":"67547","fips":"20145","name":"Pawnee County","state_id":"KS"},{"zip":"67547","fips":"20047","name":"Edwards County","state_id":"KS"},{"zip":"67548","fips":"20165","name":"Rush County","state_id":"KS"},{"zip":"67550","fips":"20145","name":"Pawnee County","state_id":"KS"},{"zip":"67550","fips":"20185","name":"Stafford County","state_id":"KS"},{"zip":"67552","fips":"20047","name":"Edwards County","state_id":"KS"},{"zip":"67553","fips":"20165","name":"Rush County","state_id":"KS"},{"zip":"67554","fips":"20159","name":"Rice County","state_id":"KS"},{"zip":"67556","fips":"20051","name":"Ellis County","state_id":"KS"},{"zip":"67556","fips":"20165","name":"Rush County","state_id":"KS"},{"zip":"67557","fips":"20047","name":"Edwards County","state_id":"KS"},{"zip":"67557","fips":"20185","name":"Stafford County","state_id":"KS"},{"zip":"67557","fips":"20151","name":"Pratt County","state_id":"KS"},{"zip":"67557","fips":"20145","name":"Pawnee County","state_id":"KS"},{"zip":"67559","fips":"20165","name":"Rush County","state_id":"KS"},{"zip":"67560","fips":"20135","name":"Ness County","state_id":"KS"},{"zip":"67561","fips":"20155","name":"Reno County","state_id":"KS"},{"zip":"67561","fips":"20159","name":"Rice County","state_id":"KS"},{"zip":"67563","fips":"20057","name":"Ford County","state_id":"KS"},{"zip":"67563","fips":"20083","name":"Hodgeman County","state_id":"KS"},{"zip":"67563","fips":"20047","name":"Edwards County","state_id":"KS"},{"zip":"67564","fips":"20009","name":"Barton County","state_id":"KS"},{"zip":"67565","fips":"20165","name":"Rush County","state_id":"KS"},{"zip":"67565","fips":"20009","name":"Barton County","state_id":"KS"},{"zip":"67566","fips":"20155","name":"Reno County","state_id":"KS"},{"zip":"67567","fips":"20009","name":"Barton County","state_id":"KS"},{"zip":"67567","fips":"20185","name":"Stafford County","state_id":"KS"},{"zip":"67567","fips":"20165","name":"Rush County","state_id":"KS"},{"zip":"67567","fips":"20145","name":"Pawnee County","state_id":"KS"},{"zip":"67568","fips":"20155","name":"Reno County","state_id":"KS"},{"zip":"67570","fips":"20095","name":"Kingman County","state_id":"KS"},{"zip":"67570","fips":"20155","name":"Reno County","state_id":"KS"},{"zip":"67572","fips":"20195","name":"Trego County","state_id":"KS"},{"zip":"67572","fips":"20135","name":"Ness County","state_id":"KS"},{"zip":"67573","fips":"20159","name":"Rice County","state_id":"KS"},{"zip":"67574","fips":"20145","name":"Pawnee County","state_id":"KS"},{"zip":"67575","fips":"20165","name":"Rush County","state_id":"KS"},{"zip":"67575","fips":"20145","name":"Pawnee County","state_id":"KS"},{"zip":"67576","fips":"20151","name":"Pratt County","state_id":"KS"},{"zip":"67576","fips":"20185","name":"Stafford County","state_id":"KS"},{"zip":"67578","fips":"20155","name":"Reno County","state_id":"KS"},{"zip":"67578","fips":"20185","name":"Stafford County","state_id":"KS"},{"zip":"67579","fips":"20159","name":"Rice County","state_id":"KS"},{"zip":"67579","fips":"20155","name":"Reno County","state_id":"KS"},{"zip":"67581","fips":"20155","name":"Reno County","state_id":"KS"},{"zip":"67583","fips":"20185","name":"Stafford County","state_id":"KS"},{"zip":"67583","fips":"20151","name":"Pratt County","state_id":"KS"},{"zip":"67583","fips":"20155","name":"Reno County","state_id":"KS"},{"zip":"67584","fips":"20135","name":"Ness County","state_id":"KS"},{"zip":"67584","fips":"20063","name":"Gove County","state_id":"KS"},{"zip":"67584","fips":"20195","name":"Trego County","state_id":"KS"},{"zip":"67585","fips":"20155","name":"Reno County","state_id":"KS"}]
