[{"zip":"67601","fips":"20051","name":"Ellis County","state_id":"KS"},{"zip":"67621","fips":"20147","name":"Phillips County","state_id":"KS"},{"zip":"67622","fips":"20137","name":"Norton County","state_id":"KS"},{"zip":"67623","fips":"20141","name":"Osborne County","state_id":"KS"},{"zip":"67625","fips":"20065","name":"Graham County","state_id":"KS"},{"zip":"67626","fips":"20167","name":"Russell County","state_id":"KS"},{"zip":"67627","fips":"20051","name":"Ellis County","state_id":"KS"},{"zip":"67628","fips":"20183","name":"Smith County","state_id":"KS"},{"zip":"67629","fips":"20137","name":"Norton County","state_id":"KS"},{"zip":"67631","fips":"20195","name":"Trego County","state_id":"KS"},{"zip":"67632","fips":"20065","name":"Graham County","state_id":"KS"},{"zip":"67632","fips":"20163","name":"Rooks County","state_id":"KS"},{"zip":"67634","fips":"20167","name":"Russell County","state_id":"KS"},{"zip":"67635","fips":"20039","name":"Decatur County","state_id":"KS"},{"zip":"67637","fips":"20195","name":"Trego County","state_id":"KS"},{"zip":"67637","fips":"20051","name":"Ellis County","state_id":"KS"},{"zip":"67638","fips":"20183","name":"Smith County","state_id":"KS"},{"zip":"67639","fips":"20163","name":"Rooks County","state_id":"KS"},{"zip":"67639","fips":"20147","name":"Phillips County","state_id":"KS"},{"zip":"67640","fips":"20167","name":"Russell County","state_id":"KS"},{"zip":"67640","fips":"20051","name":"Ellis County","state_id":"KS"},{"zip":"67642","fips":"20065","name":"Graham County","state_id":"KS"},{"zip":"67642","fips":"20163","name":"Rooks County","state_id":"KS"},{"zip":"67643","fips":"20039","name":"Decatur County","state_id":"KS"},{"zip":"67644","fips":"20147","name":"Phillips County","state_id":"KS"},{"zip":"67645","fips":"20065","name":"Graham County","state_id":"KS"},{"zip":"67645","fips":"20137","name":"Norton County","state_id":"KS"},{"zip":"67646","fips":"20163","name":"Rooks County","state_id":"KS"},{"zip":"67646","fips":"20147","name":"Phillips County","state_id":"KS"},{"zip":"67647","fips":"20147","name":"Phillips County","state_id":"KS"},{"zip":"67648","fips":"20105","name":"Lincoln County","state_id":"KS"},{"zip":"67648","fips":"20167","name":"Russell County","state_id":"KS"},{"zip":"67648","fips":"20141","name":"Osborne County","state_id":"KS"},{"zip":"67649","fips":"20167","name":"Russell County","state_id":"KS"},{"zip":"67649","fips":"20141","name":"Osborne County","state_id":"KS"},{"zip":"67650","fips":"20065","name":"Graham County","state_id":"KS"},{"zip":"67651","fips":"20141","name":"Osborne County","state_id":"KS"},{"zip":"67651","fips":"20163","name":"Rooks County","state_id":"KS"},{"zip":"67651","fips":"20051","name":"Ellis County","state_id":"KS"},{"zip":"67653","fips":"20137","name":"Norton County","state_id":"KS"},{"zip":"67653","fips":"20039","name":"Decatur County","state_id":"KS"},{"zip":"67654","fips":"20137","name":"Norton County","state_id":"KS"},{"zip":"67656","fips":"20065","name":"Graham County","state_id":"KS"},{"zip":"67656","fips":"20195","name":"Trego County","state_id":"KS"},{"zip":"67657","fips":"20163","name":"Rooks County","state_id":"KS"},{"zip":"67657","fips":"20065","name":"Graham County","state_id":"KS"},{"zip":"67658","fips":"20167","name":"Russell County","state_id":"KS"},{"zip":"67658","fips":"20141","name":"Osborne County","state_id":"KS"},{"zip":"67659","fips":"20051","name":"Ellis County","state_id":"KS"},{"zip":"67659","fips":"20065","name":"Graham County","state_id":"KS"},{"zip":"67659","fips":"20163","name":"Rooks County","state_id":"KS"},{"zip":"67660","fips":"20051","name":"Ellis County","state_id":"KS"},{"zip":"67661","fips":"20147","name":"Phillips County","state_id":"KS"},{"zip":"67661","fips":"20163","name":"Rooks County","state_id":"KS"},{"zip":"67663","fips":"20051","name":"Ellis County","state_id":"KS"},{"zip":"67663","fips":"20163","name":"Rooks County","state_id":"KS"},{"zip":"67664","fips":"20147","name":"Phillips County","state_id":"KS"},{"zip":"67665","fips":"20167","name":"Russell County","state_id":"KS"},{"zip":"67665","fips":"20009","name":"Barton County","state_id":"KS"},{"zip":"67667","fips":"20051","name":"Ellis County","state_id":"KS"},{"zip":"67669","fips":"20163","name":"Rooks County","state_id":"KS"},{"zip":"67671","fips":"20051","name":"Ellis County","state_id":"KS"},{"zip":"67672","fips":"20065","name":"Graham County","state_id":"KS"},{"zip":"67672","fips":"20195","name":"Trego County","state_id":"KS"},{"zip":"67673","fips":"20141","name":"Osborne County","state_id":"KS"},{"zip":"67673","fips":"20167","name":"Russell County","state_id":"KS"},{"zip":"67674","fips":"20051","name":"Ellis County","state_id":"KS"},{"zip":"67675","fips":"20141","name":"Osborne County","state_id":"KS"},{"zip":"67675","fips":"20163","name":"Rooks County","state_id":"KS"}]
