[{"zip":"67701","fips":"20193","name":"Thomas County","state_id":"KS"},{"zip":"67701","fips":"20153","name":"Rawlins County","state_id":"KS"},{"zip":"67730","fips":"20153","name":"Rawlins County","state_id":"KS"},{"zip":"67731","fips":"20023","name":"Cheyenne County","state_id":"KS"},{"zip":"67732","fips":"20109","name":"Logan County","state_id":"KS"},{"zip":"67732","fips":"20193","name":"Thomas County","state_id":"KS"},{"zip":"67732","fips":"20181","name":"Sherman County","state_id":"KS"},{"zip":"67733","fips":"20181","name":"Sherman County","state_id":"KS"},{"zip":"67734","fips":"20193","name":"Thomas County","state_id":"KS"},{"zip":"67735","fips":"20181","name":"Sherman County","state_id":"KS"},{"zip":"67736","fips":"20063","name":"Gove County","state_id":"KS"},{"zip":"67737","fips":"20063","name":"Gove County","state_id":"KS"},{"zip":"67738","fips":"20063","name":"Gove County","state_id":"KS"},{"zip":"67738","fips":"20179","name":"Sheridan County","state_id":"KS"},{"zip":"67739","fips":"20153","name":"Rawlins County","state_id":"KS"},{"zip":"67740","fips":"20179","name":"Sheridan County","state_id":"KS"},{"zip":"67740","fips":"20065","name":"Graham County","state_id":"KS"},{"zip":"67741","fips":"20181","name":"Sherman County","state_id":"KS"},{"zip":"67741","fips":"20023","name":"Cheyenne County","state_id":"KS"},{"zip":"67743","fips":"20193","name":"Thomas County","state_id":"KS"},{"zip":"67744","fips":"20153","name":"Rawlins County","state_id":"KS"},{"zip":"67745","fips":"20153","name":"Rawlins County","state_id":"KS"},{"zip":"67747","fips":"20109","name":"Logan County","state_id":"KS"},{"zip":"67747","fips":"20193","name":"Thomas County","state_id":"KS"},{"zip":"67748","fips":"20193","name":"Thomas County","state_id":"KS"},{"zip":"67748","fips":"20109","name":"Logan County","state_id":"KS"},{"zip":"67748","fips":"20063","name":"Gove County","state_id":"KS"},{"zip":"67749","fips":"20153","name":"Rawlins County","state_id":"KS"},{"zip":"67749","fips":"20039","name":"Decatur County","state_id":"KS"},{"zip":"67751","fips":"20063","name":"Gove County","state_id":"KS"},{"zip":"67752","fips":"20195","name":"Trego County","state_id":"KS"},{"zip":"67752","fips":"20135","name":"Ness County","state_id":"KS"},{"zip":"67752","fips":"20063","name":"Gove County","state_id":"KS"},{"zip":"67753","fips":"20193","name":"Thomas County","state_id":"KS"},{"zip":"67753","fips":"20179","name":"Sheridan County","state_id":"KS"},{"zip":"67756","fips":"20023","name":"Cheyenne County","state_id":"KS"},{"zip":"67757","fips":"20179","name":"Sheridan County","state_id":"KS"},{"zip":"67757","fips":"20193","name":"Thomas County","state_id":"KS"},{"zip":"67757","fips":"20039","name":"Decatur County","state_id":"KS"},{"zip":"67758","fips":"20199","name":"Wallace County","state_id":"KS"},{"zip":"67761","fips":"20109","name":"Logan County","state_id":"KS"},{"zip":"67761","fips":"20199","name":"Wallace County","state_id":"KS"},{"zip":"67762","fips":"20181","name":"Sherman County","state_id":"KS"},{"zip":"67762","fips":"20199","name":"Wallace County","state_id":"KS"},{"zip":"67762","fips":"20071","name":"Greeley County","state_id":"KS"},{"zip":"67764","fips":"20193","name":"Thomas County","state_id":"KS"},{"zip":"67764","fips":"20109","name":"Logan County","state_id":"KS"}]
