[{"zip":"67801","fips":"20057","name":"Ford County","state_id":"KS"},{"zip":"67801","fips":"20069","name":"Gray County","state_id":"KS"},{"zip":"67801","fips":"20083","name":"Hodgeman County","state_id":"KS"},{"zip":"67831","fips":"20025","name":"Clark County","state_id":"KS"},{"zip":"67834","fips":"20097","name":"Kiowa County","state_id":"KS"},{"zip":"67834","fips":"20057","name":"Ford County","state_id":"KS"},{"zip":"67834","fips":"20025","name":"Clark County","state_id":"KS"},{"zip":"67835","fips":"20083","name":"Hodgeman County","state_id":"KS"},{"zip":"67835","fips":"20069","name":"Gray County","state_id":"KS"},{"zip":"67835","fips":"20055","name":"Finney County","state_id":"KS"},{"zip":"67835","fips":"20057","name":"Ford County","state_id":"KS"},{"zip":"67836","fips":"20075","name":"Hamilton County","state_id":"KS"},{"zip":"67837","fips":"20081","name":"Haskell County","state_id":"KS"},{"zip":"67837","fips":"20119","name":"Meade County","state_id":"KS"},{"zip":"67837","fips":"20069","name":"Gray County","state_id":"KS"},{"zip":"67838","fips":"20093","name":"Kearny County","state_id":"KS"},{"zip":"67838","fips":"20055","name":"Finney County","state_id":"KS"},{"zip":"67839","fips":"20055","name":"Finney County","state_id":"KS"},{"zip":"67839","fips":"20101","name":"Lane County","state_id":"KS"},{"zip":"67840","fips":"20025","name":"Clark County","state_id":"KS"},{"zip":"67841","fips":"20057","name":"Ford County","state_id":"KS"},{"zip":"67841","fips":"20069","name":"Gray County","state_id":"KS"},{"zip":"67841","fips":"20119","name":"Meade County","state_id":"KS"},{"zip":"67842","fips":"20025","name":"Clark County","state_id":"KS"},{"zip":"67842","fips":"20057","name":"Ford County","state_id":"KS"},{"zip":"67843","fips":"20069","name":"Gray County","state_id":"KS"},{"zip":"67844","fips":"20025","name":"Clark County","state_id":"KS"},{"zip":"67844","fips":"20119","name":"Meade County","state_id":"KS"},{"zip":"67844","fips":"20057","name":"Ford County","state_id":"KS"},{"zip":"67844","fips":"20069","name":"Gray County","state_id":"KS"},{"zip":"67846","fips":"20055","name":"Finney County","state_id":"KS"},{"zip":"67846","fips":"20101","name":"Lane County","state_id":"KS"},{"zip":"67846","fips":"20069","name":"Gray County","state_id":"KS"},{"zip":"67849","fips":"20083","name":"Hodgeman County","state_id":"KS"},{"zip":"67850","fips":"20171","name":"Scott County","state_id":"KS"},{"zip":"67850","fips":"20101","name":"Lane County","state_id":"KS"},{"zip":"67851","fips":"20171","name":"Scott County","state_id":"KS"},{"zip":"67851","fips":"20055","name":"Finney County","state_id":"KS"},{"zip":"67853","fips":"20069","name":"Gray County","state_id":"KS"},{"zip":"67853","fips":"20055","name":"Finney County","state_id":"KS"},{"zip":"67854","fips":"20083","name":"Hodgeman County","state_id":"KS"},{"zip":"67855","fips":"20067","name":"Grant County","state_id":"KS"},{"zip":"67855","fips":"20187","name":"Stanton County","state_id":"KS"},{"zip":"67857","fips":"20075","name":"Hamilton County","state_id":"KS"},{"zip":"67859","fips":"20175","name":"Seward County","state_id":"KS"},{"zip":"67860","fips":"20067","name":"Grant County","state_id":"KS"},{"zip":"67860","fips":"20093","name":"Kearny County","state_id":"KS"},{"zip":"67861","fips":"20203","name":"Wichita County","state_id":"KS"},{"zip":"67861","fips":"20199","name":"Wallace County","state_id":"KS"},{"zip":"67861","fips":"20109","name":"Logan County","state_id":"KS"},{"zip":"67862","fips":"20187","name":"Stanton County","state_id":"KS"},{"zip":"67863","fips":"20203","name":"Wichita County","state_id":"KS"},{"zip":"67863","fips":"20171","name":"Scott County","state_id":"KS"},{"zip":"67864","fips":"20119","name":"Meade County","state_id":"KS"},{"zip":"67865","fips":"20057","name":"Ford County","state_id":"KS"},{"zip":"67865","fips":"20025","name":"Clark County","state_id":"KS"},{"zip":"67867","fips":"20119","name":"Meade County","state_id":"KS"},{"zip":"67867","fips":"20069","name":"Gray County","state_id":"KS"},{"zip":"67868","fips":"20055","name":"Finney County","state_id":"KS"},{"zip":"67869","fips":"20175","name":"Seward County","state_id":"KS"},{"zip":"67869","fips":"20119","name":"Meade County","state_id":"KS"},{"zip":"67870","fips":"20081","name":"Haskell County","state_id":"KS"},{"zip":"67870","fips":"20067","name":"Grant County","state_id":"KS"},{"zip":"67870","fips":"20175","name":"Seward County","state_id":"KS"},{"zip":"67871","fips":"20171","name":"Scott County","state_id":"KS"},{"zip":"67871","fips":"20109","name":"Logan County","state_id":"KS"},{"zip":"67871","fips":"20055","name":"Finney County","state_id":"KS"},{"zip":"67876","fips":"20083","name":"Hodgeman County","state_id":"KS"},{"zip":"67876","fips":"20057","name":"Ford County","state_id":"KS"},{"zip":"67877","fips":"20081","name":"Haskell County","state_id":"KS"},{"zip":"67877","fips":"20119","name":"Meade County","state_id":"KS"},{"zip":"67877","fips":"20175","name":"Seward County","state_id":"KS"},{"zip":"67878","fips":"20075","name":"Hamilton County","state_id":"KS"},{"zip":"67878","fips":"20187","name":"Stanton County","state_id":"KS"},{"zip":"67879","fips":"20071","name":"Greeley County","state_id":"KS"},{"zip":"67880","fips":"20081","name":"Haskell County","state_id":"KS"},{"zip":"67880","fips":"20187","name":"Stanton County","state_id":"KS"},{"zip":"67880","fips":"20067","name":"Grant County","state_id":"KS"},{"zip":"67880","fips":"20093","name":"Kearny County","state_id":"KS"},{"zip":"67882","fips":"20057","name":"Ford County","state_id":"KS"}]
