[{"zip":"68001","fips":"31023","name":"Butler County","state_id":"NE"},{"zip":"68002","fips":"31177","name":"Washington County","state_id":"NE"},{"zip":"68003","fips":"31109","name":"Lancaster County","state_id":"NE"},{"zip":"68003","fips":"31155","name":"Saunders County","state_id":"NE"},{"zip":"68003","fips":"31025","name":"Cass County","state_id":"NE"},{"zip":"68004","fips":"31173","name":"Thurston County","state_id":"NE"},{"zip":"68004","fips":"31039","name":"Cuming County","state_id":"NE"},{"zip":"68004","fips":"31021","name":"Burt County","state_id":"NE"},{"zip":"68005","fips":"31153","name":"Sarpy County","state_id":"NE"},{"zip":"68007","fips":"31055","name":"Douglas County","state_id":"NE"},{"zip":"68007","fips":"31177","name":"Washington County","state_id":"NE"},{"zip":"68008","fips":"31177","name":"Washington County","state_id":"NE"},{"zip":"68010","fips":"31055","name":"Douglas County","state_id":"NE"},{"zip":"68014","fips":"31023","name":"Butler County","state_id":"NE"},{"zip":"68015","fips":"31155","name":"Saunders County","state_id":"NE"},{"zip":"68016","fips":"31025","name":"Cass County","state_id":"NE"},{"zip":"68017","fips":"31155","name":"Saunders County","state_id":"NE"},{"zip":"68017","fips":"31109","name":"Lancaster County","state_id":"NE"},{"zip":"68018","fips":"31155","name":"Saunders County","state_id":"NE"},{"zip":"68019","fips":"31021","name":"Burt County","state_id":"NE"},{"zip":"68020","fips":"31021","name":"Burt County","state_id":"NE"},{"zip":"68020","fips":"31173","name":"Thurston County","state_id":"NE"},{"zip":"68022","fips":"31055","name":"Douglas County","state_id":"NE"},{"zip":"68023","fips":"31177","name":"Washington County","state_id":"NE"},{"zip":"68025","fips":"31053","name":"Dodge County","state_id":"NE"},{"zip":"68025","fips":"31177","name":"Washington County","state_id":"NE"},{"zip":"68025","fips":"31155","name":"Saunders County","state_id":"NE"},{"zip":"68026","fips":"31053","name":"Dodge County","state_id":"NE"},{"zip":"68028","fips":"31153","name":"Sarpy County","state_id":"NE"},{"zip":"68028","fips":"31055","name":"Douglas County","state_id":"NE"},{"zip":"68029","fips":"31177","name":"Washington County","state_id":"NE"},{"zip":"68029","fips":"31021","name":"Burt County","state_id":"NE"},{"zip":"68030","fips":"31043","name":"Dakota County","state_id":"NE"},{"zip":"68031","fips":"31053","name":"Dodge County","state_id":"NE"},{"zip":"68031","fips":"31177","name":"Washington County","state_id":"NE"},{"zip":"68031","fips":"31021","name":"Burt County","state_id":"NE"},{"zip":"68033","fips":"31155","name":"Saunders County","state_id":"NE"},{"zip":"68034","fips":"31177","name":"Washington County","state_id":"NE"},{"zip":"68036","fips":"31023","name":"Butler County","state_id":"NE"},{"zip":"68036","fips":"31155","name":"Saunders County","state_id":"NE"},{"zip":"68037","fips":"31025","name":"Cass County","state_id":"NE"},{"zip":"68038","fips":"31039","name":"Cuming County","state_id":"NE"},{"zip":"68038","fips":"31021","name":"Burt County","state_id":"NE"},{"zip":"68038","fips":"31173","name":"Thurston County","state_id":"NE"},{"zip":"68039","fips":"31173","name":"Thurston County","state_id":"NE"},{"zip":"68040","fips":"31155","name":"Saunders County","state_id":"NE"},{"zip":"68041","fips":"31155","name":"Saunders County","state_id":"NE"},{"zip":"68042","fips":"31155","name":"Saunders County","state_id":"NE"},{"zip":"68044","fips":"31053","name":"Dodge County","state_id":"NE"},{"zip":"68044","fips":"31177","name":"Washington County","state_id":"NE"},{"zip":"68045","fips":"31021","name":"Burt County","state_id":"NE"},{"zip":"68045","fips":"31053","name":"Dodge County","state_id":"NE"},{"zip":"68045","fips":"31039","name":"Cuming County","state_id":"NE"},{"zip":"68046","fips":"31153","name":"Sarpy County","state_id":"NE"},{"zip":"68047","fips":"31179","name":"Wayne County","state_id":"NE"},{"zip":"68047","fips":"31039","name":"Cuming County","state_id":"NE"},{"zip":"68047","fips":"31173","name":"Thurston County","state_id":"NE"},{"zip":"68048","fips":"31025","name":"Cass County","state_id":"NE"},{"zip":"68050","fips":"31023","name":"Butler County","state_id":"NE"},{"zip":"68050","fips":"31155","name":"Saunders County","state_id":"NE"},{"zip":"68055","fips":"31039","name":"Cuming County","state_id":"NE"},{"zip":"68055","fips":"31173","name":"Thurston County","state_id":"NE"},{"zip":"68056","fips":"31153","name":"Sarpy County","state_id":"NE"},{"zip":"68057","fips":"31053","name":"Dodge County","state_id":"NE"},{"zip":"68058","fips":"31025","name":"Cass County","state_id":"NE"},{"zip":"68059","fips":"31153","name":"Sarpy County","state_id":"NE"},{"zip":"68061","fips":"31021","name":"Burt County","state_id":"NE"},{"zip":"68062","fips":"31173","name":"Thurston County","state_id":"NE"},{"zip":"68063","fips":"31053","name":"Dodge County","state_id":"NE"},{"zip":"68064","fips":"31053","name":"Dodge County","state_id":"NE"},{"zip":"68064","fips":"31055","name":"Douglas County","state_id":"NE"},{"zip":"68064","fips":"31155","name":"Saunders County","state_id":"NE"},{"zip":"68064","fips":"31177","name":"Washington County","state_id":"NE"},{"zip":"68065","fips":"31023","name":"Butler County","state_id":"NE"},{"zip":"68065","fips":"31109","name":"Lancaster County","state_id":"NE"},{"zip":"68065","fips":"31159","name":"Seward County","state_id":"NE"},{"zip":"68065","fips":"31155","name":"Saunders County","state_id":"NE"},{"zip":"68066","fips":"31155","name":"Saunders County","state_id":"NE"},{"zip":"68067","fips":"31173","name":"Thurston County","state_id":"NE"},{"zip":"68068","fips":"31177","name":"Washington County","state_id":"NE"},{"zip":"68069","fips":"31153","name":"Sarpy County","state_id":"NE"},{"zip":"68069","fips":"31055","name":"Douglas County","state_id":"NE"},{"zip":"68070","fips":"31155","name":"Saunders County","state_id":"NE"},{"zip":"68071","fips":"31173","name":"Thurston County","state_id":"NE"},{"zip":"68072","fips":"31053","name":"Dodge County","state_id":"NE"},{"zip":"68073","fips":"31155","name":"Saunders County","state_id":"NE"}]
