[{"zip":"68102","fips":"31055","name":"Douglas County","state_id":"NE"},{"zip":"68103","fips":"31055","name":"Douglas County","state_id":"NE"},{"zip":"68104","fips":"31055","name":"Douglas County","state_id":"NE"},{"zip":"68105","fips":"31055","name":"Douglas County","state_id":"NE"},{"zip":"68106","fips":"31055","name":"Douglas County","state_id":"NE"},{"zip":"68107","fips":"31055","name":"Douglas County","state_id":"NE"},{"zip":"68108","fips":"31055","name":"Douglas County","state_id":"NE"},{"zip":"68109","fips":"31055","name":"Douglas County","state_id":"NE"},{"zip":"68110","fips":"31055","name":"Douglas County","state_id":"NE"},{"zip":"68111","fips":"31055","name":"Douglas County","state_id":"NE"},{"zip":"68112","fips":"31177","name":"Washington County","state_id":"NE"},{"zip":"68112","fips":"31055","name":"Douglas County","state_id":"NE"},{"zip":"68113","fips":"31153","name":"Sarpy County","state_id":"NE"},{"zip":"68114","fips":"31055","name":"Douglas County","state_id":"NE"},{"zip":"68116","fips":"31055","name":"Douglas County","state_id":"NE"},{"zip":"68117","fips":"31055","name":"Douglas County","state_id":"NE"},{"zip":"68118","fips":"31055","name":"Douglas County","state_id":"NE"},{"zip":"68122","fips":"31177","name":"Washington County","state_id":"NE"},{"zip":"68122","fips":"31055","name":"Douglas County","state_id":"NE"},{"zip":"68123","fips":"31153","name":"Sarpy County","state_id":"NE"},{"zip":"68124","fips":"31055","name":"Douglas County","state_id":"NE"},{"zip":"68127","fips":"31055","name":"Douglas County","state_id":"NE"},{"zip":"68128","fips":"31055","name":"Douglas County","state_id":"NE"},{"zip":"68128","fips":"31153","name":"Sarpy County","state_id":"NE"},{"zip":"68130","fips":"31055","name":"Douglas County","state_id":"NE"},{"zip":"68131","fips":"31055","name":"Douglas County","state_id":"NE"},{"zip":"68132","fips":"31055","name":"Douglas County","state_id":"NE"},{"zip":"68133","fips":"31153","name":"Sarpy County","state_id":"NE"},{"zip":"68134","fips":"31055","name":"Douglas County","state_id":"NE"},{"zip":"68135","fips":"31055","name":"Douglas County","state_id":"NE"},{"zip":"68136","fips":"31055","name":"Douglas County","state_id":"NE"},{"zip":"68136","fips":"31153","name":"Sarpy County","state_id":"NE"},{"zip":"68137","fips":"31055","name":"Douglas County","state_id":"NE"},{"zip":"68137","fips":"31153","name":"Sarpy County","state_id":"NE"},{"zip":"68138","fips":"31153","name":"Sarpy County","state_id":"NE"},{"zip":"68138","fips":"31055","name":"Douglas County","state_id":"NE"},{"zip":"68139","fips":"31055","name":"Douglas County","state_id":"NE"},{"zip":"68142","fips":"31177","name":"Washington County","state_id":"NE"},{"zip":"68142","fips":"31055","name":"Douglas County","state_id":"NE"},{"zip":"68144","fips":"31055","name":"Douglas County","state_id":"NE"},{"zip":"68145","fips":"31055","name":"Douglas County","state_id":"NE"},{"zip":"68147","fips":"31055","name":"Douglas County","state_id":"NE"},{"zip":"68147","fips":"31153","name":"Sarpy County","state_id":"NE"},{"zip":"68152","fips":"31177","name":"Washington County","state_id":"NE"},{"zip":"68152","fips":"31055","name":"Douglas County","state_id":"NE"},{"zip":"68154","fips":"31055","name":"Douglas County","state_id":"NE"},{"zip":"68157","fips":"31055","name":"Douglas County","state_id":"NE"},{"zip":"68157","fips":"31153","name":"Sarpy County","state_id":"NE"},{"zip":"68164","fips":"31055","name":"Douglas County","state_id":"NE"},{"zip":"68175","fips":"31055","name":"Douglas County","state_id":"NE"},{"zip":"68178","fips":"31055","name":"Douglas County","state_id":"NE"},{"zip":"68179","fips":"31055","name":"Douglas County","state_id":"NE"},{"zip":"68180","fips":"31055","name":"Douglas County","state_id":"NE"},{"zip":"68182","fips":"31055","name":"Douglas County","state_id":"NE"},{"zip":"68183","fips":"31055","name":"Douglas County","state_id":"NE"},{"zip":"68197","fips":"31055","name":"Douglas County","state_id":"NE"},{"zip":"68198","fips":"31055","name":"Douglas County","state_id":"NE"}]
