[{"zip":"68301","fips":"31097","name":"Johnson County","state_id":"NE"},{"zip":"68301","fips":"31067","name":"Gage County","state_id":"NE"},{"zip":"68301","fips":"31109","name":"Lancaster County","state_id":"NE"},{"zip":"68301","fips":"31131","name":"Otoe County","state_id":"NE"},{"zip":"68303","fips":"31169","name":"Thayer County","state_id":"NE"},{"zip":"68303","fips":"31095","name":"Jefferson County","state_id":"NE"},{"zip":"68304","fips":"31025","name":"Cass County","state_id":"NE"},{"zip":"68305","fips":"31127","name":"Nemaha County","state_id":"NE"},{"zip":"68307","fips":"31131","name":"Otoe County","state_id":"NE"},{"zip":"68307","fips":"31025","name":"Cass County","state_id":"NE"},{"zip":"68309","fips":"31067","name":"Gage County","state_id":"NE"},{"zip":"68310","fips":"31095","name":"Jefferson County","state_id":"NE"},{"zip":"68310","fips":"31067","name":"Gage County","state_id":"NE"},{"zip":"68313","fips":"31159","name":"Seward County","state_id":"NE"},{"zip":"68314","fips":"31159","name":"Seward County","state_id":"NE"},{"zip":"68314","fips":"31023","name":"Butler County","state_id":"NE"},{"zip":"68315","fips":"31169","name":"Thayer County","state_id":"NE"},{"zip":"68316","fips":"31143","name":"Polk County","state_id":"NE"},{"zip":"68316","fips":"31185","name":"York County","state_id":"NE"},{"zip":"68317","fips":"31109","name":"Lancaster County","state_id":"NE"},{"zip":"68317","fips":"31131","name":"Otoe County","state_id":"NE"},{"zip":"68318","fips":"31067","name":"Gage County","state_id":"NE"},{"zip":"68319","fips":"31185","name":"York County","state_id":"NE"},{"zip":"68319","fips":"31081","name":"Hamilton County","state_id":"NE"},{"zip":"68320","fips":"31127","name":"Nemaha County","state_id":"NE"},{"zip":"68321","fips":"31127","name":"Nemaha County","state_id":"NE"},{"zip":"68322","fips":"31059","name":"Fillmore County","state_id":"NE"},{"zip":"68322","fips":"31169","name":"Thayer County","state_id":"NE"},{"zip":"68323","fips":"31067","name":"Gage County","state_id":"NE"},{"zip":"68323","fips":"31133","name":"Pawnee County","state_id":"NE"},{"zip":"68324","fips":"31131","name":"Otoe County","state_id":"NE"},{"zip":"68324","fips":"31097","name":"Johnson County","state_id":"NE"},{"zip":"68325","fips":"31129","name":"Nuckolls County","state_id":"NE"},{"zip":"68325","fips":"31169","name":"Thayer County","state_id":"NE"},{"zip":"68326","fips":"31059","name":"Fillmore County","state_id":"NE"},{"zip":"68326","fips":"31169","name":"Thayer County","state_id":"NE"},{"zip":"68327","fips":"31169","name":"Thayer County","state_id":"NE"},{"zip":"68328","fips":"31067","name":"Gage County","state_id":"NE"},{"zip":"68329","fips":"31097","name":"Johnson County","state_id":"NE"},{"zip":"68329","fips":"31131","name":"Otoe County","state_id":"NE"},{"zip":"68330","fips":"31159","name":"Seward County","state_id":"NE"},{"zip":"68331","fips":"31067","name":"Gage County","state_id":"NE"},{"zip":"68331","fips":"31109","name":"Lancaster County","state_id":"NE"},{"zip":"68332","fips":"31097","name":"Johnson County","state_id":"NE"},{"zip":"68332","fips":"31067","name":"Gage County","state_id":"NE"},{"zip":"68333","fips":"31109","name":"Lancaster County","state_id":"NE"},{"zip":"68333","fips":"31151","name":"Saline County","state_id":"NE"},{"zip":"68333","fips":"31159","name":"Seward County","state_id":"NE"},{"zip":"68335","fips":"31059","name":"Fillmore County","state_id":"NE"},{"zip":"68335","fips":"31169","name":"Thayer County","state_id":"NE"},{"zip":"68335","fips":"31129","name":"Nuckolls County","state_id":"NE"},{"zip":"68336","fips":"31109","name":"Lancaster County","state_id":"NE"},{"zip":"68337","fips":"31147","name":"Richardson County","state_id":"NE"},{"zip":"68338","fips":"31151","name":"Saline County","state_id":"NE"},{"zip":"68338","fips":"31095","name":"Jefferson County","state_id":"NE"},{"zip":"68339","fips":"31159","name":"Seward County","state_id":"NE"},{"zip":"68339","fips":"31151","name":"Saline County","state_id":"NE"},{"zip":"68339","fips":"31109","name":"Lancaster County","state_id":"NE"},{"zip":"68340","fips":"31169","name":"Thayer County","state_id":"NE"},{"zip":"68341","fips":"31067","name":"Gage County","state_id":"NE"},{"zip":"68341","fips":"31151","name":"Saline County","state_id":"NE"},{"zip":"68341","fips":"31095","name":"Jefferson County","state_id":"NE"},{"zip":"68342","fips":"31095","name":"Jefferson County","state_id":"NE"},{"zip":"68342","fips":"31067","name":"Gage County","state_id":"NE"},{"zip":"68343","fips":"31151","name":"Saline County","state_id":"NE"},{"zip":"68343","fips":"31159","name":"Seward County","state_id":"NE"},{"zip":"68344","fips":"31131","name":"Otoe County","state_id":"NE"},{"zip":"68345","fips":"31133","name":"Pawnee County","state_id":"NE"},{"zip":"68345","fips":"31147","name":"Richardson County","state_id":"NE"},{"zip":"68346","fips":"31131","name":"Otoe County","state_id":"NE"},{"zip":"68347","fips":"31109","name":"Lancaster County","state_id":"NE"},{"zip":"68347","fips":"31025","name":"Cass County","state_id":"NE"},{"zip":"68347","fips":"31131","name":"Otoe County","state_id":"NE"},{"zip":"68348","fips":"31127","name":"Nemaha County","state_id":"NE"},{"zip":"68348","fips":"31133","name":"Pawnee County","state_id":"NE"},{"zip":"68348","fips":"31097","name":"Johnson County","state_id":"NE"},{"zip":"68349","fips":"31025","name":"Cass County","state_id":"NE"},{"zip":"68350","fips":"31095","name":"Jefferson County","state_id":"NE"},{"zip":"68351","fips":"31059","name":"Fillmore County","state_id":"NE"},{"zip":"68351","fips":"31185","name":"York County","state_id":"NE"},{"zip":"68352","fips":"31095","name":"Jefferson County","state_id":"NE"},{"zip":"68354","fips":"31059","name":"Fillmore County","state_id":"NE"},{"zip":"68354","fips":"31185","name":"York County","state_id":"NE"},{"zip":"68355","fips":"31147","name":"Richardson County","state_id":"NE"},{"zip":"68357","fips":"31067","name":"Gage County","state_id":"NE"},{"zip":"68358","fips":"31109","name":"Lancaster County","state_id":"NE"},{"zip":"68358","fips":"31067","name":"Gage County","state_id":"NE"},{"zip":"68359","fips":"31059","name":"Fillmore County","state_id":"NE"},{"zip":"68359","fips":"31159","name":"Seward County","state_id":"NE"},{"zip":"68359","fips":"31151","name":"Saline County","state_id":"NE"},{"zip":"68360","fips":"31109","name":"Lancaster County","state_id":"NE"},{"zip":"68360","fips":"31159","name":"Seward County","state_id":"NE"},{"zip":"68361","fips":"31059","name":"Fillmore County","state_id":"NE"},{"zip":"68362","fips":"31169","name":"Thayer County","state_id":"NE"},{"zip":"68364","fips":"31159","name":"Seward County","state_id":"NE"},{"zip":"68365","fips":"31185","name":"York County","state_id":"NE"},{"zip":"68365","fips":"31059","name":"Fillmore County","state_id":"NE"},{"zip":"68366","fips":"31109","name":"Lancaster County","state_id":"NE"},{"zip":"68366","fips":"31155","name":"Saunders County","state_id":"NE"},{"zip":"68366","fips":"31025","name":"Cass County","state_id":"NE"},{"zip":"68367","fips":"31023","name":"Butler County","state_id":"NE"},{"zip":"68367","fips":"31159","name":"Seward County","state_id":"NE"},{"zip":"68367","fips":"31143","name":"Polk County","state_id":"NE"},{"zip":"68367","fips":"31185","name":"York County","state_id":"NE"},{"zip":"68368","fips":"31067","name":"Gage County","state_id":"NE"},{"zip":"68368","fips":"31109","name":"Lancaster County","state_id":"NE"},{"zip":"68370","fips":"31095","name":"Jefferson County","state_id":"NE"},{"zip":"68370","fips":"31169","name":"Thayer County","state_id":"NE"},{"zip":"68371","fips":"31081","name":"Hamilton County","state_id":"NE"},{"zip":"68371","fips":"31185","name":"York County","state_id":"NE"},{"zip":"68372","fips":"31109","name":"Lancaster County","state_id":"NE"},{"zip":"68375","fips":"31169","name":"Thayer County","state_id":"NE"},{"zip":"68376","fips":"31147","name":"Richardson County","state_id":"NE"},{"zip":"68376","fips":"31133","name":"Pawnee County","state_id":"NE"},{"zip":"68376","fips":"31127","name":"Nemaha County","state_id":"NE"},{"zip":"68377","fips":"31095","name":"Jefferson County","state_id":"NE"},{"zip":"68378","fips":"31097","name":"Johnson County","state_id":"NE"},{"zip":"68378","fips":"31127","name":"Nemaha County","state_id":"NE"},{"zip":"68379","fips":"31131","name":"Otoe County","state_id":"NE"},{"zip":"68379","fips":"31127","name":"Nemaha County","state_id":"NE"},{"zip":"68380","fips":"31133","name":"Pawnee County","state_id":"NE"},{"zip":"68381","fips":"31133","name":"Pawnee County","state_id":"NE"},{"zip":"68381","fips":"31067","name":"Gage County","state_id":"NE"},{"zip":"68382","fips":"31131","name":"Otoe County","state_id":"NE"}]
