[{"zip":"68401","fips":"31185","name":"York County","state_id":"NE"},{"zip":"68402","fips":"31109","name":"Lancaster County","state_id":"NE"},{"zip":"68403","fips":"31025","name":"Cass County","state_id":"NE"},{"zip":"68404","fips":"31109","name":"Lancaster County","state_id":"NE"},{"zip":"68404","fips":"31067","name":"Gage County","state_id":"NE"},{"zip":"68405","fips":"31151","name":"Saline County","state_id":"NE"},{"zip":"68405","fips":"31159","name":"Seward County","state_id":"NE"},{"zip":"68406","fips":"31151","name":"Saline County","state_id":"NE"},{"zip":"68406","fips":"31059","name":"Fillmore County","state_id":"NE"},{"zip":"68407","fips":"31025","name":"Cass County","state_id":"NE"},{"zip":"68409","fips":"31025","name":"Cass County","state_id":"NE"},{"zip":"68410","fips":"31131","name":"Otoe County","state_id":"NE"},{"zip":"68413","fips":"31025","name":"Cass County","state_id":"NE"},{"zip":"68413","fips":"31131","name":"Otoe County","state_id":"NE"},{"zip":"68414","fips":"31127","name":"Nemaha County","state_id":"NE"},{"zip":"68415","fips":"31067","name":"Gage County","state_id":"NE"},{"zip":"68416","fips":"31059","name":"Fillmore County","state_id":"NE"},{"zip":"68417","fips":"31131","name":"Otoe County","state_id":"NE"},{"zip":"68418","fips":"31131","name":"Otoe County","state_id":"NE"},{"zip":"68418","fips":"31025","name":"Cass County","state_id":"NE"},{"zip":"68419","fips":"31109","name":"Lancaster County","state_id":"NE"},{"zip":"68420","fips":"31133","name":"Pawnee County","state_id":"NE"},{"zip":"68421","fips":"31131","name":"Otoe County","state_id":"NE"},{"zip":"68421","fips":"31127","name":"Nemaha County","state_id":"NE"},{"zip":"68422","fips":"31067","name":"Gage County","state_id":"NE"},{"zip":"68423","fips":"31159","name":"Seward County","state_id":"NE"},{"zip":"68423","fips":"31151","name":"Saline County","state_id":"NE"},{"zip":"68423","fips":"31109","name":"Lancaster County","state_id":"NE"},{"zip":"68424","fips":"31151","name":"Saline County","state_id":"NE"},{"zip":"68424","fips":"31067","name":"Gage County","state_id":"NE"},{"zip":"68424","fips":"31095","name":"Jefferson County","state_id":"NE"},{"zip":"68428","fips":"31159","name":"Seward County","state_id":"NE"},{"zip":"68428","fips":"31109","name":"Lancaster County","state_id":"NE"},{"zip":"68429","fips":"31169","name":"Thayer County","state_id":"NE"},{"zip":"68429","fips":"31095","name":"Jefferson County","state_id":"NE"},{"zip":"68430","fips":"31109","name":"Lancaster County","state_id":"NE"},{"zip":"68431","fips":"31147","name":"Richardson County","state_id":"NE"},{"zip":"68433","fips":"31147","name":"Richardson County","state_id":"NE"},{"zip":"68434","fips":"31159","name":"Seward County","state_id":"NE"},{"zip":"68436","fips":"31035","name":"Clay County","state_id":"NE"},{"zip":"68436","fips":"31059","name":"Fillmore County","state_id":"NE"},{"zip":"68437","fips":"31147","name":"Richardson County","state_id":"NE"},{"zip":"68437","fips":"31127","name":"Nemaha County","state_id":"NE"},{"zip":"68438","fips":"31109","name":"Lancaster County","state_id":"NE"},{"zip":"68439","fips":"31159","name":"Seward County","state_id":"NE"},{"zip":"68440","fips":"31095","name":"Jefferson County","state_id":"NE"},{"zip":"68441","fips":"31133","name":"Pawnee County","state_id":"NE"},{"zip":"68442","fips":"31147","name":"Richardson County","state_id":"NE"},{"zip":"68442","fips":"31127","name":"Nemaha County","state_id":"NE"},{"zip":"68443","fips":"31131","name":"Otoe County","state_id":"NE"},{"zip":"68443","fips":"31097","name":"Johnson County","state_id":"NE"},{"zip":"68444","fips":"31059","name":"Fillmore County","state_id":"NE"},{"zip":"68445","fips":"31151","name":"Saline County","state_id":"NE"},{"zip":"68446","fips":"31131","name":"Otoe County","state_id":"NE"},{"zip":"68447","fips":"31097","name":"Johnson County","state_id":"NE"},{"zip":"68447","fips":"31133","name":"Pawnee County","state_id":"NE"},{"zip":"68447","fips":"31127","name":"Nemaha County","state_id":"NE"},{"zip":"68448","fips":"31097","name":"Johnson County","state_id":"NE"},{"zip":"68448","fips":"31127","name":"Nemaha County","state_id":"NE"},{"zip":"68448","fips":"31131","name":"Otoe County","state_id":"NE"},{"zip":"68450","fips":"31097","name":"Johnson County","state_id":"NE"},{"zip":"68452","fips":"31035","name":"Clay County","state_id":"NE"},{"zip":"68452","fips":"31059","name":"Fillmore County","state_id":"NE"},{"zip":"68453","fips":"31095","name":"Jefferson County","state_id":"NE"},{"zip":"68453","fips":"31151","name":"Saline County","state_id":"NE"},{"zip":"68453","fips":"31059","name":"Fillmore County","state_id":"NE"},{"zip":"68454","fips":"31025","name":"Cass County","state_id":"NE"},{"zip":"68454","fips":"31131","name":"Otoe County","state_id":"NE"},{"zip":"68455","fips":"31025","name":"Cass County","state_id":"NE"},{"zip":"68455","fips":"31131","name":"Otoe County","state_id":"NE"},{"zip":"68456","fips":"31159","name":"Seward County","state_id":"NE"},{"zip":"68457","fips":"31147","name":"Richardson County","state_id":"NE"},{"zip":"68458","fips":"31067","name":"Gage County","state_id":"NE"},{"zip":"68458","fips":"31133","name":"Pawnee County","state_id":"NE"},{"zip":"68460","fips":"31159","name":"Seward County","state_id":"NE"},{"zip":"68460","fips":"31185","name":"York County","state_id":"NE"},{"zip":"68461","fips":"31131","name":"Otoe County","state_id":"NE"},{"zip":"68461","fips":"31109","name":"Lancaster County","state_id":"NE"},{"zip":"68462","fips":"31109","name":"Lancaster County","state_id":"NE"},{"zip":"68462","fips":"31025","name":"Cass County","state_id":"NE"},{"zip":"68463","fips":"31025","name":"Cass County","state_id":"NE"},{"zip":"68464","fips":"31151","name":"Saline County","state_id":"NE"},{"zip":"68464","fips":"31095","name":"Jefferson County","state_id":"NE"},{"zip":"68465","fips":"31151","name":"Saline County","state_id":"NE"},{"zip":"68465","fips":"31109","name":"Lancaster County","state_id":"NE"},{"zip":"68465","fips":"31067","name":"Gage County","state_id":"NE"},{"zip":"68466","fips":"31067","name":"Gage County","state_id":"NE"},{"zip":"68467","fips":"31185","name":"York County","state_id":"NE"}]
