[{"zip":"68501","fips":"31109","name":"Lancaster County","state_id":"NE"},{"zip":"68502","fips":"31109","name":"Lancaster County","state_id":"NE"},{"zip":"68503","fips":"31109","name":"Lancaster County","state_id":"NE"},{"zip":"68504","fips":"31109","name":"Lancaster County","state_id":"NE"},{"zip":"68505","fips":"31109","name":"Lancaster County","state_id":"NE"},{"zip":"68506","fips":"31109","name":"Lancaster County","state_id":"NE"},{"zip":"68507","fips":"31109","name":"Lancaster County","state_id":"NE"},{"zip":"68508","fips":"31109","name":"Lancaster County","state_id":"NE"},{"zip":"68510","fips":"31109","name":"Lancaster County","state_id":"NE"},{"zip":"68512","fips":"31109","name":"Lancaster County","state_id":"NE"},{"zip":"68514","fips":"31109","name":"Lancaster County","state_id":"NE"},{"zip":"68516","fips":"31109","name":"Lancaster County","state_id":"NE"},{"zip":"68517","fips":"31109","name":"Lancaster County","state_id":"NE"},{"zip":"68520","fips":"31109","name":"Lancaster County","state_id":"NE"},{"zip":"68521","fips":"31109","name":"Lancaster County","state_id":"NE"},{"zip":"68522","fips":"31109","name":"Lancaster County","state_id":"NE"},{"zip":"68523","fips":"31109","name":"Lancaster County","state_id":"NE"},{"zip":"68524","fips":"31109","name":"Lancaster County","state_id":"NE"},{"zip":"68526","fips":"31109","name":"Lancaster County","state_id":"NE"},{"zip":"68527","fips":"31109","name":"Lancaster County","state_id":"NE"},{"zip":"68527","fips":"31025","name":"Cass County","state_id":"NE"},{"zip":"68528","fips":"31159","name":"Seward County","state_id":"NE"},{"zip":"68528","fips":"31109","name":"Lancaster County","state_id":"NE"},{"zip":"68529","fips":"31109","name":"Lancaster County","state_id":"NE"},{"zip":"68531","fips":"31109","name":"Lancaster County","state_id":"NE"},{"zip":"68532","fips":"31109","name":"Lancaster County","state_id":"NE"},{"zip":"68542","fips":"31109","name":"Lancaster County","state_id":"NE"},{"zip":"68583","fips":"31109","name":"Lancaster County","state_id":"NE"},{"zip":"68588","fips":"31109","name":"Lancaster County","state_id":"NE"}]
