[{"zip":"68601","fips":"31023","name":"Butler County","state_id":"NE"},{"zip":"68601","fips":"31143","name":"Polk County","state_id":"NE"},{"zip":"68601","fips":"31037","name":"Colfax County","state_id":"NE"},{"zip":"68601","fips":"31141","name":"Platte County","state_id":"NE"},{"zip":"68602","fips":"31141","name":"Platte County","state_id":"NE"},{"zip":"68620","fips":"31011","name":"Boone County","state_id":"NE"},{"zip":"68621","fips":"31053","name":"Dodge County","state_id":"NE"},{"zip":"68622","fips":"31183","name":"Wheeler County","state_id":"NE"},{"zip":"68623","fips":"31011","name":"Boone County","state_id":"NE"},{"zip":"68623","fips":"31125","name":"Nance County","state_id":"NE"},{"zip":"68624","fips":"31023","name":"Butler County","state_id":"NE"},{"zip":"68626","fips":"31023","name":"Butler County","state_id":"NE"},{"zip":"68626","fips":"31155","name":"Saunders County","state_id":"NE"},{"zip":"68627","fips":"31125","name":"Nance County","state_id":"NE"},{"zip":"68627","fips":"31077","name":"Greeley County","state_id":"NE"},{"zip":"68627","fips":"31011","name":"Boone County","state_id":"NE"},{"zip":"68628","fips":"31143","name":"Polk County","state_id":"NE"},{"zip":"68628","fips":"31125","name":"Nance County","state_id":"NE"},{"zip":"68628","fips":"31081","name":"Hamilton County","state_id":"NE"},{"zip":"68628","fips":"31121","name":"Merrick County","state_id":"NE"},{"zip":"68629","fips":"31167","name":"Stanton County","state_id":"NE"},{"zip":"68629","fips":"31037","name":"Colfax County","state_id":"NE"},{"zip":"68631","fips":"31167","name":"Stanton County","state_id":"NE"},{"zip":"68631","fips":"31141","name":"Platte County","state_id":"NE"},{"zip":"68632","fips":"31023","name":"Butler County","state_id":"NE"},{"zip":"68633","fips":"31037","name":"Colfax County","state_id":"NE"},{"zip":"68633","fips":"31039","name":"Cuming County","state_id":"NE"},{"zip":"68633","fips":"31053","name":"Dodge County","state_id":"NE"},{"zip":"68634","fips":"31141","name":"Platte County","state_id":"NE"},{"zip":"68635","fips":"31023","name":"Butler County","state_id":"NE"},{"zip":"68636","fips":"31183","name":"Wheeler County","state_id":"NE"},{"zip":"68636","fips":"31011","name":"Boone County","state_id":"NE"},{"zip":"68636","fips":"31003","name":"Antelope County","state_id":"NE"},{"zip":"68637","fips":"31071","name":"Garfield County","state_id":"NE"},{"zip":"68637","fips":"31175","name":"Valley County","state_id":"NE"},{"zip":"68637","fips":"31077","name":"Greeley County","state_id":"NE"},{"zip":"68637","fips":"31183","name":"Wheeler County","state_id":"NE"},{"zip":"68638","fips":"31121","name":"Merrick County","state_id":"NE"},{"zip":"68638","fips":"31125","name":"Nance County","state_id":"NE"},{"zip":"68638","fips":"31011","name":"Boone County","state_id":"NE"},{"zip":"68640","fips":"31121","name":"Merrick County","state_id":"NE"},{"zip":"68640","fips":"31141","name":"Platte County","state_id":"NE"},{"zip":"68640","fips":"31125","name":"Nance County","state_id":"NE"},{"zip":"68641","fips":"31039","name":"Cuming County","state_id":"NE"},{"zip":"68641","fips":"31037","name":"Colfax County","state_id":"NE"},{"zip":"68641","fips":"31167","name":"Stanton County","state_id":"NE"},{"zip":"68642","fips":"31141","name":"Platte County","state_id":"NE"},{"zip":"68642","fips":"31119","name":"Madison County","state_id":"NE"},{"zip":"68643","fips":"31167","name":"Stanton County","state_id":"NE"},{"zip":"68643","fips":"31141","name":"Platte County","state_id":"NE"},{"zip":"68643","fips":"31037","name":"Colfax County","state_id":"NE"},{"zip":"68644","fips":"31141","name":"Platte County","state_id":"NE"},{"zip":"68644","fips":"31119","name":"Madison County","state_id":"NE"},{"zip":"68647","fips":"31141","name":"Platte County","state_id":"NE"},{"zip":"68648","fips":"31155","name":"Saunders County","state_id":"NE"},{"zip":"68649","fips":"31053","name":"Dodge County","state_id":"NE"},{"zip":"68651","fips":"31143","name":"Polk County","state_id":"NE"},{"zip":"68652","fips":"31011","name":"Boone County","state_id":"NE"},{"zip":"68652","fips":"31003","name":"Antelope County","state_id":"NE"},{"zip":"68653","fips":"31141","name":"Platte County","state_id":"NE"},{"zip":"68654","fips":"31081","name":"Hamilton County","state_id":"NE"},{"zip":"68654","fips":"31143","name":"Polk County","state_id":"NE"},{"zip":"68654","fips":"31185","name":"York County","state_id":"NE"},{"zip":"68655","fips":"31077","name":"Greeley County","state_id":"NE"},{"zip":"68655","fips":"31011","name":"Boone County","state_id":"NE"},{"zip":"68658","fips":"31143","name":"Polk County","state_id":"NE"},{"zip":"68658","fips":"31023","name":"Butler County","state_id":"NE"},{"zip":"68659","fips":"31037","name":"Colfax County","state_id":"NE"},{"zip":"68659","fips":"31053","name":"Dodge County","state_id":"NE"},{"zip":"68660","fips":"31125","name":"Nance County","state_id":"NE"},{"zip":"68660","fips":"31141","name":"Platte County","state_id":"NE"},{"zip":"68660","fips":"31011","name":"Boone County","state_id":"NE"},{"zip":"68661","fips":"31037","name":"Colfax County","state_id":"NE"},{"zip":"68662","fips":"31143","name":"Polk County","state_id":"NE"},{"zip":"68662","fips":"31023","name":"Butler County","state_id":"NE"},{"zip":"68663","fips":"31125","name":"Nance County","state_id":"NE"},{"zip":"68663","fips":"31143","name":"Polk County","state_id":"NE"},{"zip":"68663","fips":"31121","name":"Merrick County","state_id":"NE"},{"zip":"68664","fips":"31053","name":"Dodge County","state_id":"NE"},{"zip":"68665","fips":"31077","name":"Greeley County","state_id":"NE"},{"zip":"68665","fips":"31183","name":"Wheeler County","state_id":"NE"},{"zip":"68666","fips":"31143","name":"Polk County","state_id":"NE"},{"zip":"68666","fips":"31185","name":"York County","state_id":"NE"},{"zip":"68667","fips":"31023","name":"Butler County","state_id":"NE"},{"zip":"68669","fips":"31159","name":"Seward County","state_id":"NE"},{"zip":"68669","fips":"31023","name":"Butler County","state_id":"NE"}]
