[{"zip":"68701","fips":"31139","name":"Pierce County","state_id":"NE"},{"zip":"68701","fips":"31167","name":"Stanton County","state_id":"NE"},{"zip":"68701","fips":"31179","name":"Wayne County","state_id":"NE"},{"zip":"68701","fips":"31119","name":"Madison County","state_id":"NE"},{"zip":"68702","fips":"31119","name":"Madison County","state_id":"NE"},{"zip":"68710","fips":"31051","name":"Dixon County","state_id":"NE"},{"zip":"68711","fips":"31089","name":"Holt County","state_id":"NE"},{"zip":"68713","fips":"31089","name":"Holt County","state_id":"NE"},{"zip":"68714","fips":"31017","name":"Brown County","state_id":"NE"},{"zip":"68714","fips":"31149","name":"Rock County","state_id":"NE"},{"zip":"68715","fips":"31119","name":"Madison County","state_id":"NE"},{"zip":"68716","fips":"31039","name":"Cuming County","state_id":"NE"},{"zip":"68717","fips":"31027","name":"Cedar County","state_id":"NE"},{"zip":"68718","fips":"31027","name":"Cedar County","state_id":"NE"},{"zip":"68718","fips":"31107","name":"Knox County","state_id":"NE"},{"zip":"68719","fips":"31015","name":"Boyd County","state_id":"NE"},{"zip":"68720","fips":"31003","name":"Antelope County","state_id":"NE"},{"zip":"68722","fips":"31015","name":"Boyd County","state_id":"NE"},{"zip":"68723","fips":"31179","name":"Wayne County","state_id":"NE"},{"zip":"68724","fips":"31107","name":"Knox County","state_id":"NE"},{"zip":"68725","fips":"31071","name":"Garfield County","state_id":"NE"},{"zip":"68725","fips":"31183","name":"Wheeler County","state_id":"NE"},{"zip":"68725","fips":"31089","name":"Holt County","state_id":"NE"},{"zip":"68726","fips":"31089","name":"Holt County","state_id":"NE"},{"zip":"68726","fips":"31003","name":"Antelope County","state_id":"NE"},{"zip":"68727","fips":"31027","name":"Cedar County","state_id":"NE"},{"zip":"68728","fips":"31051","name":"Dixon County","state_id":"NE"},{"zip":"68729","fips":"31003","name":"Antelope County","state_id":"NE"},{"zip":"68729","fips":"31107","name":"Knox County","state_id":"NE"},{"zip":"68729","fips":"31139","name":"Pierce County","state_id":"NE"},{"zip":"68730","fips":"31107","name":"Knox County","state_id":"NE"},{"zip":"68730","fips":"31027","name":"Cedar County","state_id":"NE"},{"zip":"68731","fips":"31043","name":"Dakota County","state_id":"NE"},{"zip":"68732","fips":"31051","name":"Dixon County","state_id":"NE"},{"zip":"68733","fips":"31051","name":"Dixon County","state_id":"NE"},{"zip":"68733","fips":"31043","name":"Dakota County","state_id":"NE"},{"zip":"68733","fips":"31173","name":"Thurston County","state_id":"NE"},{"zip":"68733","fips":"31179","name":"Wayne County","state_id":"NE"},{"zip":"68734","fips":"31089","name":"Holt County","state_id":"NE"},{"zip":"68735","fips":"31183","name":"Wheeler County","state_id":"NE"},{"zip":"68735","fips":"31003","name":"Antelope County","state_id":"NE"},{"zip":"68735","fips":"31089","name":"Holt County","state_id":"NE"},{"zip":"68736","fips":"31027","name":"Cedar County","state_id":"NE"},{"zip":"68738","fips":"31139","name":"Pierce County","state_id":"NE"},{"zip":"68739","fips":"31027","name":"Cedar County","state_id":"NE"},{"zip":"68739","fips":"31051","name":"Dixon County","state_id":"NE"},{"zip":"68740","fips":"31167","name":"Stanton County","state_id":"NE"},{"zip":"68740","fips":"31179","name":"Wayne County","state_id":"NE"},{"zip":"68741","fips":"31043","name":"Dakota County","state_id":"NE"},{"zip":"68742","fips":"31089","name":"Holt County","state_id":"NE"},{"zip":"68743","fips":"31043","name":"Dakota County","state_id":"NE"},{"zip":"68745","fips":"31179","name":"Wayne County","state_id":"NE"},{"zip":"68745","fips":"31027","name":"Cedar County","state_id":"NE"},{"zip":"68745","fips":"31051","name":"Dixon County","state_id":"NE"},{"zip":"68746","fips":"31015","name":"Boyd County","state_id":"NE"},{"zip":"68746","fips":"31089","name":"Holt County","state_id":"NE"},{"zip":"68747","fips":"31139","name":"Pierce County","state_id":"NE"},{"zip":"68748","fips":"31141","name":"Platte County","state_id":"NE"},{"zip":"68748","fips":"31119","name":"Madison County","state_id":"NE"},{"zip":"68748","fips":"31167","name":"Stanton County","state_id":"NE"},{"zip":"68749","fips":"31027","name":"Cedar County","state_id":"NE"},{"zip":"68751","fips":"31051","name":"Dixon County","state_id":"NE"},{"zip":"68752","fips":"31119","name":"Madison County","state_id":"NE"},{"zip":"68752","fips":"31139","name":"Pierce County","state_id":"NE"},{"zip":"68753","fips":"31103","name":"Keya Paha County","state_id":"NE"},{"zip":"68755","fips":"31015","name":"Boyd County","state_id":"NE"},{"zip":"68756","fips":"31003","name":"Antelope County","state_id":"NE"},{"zip":"68757","fips":"31051","name":"Dixon County","state_id":"NE"},{"zip":"68757","fips":"31027","name":"Cedar County","state_id":"NE"},{"zip":"68758","fips":"31011","name":"Boone County","state_id":"NE"},{"zip":"68758","fips":"31119","name":"Madison County","state_id":"NE"},{"zip":"68758","fips":"31141","name":"Platte County","state_id":"NE"},{"zip":"68759","fips":"31089","name":"Holt County","state_id":"NE"},{"zip":"68759","fips":"31149","name":"Rock County","state_id":"NE"},{"zip":"68760","fips":"31107","name":"Knox County","state_id":"NE"},{"zip":"68761","fips":"31003","name":"Antelope County","state_id":"NE"},{"zip":"68763","fips":"31107","name":"Knox County","state_id":"NE"},{"zip":"68763","fips":"31089","name":"Holt County","state_id":"NE"},{"zip":"68764","fips":"31107","name":"Knox County","state_id":"NE"},{"zip":"68764","fips":"31003","name":"Antelope County","state_id":"NE"},{"zip":"68764","fips":"31089","name":"Holt County","state_id":"NE"},{"zip":"68765","fips":"31139","name":"Pierce County","state_id":"NE"},{"zip":"68766","fips":"31089","name":"Holt County","state_id":"NE"},{"zip":"68767","fips":"31139","name":"Pierce County","state_id":"NE"},{"zip":"68767","fips":"31179","name":"Wayne County","state_id":"NE"},{"zip":"68768","fips":"31167","name":"Stanton County","state_id":"NE"},{"zip":"68768","fips":"31179","name":"Wayne County","state_id":"NE"},{"zip":"68768","fips":"31039","name":"Cuming County","state_id":"NE"},{"zip":"68769","fips":"31003","name":"Antelope County","state_id":"NE"},{"zip":"68769","fips":"31139","name":"Pierce County","state_id":"NE"},{"zip":"68769","fips":"31107","name":"Knox County","state_id":"NE"},{"zip":"68770","fips":"31051","name":"Dixon County","state_id":"NE"},{"zip":"68770","fips":"31043","name":"Dakota County","state_id":"NE"},{"zip":"68771","fips":"31027","name":"Cedar County","state_id":"NE"},{"zip":"68771","fips":"31179","name":"Wayne County","state_id":"NE"},{"zip":"68771","fips":"31139","name":"Pierce County","state_id":"NE"},{"zip":"68773","fips":"31107","name":"Knox County","state_id":"NE"},{"zip":"68773","fips":"31003","name":"Antelope County","state_id":"NE"},{"zip":"68774","fips":"31027","name":"Cedar County","state_id":"NE"},{"zip":"68776","fips":"31043","name":"Dakota County","state_id":"NE"},{"zip":"68777","fips":"31089","name":"Holt County","state_id":"NE"},{"zip":"68777","fips":"31015","name":"Boyd County","state_id":"NE"},{"zip":"68778","fips":"31103","name":"Keya Paha County","state_id":"NE"},{"zip":"68779","fips":"31167","name":"Stanton County","state_id":"NE"},{"zip":"68780","fips":"31089","name":"Holt County","state_id":"NE"},{"zip":"68781","fips":"31119","name":"Madison County","state_id":"NE"},{"zip":"68781","fips":"31003","name":"Antelope County","state_id":"NE"},{"zip":"68781","fips":"31139","name":"Pierce County","state_id":"NE"},{"zip":"68781","fips":"31011","name":"Boone County","state_id":"NE"},{"zip":"68783","fips":"31107","name":"Knox County","state_id":"NE"},{"zip":"68784","fips":"31179","name":"Wayne County","state_id":"NE"},{"zip":"68784","fips":"31051","name":"Dixon County","state_id":"NE"},{"zip":"68784","fips":"31173","name":"Thurston County","state_id":"NE"},{"zip":"68785","fips":"31051","name":"Dixon County","state_id":"NE"},{"zip":"68785","fips":"31043","name":"Dakota County","state_id":"NE"},{"zip":"68786","fips":"31027","name":"Cedar County","state_id":"NE"},{"zip":"68786","fips":"31107","name":"Knox County","state_id":"NE"},{"zip":"68786","fips":"31139","name":"Pierce County","state_id":"NE"},{"zip":"68787","fips":"31051","name":"Dixon County","state_id":"NE"},{"zip":"68787","fips":"31179","name":"Wayne County","state_id":"NE"},{"zip":"68788","fips":"31053","name":"Dodge County","state_id":"NE"},{"zip":"68788","fips":"31039","name":"Cuming County","state_id":"NE"},{"zip":"68789","fips":"31107","name":"Knox County","state_id":"NE"},{"zip":"68790","fips":"31179","name":"Wayne County","state_id":"NE"},{"zip":"68791","fips":"31039","name":"Cuming County","state_id":"NE"},{"zip":"68791","fips":"31179","name":"Wayne County","state_id":"NE"},{"zip":"68792","fips":"31027","name":"Cedar County","state_id":"NE"},{"zip":"68792","fips":"31051","name":"Dixon County","state_id":"NE"}]
