[{"zip":"68801","fips":"31121","name":"Merrick County","state_id":"NE"},{"zip":"68801","fips":"31079","name":"Hall County","state_id":"NE"},{"zip":"68801","fips":"31093","name":"Howard County","state_id":"NE"},{"zip":"68802","fips":"31079","name":"Hall County","state_id":"NE"},{"zip":"68803","fips":"31093","name":"Howard County","state_id":"NE"},{"zip":"68803","fips":"31079","name":"Hall County","state_id":"NE"},{"zip":"68810","fips":"31079","name":"Hall County","state_id":"NE"},{"zip":"68812","fips":"31019","name":"Buffalo County","state_id":"NE"},{"zip":"68813","fips":"31115","name":"Loup County","state_id":"NE"},{"zip":"68813","fips":"31041","name":"Custer County","state_id":"NE"},{"zip":"68814","fips":"31041","name":"Custer County","state_id":"NE"},{"zip":"68815","fips":"31041","name":"Custer County","state_id":"NE"},{"zip":"68815","fips":"31175","name":"Valley County","state_id":"NE"},{"zip":"68815","fips":"31163","name":"Sherman County","state_id":"NE"},{"zip":"68816","fips":"31093","name":"Howard County","state_id":"NE"},{"zip":"68816","fips":"31121","name":"Merrick County","state_id":"NE"},{"zip":"68817","fips":"31093","name":"Howard County","state_id":"NE"},{"zip":"68817","fips":"31163","name":"Sherman County","state_id":"NE"},{"zip":"68818","fips":"31081","name":"Hamilton County","state_id":"NE"},{"zip":"68818","fips":"31035","name":"Clay County","state_id":"NE"},{"zip":"68820","fips":"31093","name":"Howard County","state_id":"NE"},{"zip":"68821","fips":"31009","name":"Blaine County","state_id":"NE"},{"zip":"68822","fips":"31041","name":"Custer County","state_id":"NE"},{"zip":"68823","fips":"31115","name":"Loup County","state_id":"NE"},{"zip":"68823","fips":"31149","name":"Rock County","state_id":"NE"},{"zip":"68823","fips":"31089","name":"Holt County","state_id":"NE"},{"zip":"68823","fips":"31041","name":"Custer County","state_id":"NE"},{"zip":"68823","fips":"31071","name":"Garfield County","state_id":"NE"},{"zip":"68823","fips":"31175","name":"Valley County","state_id":"NE"},{"zip":"68824","fips":"31093","name":"Howard County","state_id":"NE"},{"zip":"68824","fips":"31079","name":"Hall County","state_id":"NE"},{"zip":"68825","fips":"31041","name":"Custer County","state_id":"NE"},{"zip":"68826","fips":"31121","name":"Merrick County","state_id":"NE"},{"zip":"68827","fips":"31121","name":"Merrick County","state_id":"NE"},{"zip":"68828","fips":"31175","name":"Valley County","state_id":"NE"},{"zip":"68828","fips":"31041","name":"Custer County","state_id":"NE"},{"zip":"68831","fips":"31093","name":"Howard County","state_id":"NE"},{"zip":"68831","fips":"31079","name":"Hall County","state_id":"NE"},{"zip":"68832","fips":"31079","name":"Hall County","state_id":"NE"},{"zip":"68832","fips":"31081","name":"Hamilton County","state_id":"NE"},{"zip":"68833","fips":"31113","name":"Logan County","state_id":"NE"},{"zip":"68833","fips":"31009","name":"Blaine County","state_id":"NE"},{"zip":"68833","fips":"31041","name":"Custer County","state_id":"NE"},{"zip":"68834","fips":"31041","name":"Custer County","state_id":"NE"},{"zip":"68834","fips":"31047","name":"Dawson County","state_id":"NE"},{"zip":"68835","fips":"31077","name":"Greeley County","state_id":"NE"},{"zip":"68835","fips":"31093","name":"Howard County","state_id":"NE"},{"zip":"68836","fips":"31019","name":"Buffalo County","state_id":"NE"},{"zip":"68836","fips":"31137","name":"Phelps County","state_id":"NE"},{"zip":"68836","fips":"31047","name":"Dawson County","state_id":"NE"},{"zip":"68837","fips":"31175","name":"Valley County","state_id":"NE"},{"zip":"68838","fips":"31093","name":"Howard County","state_id":"NE"},{"zip":"68840","fips":"31019","name":"Buffalo County","state_id":"NE"},{"zip":"68840","fips":"31099","name":"Kearney County","state_id":"NE"},{"zip":"68841","fips":"31081","name":"Hamilton County","state_id":"NE"},{"zip":"68842","fips":"31077","name":"Greeley County","state_id":"NE"},{"zip":"68843","fips":"31185","name":"York County","state_id":"NE"},{"zip":"68843","fips":"31081","name":"Hamilton County","state_id":"NE"},{"zip":"68844","fips":"31019","name":"Buffalo County","state_id":"NE"},{"zip":"68844","fips":"31163","name":"Sherman County","state_id":"NE"},{"zip":"68845","fips":"31019","name":"Buffalo County","state_id":"NE"},{"zip":"68845","fips":"31099","name":"Kearney County","state_id":"NE"},{"zip":"68845","fips":"31137","name":"Phelps County","state_id":"NE"},{"zip":"68846","fips":"31081","name":"Hamilton County","state_id":"NE"},{"zip":"68847","fips":"31019","name":"Buffalo County","state_id":"NE"},{"zip":"68847","fips":"31099","name":"Kearney County","state_id":"NE"},{"zip":"68848","fips":"31019","name":"Buffalo County","state_id":"NE"},{"zip":"68849","fips":"31019","name":"Buffalo County","state_id":"NE"},{"zip":"68850","fips":"31041","name":"Custer County","state_id":"NE"},{"zip":"68850","fips":"31047","name":"Dawson County","state_id":"NE"},{"zip":"68850","fips":"31073","name":"Gosper County","state_id":"NE"},{"zip":"68852","fips":"31041","name":"Custer County","state_id":"NE"},{"zip":"68852","fips":"31163","name":"Sherman County","state_id":"NE"},{"zip":"68853","fips":"31163","name":"Sherman County","state_id":"NE"},{"zip":"68854","fips":"31081","name":"Hamilton County","state_id":"NE"},{"zip":"68855","fips":"31041","name":"Custer County","state_id":"NE"},{"zip":"68855","fips":"31019","name":"Buffalo County","state_id":"NE"},{"zip":"68856","fips":"31041","name":"Custer County","state_id":"NE"},{"zip":"68858","fips":"31047","name":"Dawson County","state_id":"NE"},{"zip":"68858","fips":"31019","name":"Buffalo County","state_id":"NE"},{"zip":"68859","fips":"31077","name":"Greeley County","state_id":"NE"},{"zip":"68859","fips":"31163","name":"Sherman County","state_id":"NE"},{"zip":"68859","fips":"31175","name":"Valley County","state_id":"NE"},{"zip":"68860","fips":"31041","name":"Custer County","state_id":"NE"},{"zip":"68861","fips":"31019","name":"Buffalo County","state_id":"NE"},{"zip":"68862","fips":"31175","name":"Valley County","state_id":"NE"},{"zip":"68862","fips":"31071","name":"Garfield County","state_id":"NE"},{"zip":"68863","fips":"31047","name":"Dawson County","state_id":"NE"},{"zip":"68863","fips":"31137","name":"Phelps County","state_id":"NE"},{"zip":"68864","fips":"31093","name":"Howard County","state_id":"NE"},{"zip":"68864","fips":"31121","name":"Merrick County","state_id":"NE"},{"zip":"68864","fips":"31125","name":"Nance County","state_id":"NE"},{"zip":"68865","fips":"31081","name":"Hamilton County","state_id":"NE"},{"zip":"68865","fips":"31079","name":"Hall County","state_id":"NE"},{"zip":"68866","fips":"31041","name":"Custer County","state_id":"NE"},{"zip":"68866","fips":"31019","name":"Buffalo County","state_id":"NE"},{"zip":"68869","fips":"31019","name":"Buffalo County","state_id":"NE"},{"zip":"68869","fips":"31163","name":"Sherman County","state_id":"NE"},{"zip":"68869","fips":"31079","name":"Hall County","state_id":"NE"},{"zip":"68870","fips":"31019","name":"Buffalo County","state_id":"NE"},{"zip":"68871","fips":"31163","name":"Sherman County","state_id":"NE"},{"zip":"68872","fips":"31121","name":"Merrick County","state_id":"NE"},{"zip":"68872","fips":"31093","name":"Howard County","state_id":"NE"},{"zip":"68872","fips":"31079","name":"Hall County","state_id":"NE"},{"zip":"68873","fips":"31093","name":"Howard County","state_id":"NE"},{"zip":"68874","fips":"31115","name":"Loup County","state_id":"NE"},{"zip":"68874","fips":"31041","name":"Custer County","state_id":"NE"},{"zip":"68875","fips":"31093","name":"Howard County","state_id":"NE"},{"zip":"68875","fips":"31077","name":"Greeley County","state_id":"NE"},{"zip":"68876","fips":"31079","name":"Hall County","state_id":"NE"},{"zip":"68876","fips":"31019","name":"Buffalo County","state_id":"NE"},{"zip":"68878","fips":"31041","name":"Custer County","state_id":"NE"},{"zip":"68878","fips":"31047","name":"Dawson County","state_id":"NE"},{"zip":"68879","fips":"31009","name":"Blaine County","state_id":"NE"},{"zip":"68879","fips":"31115","name":"Loup County","state_id":"NE"},{"zip":"68881","fips":"31041","name":"Custer County","state_id":"NE"},{"zip":"68882","fips":"31077","name":"Greeley County","state_id":"NE"},{"zip":"68882","fips":"31011","name":"Boone County","state_id":"NE"},{"zip":"68882","fips":"31125","name":"Nance County","state_id":"NE"},{"zip":"68882","fips":"31093","name":"Howard County","state_id":"NE"},{"zip":"68883","fips":"31019","name":"Buffalo County","state_id":"NE"},{"zip":"68883","fips":"31001","name":"Adams County","state_id":"NE"},{"zip":"68883","fips":"31079","name":"Hall County","state_id":"NE"}]
