[{"zip":"68901","fips":"31035","name":"Clay County","state_id":"NE"},{"zip":"68901","fips":"31001","name":"Adams County","state_id":"NE"},{"zip":"68901","fips":"31079","name":"Hall County","state_id":"NE"},{"zip":"68902","fips":"31001","name":"Adams County","state_id":"NE"},{"zip":"68920","fips":"31083","name":"Harlan County","state_id":"NE"},{"zip":"68922","fips":"31065","name":"Furnas County","state_id":"NE"},{"zip":"68922","fips":"31073","name":"Gosper County","state_id":"NE"},{"zip":"68923","fips":"31137","name":"Phelps County","state_id":"NE"},{"zip":"68924","fips":"31099","name":"Kearney County","state_id":"NE"},{"zip":"68924","fips":"31137","name":"Phelps County","state_id":"NE"},{"zip":"68925","fips":"31001","name":"Adams County","state_id":"NE"},{"zip":"68926","fips":"31065","name":"Furnas County","state_id":"NE"},{"zip":"68927","fips":"31137","name":"Phelps County","state_id":"NE"},{"zip":"68927","fips":"31073","name":"Gosper County","state_id":"NE"},{"zip":"68928","fips":"31181","name":"Webster County","state_id":"NE"},{"zip":"68928","fips":"31001","name":"Adams County","state_id":"NE"},{"zip":"68929","fips":"31061","name":"Franklin County","state_id":"NE"},{"zip":"68930","fips":"31001","name":"Adams County","state_id":"NE"},{"zip":"68930","fips":"31035","name":"Clay County","state_id":"NE"},{"zip":"68930","fips":"31181","name":"Webster County","state_id":"NE"},{"zip":"68932","fips":"31061","name":"Franklin County","state_id":"NE"},{"zip":"68932","fips":"31001","name":"Adams County","state_id":"NE"},{"zip":"68932","fips":"31181","name":"Webster County","state_id":"NE"},{"zip":"68932","fips":"31099","name":"Kearney County","state_id":"NE"},{"zip":"68933","fips":"31035","name":"Clay County","state_id":"NE"},{"zip":"68934","fips":"31129","name":"Nuckolls County","state_id":"NE"},{"zip":"68934","fips":"31035","name":"Clay County","state_id":"NE"},{"zip":"68935","fips":"31129","name":"Nuckolls County","state_id":"NE"},{"zip":"68935","fips":"31035","name":"Clay County","state_id":"NE"},{"zip":"68936","fips":"31073","name":"Gosper County","state_id":"NE"},{"zip":"68936","fips":"31065","name":"Furnas County","state_id":"NE"},{"zip":"68937","fips":"31047","name":"Dawson County","state_id":"NE"},{"zip":"68937","fips":"31073","name":"Gosper County","state_id":"NE"},{"zip":"68938","fips":"31035","name":"Clay County","state_id":"NE"},{"zip":"68938","fips":"31129","name":"Nuckolls County","state_id":"NE"},{"zip":"68939","fips":"31061","name":"Franklin County","state_id":"NE"},{"zip":"68939","fips":"31099","name":"Kearney County","state_id":"NE"},{"zip":"68940","fips":"31137","name":"Phelps County","state_id":"NE"},{"zip":"68941","fips":"31035","name":"Clay County","state_id":"NE"},{"zip":"68941","fips":"31001","name":"Adams County","state_id":"NE"},{"zip":"68942","fips":"31181","name":"Webster County","state_id":"NE"},{"zip":"68942","fips":"31129","name":"Nuckolls County","state_id":"NE"},{"zip":"68943","fips":"31169","name":"Thayer County","state_id":"NE"},{"zip":"68943","fips":"31129","name":"Nuckolls County","state_id":"NE"},{"zip":"68944","fips":"31035","name":"Clay County","state_id":"NE"},{"zip":"68944","fips":"31081","name":"Hamilton County","state_id":"NE"},{"zip":"68945","fips":"31099","name":"Kearney County","state_id":"NE"},{"zip":"68945","fips":"31001","name":"Adams County","state_id":"NE"},{"zip":"68946","fips":"31065","name":"Furnas County","state_id":"NE"},{"zip":"68947","fips":"31099","name":"Kearney County","state_id":"NE"},{"zip":"68947","fips":"31019","name":"Buffalo County","state_id":"NE"},{"zip":"68947","fips":"31061","name":"Franklin County","state_id":"NE"},{"zip":"68948","fips":"31063","name":"Frontier County","state_id":"NE"},{"zip":"68948","fips":"31073","name":"Gosper County","state_id":"NE"},{"zip":"68948","fips":"31065","name":"Furnas County","state_id":"NE"},{"zip":"68949","fips":"31137","name":"Phelps County","state_id":"NE"},{"zip":"68949","fips":"31083","name":"Harlan County","state_id":"NE"},{"zip":"68950","fips":"31001","name":"Adams County","state_id":"NE"},{"zip":"68952","fips":"31181","name":"Webster County","state_id":"NE"},{"zip":"68952","fips":"31061","name":"Franklin County","state_id":"NE"},{"zip":"68954","fips":"31035","name":"Clay County","state_id":"NE"},{"zip":"68955","fips":"31001","name":"Adams County","state_id":"NE"},{"zip":"68956","fips":"31019","name":"Buffalo County","state_id":"NE"},{"zip":"68956","fips":"31099","name":"Kearney County","state_id":"NE"},{"zip":"68956","fips":"31001","name":"Adams County","state_id":"NE"},{"zip":"68956","fips":"31079","name":"Hall County","state_id":"NE"},{"zip":"68957","fips":"31181","name":"Webster County","state_id":"NE"},{"zip":"68957","fips":"31001","name":"Adams County","state_id":"NE"},{"zip":"68957","fips":"31129","name":"Nuckolls County","state_id":"NE"},{"zip":"68958","fips":"31137","name":"Phelps County","state_id":"NE"},{"zip":"68959","fips":"31099","name":"Kearney County","state_id":"NE"},{"zip":"68960","fips":"31083","name":"Harlan County","state_id":"NE"},{"zip":"68960","fips":"31061","name":"Franklin County","state_id":"NE"},{"zip":"68961","fips":"31129","name":"Nuckolls County","state_id":"NE"},{"zip":"68964","fips":"31169","name":"Thayer County","state_id":"NE"},{"zip":"68964","fips":"31129","name":"Nuckolls County","state_id":"NE"},{"zip":"68966","fips":"31083","name":"Harlan County","state_id":"NE"},{"zip":"68967","fips":"31083","name":"Harlan County","state_id":"NE"},{"zip":"68967","fips":"31065","name":"Furnas County","state_id":"NE"},{"zip":"68967","fips":"31073","name":"Gosper County","state_id":"NE"},{"zip":"68969","fips":"31083","name":"Harlan County","state_id":"NE"},{"zip":"68970","fips":"31181","name":"Webster County","state_id":"NE"},{"zip":"68971","fips":"31083","name":"Harlan County","state_id":"NE"},{"zip":"68972","fips":"31099","name":"Kearney County","state_id":"NE"},{"zip":"68972","fips":"31061","name":"Franklin County","state_id":"NE"},{"zip":"68973","fips":"31001","name":"Adams County","state_id":"NE"},{"zip":"68974","fips":"31169","name":"Thayer County","state_id":"NE"},{"zip":"68974","fips":"31129","name":"Nuckolls County","state_id":"NE"},{"zip":"68975","fips":"31035","name":"Clay County","state_id":"NE"},{"zip":"68976","fips":"31073","name":"Gosper County","state_id":"NE"},{"zip":"68977","fips":"31083","name":"Harlan County","state_id":"NE"},{"zip":"68977","fips":"31065","name":"Furnas County","state_id":"NE"},{"zip":"68978","fips":"31129","name":"Nuckolls County","state_id":"NE"},{"zip":"68979","fips":"31081","name":"Hamilton County","state_id":"NE"},{"zip":"68979","fips":"31059","name":"Fillmore County","state_id":"NE"},{"zip":"68979","fips":"31185","name":"York County","state_id":"NE"},{"zip":"68979","fips":"31035","name":"Clay County","state_id":"NE"},{"zip":"68980","fips":"31079","name":"Hall County","state_id":"NE"},{"zip":"68980","fips":"31081","name":"Hamilton County","state_id":"NE"},{"zip":"68980","fips":"31001","name":"Adams County","state_id":"NE"},{"zip":"68980","fips":"31035","name":"Clay County","state_id":"NE"},{"zip":"68981","fips":"31099","name":"Kearney County","state_id":"NE"},{"zip":"68981","fips":"31061","name":"Franklin County","state_id":"NE"},{"zip":"68982","fips":"31061","name":"Franklin County","state_id":"NE"},{"zip":"68982","fips":"31083","name":"Harlan County","state_id":"NE"},{"zip":"68982","fips":"31137","name":"Phelps County","state_id":"NE"},{"zip":"68982","fips":"31099","name":"Kearney County","state_id":"NE"}]
