[{"zip":"69001","fips":"31087","name":"Hitchcock County","state_id":"NE"},{"zip":"69001","fips":"31063","name":"Frontier County","state_id":"NE"},{"zip":"69001","fips":"31145","name":"Red Willow County","state_id":"NE"},{"zip":"69020","fips":"31065","name":"Furnas County","state_id":"NE"},{"zip":"69020","fips":"31145","name":"Red Willow County","state_id":"NE"},{"zip":"69021","fips":"31057","name":"Dundy County","state_id":"NE"},{"zip":"69022","fips":"31145","name":"Red Willow County","state_id":"NE"},{"zip":"69022","fips":"31073","name":"Gosper County","state_id":"NE"},{"zip":"69022","fips":"31065","name":"Furnas County","state_id":"NE"},{"zip":"69022","fips":"31063","name":"Frontier County","state_id":"NE"},{"zip":"69023","fips":"31029","name":"Chase County","state_id":"NE"},{"zip":"69024","fips":"31085","name":"Hayes County","state_id":"NE"},{"zip":"69024","fips":"31087","name":"Hitchcock County","state_id":"NE"},{"zip":"69024","fips":"31145","name":"Red Willow County","state_id":"NE"},{"zip":"69025","fips":"31063","name":"Frontier County","state_id":"NE"},{"zip":"69025","fips":"31111","name":"Lincoln County","state_id":"NE"},{"zip":"69026","fips":"31145","name":"Red Willow County","state_id":"NE"},{"zip":"69027","fips":"31029","name":"Chase County","state_id":"NE"},{"zip":"69027","fips":"31057","name":"Dundy County","state_id":"NE"},{"zip":"69028","fips":"31073","name":"Gosper County","state_id":"NE"},{"zip":"69028","fips":"31063","name":"Frontier County","state_id":"NE"},{"zip":"69028","fips":"31047","name":"Dawson County","state_id":"NE"},{"zip":"69029","fips":"31111","name":"Lincoln County","state_id":"NE"},{"zip":"69029","fips":"31047","name":"Dawson County","state_id":"NE"},{"zip":"69029","fips":"31063","name":"Frontier County","state_id":"NE"},{"zip":"69030","fips":"31057","name":"Dundy County","state_id":"NE"},{"zip":"69030","fips":"31029","name":"Chase County","state_id":"NE"},{"zip":"69032","fips":"31085","name":"Hayes County","state_id":"NE"},{"zip":"69033","fips":"31135","name":"Perkins County","state_id":"NE"},{"zip":"69033","fips":"31029","name":"Chase County","state_id":"NE"},{"zip":"69034","fips":"31063","name":"Frontier County","state_id":"NE"},{"zip":"69034","fips":"31145","name":"Red Willow County","state_id":"NE"},{"zip":"69036","fips":"31145","name":"Red Willow County","state_id":"NE"},{"zip":"69037","fips":"31057","name":"Dundy County","state_id":"NE"},{"zip":"69038","fips":"31085","name":"Hayes County","state_id":"NE"},{"zip":"69038","fips":"31087","name":"Hitchcock County","state_id":"NE"},{"zip":"69038","fips":"31063","name":"Frontier County","state_id":"NE"},{"zip":"69038","fips":"31111","name":"Lincoln County","state_id":"NE"},{"zip":"69039","fips":"31111","name":"Lincoln County","state_id":"NE"},{"zip":"69039","fips":"31063","name":"Frontier County","state_id":"NE"},{"zip":"69040","fips":"31087","name":"Hitchcock County","state_id":"NE"},{"zip":"69040","fips":"31085","name":"Hayes County","state_id":"NE"},{"zip":"69041","fips":"31057","name":"Dundy County","state_id":"NE"},{"zip":"69042","fips":"31063","name":"Frontier County","state_id":"NE"},{"zip":"69043","fips":"31087","name":"Hitchcock County","state_id":"NE"},{"zip":"69044","fips":"31087","name":"Hitchcock County","state_id":"NE"},{"zip":"69045","fips":"31057","name":"Dundy County","state_id":"NE"},{"zip":"69045","fips":"31087","name":"Hitchcock County","state_id":"NE"},{"zip":"69045","fips":"31029","name":"Chase County","state_id":"NE"},{"zip":"69045","fips":"31085","name":"Hayes County","state_id":"NE"},{"zip":"69046","fips":"31145","name":"Red Willow County","state_id":"NE"},{"zip":"69046","fips":"31065","name":"Furnas County","state_id":"NE"}]
