[{"zip":"69101","fips":"31117","name":"McPherson County","state_id":"NE"},{"zip":"69101","fips":"31111","name":"Lincoln County","state_id":"NE"},{"zip":"69103","fips":"31111","name":"Lincoln County","state_id":"NE"},{"zip":"69120","fips":"31111","name":"Lincoln County","state_id":"NE"},{"zip":"69120","fips":"31113","name":"Logan County","state_id":"NE"},{"zip":"69120","fips":"31041","name":"Custer County","state_id":"NE"},{"zip":"69121","fips":"31101","name":"Keith County","state_id":"NE"},{"zip":"69121","fips":"31005","name":"Arthur County","state_id":"NE"},{"zip":"69122","fips":"31049","name":"Deuel County","state_id":"NE"},{"zip":"69122","fips":"31135","name":"Perkins County","state_id":"NE"},{"zip":"69122","fips":"31101","name":"Keith County","state_id":"NE"},{"zip":"69122","fips":"31069","name":"Garden County","state_id":"NE"},{"zip":"69123","fips":"31111","name":"Lincoln County","state_id":"NE"},{"zip":"69125","fips":"31123","name":"Morrill County","state_id":"NE"},{"zip":"69127","fips":"31101","name":"Keith County","state_id":"NE"},{"zip":"69128","fips":"31105","name":"Kimball County","state_id":"NE"},{"zip":"69129","fips":"31049","name":"Deuel County","state_id":"NE"},{"zip":"69129","fips":"31069","name":"Garden County","state_id":"NE"},{"zip":"69130","fips":"31047","name":"Dawson County","state_id":"NE"},{"zip":"69131","fips":"31033","name":"Cheyenne County","state_id":"NE"},{"zip":"69131","fips":"31123","name":"Morrill County","state_id":"NE"},{"zip":"69132","fips":"31111","name":"Lincoln County","state_id":"NE"},{"zip":"69133","fips":"31105","name":"Kimball County","state_id":"NE"},{"zip":"69134","fips":"31029","name":"Chase County","state_id":"NE"},{"zip":"69134","fips":"31135","name":"Perkins County","state_id":"NE"},{"zip":"69134","fips":"31085","name":"Hayes County","state_id":"NE"},{"zip":"69135","fips":"31031","name":"Cherry County","state_id":"NE"},{"zip":"69135","fips":"31017","name":"Brown County","state_id":"NE"},{"zip":"69138","fips":"31041","name":"Custer County","state_id":"NE"},{"zip":"69138","fips":"31111","name":"Lincoln County","state_id":"NE"},{"zip":"69138","fips":"31047","name":"Dawson County","state_id":"NE"},{"zip":"69140","fips":"31135","name":"Perkins County","state_id":"NE"},{"zip":"69141","fips":"31033","name":"Cheyenne County","state_id":"NE"},{"zip":"69142","fips":"31009","name":"Blaine County","state_id":"NE"},{"zip":"69142","fips":"31171","name":"Thomas County","state_id":"NE"},{"zip":"69143","fips":"31111","name":"Lincoln County","state_id":"NE"},{"zip":"69144","fips":"31101","name":"Keith County","state_id":"NE"},{"zip":"69144","fips":"31005","name":"Arthur County","state_id":"NE"},{"zip":"69145","fips":"31105","name":"Kimball County","state_id":"NE"},{"zip":"69145","fips":"31007","name":"Banner County","state_id":"NE"},{"zip":"69146","fips":"31101","name":"Keith County","state_id":"NE"},{"zip":"69146","fips":"31005","name":"Arthur County","state_id":"NE"},{"zip":"69147","fips":"31101","name":"Keith County","state_id":"NE"},{"zip":"69147","fips":"31069","name":"Garden County","state_id":"NE"},{"zip":"69147","fips":"31005","name":"Arthur County","state_id":"NE"},{"zip":"69148","fips":"31069","name":"Garden County","state_id":"NE"},{"zip":"69148","fips":"31123","name":"Morrill County","state_id":"NE"},{"zip":"69149","fips":"31069","name":"Garden County","state_id":"NE"},{"zip":"69149","fips":"31049","name":"Deuel County","state_id":"NE"},{"zip":"69149","fips":"31033","name":"Cheyenne County","state_id":"NE"},{"zip":"69150","fips":"31135","name":"Perkins County","state_id":"NE"},{"zip":"69151","fips":"31111","name":"Lincoln County","state_id":"NE"},{"zip":"69152","fips":"31091","name":"Hooker County","state_id":"NE"},{"zip":"69153","fips":"31135","name":"Perkins County","state_id":"NE"},{"zip":"69153","fips":"31101","name":"Keith County","state_id":"NE"},{"zip":"69154","fips":"31069","name":"Garden County","state_id":"NE"},{"zip":"69155","fips":"31101","name":"Keith County","state_id":"NE"},{"zip":"69155","fips":"31117","name":"McPherson County","state_id":"NE"},{"zip":"69155","fips":"31135","name":"Perkins County","state_id":"NE"},{"zip":"69156","fips":"31007","name":"Banner County","state_id":"NE"},{"zip":"69156","fips":"31033","name":"Cheyenne County","state_id":"NE"},{"zip":"69156","fips":"31105","name":"Kimball County","state_id":"NE"},{"zip":"69157","fips":"31171","name":"Thomas County","state_id":"NE"},{"zip":"69157","fips":"31009","name":"Blaine County","state_id":"NE"},{"zip":"69161","fips":"31171","name":"Thomas County","state_id":"NE"},{"zip":"69161","fips":"31031","name":"Cherry County","state_id":"NE"},{"zip":"69162","fips":"31033","name":"Cheyenne County","state_id":"NE"},{"zip":"69163","fips":"31171","name":"Thomas County","state_id":"NE"},{"zip":"69163","fips":"31111","name":"Lincoln County","state_id":"NE"},{"zip":"69163","fips":"31113","name":"Logan County","state_id":"NE"},{"zip":"69163","fips":"31117","name":"McPherson County","state_id":"NE"},{"zip":"69163","fips":"31009","name":"Blaine County","state_id":"NE"},{"zip":"69165","fips":"31101","name":"Keith County","state_id":"NE"},{"zip":"69165","fips":"31005","name":"Arthur County","state_id":"NE"},{"zip":"69165","fips":"31111","name":"Lincoln County","state_id":"NE"},{"zip":"69165","fips":"31117","name":"McPherson County","state_id":"NE"},{"zip":"69166","fips":"31171","name":"Thomas County","state_id":"NE"},{"zip":"69166","fips":"31031","name":"Cherry County","state_id":"NE"},{"zip":"69167","fips":"31117","name":"McPherson County","state_id":"NE"},{"zip":"69167","fips":"31091","name":"Hooker County","state_id":"NE"},{"zip":"69168","fips":"31135","name":"Perkins County","state_id":"NE"},{"zip":"69168","fips":"31029","name":"Chase County","state_id":"NE"},{"zip":"69169","fips":"31085","name":"Hayes County","state_id":"NE"},{"zip":"69169","fips":"31135","name":"Perkins County","state_id":"NE"},{"zip":"69169","fips":"31111","name":"Lincoln County","state_id":"NE"},{"zip":"69170","fips":"31111","name":"Lincoln County","state_id":"NE"},{"zip":"69171","fips":"31047","name":"Dawson County","state_id":"NE"},{"zip":"69190","fips":"31069","name":"Garden County","state_id":"NE"}]
