[{"zip":"69301","fips":"31161","name":"Sheridan County","state_id":"NE"},{"zip":"69301","fips":"31123","name":"Morrill County","state_id":"NE"},{"zip":"69301","fips":"31165","name":"Sioux County","state_id":"NE"},{"zip":"69301","fips":"31013","name":"Box Butte County","state_id":"NE"},{"zip":"69331","fips":"31123","name":"Morrill County","state_id":"NE"},{"zip":"69333","fips":"31075","name":"Grant County","state_id":"NE"},{"zip":"69333","fips":"31031","name":"Cherry County","state_id":"NE"},{"zip":"69333","fips":"31161","name":"Sheridan County","state_id":"NE"},{"zip":"69333","fips":"31069","name":"Garden County","state_id":"NE"},{"zip":"69334","fips":"31123","name":"Morrill County","state_id":"NE"},{"zip":"69334","fips":"31007","name":"Banner County","state_id":"NE"},{"zip":"69334","fips":"31157","name":"Scotts Bluff County","state_id":"NE"},{"zip":"69335","fips":"31161","name":"Sheridan County","state_id":"NE"},{"zip":"69335","fips":"31069","name":"Garden County","state_id":"NE"},{"zip":"69336","fips":"31123","name":"Morrill County","state_id":"NE"},{"zip":"69337","fips":"31045","name":"Dawes County","state_id":"NE"},{"zip":"69337","fips":"31161","name":"Sheridan County","state_id":"NE"},{"zip":"69339","fips":"31165","name":"Sioux County","state_id":"NE"},{"zip":"69339","fips":"31045","name":"Dawes County","state_id":"NE"},{"zip":"69340","fips":"31161","name":"Sheridan County","state_id":"NE"},{"zip":"69340","fips":"31069","name":"Garden County","state_id":"NE"},{"zip":"69341","fips":"31157","name":"Scotts Bluff County","state_id":"NE"},{"zip":"69343","fips":"31031","name":"Cherry County","state_id":"NE"},{"zip":"69343","fips":"31161","name":"Sheridan County","state_id":"NE"},{"zip":"69345","fips":"31007","name":"Banner County","state_id":"NE"},{"zip":"69346","fips":"31165","name":"Sioux County","state_id":"NE"},{"zip":"69347","fips":"31045","name":"Dawes County","state_id":"NE"},{"zip":"69347","fips":"31161","name":"Sheridan County","state_id":"NE"},{"zip":"69348","fips":"31165","name":"Sioux County","state_id":"NE"},{"zip":"69348","fips":"31045","name":"Dawes County","state_id":"NE"},{"zip":"69348","fips":"31013","name":"Box Butte County","state_id":"NE"},{"zip":"69350","fips":"31005","name":"Arthur County","state_id":"NE"},{"zip":"69350","fips":"31031","name":"Cherry County","state_id":"NE"},{"zip":"69350","fips":"31075","name":"Grant County","state_id":"NE"},{"zip":"69351","fips":"31161","name":"Sheridan County","state_id":"NE"},{"zip":"69351","fips":"31069","name":"Garden County","state_id":"NE"},{"zip":"69352","fips":"31157","name":"Scotts Bluff County","state_id":"NE"},{"zip":"69353","fips":"31157","name":"Scotts Bluff County","state_id":"NE"},{"zip":"69354","fips":"31013","name":"Box Butte County","state_id":"NE"},{"zip":"69354","fips":"31045","name":"Dawes County","state_id":"NE"},{"zip":"69354","fips":"31165","name":"Sioux County","state_id":"NE"},{"zip":"69355","fips":"31157","name":"Scotts Bluff County","state_id":"NE"},{"zip":"69356","fips":"31157","name":"Scotts Bluff County","state_id":"NE"},{"zip":"69357","fips":"31165","name":"Sioux County","state_id":"NE"},{"zip":"69357","fips":"31157","name":"Scotts Bluff County","state_id":"NE"},{"zip":"69358","fips":"31165","name":"Sioux County","state_id":"NE"},{"zip":"69358","fips":"31157","name":"Scotts Bluff County","state_id":"NE"},{"zip":"69360","fips":"31161","name":"Sheridan County","state_id":"NE"},{"zip":"69361","fips":"31165","name":"Sioux County","state_id":"NE"},{"zip":"69361","fips":"31157","name":"Scotts Bluff County","state_id":"NE"},{"zip":"69365","fips":"31161","name":"Sheridan County","state_id":"NE"},{"zip":"69366","fips":"31031","name":"Cherry County","state_id":"NE"},{"zip":"69366","fips":"31005","name":"Arthur County","state_id":"NE"},{"zip":"69366","fips":"31075","name":"Grant County","state_id":"NE"},{"zip":"69367","fips":"31045","name":"Dawes County","state_id":"NE"}]
