[{"zip":"70001","fips":"22051","name":"Jefferson Parish","state_id":"LA"},{"zip":"70002","fips":"22051","name":"Jefferson Parish","state_id":"LA"},{"zip":"70003","fips":"22051","name":"Jefferson Parish","state_id":"LA"},{"zip":"70004","fips":"22051","name":"Jefferson Parish","state_id":"LA"},{"zip":"70005","fips":"22051","name":"Jefferson Parish","state_id":"LA"},{"zip":"70006","fips":"22051","name":"Jefferson Parish","state_id":"LA"},{"zip":"70009","fips":"22051","name":"Jefferson Parish","state_id":"LA"},{"zip":"70010","fips":"22051","name":"Jefferson Parish","state_id":"LA"},{"zip":"70011","fips":"22051","name":"Jefferson Parish","state_id":"LA"},{"zip":"70030","fips":"22057","name":"Lafourche Parish","state_id":"LA"},{"zip":"70030","fips":"22089","name":"St. Charles Parish","state_id":"LA"},{"zip":"70031","fips":"22051","name":"Jefferson Parish","state_id":"LA"},{"zip":"70031","fips":"22089","name":"St. Charles Parish","state_id":"LA"},{"zip":"70032","fips":"22087","name":"St. Bernard Parish","state_id":"LA"},{"zip":"70033","fips":"22051","name":"Jefferson Parish","state_id":"LA"},{"zip":"70036","fips":"22051","name":"Jefferson Parish","state_id":"LA"},{"zip":"70037","fips":"22075","name":"Plaquemines Parish","state_id":"LA"},{"zip":"70039","fips":"22089","name":"St. Charles Parish","state_id":"LA"},{"zip":"70040","fips":"22075","name":"Plaquemines Parish","state_id":"LA"},{"zip":"70040","fips":"22087","name":"St. Bernard Parish","state_id":"LA"},{"zip":"70041","fips":"22075","name":"Plaquemines Parish","state_id":"LA"},{"zip":"70043","fips":"22087","name":"St. Bernard Parish","state_id":"LA"},{"zip":"70047","fips":"22089","name":"St. Charles Parish","state_id":"LA"},{"zip":"70049","fips":"22095","name":"St. John the Baptist Parish","state_id":"LA"},{"zip":"70049","fips":"22093","name":"St. James Parish","state_id":"LA"},{"zip":"70050","fips":"22075","name":"Plaquemines Parish","state_id":"LA"},{"zip":"70051","fips":"22095","name":"St. John the Baptist Parish","state_id":"LA"},{"zip":"70052","fips":"22093","name":"St. James Parish","state_id":"LA"},{"zip":"70053","fips":"22051","name":"Jefferson Parish","state_id":"LA"},{"zip":"70053","fips":"22071","name":"Orleans Parish","state_id":"LA"},{"zip":"70054","fips":"22051","name":"Jefferson Parish","state_id":"LA"},{"zip":"70055","fips":"22051","name":"Jefferson Parish","state_id":"LA"},{"zip":"70056","fips":"22051","name":"Jefferson Parish","state_id":"LA"},{"zip":"70057","fips":"22089","name":"St. Charles Parish","state_id":"LA"},{"zip":"70058","fips":"22051","name":"Jefferson Parish","state_id":"LA"},{"zip":"70059","fips":"22051","name":"Jefferson Parish","state_id":"LA"},{"zip":"70062","fips":"22051","name":"Jefferson Parish","state_id":"LA"},{"zip":"70063","fips":"22051","name":"Jefferson Parish","state_id":"LA"},{"zip":"70064","fips":"22051","name":"Jefferson Parish","state_id":"LA"},{"zip":"70065","fips":"22051","name":"Jefferson Parish","state_id":"LA"},{"zip":"70067","fips":"22051","name":"Jefferson Parish","state_id":"LA"},{"zip":"70068","fips":"22089","name":"St. Charles Parish","state_id":"LA"},{"zip":"70068","fips":"22095","name":"St. John the Baptist Parish","state_id":"LA"},{"zip":"70069","fips":"22095","name":"St. John the Baptist Parish","state_id":"LA"},{"zip":"70070","fips":"22089","name":"St. Charles Parish","state_id":"LA"},{"zip":"70071","fips":"22093","name":"St. James Parish","state_id":"LA"},{"zip":"70072","fips":"22051","name":"Jefferson Parish","state_id":"LA"},{"zip":"70073","fips":"22051","name":"Jefferson Parish","state_id":"LA"},{"zip":"70075","fips":"22087","name":"St. Bernard Parish","state_id":"LA"},{"zip":"70076","fips":"22095","name":"St. John the Baptist Parish","state_id":"LA"},{"zip":"70078","fips":"22089","name":"St. Charles Parish","state_id":"LA"},{"zip":"70079","fips":"22089","name":"St. Charles Parish","state_id":"LA"},{"zip":"70080","fips":"22089","name":"St. Charles Parish","state_id":"LA"},{"zip":"70082","fips":"22075","name":"Plaquemines Parish","state_id":"LA"},{"zip":"70083","fips":"22075","name":"Plaquemines Parish","state_id":"LA"},{"zip":"70084","fips":"22095","name":"St. John the Baptist Parish","state_id":"LA"},{"zip":"70085","fips":"22087","name":"St. Bernard Parish","state_id":"LA"},{"zip":"70086","fips":"22093","name":"St. James Parish","state_id":"LA"},{"zip":"70087","fips":"22089","name":"St. Charles Parish","state_id":"LA"},{"zip":"70090","fips":"22095","name":"St. John the Baptist Parish","state_id":"LA"},{"zip":"70090","fips":"22093","name":"St. James Parish","state_id":"LA"},{"zip":"70091","fips":"22075","name":"Plaquemines Parish","state_id":"LA"},{"zip":"70092","fips":"22087","name":"St. Bernard Parish","state_id":"LA"},{"zip":"70093","fips":"22075","name":"Plaquemines Parish","state_id":"LA"},{"zip":"70094","fips":"22051","name":"Jefferson Parish","state_id":"LA"},{"zip":"70096","fips":"22051","name":"Jefferson Parish","state_id":"LA"}]
