[{"zip":"70112","fips":"22071","name":"Orleans Parish","state_id":"LA"},{"zip":"70113","fips":"22071","name":"Orleans Parish","state_id":"LA"},{"zip":"70114","fips":"22051","name":"Jefferson Parish","state_id":"LA"},{"zip":"70114","fips":"22071","name":"Orleans Parish","state_id":"LA"},{"zip":"70115","fips":"22051","name":"Jefferson Parish","state_id":"LA"},{"zip":"70115","fips":"22071","name":"Orleans Parish","state_id":"LA"},{"zip":"70116","fips":"22071","name":"Orleans Parish","state_id":"LA"},{"zip":"70117","fips":"22071","name":"Orleans Parish","state_id":"LA"},{"zip":"70118","fips":"22071","name":"Orleans Parish","state_id":"LA"},{"zip":"70119","fips":"22071","name":"Orleans Parish","state_id":"LA"},{"zip":"70121","fips":"22051","name":"Jefferson Parish","state_id":"LA"},{"zip":"70122","fips":"22071","name":"Orleans Parish","state_id":"LA"},{"zip":"70123","fips":"22051","name":"Jefferson Parish","state_id":"LA"},{"zip":"70124","fips":"22071","name":"Orleans Parish","state_id":"LA"},{"zip":"70125","fips":"22071","name":"Orleans Parish","state_id":"LA"},{"zip":"70126","fips":"22071","name":"Orleans Parish","state_id":"LA"},{"zip":"70127","fips":"22071","name":"Orleans Parish","state_id":"LA"},{"zip":"70128","fips":"22071","name":"Orleans Parish","state_id":"LA"},{"zip":"70129","fips":"22071","name":"Orleans Parish","state_id":"LA"},{"zip":"70130","fips":"22071","name":"Orleans Parish","state_id":"LA"},{"zip":"70131","fips":"22071","name":"Orleans Parish","state_id":"LA"},{"zip":"70139","fips":"22071","name":"Orleans Parish","state_id":"LA"},{"zip":"70141","fips":"22071","name":"Orleans Parish","state_id":"LA"},{"zip":"70143","fips":"22075","name":"Plaquemines Parish","state_id":"LA"},{"zip":"70145","fips":"22071","name":"Orleans Parish","state_id":"LA"},{"zip":"70146","fips":"22071","name":"Orleans Parish","state_id":"LA"},{"zip":"70148","fips":"22071","name":"Orleans Parish","state_id":"LA"},{"zip":"70150","fips":"22071","name":"Orleans Parish","state_id":"LA"},{"zip":"70151","fips":"22071","name":"Orleans Parish","state_id":"LA"},{"zip":"70152","fips":"22071","name":"Orleans Parish","state_id":"LA"},{"zip":"70153","fips":"22071","name":"Orleans Parish","state_id":"LA"},{"zip":"70156","fips":"22071","name":"Orleans Parish","state_id":"LA"},{"zip":"70157","fips":"22071","name":"Orleans Parish","state_id":"LA"},{"zip":"70158","fips":"22071","name":"Orleans Parish","state_id":"LA"},{"zip":"70163","fips":"22071","name":"Orleans Parish","state_id":"LA"},{"zip":"70165","fips":"22071","name":"Orleans Parish","state_id":"LA"},{"zip":"70170","fips":"22071","name":"Orleans Parish","state_id":"LA"},{"zip":"70172","fips":"22071","name":"Orleans Parish","state_id":"LA"},{"zip":"70174","fips":"22071","name":"Orleans Parish","state_id":"LA"},{"zip":"70175","fips":"22071","name":"Orleans Parish","state_id":"LA"},{"zip":"70176","fips":"22071","name":"Orleans Parish","state_id":"LA"},{"zip":"70177","fips":"22071","name":"Orleans Parish","state_id":"LA"},{"zip":"70178","fips":"22071","name":"Orleans Parish","state_id":"LA"},{"zip":"70179","fips":"22071","name":"Orleans Parish","state_id":"LA"},{"zip":"70181","fips":"22051","name":"Jefferson Parish","state_id":"LA"},{"zip":"70182","fips":"22071","name":"Orleans Parish","state_id":"LA"},{"zip":"70183","fips":"22051","name":"Jefferson Parish","state_id":"LA"},{"zip":"70184","fips":"22071","name":"Orleans Parish","state_id":"LA"},{"zip":"70185","fips":"22071","name":"Orleans Parish","state_id":"LA"},{"zip":"70186","fips":"22071","name":"Orleans Parish","state_id":"LA"},{"zip":"70190","fips":"22071","name":"Orleans Parish","state_id":"LA"}]
