[{"zip":"70301","fips":"22057","name":"Lafourche Parish","state_id":"LA"},{"zip":"70301","fips":"22109","name":"Terrebonne Parish","state_id":"LA"},{"zip":"70301","fips":"22007","name":"Assumption Parish","state_id":"LA"},{"zip":"70339","fips":"22007","name":"Assumption Parish","state_id":"LA"},{"zip":"70339","fips":"22099","name":"St. Martin Parish","state_id":"LA"},{"zip":"70340","fips":"22101","name":"St. Mary Parish","state_id":"LA"},{"zip":"70341","fips":"22007","name":"Assumption Parish","state_id":"LA"},{"zip":"70342","fips":"22101","name":"St. Mary Parish","state_id":"LA"},{"zip":"70343","fips":"22109","name":"Terrebonne Parish","state_id":"LA"},{"zip":"70343","fips":"22057","name":"Lafourche Parish","state_id":"LA"},{"zip":"70344","fips":"22109","name":"Terrebonne Parish","state_id":"LA"},{"zip":"70345","fips":"22057","name":"Lafourche Parish","state_id":"LA"},{"zip":"70346","fips":"22093","name":"St. James Parish","state_id":"LA"},{"zip":"70346","fips":"22005","name":"Ascension Parish","state_id":"LA"},{"zip":"70346","fips":"22007","name":"Assumption Parish","state_id":"LA"},{"zip":"70352","fips":"22109","name":"Terrebonne Parish","state_id":"LA"},{"zip":"70353","fips":"22109","name":"Terrebonne Parish","state_id":"LA"},{"zip":"70354","fips":"22057","name":"Lafourche Parish","state_id":"LA"},{"zip":"70355","fips":"22057","name":"Lafourche Parish","state_id":"LA"},{"zip":"70356","fips":"22109","name":"Terrebonne Parish","state_id":"LA"},{"zip":"70357","fips":"22057","name":"Lafourche Parish","state_id":"LA"},{"zip":"70358","fips":"22051","name":"Jefferson Parish","state_id":"LA"},{"zip":"70359","fips":"22057","name":"Lafourche Parish","state_id":"LA"},{"zip":"70359","fips":"22109","name":"Terrebonne Parish","state_id":"LA"},{"zip":"70360","fips":"22109","name":"Terrebonne Parish","state_id":"LA"},{"zip":"70361","fips":"22109","name":"Terrebonne Parish","state_id":"LA"},{"zip":"70363","fips":"22109","name":"Terrebonne Parish","state_id":"LA"},{"zip":"70364","fips":"22109","name":"Terrebonne Parish","state_id":"LA"},{"zip":"70364","fips":"22057","name":"Lafourche Parish","state_id":"LA"},{"zip":"70371","fips":"22057","name":"Lafourche Parish","state_id":"LA"},{"zip":"70372","fips":"22007","name":"Assumption Parish","state_id":"LA"},{"zip":"70373","fips":"22057","name":"Lafourche Parish","state_id":"LA"},{"zip":"70374","fips":"22057","name":"Lafourche Parish","state_id":"LA"},{"zip":"70375","fips":"22057","name":"Lafourche Parish","state_id":"LA"},{"zip":"70377","fips":"22109","name":"Terrebonne Parish","state_id":"LA"},{"zip":"70377","fips":"22057","name":"Lafourche Parish","state_id":"LA"},{"zip":"70380","fips":"22099","name":"St. Martin Parish","state_id":"LA"},{"zip":"70380","fips":"22007","name":"Assumption Parish","state_id":"LA"},{"zip":"70380","fips":"22101","name":"St. Mary Parish","state_id":"LA"},{"zip":"70381","fips":"22101","name":"St. Mary Parish","state_id":"LA"},{"zip":"70390","fips":"22007","name":"Assumption Parish","state_id":"LA"},{"zip":"70391","fips":"22007","name":"Assumption Parish","state_id":"LA"},{"zip":"70392","fips":"22101","name":"St. Mary Parish","state_id":"LA"},{"zip":"70393","fips":"22007","name":"Assumption Parish","state_id":"LA"},{"zip":"70394","fips":"22057","name":"Lafourche Parish","state_id":"LA"},{"zip":"70395","fips":"22109","name":"Terrebonne Parish","state_id":"LA"},{"zip":"70397","fips":"22109","name":"Terrebonne Parish","state_id":"LA"}]
