[{"zip":"70401","fips":"22105","name":"Tangipahoa Parish","state_id":"LA"},{"zip":"70402","fips":"22105","name":"Tangipahoa Parish","state_id":"LA"},{"zip":"70403","fips":"22063","name":"Livingston Parish","state_id":"LA"},{"zip":"70403","fips":"22105","name":"Tangipahoa Parish","state_id":"LA"},{"zip":"70404","fips":"22105","name":"Tangipahoa Parish","state_id":"LA"},{"zip":"70420","fips":"22103","name":"St. Tammany Parish","state_id":"LA"},{"zip":"70421","fips":"22105","name":"Tangipahoa Parish","state_id":"LA"},{"zip":"70422","fips":"22063","name":"Livingston Parish","state_id":"LA"},{"zip":"70422","fips":"22105","name":"Tangipahoa Parish","state_id":"LA"},{"zip":"70422","fips":"22091","name":"St. Helena Parish","state_id":"LA"},{"zip":"70426","fips":"22117","name":"Washington Parish","state_id":"LA"},{"zip":"70427","fips":"22103","name":"St. Tammany Parish","state_id":"LA"},{"zip":"70427","fips":"22117","name":"Washington Parish","state_id":"LA"},{"zip":"70431","fips":"22103","name":"St. Tammany Parish","state_id":"LA"},{"zip":"70433","fips":"22103","name":"St. Tammany Parish","state_id":"LA"},{"zip":"70434","fips":"22103","name":"St. Tammany Parish","state_id":"LA"},{"zip":"70435","fips":"22103","name":"St. Tammany Parish","state_id":"LA"},{"zip":"70435","fips":"22105","name":"Tangipahoa Parish","state_id":"LA"},{"zip":"70435","fips":"22117","name":"Washington Parish","state_id":"LA"},{"zip":"70436","fips":"22105","name":"Tangipahoa Parish","state_id":"LA"},{"zip":"70436","fips":"22091","name":"St. Helena Parish","state_id":"LA"},{"zip":"70437","fips":"22103","name":"St. Tammany Parish","state_id":"LA"},{"zip":"70437","fips":"22105","name":"Tangipahoa Parish","state_id":"LA"},{"zip":"70438","fips":"22105","name":"Tangipahoa Parish","state_id":"LA"},{"zip":"70438","fips":"22117","name":"Washington Parish","state_id":"LA"},{"zip":"70438","fips":"22103","name":"St. Tammany Parish","state_id":"LA"},{"zip":"70441","fips":"22091","name":"St. Helena Parish","state_id":"LA"},{"zip":"70442","fips":"22105","name":"Tangipahoa Parish","state_id":"LA"},{"zip":"70443","fips":"22091","name":"St. Helena Parish","state_id":"LA"},{"zip":"70443","fips":"22063","name":"Livingston Parish","state_id":"LA"},{"zip":"70443","fips":"22105","name":"Tangipahoa Parish","state_id":"LA"},{"zip":"70444","fips":"22117","name":"Washington Parish","state_id":"LA"},{"zip":"70444","fips":"22105","name":"Tangipahoa Parish","state_id":"LA"},{"zip":"70444","fips":"22091","name":"St. Helena Parish","state_id":"LA"},{"zip":"70445","fips":"22103","name":"St. Tammany Parish","state_id":"LA"},{"zip":"70446","fips":"22105","name":"Tangipahoa Parish","state_id":"LA"},{"zip":"70447","fips":"22103","name":"St. Tammany Parish","state_id":"LA"},{"zip":"70448","fips":"22103","name":"St. Tammany Parish","state_id":"LA"},{"zip":"70449","fips":"22005","name":"Ascension Parish","state_id":"LA"},{"zip":"70449","fips":"22063","name":"Livingston Parish","state_id":"LA"},{"zip":"70450","fips":"22117","name":"Washington Parish","state_id":"LA"},{"zip":"70451","fips":"22105","name":"Tangipahoa Parish","state_id":"LA"},{"zip":"70452","fips":"22103","name":"St. Tammany Parish","state_id":"LA"},{"zip":"70453","fips":"22091","name":"St. Helena Parish","state_id":"LA"},{"zip":"70453","fips":"22063","name":"Livingston Parish","state_id":"LA"},{"zip":"70454","fips":"22105","name":"Tangipahoa Parish","state_id":"LA"},{"zip":"70455","fips":"22105","name":"Tangipahoa Parish","state_id":"LA"},{"zip":"70456","fips":"22091","name":"St. Helena Parish","state_id":"LA"},{"zip":"70456","fips":"22105","name":"Tangipahoa Parish","state_id":"LA"},{"zip":"70457","fips":"22103","name":"St. Tammany Parish","state_id":"LA"},{"zip":"70458","fips":"22103","name":"St. Tammany Parish","state_id":"LA"},{"zip":"70459","fips":"22103","name":"St. Tammany Parish","state_id":"LA"},{"zip":"70460","fips":"22103","name":"St. Tammany Parish","state_id":"LA"},{"zip":"70461","fips":"22103","name":"St. Tammany Parish","state_id":"LA"},{"zip":"70462","fips":"22063","name":"Livingston Parish","state_id":"LA"},{"zip":"70462","fips":"22105","name":"Tangipahoa Parish","state_id":"LA"},{"zip":"70463","fips":"22103","name":"St. Tammany Parish","state_id":"LA"},{"zip":"70464","fips":"22103","name":"St. Tammany Parish","state_id":"LA"},{"zip":"70465","fips":"22105","name":"Tangipahoa Parish","state_id":"LA"},{"zip":"70466","fips":"22063","name":"Livingston Parish","state_id":"LA"},{"zip":"70466","fips":"22105","name":"Tangipahoa Parish","state_id":"LA"},{"zip":"70469","fips":"22103","name":"St. Tammany Parish","state_id":"LA"},{"zip":"70470","fips":"22103","name":"St. Tammany Parish","state_id":"LA"},{"zip":"70471","fips":"22103","name":"St. Tammany Parish","state_id":"LA"}]
