[{"zip":"70501","fips":"22055","name":"Lafayette Parish","state_id":"LA"},{"zip":"70502","fips":"22055","name":"Lafayette Parish","state_id":"LA"},{"zip":"70503","fips":"22055","name":"Lafayette Parish","state_id":"LA"},{"zip":"70504","fips":"22055","name":"Lafayette Parish","state_id":"LA"},{"zip":"70505","fips":"22055","name":"Lafayette Parish","state_id":"LA"},{"zip":"70506","fips":"22055","name":"Lafayette Parish","state_id":"LA"},{"zip":"70507","fips":"22055","name":"Lafayette Parish","state_id":"LA"},{"zip":"70508","fips":"22055","name":"Lafayette Parish","state_id":"LA"},{"zip":"70509","fips":"22055","name":"Lafayette Parish","state_id":"LA"},{"zip":"70510","fips":"22113","name":"Vermilion Parish","state_id":"LA"},{"zip":"70512","fips":"22097","name":"St. Landry Parish","state_id":"LA"},{"zip":"70512","fips":"22099","name":"St. Martin Parish","state_id":"LA"},{"zip":"70513","fips":"22045","name":"Iberia Parish","state_id":"LA"},{"zip":"70514","fips":"22101","name":"St. Mary Parish","state_id":"LA"},{"zip":"70515","fips":"22001","name":"Acadia Parish","state_id":"LA"},{"zip":"70515","fips":"22039","name":"Evangeline Parish","state_id":"LA"},{"zip":"70516","fips":"22001","name":"Acadia Parish","state_id":"LA"},{"zip":"70517","fips":"22099","name":"St. Martin Parish","state_id":"LA"},{"zip":"70517","fips":"22055","name":"Lafayette Parish","state_id":"LA"},{"zip":"70518","fips":"22055","name":"Lafayette Parish","state_id":"LA"},{"zip":"70518","fips":"22099","name":"St. Martin Parish","state_id":"LA"},{"zip":"70518","fips":"22045","name":"Iberia Parish","state_id":"LA"},{"zip":"70519","fips":"22099","name":"St. Martin Parish","state_id":"LA"},{"zip":"70520","fips":"22055","name":"Lafayette Parish","state_id":"LA"},{"zip":"70520","fips":"22097","name":"St. Landry Parish","state_id":"LA"},{"zip":"70521","fips":"22099","name":"St. Martin Parish","state_id":"LA"},{"zip":"70522","fips":"22101","name":"St. Mary Parish","state_id":"LA"},{"zip":"70523","fips":"22101","name":"St. Mary Parish","state_id":"LA"},{"zip":"70524","fips":"22039","name":"Evangeline Parish","state_id":"LA"},{"zip":"70525","fips":"22097","name":"St. Landry Parish","state_id":"LA"},{"zip":"70525","fips":"22055","name":"Lafayette Parish","state_id":"LA"},{"zip":"70525","fips":"22001","name":"Acadia Parish","state_id":"LA"},{"zip":"70526","fips":"22113","name":"Vermilion Parish","state_id":"LA"},{"zip":"70526","fips":"22001","name":"Acadia Parish","state_id":"LA"},{"zip":"70528","fips":"22113","name":"Vermilion Parish","state_id":"LA"},{"zip":"70528","fips":"22045","name":"Iberia Parish","state_id":"LA"},{"zip":"70529","fips":"22113","name":"Vermilion Parish","state_id":"LA"},{"zip":"70529","fips":"22001","name":"Acadia Parish","state_id":"LA"},{"zip":"70529","fips":"22055","name":"Lafayette Parish","state_id":"LA"},{"zip":"70531","fips":"22001","name":"Acadia Parish","state_id":"LA"},{"zip":"70532","fips":"22053","name":"Jefferson Davis Parish","state_id":"LA"},{"zip":"70532","fips":"22003","name":"Allen Parish","state_id":"LA"},{"zip":"70533","fips":"22113","name":"Vermilion Parish","state_id":"LA"},{"zip":"70533","fips":"22045","name":"Iberia Parish","state_id":"LA"},{"zip":"70534","fips":"22001","name":"Acadia Parish","state_id":"LA"},{"zip":"70535","fips":"22097","name":"St. Landry Parish","state_id":"LA"},{"zip":"70535","fips":"22001","name":"Acadia Parish","state_id":"LA"},{"zip":"70535","fips":"22039","name":"Evangeline Parish","state_id":"LA"},{"zip":"70537","fips":"22001","name":"Acadia Parish","state_id":"LA"},{"zip":"70538","fips":"22101","name":"St. Mary Parish","state_id":"LA"},{"zip":"70540","fips":"22101","name":"St. Mary Parish","state_id":"LA"},{"zip":"70541","fips":"22097","name":"St. Landry Parish","state_id":"LA"},{"zip":"70542","fips":"22113","name":"Vermilion Parish","state_id":"LA"},{"zip":"70542","fips":"22023","name":"Cameron Parish","state_id":"LA"},{"zip":"70543","fips":"22001","name":"Acadia Parish","state_id":"LA"},{"zip":"70544","fips":"22045","name":"Iberia Parish","state_id":"LA"},{"zip":"70544","fips":"22101","name":"St. Mary Parish","state_id":"LA"},{"zip":"70546","fips":"22001","name":"Acadia Parish","state_id":"LA"},{"zip":"70546","fips":"22053","name":"Jefferson Davis Parish","state_id":"LA"},{"zip":"70548","fips":"22113","name":"Vermilion Parish","state_id":"LA"},{"zip":"70549","fips":"22053","name":"Jefferson Davis Parish","state_id":"LA"},{"zip":"70549","fips":"22023","name":"Cameron Parish","state_id":"LA"},{"zip":"70550","fips":"22097","name":"St. Landry Parish","state_id":"LA"},{"zip":"70551","fips":"22097","name":"St. Landry Parish","state_id":"LA"},{"zip":"70552","fips":"22045","name":"Iberia Parish","state_id":"LA"},{"zip":"70554","fips":"22039","name":"Evangeline Parish","state_id":"LA"},{"zip":"70555","fips":"22055","name":"Lafayette Parish","state_id":"LA"},{"zip":"70555","fips":"22113","name":"Vermilion Parish","state_id":"LA"},{"zip":"70556","fips":"22001","name":"Acadia Parish","state_id":"LA"},{"zip":"70558","fips":"22055","name":"Lafayette Parish","state_id":"LA"},{"zip":"70559","fips":"22001","name":"Acadia Parish","state_id":"LA"},{"zip":"70560","fips":"22045","name":"Iberia Parish","state_id":"LA"},{"zip":"70560","fips":"22099","name":"St. Martin Parish","state_id":"LA"},{"zip":"70560","fips":"22113","name":"Vermilion Parish","state_id":"LA"},{"zip":"70560","fips":"22055","name":"Lafayette Parish","state_id":"LA"},{"zip":"70562","fips":"22045","name":"Iberia Parish","state_id":"LA"},{"zip":"70563","fips":"22045","name":"Iberia Parish","state_id":"LA"},{"zip":"70563","fips":"22099","name":"St. Martin Parish","state_id":"LA"},{"zip":"70569","fips":"22045","name":"Iberia Parish","state_id":"LA"},{"zip":"70570","fips":"22097","name":"St. Landry Parish","state_id":"LA"},{"zip":"70570","fips":"22039","name":"Evangeline Parish","state_id":"LA"},{"zip":"70571","fips":"22097","name":"St. Landry Parish","state_id":"LA"},{"zip":"70575","fips":"22113","name":"Vermilion Parish","state_id":"LA"},{"zip":"70576","fips":"22039","name":"Evangeline Parish","state_id":"LA"},{"zip":"70577","fips":"22097","name":"St. Landry Parish","state_id":"LA"},{"zip":"70578","fips":"22001","name":"Acadia Parish","state_id":"LA"},{"zip":"70578","fips":"22113","name":"Vermilion Parish","state_id":"LA"},{"zip":"70578","fips":"22055","name":"Lafayette Parish","state_id":"LA"},{"zip":"70580","fips":"22039","name":"Evangeline Parish","state_id":"LA"},{"zip":"70581","fips":"22053","name":"Jefferson Davis Parish","state_id":"LA"},{"zip":"70582","fips":"22045","name":"Iberia Parish","state_id":"LA"},{"zip":"70582","fips":"22099","name":"St. Martin Parish","state_id":"LA"},{"zip":"70583","fips":"22001","name":"Acadia Parish","state_id":"LA"},{"zip":"70583","fips":"22055","name":"Lafayette Parish","state_id":"LA"},{"zip":"70584","fips":"22097","name":"St. Landry Parish","state_id":"LA"},{"zip":"70585","fips":"22039","name":"Evangeline Parish","state_id":"LA"},{"zip":"70586","fips":"22097","name":"St. Landry Parish","state_id":"LA"},{"zip":"70586","fips":"22039","name":"Evangeline Parish","state_id":"LA"},{"zip":"70589","fips":"22097","name":"St. Landry Parish","state_id":"LA"},{"zip":"70589","fips":"22039","name":"Evangeline Parish","state_id":"LA"},{"zip":"70591","fips":"22053","name":"Jefferson Davis Parish","state_id":"LA"},{"zip":"70592","fips":"22055","name":"Lafayette Parish","state_id":"LA"},{"zip":"70592","fips":"22045","name":"Iberia Parish","state_id":"LA"},{"zip":"70592","fips":"22113","name":"Vermilion Parish","state_id":"LA"},{"zip":"70596","fips":"22055","name":"Lafayette Parish","state_id":"LA"},{"zip":"70598","fips":"22055","name":"Lafayette Parish","state_id":"LA"}]
