[{"zip":"70601","fips":"22019","name":"Calcasieu Parish","state_id":"LA"},{"zip":"70602","fips":"22019","name":"Calcasieu Parish","state_id":"LA"},{"zip":"70605","fips":"22019","name":"Calcasieu Parish","state_id":"LA"},{"zip":"70606","fips":"22019","name":"Calcasieu Parish","state_id":"LA"},{"zip":"70606","fips":"22023","name":"Cameron Parish","state_id":"LA"},{"zip":"70607","fips":"22019","name":"Calcasieu Parish","state_id":"LA"},{"zip":"70607","fips":"22023","name":"Cameron Parish","state_id":"LA"},{"zip":"70611","fips":"22053","name":"Jefferson Davis Parish","state_id":"LA"},{"zip":"70611","fips":"22019","name":"Calcasieu Parish","state_id":"LA"},{"zip":"70612","fips":"22019","name":"Calcasieu Parish","state_id":"LA"},{"zip":"70615","fips":"22019","name":"Calcasieu Parish","state_id":"LA"},{"zip":"70616","fips":"22019","name":"Calcasieu Parish","state_id":"LA"},{"zip":"70629","fips":"22019","name":"Calcasieu Parish","state_id":"LA"},{"zip":"70630","fips":"22019","name":"Calcasieu Parish","state_id":"LA"},{"zip":"70630","fips":"22023","name":"Cameron Parish","state_id":"LA"},{"zip":"70631","fips":"22023","name":"Cameron Parish","state_id":"LA"},{"zip":"70632","fips":"22023","name":"Cameron Parish","state_id":"LA"},{"zip":"70633","fips":"22011","name":"Beauregard Parish","state_id":"LA"},{"zip":"70633","fips":"22019","name":"Calcasieu Parish","state_id":"LA"},{"zip":"70634","fips":"22011","name":"Beauregard Parish","state_id":"LA"},{"zip":"70634","fips":"22115","name":"Vernon Parish","state_id":"LA"},{"zip":"70637","fips":"22011","name":"Beauregard Parish","state_id":"LA"},{"zip":"70637","fips":"22003","name":"Allen Parish","state_id":"LA"},{"zip":"70638","fips":"22003","name":"Allen Parish","state_id":"LA"},{"zip":"70638","fips":"22115","name":"Vernon Parish","state_id":"LA"},{"zip":"70639","fips":"22115","name":"Vernon Parish","state_id":"LA"},{"zip":"70640","fips":"22053","name":"Jefferson Davis Parish","state_id":"LA"},{"zip":"70640","fips":"22003","name":"Allen Parish","state_id":"LA"},{"zip":"70643","fips":"22023","name":"Cameron Parish","state_id":"LA"},{"zip":"70644","fips":"22003","name":"Allen Parish","state_id":"LA"},{"zip":"70645","fips":"22023","name":"Cameron Parish","state_id":"LA"},{"zip":"70646","fips":"22019","name":"Calcasieu Parish","state_id":"LA"},{"zip":"70647","fips":"22053","name":"Jefferson Davis Parish","state_id":"LA"},{"zip":"70647","fips":"22019","name":"Calcasieu Parish","state_id":"LA"},{"zip":"70648","fips":"22053","name":"Jefferson Davis Parish","state_id":"LA"},{"zip":"70648","fips":"22003","name":"Allen Parish","state_id":"LA"},{"zip":"70650","fips":"22053","name":"Jefferson Davis Parish","state_id":"LA"},{"zip":"70651","fips":"22003","name":"Allen Parish","state_id":"LA"},{"zip":"70652","fips":"22011","name":"Beauregard Parish","state_id":"LA"},{"zip":"70653","fips":"22011","name":"Beauregard Parish","state_id":"LA"},{"zip":"70654","fips":"22003","name":"Allen Parish","state_id":"LA"},{"zip":"70655","fips":"22003","name":"Allen Parish","state_id":"LA"},{"zip":"70656","fips":"22115","name":"Vernon Parish","state_id":"LA"},{"zip":"70656","fips":"22003","name":"Allen Parish","state_id":"LA"},{"zip":"70656","fips":"22079","name":"Rapides Parish","state_id":"LA"},{"zip":"70657","fips":"22011","name":"Beauregard Parish","state_id":"LA"},{"zip":"70657","fips":"22053","name":"Jefferson Davis Parish","state_id":"LA"},{"zip":"70657","fips":"22019","name":"Calcasieu Parish","state_id":"LA"},{"zip":"70657","fips":"22003","name":"Allen Parish","state_id":"LA"},{"zip":"70658","fips":"22003","name":"Allen Parish","state_id":"LA"},{"zip":"70659","fips":"22115","name":"Vernon Parish","state_id":"LA"},{"zip":"70660","fips":"22011","name":"Beauregard Parish","state_id":"LA"},{"zip":"70661","fips":"22011","name":"Beauregard Parish","state_id":"LA"},{"zip":"70661","fips":"22019","name":"Calcasieu Parish","state_id":"LA"},{"zip":"70662","fips":"22011","name":"Beauregard Parish","state_id":"LA"},{"zip":"70662","fips":"22003","name":"Allen Parish","state_id":"LA"},{"zip":"70663","fips":"22019","name":"Calcasieu Parish","state_id":"LA"},{"zip":"70665","fips":"22019","name":"Calcasieu Parish","state_id":"LA"},{"zip":"70668","fips":"22019","name":"Calcasieu Parish","state_id":"LA"},{"zip":"70669","fips":"22019","name":"Calcasieu Parish","state_id":"LA"}]
