[{"zip":"70704","fips":"22033","name":"East Baton Rouge Parish","state_id":"LA"},{"zip":"70706","fips":"22063","name":"Livingston Parish","state_id":"LA"},{"zip":"70706","fips":"22091","name":"St. Helena Parish","state_id":"LA"},{"zip":"70710","fips":"22121","name":"West Baton Rouge Parish","state_id":"LA"},{"zip":"70711","fips":"22063","name":"Livingston Parish","state_id":"LA"},{"zip":"70712","fips":"22125","name":"West Feliciana Parish","state_id":"LA"},{"zip":"70714","fips":"22033","name":"East Baton Rouge Parish","state_id":"LA"},{"zip":"70715","fips":"22077","name":"Pointe Coupee Parish","state_id":"LA"},{"zip":"70718","fips":"22005","name":"Ascension Parish","state_id":"LA"},{"zip":"70719","fips":"22121","name":"West Baton Rouge Parish","state_id":"LA"},{"zip":"70721","fips":"22047","name":"Iberville Parish","state_id":"LA"},{"zip":"70722","fips":"22037","name":"East Feliciana Parish","state_id":"LA"},{"zip":"70722","fips":"22033","name":"East Baton Rouge Parish","state_id":"LA"},{"zip":"70723","fips":"22093","name":"St. James Parish","state_id":"LA"},{"zip":"70725","fips":"22005","name":"Ascension Parish","state_id":"LA"},{"zip":"70726","fips":"22063","name":"Livingston Parish","state_id":"LA"},{"zip":"70727","fips":"22063","name":"Livingston Parish","state_id":"LA"},{"zip":"70728","fips":"22005","name":"Ascension Parish","state_id":"LA"},{"zip":"70729","fips":"22121","name":"West Baton Rouge Parish","state_id":"LA"},{"zip":"70729","fips":"22077","name":"Pointe Coupee Parish","state_id":"LA"},{"zip":"70730","fips":"22037","name":"East Feliciana Parish","state_id":"LA"},{"zip":"70732","fips":"22077","name":"Pointe Coupee Parish","state_id":"LA"},{"zip":"70733","fips":"22063","name":"Livingston Parish","state_id":"LA"},{"zip":"70734","fips":"22005","name":"Ascension Parish","state_id":"LA"},{"zip":"70736","fips":"22121","name":"West Baton Rouge Parish","state_id":"LA"},{"zip":"70736","fips":"22077","name":"Pointe Coupee Parish","state_id":"LA"},{"zip":"70737","fips":"22005","name":"Ascension Parish","state_id":"LA"},{"zip":"70739","fips":"22033","name":"East Baton Rouge Parish","state_id":"LA"},{"zip":"70740","fips":"22047","name":"Iberville Parish","state_id":"LA"},{"zip":"70743","fips":"22093","name":"St. James Parish","state_id":"LA"},{"zip":"70744","fips":"22091","name":"St. Helena Parish","state_id":"LA"},{"zip":"70744","fips":"22063","name":"Livingston Parish","state_id":"LA"},{"zip":"70747","fips":"22077","name":"Pointe Coupee Parish","state_id":"LA"},{"zip":"70748","fips":"22037","name":"East Feliciana Parish","state_id":"LA"},{"zip":"70748","fips":"22125","name":"West Feliciana Parish","state_id":"LA"},{"zip":"70748","fips":"22033","name":"East Baton Rouge Parish","state_id":"LA"},{"zip":"70749","fips":"22077","name":"Pointe Coupee Parish","state_id":"LA"},{"zip":"70750","fips":"22097","name":"St. Landry Parish","state_id":"LA"},{"zip":"70752","fips":"22077","name":"Pointe Coupee Parish","state_id":"LA"},{"zip":"70753","fips":"22077","name":"Pointe Coupee Parish","state_id":"LA"},{"zip":"70754","fips":"22063","name":"Livingston Parish","state_id":"LA"},{"zip":"70755","fips":"22077","name":"Pointe Coupee Parish","state_id":"LA"},{"zip":"70756","fips":"22077","name":"Pointe Coupee Parish","state_id":"LA"},{"zip":"70757","fips":"22077","name":"Pointe Coupee Parish","state_id":"LA"},{"zip":"70757","fips":"22047","name":"Iberville Parish","state_id":"LA"},{"zip":"70759","fips":"22077","name":"Pointe Coupee Parish","state_id":"LA"},{"zip":"70760","fips":"22077","name":"Pointe Coupee Parish","state_id":"LA"},{"zip":"70761","fips":"22037","name":"East Feliciana Parish","state_id":"LA"},{"zip":"70762","fips":"22077","name":"Pointe Coupee Parish","state_id":"LA"},{"zip":"70763","fips":"22093","name":"St. James Parish","state_id":"LA"},{"zip":"70764","fips":"22121","name":"West Baton Rouge Parish","state_id":"LA"},{"zip":"70764","fips":"22047","name":"Iberville Parish","state_id":"LA"},{"zip":"70767","fips":"22121","name":"West Baton Rouge Parish","state_id":"LA"},{"zip":"70767","fips":"22077","name":"Pointe Coupee Parish","state_id":"LA"},{"zip":"70767","fips":"22033","name":"East Baton Rouge Parish","state_id":"LA"},{"zip":"70769","fips":"22005","name":"Ascension Parish","state_id":"LA"},{"zip":"70770","fips":"22033","name":"East Baton Rouge Parish","state_id":"LA"},{"zip":"70772","fips":"22047","name":"Iberville Parish","state_id":"LA"},{"zip":"70773","fips":"22077","name":"Pointe Coupee Parish","state_id":"LA"},{"zip":"70774","fips":"22005","name":"Ascension Parish","state_id":"LA"},{"zip":"70774","fips":"22063","name":"Livingston Parish","state_id":"LA"},{"zip":"70775","fips":"22125","name":"West Feliciana Parish","state_id":"LA"},{"zip":"70776","fips":"22047","name":"Iberville Parish","state_id":"LA"},{"zip":"70777","fips":"22033","name":"East Baton Rouge Parish","state_id":"LA"},{"zip":"70777","fips":"22037","name":"East Feliciana Parish","state_id":"LA"},{"zip":"70778","fips":"22005","name":"Ascension Parish","state_id":"LA"},{"zip":"70780","fips":"22047","name":"Iberville Parish","state_id":"LA"},{"zip":"70782","fips":"22125","name":"West Feliciana Parish","state_id":"LA"},{"zip":"70783","fips":"22077","name":"Pointe Coupee Parish","state_id":"LA"},{"zip":"70784","fips":"22125","name":"West Feliciana Parish","state_id":"LA"},{"zip":"70785","fips":"22063","name":"Livingston Parish","state_id":"LA"},{"zip":"70786","fips":"22063","name":"Livingston Parish","state_id":"LA"},{"zip":"70787","fips":"22125","name":"West Feliciana Parish","state_id":"LA"},{"zip":"70788","fips":"22047","name":"Iberville Parish","state_id":"LA"},{"zip":"70789","fips":"22037","name":"East Feliciana Parish","state_id":"LA"},{"zip":"70791","fips":"22037","name":"East Feliciana Parish","state_id":"LA"},{"zip":"70791","fips":"22033","name":"East Baton Rouge Parish","state_id":"LA"},{"zip":"70792","fips":"22093","name":"St. James Parish","state_id":"LA"}]
