[{"zip":"70801","fips":"22033","name":"East Baton Rouge Parish","state_id":"LA"},{"zip":"70802","fips":"22033","name":"East Baton Rouge Parish","state_id":"LA"},{"zip":"70803","fips":"22033","name":"East Baton Rouge Parish","state_id":"LA"},{"zip":"70804","fips":"22033","name":"East Baton Rouge Parish","state_id":"LA"},{"zip":"70805","fips":"22033","name":"East Baton Rouge Parish","state_id":"LA"},{"zip":"70806","fips":"22033","name":"East Baton Rouge Parish","state_id":"LA"},{"zip":"70807","fips":"22033","name":"East Baton Rouge Parish","state_id":"LA"},{"zip":"70808","fips":"22033","name":"East Baton Rouge Parish","state_id":"LA"},{"zip":"70809","fips":"22033","name":"East Baton Rouge Parish","state_id":"LA"},{"zip":"70810","fips":"22033","name":"East Baton Rouge Parish","state_id":"LA"},{"zip":"70811","fips":"22033","name":"East Baton Rouge Parish","state_id":"LA"},{"zip":"70812","fips":"22033","name":"East Baton Rouge Parish","state_id":"LA"},{"zip":"70814","fips":"22033","name":"East Baton Rouge Parish","state_id":"LA"},{"zip":"70815","fips":"22033","name":"East Baton Rouge Parish","state_id":"LA"},{"zip":"70816","fips":"22033","name":"East Baton Rouge Parish","state_id":"LA"},{"zip":"70817","fips":"22033","name":"East Baton Rouge Parish","state_id":"LA"},{"zip":"70818","fips":"22033","name":"East Baton Rouge Parish","state_id":"LA"},{"zip":"70819","fips":"22033","name":"East Baton Rouge Parish","state_id":"LA"},{"zip":"70820","fips":"22033","name":"East Baton Rouge Parish","state_id":"LA"},{"zip":"70821","fips":"22033","name":"East Baton Rouge Parish","state_id":"LA"},{"zip":"70825","fips":"22033","name":"East Baton Rouge Parish","state_id":"LA"},{"zip":"70827","fips":"22033","name":"East Baton Rouge Parish","state_id":"LA"},{"zip":"70835","fips":"22033","name":"East Baton Rouge Parish","state_id":"LA"},{"zip":"70836","fips":"22033","name":"East Baton Rouge Parish","state_id":"LA"},{"zip":"70874","fips":"22033","name":"East Baton Rouge Parish","state_id":"LA"},{"zip":"70879","fips":"22033","name":"East Baton Rouge Parish","state_id":"LA"},{"zip":"70884","fips":"22033","name":"East Baton Rouge Parish","state_id":"LA"},{"zip":"70892","fips":"22033","name":"East Baton Rouge Parish","state_id":"LA"},{"zip":"70893","fips":"22033","name":"East Baton Rouge Parish","state_id":"LA"},{"zip":"70895","fips":"22033","name":"East Baton Rouge Parish","state_id":"LA"},{"zip":"70896","fips":"22033","name":"East Baton Rouge Parish","state_id":"LA"},{"zip":"70898","fips":"22033","name":"East Baton Rouge Parish","state_id":"LA"}]
