[{"zip":"71001","fips":"22027","name":"Claiborne Parish","state_id":"LA"},{"zip":"71001","fips":"22013","name":"Bienville Parish","state_id":"LA"},{"zip":"71001","fips":"22061","name":"Lincoln Parish","state_id":"LA"},{"zip":"71002","fips":"22069","name":"Natchitoches Parish","state_id":"LA"},{"zip":"71003","fips":"22061","name":"Lincoln Parish","state_id":"LA"},{"zip":"71003","fips":"22027","name":"Claiborne Parish","state_id":"LA"},{"zip":"71004","fips":"22017","name":"Caddo Parish","state_id":"LA"},{"zip":"71006","fips":"22015","name":"Bossier Parish","state_id":"LA"},{"zip":"71007","fips":"22017","name":"Caddo Parish","state_id":"LA"},{"zip":"71008","fips":"22013","name":"Bienville Parish","state_id":"LA"},{"zip":"71009","fips":"22017","name":"Caddo Parish","state_id":"LA"},{"zip":"71016","fips":"22069","name":"Natchitoches Parish","state_id":"LA"},{"zip":"71016","fips":"22013","name":"Bienville Parish","state_id":"LA"},{"zip":"71018","fips":"22015","name":"Bossier Parish","state_id":"LA"},{"zip":"71018","fips":"22119","name":"Webster Parish","state_id":"LA"},{"zip":"71019","fips":"22081","name":"Red River Parish","state_id":"LA"},{"zip":"71019","fips":"22069","name":"Natchitoches Parish","state_id":"LA"},{"zip":"71021","fips":"22119","name":"Webster Parish","state_id":"LA"},{"zip":"71023","fips":"22119","name":"Webster Parish","state_id":"LA"},{"zip":"71023","fips":"22015","name":"Bossier Parish","state_id":"LA"},{"zip":"71024","fips":"22013","name":"Bienville Parish","state_id":"LA"},{"zip":"71024","fips":"22119","name":"Webster Parish","state_id":"LA"},{"zip":"71027","fips":"22031","name":"De Soto Parish","state_id":"LA"},{"zip":"71028","fips":"22013","name":"Bienville Parish","state_id":"LA"},{"zip":"71028","fips":"22027","name":"Claiborne Parish","state_id":"LA"},{"zip":"71029","fips":"22017","name":"Caddo Parish","state_id":"LA"},{"zip":"71030","fips":"22031","name":"De Soto Parish","state_id":"LA"},{"zip":"71031","fips":"22069","name":"Natchitoches Parish","state_id":"LA"},{"zip":"71031","fips":"22127","name":"Winn Parish","state_id":"LA"},{"zip":"71032","fips":"22031","name":"De Soto Parish","state_id":"LA"},{"zip":"71033","fips":"22017","name":"Caddo Parish","state_id":"LA"},{"zip":"71034","fips":"22081","name":"Red River Parish","state_id":"LA"},{"zip":"71037","fips":"22119","name":"Webster Parish","state_id":"LA"},{"zip":"71037","fips":"22015","name":"Bossier Parish","state_id":"LA"},{"zip":"71038","fips":"22027","name":"Claiborne Parish","state_id":"LA"},{"zip":"71038","fips":"22119","name":"Webster Parish","state_id":"LA"},{"zip":"71039","fips":"22013","name":"Bienville Parish","state_id":"LA"},{"zip":"71039","fips":"22119","name":"Webster Parish","state_id":"LA"},{"zip":"71040","fips":"22027","name":"Claiborne Parish","state_id":"LA"},{"zip":"71043","fips":"22017","name":"Caddo Parish","state_id":"LA"},{"zip":"71044","fips":"22017","name":"Caddo Parish","state_id":"LA"},{"zip":"71045","fips":"22013","name":"Bienville Parish","state_id":"LA"},{"zip":"71046","fips":"22017","name":"Caddo Parish","state_id":"LA"},{"zip":"71046","fips":"22031","name":"De Soto Parish","state_id":"LA"},{"zip":"71047","fips":"22017","name":"Caddo Parish","state_id":"LA"},{"zip":"71048","fips":"22027","name":"Claiborne Parish","state_id":"LA"},{"zip":"71049","fips":"22031","name":"De Soto Parish","state_id":"LA"},{"zip":"71051","fips":"22015","name":"Bossier Parish","state_id":"LA"},{"zip":"71052","fips":"22081","name":"Red River Parish","state_id":"LA"},{"zip":"71052","fips":"22031","name":"De Soto Parish","state_id":"LA"},{"zip":"71052","fips":"22085","name":"Sabine Parish","state_id":"LA"},{"zip":"71055","fips":"22013","name":"Bienville Parish","state_id":"LA"},{"zip":"71055","fips":"22119","name":"Webster Parish","state_id":"LA"},{"zip":"71055","fips":"22027","name":"Claiborne Parish","state_id":"LA"},{"zip":"71060","fips":"22017","name":"Caddo Parish","state_id":"LA"},{"zip":"71061","fips":"22017","name":"Caddo Parish","state_id":"LA"},{"zip":"71063","fips":"22031","name":"De Soto Parish","state_id":"LA"},{"zip":"71063","fips":"22069","name":"Natchitoches Parish","state_id":"LA"},{"zip":"71064","fips":"22015","name":"Bossier Parish","state_id":"LA"},{"zip":"71065","fips":"22069","name":"Natchitoches Parish","state_id":"LA"},{"zip":"71065","fips":"22085","name":"Sabine Parish","state_id":"LA"},{"zip":"71066","fips":"22069","name":"Natchitoches Parish","state_id":"LA"},{"zip":"71067","fips":"22015","name":"Bossier Parish","state_id":"LA"},{"zip":"71067","fips":"22119","name":"Webster Parish","state_id":"LA"},{"zip":"71068","fips":"22013","name":"Bienville Parish","state_id":"LA"},{"zip":"71068","fips":"22081","name":"Red River Parish","state_id":"LA"},{"zip":"71069","fips":"22017","name":"Caddo Parish","state_id":"LA"},{"zip":"71070","fips":"22127","name":"Winn Parish","state_id":"LA"},{"zip":"71070","fips":"22013","name":"Bienville Parish","state_id":"LA"},{"zip":"71070","fips":"22069","name":"Natchitoches Parish","state_id":"LA"},{"zip":"71071","fips":"22119","name":"Webster Parish","state_id":"LA"},{"zip":"71071","fips":"22015","name":"Bossier Parish","state_id":"LA"},{"zip":"71072","fips":"22119","name":"Webster Parish","state_id":"LA"},{"zip":"71073","fips":"22119","name":"Webster Parish","state_id":"LA"},{"zip":"71075","fips":"22119","name":"Webster Parish","state_id":"LA"},{"zip":"71075","fips":"22015","name":"Bossier Parish","state_id":"LA"},{"zip":"71078","fips":"22031","name":"De Soto Parish","state_id":"LA"},{"zip":"71079","fips":"22027","name":"Claiborne Parish","state_id":"LA"},{"zip":"71080","fips":"22013","name":"Bienville Parish","state_id":"LA"},{"zip":"71082","fips":"22017","name":"Caddo Parish","state_id":"LA"}]
