[{"zip":"71101","fips":"22017","name":"Caddo Parish","state_id":"LA"},{"zip":"71101","fips":"22015","name":"Bossier Parish","state_id":"LA"},{"zip":"71102","fips":"22017","name":"Caddo Parish","state_id":"LA"},{"zip":"71103","fips":"22017","name":"Caddo Parish","state_id":"LA"},{"zip":"71104","fips":"22015","name":"Bossier Parish","state_id":"LA"},{"zip":"71104","fips":"22017","name":"Caddo Parish","state_id":"LA"},{"zip":"71105","fips":"22017","name":"Caddo Parish","state_id":"LA"},{"zip":"71105","fips":"22015","name":"Bossier Parish","state_id":"LA"},{"zip":"71106","fips":"22015","name":"Bossier Parish","state_id":"LA"},{"zip":"71106","fips":"22017","name":"Caddo Parish","state_id":"LA"},{"zip":"71107","fips":"22015","name":"Bossier Parish","state_id":"LA"},{"zip":"71107","fips":"22017","name":"Caddo Parish","state_id":"LA"},{"zip":"71108","fips":"22017","name":"Caddo Parish","state_id":"LA"},{"zip":"71109","fips":"22017","name":"Caddo Parish","state_id":"LA"},{"zip":"71110","fips":"22015","name":"Bossier Parish","state_id":"LA"},{"zip":"71111","fips":"22015","name":"Bossier Parish","state_id":"LA"},{"zip":"71112","fips":"22015","name":"Bossier Parish","state_id":"LA"},{"zip":"71113","fips":"22015","name":"Bossier Parish","state_id":"LA"},{"zip":"71115","fips":"22081","name":"Red River Parish","state_id":"LA"},{"zip":"71115","fips":"22015","name":"Bossier Parish","state_id":"LA"},{"zip":"71115","fips":"22017","name":"Caddo Parish","state_id":"LA"},{"zip":"71118","fips":"22017","name":"Caddo Parish","state_id":"LA"},{"zip":"71119","fips":"22017","name":"Caddo Parish","state_id":"LA"},{"zip":"71129","fips":"22017","name":"Caddo Parish","state_id":"LA"},{"zip":"71133","fips":"22017","name":"Caddo Parish","state_id":"LA"},{"zip":"71134","fips":"22017","name":"Caddo Parish","state_id":"LA"},{"zip":"71135","fips":"22017","name":"Caddo Parish","state_id":"LA"},{"zip":"71136","fips":"22017","name":"Caddo Parish","state_id":"LA"},{"zip":"71137","fips":"22015","name":"Bossier Parish","state_id":"LA"},{"zip":"71138","fips":"22017","name":"Caddo Parish","state_id":"LA"},{"zip":"71148","fips":"22017","name":"Caddo Parish","state_id":"LA"},{"zip":"71149","fips":"22017","name":"Caddo Parish","state_id":"LA"},{"zip":"71161","fips":"22017","name":"Caddo Parish","state_id":"LA"},{"zip":"71162","fips":"22017","name":"Caddo Parish","state_id":"LA"},{"zip":"71163","fips":"22017","name":"Caddo Parish","state_id":"LA"},{"zip":"71164","fips":"22017","name":"Caddo Parish","state_id":"LA"},{"zip":"71165","fips":"22017","name":"Caddo Parish","state_id":"LA"},{"zip":"71166","fips":"22017","name":"Caddo Parish","state_id":"LA"},{"zip":"71171","fips":"22015","name":"Bossier Parish","state_id":"LA"},{"zip":"71172","fips":"22015","name":"Bossier Parish","state_id":"LA"}]
