[{"zip":"71201","fips":"22073","name":"Ouachita Parish","state_id":"LA"},{"zip":"71202","fips":"22073","name":"Ouachita Parish","state_id":"LA"},{"zip":"71203","fips":"22073","name":"Ouachita Parish","state_id":"LA"},{"zip":"71207","fips":"22073","name":"Ouachita Parish","state_id":"LA"},{"zip":"71209","fips":"22073","name":"Ouachita Parish","state_id":"LA"},{"zip":"71210","fips":"22073","name":"Ouachita Parish","state_id":"LA"},{"zip":"71211","fips":"22073","name":"Ouachita Parish","state_id":"LA"},{"zip":"71212","fips":"22073","name":"Ouachita Parish","state_id":"LA"},{"zip":"71213","fips":"22073","name":"Ouachita Parish","state_id":"LA"},{"zip":"71218","fips":"22083","name":"Richland Parish","state_id":"LA"},{"zip":"71219","fips":"22041","name":"Franklin Parish","state_id":"LA"},{"zip":"71220","fips":"22067","name":"Morehouse Parish","state_id":"LA"},{"zip":"71222","fips":"22111","name":"Union Parish","state_id":"LA"},{"zip":"71222","fips":"22027","name":"Claiborne Parish","state_id":"LA"},{"zip":"71223","fips":"22067","name":"Morehouse Parish","state_id":"LA"},{"zip":"71225","fips":"22049","name":"Jackson Parish","state_id":"LA"},{"zip":"71225","fips":"22073","name":"Ouachita Parish","state_id":"LA"},{"zip":"71226","fips":"22049","name":"Jackson Parish","state_id":"LA"},{"zip":"71227","fips":"22049","name":"Jackson Parish","state_id":"LA"},{"zip":"71227","fips":"22073","name":"Ouachita Parish","state_id":"LA"},{"zip":"71227","fips":"22111","name":"Union Parish","state_id":"LA"},{"zip":"71227","fips":"22061","name":"Lincoln Parish","state_id":"LA"},{"zip":"71229","fips":"22073","name":"Ouachita Parish","state_id":"LA"},{"zip":"71229","fips":"22067","name":"Morehouse Parish","state_id":"LA"},{"zip":"71230","fips":"22041","name":"Franklin Parish","state_id":"LA"},{"zip":"71232","fips":"22065","name":"Madison Parish","state_id":"LA"},{"zip":"71232","fips":"22083","name":"Richland Parish","state_id":"LA"},{"zip":"71232","fips":"22041","name":"Franklin Parish","state_id":"LA"},{"zip":"71233","fips":"22065","name":"Madison Parish","state_id":"LA"},{"zip":"71234","fips":"22061","name":"Lincoln Parish","state_id":"LA"},{"zip":"71234","fips":"22111","name":"Union Parish","state_id":"LA"},{"zip":"71234","fips":"22073","name":"Ouachita Parish","state_id":"LA"},{"zip":"71235","fips":"22111","name":"Union Parish","state_id":"LA"},{"zip":"71235","fips":"22027","name":"Claiborne Parish","state_id":"LA"},{"zip":"71235","fips":"22061","name":"Lincoln Parish","state_id":"LA"},{"zip":"71237","fips":"22035","name":"East Carroll Parish","state_id":"LA"},{"zip":"71237","fips":"22083","name":"Richland Parish","state_id":"LA"},{"zip":"71237","fips":"22123","name":"West Carroll Parish","state_id":"LA"},{"zip":"71237","fips":"22065","name":"Madison Parish","state_id":"LA"},{"zip":"71238","fips":"22073","name":"Ouachita Parish","state_id":"LA"},{"zip":"71238","fips":"22049","name":"Jackson Parish","state_id":"LA"},{"zip":"71240","fips":"22073","name":"Ouachita Parish","state_id":"LA"},{"zip":"71241","fips":"22111","name":"Union Parish","state_id":"LA"},{"zip":"71241","fips":"22061","name":"Lincoln Parish","state_id":"LA"},{"zip":"71242","fips":"22123","name":"West Carroll Parish","state_id":"LA"},{"zip":"71243","fips":"22041","name":"Franklin Parish","state_id":"LA"},{"zip":"71245","fips":"22061","name":"Lincoln Parish","state_id":"LA"},{"zip":"71247","fips":"22049","name":"Jackson Parish","state_id":"LA"},{"zip":"71249","fips":"22041","name":"Franklin Parish","state_id":"LA"},{"zip":"71250","fips":"22067","name":"Morehouse Parish","state_id":"LA"},{"zip":"71251","fips":"22013","name":"Bienville Parish","state_id":"LA"},{"zip":"71251","fips":"22049","name":"Jackson Parish","state_id":"LA"},{"zip":"71253","fips":"22123","name":"West Carroll Parish","state_id":"LA"},{"zip":"71254","fips":"22035","name":"East Carroll Parish","state_id":"LA"},{"zip":"71256","fips":"22111","name":"Union Parish","state_id":"LA"},{"zip":"71256","fips":"22027","name":"Claiborne Parish","state_id":"LA"},{"zip":"71259","fips":"22083","name":"Richland Parish","state_id":"LA"},{"zip":"71260","fips":"22111","name":"Union Parish","state_id":"LA"},{"zip":"71261","fips":"22067","name":"Morehouse Parish","state_id":"LA"},{"zip":"71263","fips":"22123","name":"West Carroll Parish","state_id":"LA"},{"zip":"71264","fips":"22067","name":"Morehouse Parish","state_id":"LA"},{"zip":"71264","fips":"22083","name":"Richland Parish","state_id":"LA"},{"zip":"71266","fips":"22123","name":"West Carroll Parish","state_id":"LA"},{"zip":"71268","fips":"22013","name":"Bienville Parish","state_id":"LA"},{"zip":"71268","fips":"22049","name":"Jackson Parish","state_id":"LA"},{"zip":"71269","fips":"22123","name":"West Carroll Parish","state_id":"LA"},{"zip":"71269","fips":"22083","name":"Richland Parish","state_id":"LA"},{"zip":"71269","fips":"22067","name":"Morehouse Parish","state_id":"LA"},{"zip":"71270","fips":"22061","name":"Lincoln Parish","state_id":"LA"},{"zip":"71270","fips":"22049","name":"Jackson Parish","state_id":"LA"},{"zip":"71272","fips":"22061","name":"Lincoln Parish","state_id":"LA"},{"zip":"71273","fips":"22061","name":"Lincoln Parish","state_id":"LA"},{"zip":"71275","fips":"22013","name":"Bienville Parish","state_id":"LA"},{"zip":"71275","fips":"22061","name":"Lincoln Parish","state_id":"LA"},{"zip":"71276","fips":"22035","name":"East Carroll Parish","state_id":"LA"},{"zip":"71276","fips":"22065","name":"Madison Parish","state_id":"LA"},{"zip":"71277","fips":"22111","name":"Union Parish","state_id":"LA"},{"zip":"71279","fips":"22083","name":"Richland Parish","state_id":"LA"},{"zip":"71280","fips":"22073","name":"Ouachita Parish","state_id":"LA"},{"zip":"71280","fips":"22111","name":"Union Parish","state_id":"LA"},{"zip":"71280","fips":"22067","name":"Morehouse Parish","state_id":"LA"},{"zip":"71281","fips":"22073","name":"Ouachita Parish","state_id":"LA"},{"zip":"71282","fips":"22065","name":"Madison Parish","state_id":"LA"},{"zip":"71282","fips":"22035","name":"East Carroll Parish","state_id":"LA"},{"zip":"71282","fips":"22107","name":"Tensas Parish","state_id":"LA"},{"zip":"71286","fips":"22123","name":"West Carroll Parish","state_id":"LA"},{"zip":"71286","fips":"22035","name":"East Carroll Parish","state_id":"LA"},{"zip":"71291","fips":"22073","name":"Ouachita Parish","state_id":"LA"},{"zip":"71292","fips":"22073","name":"Ouachita Parish","state_id":"LA"},{"zip":"71294","fips":"22073","name":"Ouachita Parish","state_id":"LA"},{"zip":"71295","fips":"22041","name":"Franklin Parish","state_id":"LA"}]
