[{"zip":"71301","fips":"22079","name":"Rapides Parish","state_id":"LA"},{"zip":"71302","fips":"22079","name":"Rapides Parish","state_id":"LA"},{"zip":"71303","fips":"22079","name":"Rapides Parish","state_id":"LA"},{"zip":"71306","fips":"22079","name":"Rapides Parish","state_id":"LA"},{"zip":"71307","fips":"22079","name":"Rapides Parish","state_id":"LA"},{"zip":"71309","fips":"22079","name":"Rapides Parish","state_id":"LA"},{"zip":"71315","fips":"22079","name":"Rapides Parish","state_id":"LA"},{"zip":"71316","fips":"22029","name":"Concordia Parish","state_id":"LA"},{"zip":"71320","fips":"22009","name":"Avoyelles Parish","state_id":"LA"},{"zip":"71322","fips":"22079","name":"Rapides Parish","state_id":"LA"},{"zip":"71322","fips":"22009","name":"Avoyelles Parish","state_id":"LA"},{"zip":"71322","fips":"22097","name":"St. Landry Parish","state_id":"LA"},{"zip":"71323","fips":"22009","name":"Avoyelles Parish","state_id":"LA"},{"zip":"71323","fips":"22079","name":"Rapides Parish","state_id":"LA"},{"zip":"71324","fips":"22041","name":"Franklin Parish","state_id":"LA"},{"zip":"71325","fips":"22039","name":"Evangeline Parish","state_id":"LA"},{"zip":"71325","fips":"22079","name":"Rapides Parish","state_id":"LA"},{"zip":"71326","fips":"22107","name":"Tensas Parish","state_id":"LA"},{"zip":"71326","fips":"22025","name":"Catahoula Parish","state_id":"LA"},{"zip":"71326","fips":"22029","name":"Concordia Parish","state_id":"LA"},{"zip":"71327","fips":"22009","name":"Avoyelles Parish","state_id":"LA"},{"zip":"71328","fips":"22009","name":"Avoyelles Parish","state_id":"LA"},{"zip":"71328","fips":"22079","name":"Rapides Parish","state_id":"LA"},{"zip":"71329","fips":"22009","name":"Avoyelles Parish","state_id":"LA"},{"zip":"71330","fips":"22079","name":"Rapides Parish","state_id":"LA"},{"zip":"71331","fips":"22009","name":"Avoyelles Parish","state_id":"LA"},{"zip":"71333","fips":"22009","name":"Avoyelles Parish","state_id":"LA"},{"zip":"71334","fips":"22107","name":"Tensas Parish","state_id":"LA"},{"zip":"71334","fips":"22029","name":"Concordia Parish","state_id":"LA"},{"zip":"71336","fips":"22041","name":"Franklin Parish","state_id":"LA"},{"zip":"71339","fips":"22009","name":"Avoyelles Parish","state_id":"LA"},{"zip":"71340","fips":"22025","name":"Catahoula Parish","state_id":"LA"},{"zip":"71341","fips":"22009","name":"Avoyelles Parish","state_id":"LA"},{"zip":"71342","fips":"22059","name":"LaSalle Parish","state_id":"LA"},{"zip":"71343","fips":"22025","name":"Catahoula Parish","state_id":"LA"},{"zip":"71343","fips":"22029","name":"Concordia Parish","state_id":"LA"},{"zip":"71343","fips":"22059","name":"LaSalle Parish","state_id":"LA"},{"zip":"71345","fips":"22097","name":"St. Landry Parish","state_id":"LA"},{"zip":"71346","fips":"22079","name":"Rapides Parish","state_id":"LA"},{"zip":"71348","fips":"22079","name":"Rapides Parish","state_id":"LA"},{"zip":"71350","fips":"22009","name":"Avoyelles Parish","state_id":"LA"},{"zip":"71351","fips":"22009","name":"Avoyelles Parish","state_id":"LA"},{"zip":"71351","fips":"22079","name":"Rapides Parish","state_id":"LA"},{"zip":"71353","fips":"22009","name":"Avoyelles Parish","state_id":"LA"},{"zip":"71353","fips":"22097","name":"St. Landry Parish","state_id":"LA"},{"zip":"71354","fips":"22029","name":"Concordia Parish","state_id":"LA"},{"zip":"71354","fips":"22025","name":"Catahoula Parish","state_id":"LA"},{"zip":"71355","fips":"22009","name":"Avoyelles Parish","state_id":"LA"},{"zip":"71356","fips":"22009","name":"Avoyelles Parish","state_id":"LA"},{"zip":"71356","fips":"22097","name":"St. Landry Parish","state_id":"LA"},{"zip":"71357","fips":"22107","name":"Tensas Parish","state_id":"LA"},{"zip":"71358","fips":"22097","name":"St. Landry Parish","state_id":"LA"},{"zip":"71359","fips":"22079","name":"Rapides Parish","state_id":"LA"},{"zip":"71360","fips":"22043","name":"Grant Parish","state_id":"LA"},{"zip":"71360","fips":"22079","name":"Rapides Parish","state_id":"LA"},{"zip":"71360","fips":"22009","name":"Avoyelles Parish","state_id":"LA"},{"zip":"71362","fips":"22009","name":"Avoyelles Parish","state_id":"LA"},{"zip":"71362","fips":"22097","name":"St. Landry Parish","state_id":"LA"},{"zip":"71363","fips":"22025","name":"Catahoula Parish","state_id":"LA"},{"zip":"71365","fips":"22079","name":"Rapides Parish","state_id":"LA"},{"zip":"71366","fips":"22107","name":"Tensas Parish","state_id":"LA"},{"zip":"71367","fips":"22039","name":"Evangeline Parish","state_id":"LA"},{"zip":"71367","fips":"22009","name":"Avoyelles Parish","state_id":"LA"},{"zip":"71368","fips":"22041","name":"Franklin Parish","state_id":"LA"},{"zip":"71368","fips":"22025","name":"Catahoula Parish","state_id":"LA"},{"zip":"71369","fips":"22009","name":"Avoyelles Parish","state_id":"LA"},{"zip":"71371","fips":"22059","name":"LaSalle Parish","state_id":"LA"},{"zip":"71373","fips":"22029","name":"Concordia Parish","state_id":"LA"},{"zip":"71375","fips":"22107","name":"Tensas Parish","state_id":"LA"},{"zip":"71378","fips":"22041","name":"Franklin Parish","state_id":"LA"}]
