[{"zip":"71401","fips":"22025","name":"Catahoula Parish","state_id":"LA"},{"zip":"71403","fips":"22115","name":"Vernon Parish","state_id":"LA"},{"zip":"71403","fips":"22085","name":"Sabine Parish","state_id":"LA"},{"zip":"71404","fips":"22043","name":"Grant Parish","state_id":"LA"},{"zip":"71404","fips":"22127","name":"Winn Parish","state_id":"LA"},{"zip":"71405","fips":"22079","name":"Rapides Parish","state_id":"LA"},{"zip":"71406","fips":"22085","name":"Sabine Parish","state_id":"LA"},{"zip":"71407","fips":"22043","name":"Grant Parish","state_id":"LA"},{"zip":"71409","fips":"22079","name":"Rapides Parish","state_id":"LA"},{"zip":"71410","fips":"22127","name":"Winn Parish","state_id":"LA"},{"zip":"71411","fips":"22069","name":"Natchitoches Parish","state_id":"LA"},{"zip":"71414","fips":"22069","name":"Natchitoches Parish","state_id":"LA"},{"zip":"71415","fips":"22021","name":"Caldwell Parish","state_id":"LA"},{"zip":"71416","fips":"22069","name":"Natchitoches Parish","state_id":"LA"},{"zip":"71417","fips":"22043","name":"Grant Parish","state_id":"LA"},{"zip":"71418","fips":"22083","name":"Richland Parish","state_id":"LA"},{"zip":"71418","fips":"22025","name":"Catahoula Parish","state_id":"LA"},{"zip":"71418","fips":"22073","name":"Ouachita Parish","state_id":"LA"},{"zip":"71418","fips":"22021","name":"Caldwell Parish","state_id":"LA"},{"zip":"71419","fips":"22085","name":"Sabine Parish","state_id":"LA"},{"zip":"71419","fips":"22031","name":"De Soto Parish","state_id":"LA"},{"zip":"71422","fips":"22127","name":"Winn Parish","state_id":"LA"},{"zip":"71423","fips":"22079","name":"Rapides Parish","state_id":"LA"},{"zip":"71423","fips":"22043","name":"Grant Parish","state_id":"LA"},{"zip":"71424","fips":"22079","name":"Rapides Parish","state_id":"LA"},{"zip":"71425","fips":"22025","name":"Catahoula Parish","state_id":"LA"},{"zip":"71426","fips":"22085","name":"Sabine Parish","state_id":"LA"},{"zip":"71427","fips":"22079","name":"Rapides Parish","state_id":"LA"},{"zip":"71427","fips":"22069","name":"Natchitoches Parish","state_id":"LA"},{"zip":"71428","fips":"22069","name":"Natchitoches Parish","state_id":"LA"},{"zip":"71429","fips":"22085","name":"Sabine Parish","state_id":"LA"},{"zip":"71429","fips":"22115","name":"Vernon Parish","state_id":"LA"},{"zip":"71430","fips":"22079","name":"Rapides Parish","state_id":"LA"},{"zip":"71432","fips":"22043","name":"Grant Parish","state_id":"LA"},{"zip":"71432","fips":"22127","name":"Winn Parish","state_id":"LA"},{"zip":"71433","fips":"22003","name":"Allen Parish","state_id":"LA"},{"zip":"71433","fips":"22079","name":"Rapides Parish","state_id":"LA"},{"zip":"71433","fips":"22039","name":"Evangeline Parish","state_id":"LA"},{"zip":"71434","fips":"22069","name":"Natchitoches Parish","state_id":"LA"},{"zip":"71435","fips":"22021","name":"Caldwell Parish","state_id":"LA"},{"zip":"71435","fips":"22049","name":"Jackson Parish","state_id":"LA"},{"zip":"71435","fips":"22059","name":"LaSalle Parish","state_id":"LA"},{"zip":"71438","fips":"22115","name":"Vernon Parish","state_id":"LA"},{"zip":"71438","fips":"22079","name":"Rapides Parish","state_id":"LA"},{"zip":"71439","fips":"22115","name":"Vernon Parish","state_id":"LA"},{"zip":"71439","fips":"22085","name":"Sabine Parish","state_id":"LA"},{"zip":"71440","fips":"22127","name":"Winn Parish","state_id":"LA"},{"zip":"71441","fips":"22059","name":"LaSalle Parish","state_id":"LA"},{"zip":"71441","fips":"22021","name":"Caldwell Parish","state_id":"LA"},{"zip":"71443","fips":"22115","name":"Vernon Parish","state_id":"LA"},{"zip":"71446","fips":"22115","name":"Vernon Parish","state_id":"LA"},{"zip":"71447","fips":"22115","name":"Vernon Parish","state_id":"LA"},{"zip":"71447","fips":"22079","name":"Rapides Parish","state_id":"LA"},{"zip":"71447","fips":"22069","name":"Natchitoches Parish","state_id":"LA"},{"zip":"71448","fips":"22079","name":"Rapides Parish","state_id":"LA"},{"zip":"71449","fips":"22085","name":"Sabine Parish","state_id":"LA"},{"zip":"71450","fips":"22085","name":"Sabine Parish","state_id":"LA"},{"zip":"71450","fips":"22069","name":"Natchitoches Parish","state_id":"LA"},{"zip":"71452","fips":"22069","name":"Natchitoches Parish","state_id":"LA"},{"zip":"71454","fips":"22127","name":"Winn Parish","state_id":"LA"},{"zip":"71454","fips":"22043","name":"Grant Parish","state_id":"LA"},{"zip":"71455","fips":"22079","name":"Rapides Parish","state_id":"LA"},{"zip":"71455","fips":"22069","name":"Natchitoches Parish","state_id":"LA"},{"zip":"71456","fips":"22069","name":"Natchitoches Parish","state_id":"LA"},{"zip":"71457","fips":"22081","name":"Red River Parish","state_id":"LA"},{"zip":"71457","fips":"22069","name":"Natchitoches Parish","state_id":"LA"},{"zip":"71457","fips":"22127","name":"Winn Parish","state_id":"LA"},{"zip":"71458","fips":"22069","name":"Natchitoches Parish","state_id":"LA"},{"zip":"71459","fips":"22115","name":"Vernon Parish","state_id":"LA"},{"zip":"71460","fips":"22085","name":"Sabine Parish","state_id":"LA"},{"zip":"71461","fips":"22115","name":"Vernon Parish","state_id":"LA"},{"zip":"71462","fips":"22085","name":"Sabine Parish","state_id":"LA"},{"zip":"71463","fips":"22039","name":"Evangeline Parish","state_id":"LA"},{"zip":"71463","fips":"22003","name":"Allen Parish","state_id":"LA"},{"zip":"71463","fips":"22079","name":"Rapides Parish","state_id":"LA"},{"zip":"71465","fips":"22127","name":"Winn Parish","state_id":"LA"},{"zip":"71465","fips":"22059","name":"LaSalle Parish","state_id":"LA"},{"zip":"71465","fips":"22021","name":"Caldwell Parish","state_id":"LA"},{"zip":"71465","fips":"22025","name":"Catahoula Parish","state_id":"LA"},{"zip":"71466","fips":"22079","name":"Rapides Parish","state_id":"LA"},{"zip":"71467","fips":"22079","name":"Rapides Parish","state_id":"LA"},{"zip":"71467","fips":"22043","name":"Grant Parish","state_id":"LA"},{"zip":"71468","fips":"22085","name":"Sabine Parish","state_id":"LA"},{"zip":"71468","fips":"22069","name":"Natchitoches Parish","state_id":"LA"},{"zip":"71469","fips":"22085","name":"Sabine Parish","state_id":"LA"},{"zip":"71469","fips":"22069","name":"Natchitoches Parish","state_id":"LA"},{"zip":"71471","fips":"22127","name":"Winn Parish","state_id":"LA"},{"zip":"71472","fips":"22079","name":"Rapides Parish","state_id":"LA"},{"zip":"71473","fips":"22127","name":"Winn Parish","state_id":"LA"},{"zip":"71474","fips":"22115","name":"Vernon Parish","state_id":"LA"},{"zip":"71475","fips":"22115","name":"Vernon Parish","state_id":"LA"},{"zip":"71477","fips":"22079","name":"Rapides Parish","state_id":"LA"},{"zip":"71479","fips":"22127","name":"Winn Parish","state_id":"LA"},{"zip":"71479","fips":"22059","name":"LaSalle Parish","state_id":"LA"},{"zip":"71480","fips":"22059","name":"LaSalle Parish","state_id":"LA"},{"zip":"71483","fips":"22127","name":"Winn Parish","state_id":"LA"},{"zip":"71485","fips":"22079","name":"Rapides Parish","state_id":"LA"},{"zip":"71486","fips":"22085","name":"Sabine Parish","state_id":"LA"},{"zip":"71496","fips":"22115","name":"Vernon Parish","state_id":"LA"},{"zip":"71497","fips":"22069","name":"Natchitoches Parish","state_id":"LA"}]
