[{"zip":"71601","fips":"05079","name":"Lincoln County","state_id":"AR"},{"zip":"71601","fips":"05069","name":"Jefferson County","state_id":"AR"},{"zip":"71602","fips":"05053","name":"Grant County","state_id":"AR"},{"zip":"71602","fips":"05069","name":"Jefferson County","state_id":"AR"},{"zip":"71603","fips":"05079","name":"Lincoln County","state_id":"AR"},{"zip":"71603","fips":"05069","name":"Jefferson County","state_id":"AR"},{"zip":"71603","fips":"05025","name":"Cleveland County","state_id":"AR"},{"zip":"71603","fips":"05053","name":"Grant County","state_id":"AR"},{"zip":"71630","fips":"05041","name":"Desha County","state_id":"AR"},{"zip":"71631","fips":"05011","name":"Bradley County","state_id":"AR"},{"zip":"71635","fips":"05003","name":"Ashley County","state_id":"AR"},{"zip":"71638","fips":"05043","name":"Drew County","state_id":"AR"},{"zip":"71638","fips":"05003","name":"Ashley County","state_id":"AR"},{"zip":"71638","fips":"05017","name":"Chicot County","state_id":"AR"},{"zip":"71638","fips":"05041","name":"Desha County","state_id":"AR"},{"zip":"71639","fips":"05041","name":"Desha County","state_id":"AR"},{"zip":"71639","fips":"05079","name":"Lincoln County","state_id":"AR"},{"zip":"71640","fips":"05017","name":"Chicot County","state_id":"AR"},{"zip":"71640","fips":"05003","name":"Ashley County","state_id":"AR"},{"zip":"71642","fips":"05043","name":"Drew County","state_id":"AR"},{"zip":"71642","fips":"05003","name":"Ashley County","state_id":"AR"},{"zip":"71643","fips":"05041","name":"Desha County","state_id":"AR"},{"zip":"71643","fips":"05079","name":"Lincoln County","state_id":"AR"},{"zip":"71644","fips":"05079","name":"Lincoln County","state_id":"AR"},{"zip":"71644","fips":"05069","name":"Jefferson County","state_id":"AR"},{"zip":"71646","fips":"05003","name":"Ashley County","state_id":"AR"},{"zip":"71646","fips":"05043","name":"Drew County","state_id":"AR"},{"zip":"71647","fips":"05011","name":"Bradley County","state_id":"AR"},{"zip":"71651","fips":"05011","name":"Bradley County","state_id":"AR"},{"zip":"71652","fips":"05039","name":"Dallas County","state_id":"AR"},{"zip":"71652","fips":"05025","name":"Cleveland County","state_id":"AR"},{"zip":"71653","fips":"05017","name":"Chicot County","state_id":"AR"},{"zip":"71653","fips":"05043","name":"Drew County","state_id":"AR"},{"zip":"71654","fips":"05041","name":"Desha County","state_id":"AR"},{"zip":"71655","fips":"05079","name":"Lincoln County","state_id":"AR"},{"zip":"71655","fips":"05043","name":"Drew County","state_id":"AR"},{"zip":"71658","fips":"05003","name":"Ashley County","state_id":"AR"},{"zip":"71658","fips":"05043","name":"Drew County","state_id":"AR"},{"zip":"71659","fips":"05069","name":"Jefferson County","state_id":"AR"},{"zip":"71660","fips":"05025","name":"Cleveland County","state_id":"AR"},{"zip":"71660","fips":"05011","name":"Bradley County","state_id":"AR"},{"zip":"71661","fips":"05003","name":"Ashley County","state_id":"AR"},{"zip":"71661","fips":"05017","name":"Chicot County","state_id":"AR"},{"zip":"71662","fips":"05041","name":"Desha County","state_id":"AR"},{"zip":"71663","fips":"05003","name":"Ashley County","state_id":"AR"},{"zip":"71663","fips":"05017","name":"Chicot County","state_id":"AR"},{"zip":"71665","fips":"05025","name":"Cleveland County","state_id":"AR"},{"zip":"71665","fips":"05069","name":"Jefferson County","state_id":"AR"},{"zip":"71667","fips":"05079","name":"Lincoln County","state_id":"AR"},{"zip":"71667","fips":"05025","name":"Cleveland County","state_id":"AR"},{"zip":"71667","fips":"05069","name":"Jefferson County","state_id":"AR"},{"zip":"71670","fips":"05041","name":"Desha County","state_id":"AR"},{"zip":"71670","fips":"05043","name":"Drew County","state_id":"AR"},{"zip":"71671","fips":"05025","name":"Cleveland County","state_id":"AR"},{"zip":"71671","fips":"05011","name":"Bradley County","state_id":"AR"},{"zip":"71674","fips":"05041","name":"Desha County","state_id":"AR"},{"zip":"71675","fips":"05079","name":"Lincoln County","state_id":"AR"},{"zip":"71675","fips":"05011","name":"Bradley County","state_id":"AR"},{"zip":"71675","fips":"05043","name":"Drew County","state_id":"AR"},{"zip":"71676","fips":"05017","name":"Chicot County","state_id":"AR"},{"zip":"71676","fips":"05003","name":"Ashley County","state_id":"AR"},{"zip":"71677","fips":"05043","name":"Drew County","state_id":"AR"},{"zip":"71678","fips":"05079","name":"Lincoln County","state_id":"AR"}]
