[{"zip":"71701","fips":"05013","name":"Calhoun County","state_id":"AR"},{"zip":"71701","fips":"05103","name":"Ouachita County","state_id":"AR"},{"zip":"71720","fips":"05013","name":"Calhoun County","state_id":"AR"},{"zip":"71720","fips":"05039","name":"Dallas County","state_id":"AR"},{"zip":"71720","fips":"05103","name":"Ouachita County","state_id":"AR"},{"zip":"71721","fips":"05019","name":"Clark County","state_id":"AR"},{"zip":"71722","fips":"05099","name":"Nevada County","state_id":"AR"},{"zip":"71724","fips":"05139","name":"Union County","state_id":"AR"},{"zip":"71725","fips":"05039","name":"Dallas County","state_id":"AR"},{"zip":"71726","fips":"05103","name":"Ouachita County","state_id":"AR"},{"zip":"71728","fips":"05019","name":"Clark County","state_id":"AR"},{"zip":"71730","fips":"05139","name":"Union County","state_id":"AR"},{"zip":"71731","fips":"05139","name":"Union County","state_id":"AR"},{"zip":"71740","fips":"05027","name":"Columbia County","state_id":"AR"},{"zip":"71742","fips":"05013","name":"Calhoun County","state_id":"AR"},{"zip":"71742","fips":"05039","name":"Dallas County","state_id":"AR"},{"zip":"71743","fips":"05019","name":"Clark County","state_id":"AR"},{"zip":"71744","fips":"05013","name":"Calhoun County","state_id":"AR"},{"zip":"71745","fips":"05013","name":"Calhoun County","state_id":"AR"},{"zip":"71747","fips":"05139","name":"Union County","state_id":"AR"},{"zip":"71748","fips":"05039","name":"Dallas County","state_id":"AR"},{"zip":"71749","fips":"05139","name":"Union County","state_id":"AR"},{"zip":"71750","fips":"05139","name":"Union County","state_id":"AR"},{"zip":"71751","fips":"05103","name":"Ouachita County","state_id":"AR"},{"zip":"71752","fips":"05027","name":"Columbia County","state_id":"AR"},{"zip":"71752","fips":"05099","name":"Nevada County","state_id":"AR"},{"zip":"71753","fips":"05139","name":"Union County","state_id":"AR"},{"zip":"71753","fips":"05027","name":"Columbia County","state_id":"AR"},{"zip":"71754","fips":"05027","name":"Columbia County","state_id":"AR"},{"zip":"71758","fips":"05139","name":"Union County","state_id":"AR"},{"zip":"71759","fips":"05139","name":"Union County","state_id":"AR"},{"zip":"71762","fips":"05103","name":"Ouachita County","state_id":"AR"},{"zip":"71762","fips":"05139","name":"Union County","state_id":"AR"},{"zip":"71763","fips":"05039","name":"Dallas County","state_id":"AR"},{"zip":"71763","fips":"05019","name":"Clark County","state_id":"AR"},{"zip":"71763","fips":"05103","name":"Ouachita County","state_id":"AR"},{"zip":"71764","fips":"05099","name":"Nevada County","state_id":"AR"},{"zip":"71764","fips":"05103","name":"Ouachita County","state_id":"AR"},{"zip":"71764","fips":"05027","name":"Columbia County","state_id":"AR"},{"zip":"71764","fips":"05139","name":"Union County","state_id":"AR"},{"zip":"71765","fips":"05139","name":"Union County","state_id":"AR"},{"zip":"71766","fips":"05013","name":"Calhoun County","state_id":"AR"},{"zip":"71770","fips":"05099","name":"Nevada County","state_id":"AR"},{"zip":"71770","fips":"05027","name":"Columbia County","state_id":"AR"},{"zip":"71772","fips":"05019","name":"Clark County","state_id":"AR"}]
