[{"zip":"71801","fips":"05057","name":"Hempstead County","state_id":"AR"},{"zip":"71820","fips":"05081","name":"Little River County","state_id":"AR"},{"zip":"71822","fips":"05081","name":"Little River County","state_id":"AR"},{"zip":"71823","fips":"05133","name":"Sevier County","state_id":"AR"},{"zip":"71825","fips":"05057","name":"Hempstead County","state_id":"AR"},{"zip":"71826","fips":"05073","name":"Lafayette County","state_id":"AR"},{"zip":"71827","fips":"05099","name":"Nevada County","state_id":"AR"},{"zip":"71827","fips":"05073","name":"Lafayette County","state_id":"AR"},{"zip":"71828","fips":"05099","name":"Nevada County","state_id":"AR"},{"zip":"71831","fips":"05057","name":"Hempstead County","state_id":"AR"},{"zip":"71831","fips":"05061","name":"Howard County","state_id":"AR"},{"zip":"71832","fips":"05133","name":"Sevier County","state_id":"AR"},{"zip":"71833","fips":"05133","name":"Sevier County","state_id":"AR"},{"zip":"71833","fips":"05061","name":"Howard County","state_id":"AR"},{"zip":"71834","fips":"05091","name":"Miller County","state_id":"AR"},{"zip":"71835","fips":"05099","name":"Nevada County","state_id":"AR"},{"zip":"71835","fips":"05057","name":"Hempstead County","state_id":"AR"},{"zip":"71836","fips":"05081","name":"Little River County","state_id":"AR"},{"zip":"71837","fips":"05091","name":"Miller County","state_id":"AR"},{"zip":"71838","fips":"05057","name":"Hempstead County","state_id":"AR"},{"zip":"71839","fips":"05091","name":"Miller County","state_id":"AR"},{"zip":"71840","fips":"05091","name":"Miller County","state_id":"AR"},{"zip":"71841","fips":"05133","name":"Sevier County","state_id":"AR"},{"zip":"71841","fips":"05113","name":"Polk County","state_id":"AR"},{"zip":"71842","fips":"05133","name":"Sevier County","state_id":"AR"},{"zip":"71845","fips":"05073","name":"Lafayette County","state_id":"AR"},{"zip":"71846","fips":"05133","name":"Sevier County","state_id":"AR"},{"zip":"71847","fips":"05057","name":"Hempstead County","state_id":"AR"},{"zip":"71851","fips":"05061","name":"Howard County","state_id":"AR"},{"zip":"71852","fips":"05057","name":"Hempstead County","state_id":"AR"},{"zip":"71852","fips":"05061","name":"Howard County","state_id":"AR"},{"zip":"71852","fips":"05109","name":"Pike County","state_id":"AR"},{"zip":"71853","fips":"05081","name":"Little River County","state_id":"AR"},{"zip":"71854","fips":"05091","name":"Miller County","state_id":"AR"},{"zip":"71855","fips":"05057","name":"Hempstead County","state_id":"AR"},{"zip":"71857","fips":"05057","name":"Hempstead County","state_id":"AR"},{"zip":"71857","fips":"05103","name":"Ouachita County","state_id":"AR"},{"zip":"71857","fips":"05099","name":"Nevada County","state_id":"AR"},{"zip":"71858","fips":"05099","name":"Nevada County","state_id":"AR"},{"zip":"71859","fips":"05057","name":"Hempstead County","state_id":"AR"},{"zip":"71859","fips":"05061","name":"Howard County","state_id":"AR"},{"zip":"71860","fips":"05027","name":"Columbia County","state_id":"AR"},{"zip":"71860","fips":"05099","name":"Nevada County","state_id":"AR"},{"zip":"71860","fips":"05073","name":"Lafayette County","state_id":"AR"},{"zip":"71861","fips":"05073","name":"Lafayette County","state_id":"AR"},{"zip":"71861","fips":"05027","name":"Columbia County","state_id":"AR"},{"zip":"71862","fips":"05057","name":"Hempstead County","state_id":"AR"},{"zip":"71864","fips":"05099","name":"Nevada County","state_id":"AR"},{"zip":"71865","fips":"05081","name":"Little River County","state_id":"AR"},{"zip":"71866","fips":"05081","name":"Little River County","state_id":"AR"}]
