[{"zip":"71901","fips":"05059","name":"Hot Spring County","state_id":"AR"},{"zip":"71901","fips":"05051","name":"Garland County","state_id":"AR"},{"zip":"71902","fips":"05051","name":"Garland County","state_id":"AR"},{"zip":"71903","fips":"05051","name":"Garland County","state_id":"AR"},{"zip":"71909","fips":"05125","name":"Saline County","state_id":"AR"},{"zip":"71909","fips":"05051","name":"Garland County","state_id":"AR"},{"zip":"71910","fips":"05051","name":"Garland County","state_id":"AR"},{"zip":"71913","fips":"05059","name":"Hot Spring County","state_id":"AR"},{"zip":"71913","fips":"05051","name":"Garland County","state_id":"AR"},{"zip":"71914","fips":"05051","name":"Garland County","state_id":"AR"},{"zip":"71921","fips":"05109","name":"Pike County","state_id":"AR"},{"zip":"71921","fips":"05059","name":"Hot Spring County","state_id":"AR"},{"zip":"71921","fips":"05019","name":"Clark County","state_id":"AR"},{"zip":"71922","fips":"05109","name":"Pike County","state_id":"AR"},{"zip":"71923","fips":"05019","name":"Clark County","state_id":"AR"},{"zip":"71923","fips":"05039","name":"Dallas County","state_id":"AR"},{"zip":"71923","fips":"05059","name":"Hot Spring County","state_id":"AR"},{"zip":"71929","fips":"05059","name":"Hot Spring County","state_id":"AR"},{"zip":"71929","fips":"05019","name":"Clark County","state_id":"AR"},{"zip":"71932","fips":"05113","name":"Polk County","state_id":"AR"},{"zip":"71933","fips":"05097","name":"Montgomery County","state_id":"AR"},{"zip":"71933","fips":"05059","name":"Hot Spring County","state_id":"AR"},{"zip":"71933","fips":"05051","name":"Garland County","state_id":"AR"},{"zip":"71935","fips":"05097","name":"Montgomery County","state_id":"AR"},{"zip":"71935","fips":"05109","name":"Pike County","state_id":"AR"},{"zip":"71937","fips":"05113","name":"Polk County","state_id":"AR"},{"zip":"71940","fips":"05109","name":"Pike County","state_id":"AR"},{"zip":"71941","fips":"05059","name":"Hot Spring County","state_id":"AR"},{"zip":"71942","fips":"05059","name":"Hot Spring County","state_id":"AR"},{"zip":"71943","fips":"05059","name":"Hot Spring County","state_id":"AR"},{"zip":"71943","fips":"05109","name":"Pike County","state_id":"AR"},{"zip":"71943","fips":"05097","name":"Montgomery County","state_id":"AR"},{"zip":"71944","fips":"05113","name":"Polk County","state_id":"AR"},{"zip":"71945","fips":"05113","name":"Polk County","state_id":"AR"},{"zip":"71949","fips":"05051","name":"Garland County","state_id":"AR"},{"zip":"71950","fips":"05109","name":"Pike County","state_id":"AR"},{"zip":"71952","fips":"05109","name":"Pike County","state_id":"AR"},{"zip":"71953","fips":"05127","name":"Scott County","state_id":"AR"},{"zip":"71953","fips":"05113","name":"Polk County","state_id":"AR"},{"zip":"71956","fips":"05051","name":"Garland County","state_id":"AR"},{"zip":"71957","fips":"05097","name":"Montgomery County","state_id":"AR"},{"zip":"71958","fips":"05109","name":"Pike County","state_id":"AR"},{"zip":"71959","fips":"05061","name":"Howard County","state_id":"AR"},{"zip":"71959","fips":"05109","name":"Pike County","state_id":"AR"},{"zip":"71960","fips":"05097","name":"Montgomery County","state_id":"AR"},{"zip":"71961","fips":"05097","name":"Montgomery County","state_id":"AR"},{"zip":"71962","fips":"05019","name":"Clark County","state_id":"AR"},{"zip":"71964","fips":"05059","name":"Hot Spring County","state_id":"AR"},{"zip":"71964","fips":"05051","name":"Garland County","state_id":"AR"},{"zip":"71965","fips":"05097","name":"Montgomery County","state_id":"AR"},{"zip":"71968","fips":"05051","name":"Garland County","state_id":"AR"},{"zip":"71969","fips":"05097","name":"Montgomery County","state_id":"AR"},{"zip":"71970","fips":"05097","name":"Montgomery County","state_id":"AR"},{"zip":"71971","fips":"05061","name":"Howard County","state_id":"AR"},{"zip":"71971","fips":"05109","name":"Pike County","state_id":"AR"},{"zip":"71972","fips":"05113","name":"Polk County","state_id":"AR"},{"zip":"71973","fips":"05113","name":"Polk County","state_id":"AR"},{"zip":"71973","fips":"05061","name":"Howard County","state_id":"AR"},{"zip":"71998","fips":"05019","name":"Clark County","state_id":"AR"},{"zip":"71999","fips":"05019","name":"Clark County","state_id":"AR"}]
