[{"zip":"72001","fips":"05105","name":"Perry County","state_id":"AR"},{"zip":"72001","fips":"05029","name":"Conway County","state_id":"AR"},{"zip":"72002","fips":"05125","name":"Saline County","state_id":"AR"},{"zip":"72002","fips":"05119","name":"Pulaski County","state_id":"AR"},{"zip":"72003","fips":"05001","name":"Arkansas County","state_id":"AR"},{"zip":"72004","fips":"05001","name":"Arkansas County","state_id":"AR"},{"zip":"72004","fips":"05069","name":"Jefferson County","state_id":"AR"},{"zip":"72005","fips":"05067","name":"Jackson County","state_id":"AR"},{"zip":"72006","fips":"05147","name":"Woodruff County","state_id":"AR"},{"zip":"72007","fips":"05085","name":"Lonoke County","state_id":"AR"},{"zip":"72010","fips":"05145","name":"White County","state_id":"AR"},{"zip":"72011","fips":"05125","name":"Saline County","state_id":"AR"},{"zip":"72011","fips":"05053","name":"Grant County","state_id":"AR"},{"zip":"72012","fips":"05145","name":"White County","state_id":"AR"},{"zip":"72013","fips":"05141","name":"Van Buren County","state_id":"AR"},{"zip":"72013","fips":"05029","name":"Conway County","state_id":"AR"},{"zip":"72014","fips":"05067","name":"Jackson County","state_id":"AR"},{"zip":"72015","fips":"05053","name":"Grant County","state_id":"AR"},{"zip":"72015","fips":"05125","name":"Saline County","state_id":"AR"},{"zip":"72016","fips":"05119","name":"Pulaski County","state_id":"AR"},{"zip":"72016","fips":"05105","name":"Perry County","state_id":"AR"},{"zip":"72017","fips":"05117","name":"Prairie County","state_id":"AR"},{"zip":"72018","fips":"05125","name":"Saline County","state_id":"AR"},{"zip":"72019","fips":"05125","name":"Saline County","state_id":"AR"},{"zip":"72020","fips":"05145","name":"White County","state_id":"AR"},{"zip":"72020","fips":"05063","name":"Independence County","state_id":"AR"},{"zip":"72020","fips":"05067","name":"Jackson County","state_id":"AR"},{"zip":"72021","fips":"05147","name":"Woodruff County","state_id":"AR"},{"zip":"72021","fips":"05095","name":"Monroe County","state_id":"AR"},{"zip":"72021","fips":"05123","name":"St. Francis County","state_id":"AR"},{"zip":"72022","fips":"05125","name":"Saline County","state_id":"AR"},{"zip":"72023","fips":"05119","name":"Pulaski County","state_id":"AR"},{"zip":"72023","fips":"05085","name":"Lonoke County","state_id":"AR"},{"zip":"72023","fips":"05045","name":"Faulkner County","state_id":"AR"},{"zip":"72024","fips":"05085","name":"Lonoke County","state_id":"AR"},{"zip":"72024","fips":"05117","name":"Prairie County","state_id":"AR"},{"zip":"72025","fips":"05029","name":"Conway County","state_id":"AR"},{"zip":"72025","fips":"05105","name":"Perry County","state_id":"AR"},{"zip":"72025","fips":"05149","name":"Yell County","state_id":"AR"},{"zip":"72026","fips":"05001","name":"Arkansas County","state_id":"AR"},{"zip":"72027","fips":"05029","name":"Conway County","state_id":"AR"},{"zip":"72028","fips":"05141","name":"Van Buren County","state_id":"AR"},{"zip":"72029","fips":"05095","name":"Monroe County","state_id":"AR"},{"zip":"72030","fips":"05029","name":"Conway County","state_id":"AR"},{"zip":"72030","fips":"05141","name":"Van Buren County","state_id":"AR"},{"zip":"72031","fips":"05029","name":"Conway County","state_id":"AR"},{"zip":"72031","fips":"05137","name":"Stone County","state_id":"AR"},{"zip":"72031","fips":"05141","name":"Van Buren County","state_id":"AR"},{"zip":"72032","fips":"05045","name":"Faulkner County","state_id":"AR"},{"zip":"72033","fips":"05045","name":"Faulkner County","state_id":"AR"},{"zip":"72034","fips":"05045","name":"Faulkner County","state_id":"AR"},{"zip":"72035","fips":"05045","name":"Faulkner County","state_id":"AR"},{"zip":"72036","fips":"05147","name":"Woodruff County","state_id":"AR"},{"zip":"72036","fips":"05095","name":"Monroe County","state_id":"AR"},{"zip":"72037","fips":"05085","name":"Lonoke County","state_id":"AR"},{"zip":"72038","fips":"05001","name":"Arkansas County","state_id":"AR"},{"zip":"72039","fips":"05045","name":"Faulkner County","state_id":"AR"},{"zip":"72039","fips":"05141","name":"Van Buren County","state_id":"AR"},{"zip":"72040","fips":"05117","name":"Prairie County","state_id":"AR"},{"zip":"72040","fips":"05147","name":"Woodruff County","state_id":"AR"},{"zip":"72041","fips":"05117","name":"Prairie County","state_id":"AR"},{"zip":"72042","fips":"05001","name":"Arkansas County","state_id":"AR"},{"zip":"72043","fips":"05067","name":"Jackson County","state_id":"AR"},{"zip":"72044","fips":"05137","name":"Stone County","state_id":"AR"},{"zip":"72044","fips":"05023","name":"Cleburne County","state_id":"AR"},{"zip":"72045","fips":"05145","name":"White County","state_id":"AR"},{"zip":"72046","fips":"05085","name":"Lonoke County","state_id":"AR"},{"zip":"72046","fips":"05119","name":"Pulaski County","state_id":"AR"},{"zip":"72046","fips":"05069","name":"Jefferson County","state_id":"AR"},{"zip":"72047","fips":"05045","name":"Faulkner County","state_id":"AR"},{"zip":"72048","fips":"05001","name":"Arkansas County","state_id":"AR"},{"zip":"72051","fips":"05137","name":"Stone County","state_id":"AR"},{"zip":"72052","fips":"05145","name":"White County","state_id":"AR"},{"zip":"72053","fips":"05119","name":"Pulaski County","state_id":"AR"},{"zip":"72055","fips":"05001","name":"Arkansas County","state_id":"AR"},{"zip":"72057","fips":"05053","name":"Grant County","state_id":"AR"},{"zip":"72057","fips":"05025","name":"Cleveland County","state_id":"AR"},{"zip":"72058","fips":"05045","name":"Faulkner County","state_id":"AR"},{"zip":"72059","fips":"05147","name":"Woodruff County","state_id":"AR"},{"zip":"72060","fips":"05117","name":"Prairie County","state_id":"AR"},{"zip":"72060","fips":"05145","name":"White County","state_id":"AR"},{"zip":"72061","fips":"05045","name":"Faulkner County","state_id":"AR"},{"zip":"72063","fips":"05115","name":"Pope County","state_id":"AR"},{"zip":"72063","fips":"05029","name":"Conway County","state_id":"AR"},{"zip":"72064","fips":"05117","name":"Prairie County","state_id":"AR"},{"zip":"72064","fips":"05085","name":"Lonoke County","state_id":"AR"},{"zip":"72065","fips":"05119","name":"Pulaski County","state_id":"AR"},{"zip":"72065","fips":"05125","name":"Saline County","state_id":"AR"},{"zip":"72065","fips":"05053","name":"Grant County","state_id":"AR"},{"zip":"72066","fips":"05117","name":"Prairie County","state_id":"AR"},{"zip":"72067","fips":"05141","name":"Van Buren County","state_id":"AR"},{"zip":"72067","fips":"05023","name":"Cleburne County","state_id":"AR"},{"zip":"72068","fips":"05145","name":"White County","state_id":"AR"},{"zip":"72069","fips":"05095","name":"Monroe County","state_id":"AR"},{"zip":"72069","fips":"05107","name":"Phillips County","state_id":"AR"},{"zip":"72070","fips":"05105","name":"Perry County","state_id":"AR"},{"zip":"72072","fips":"05085","name":"Lonoke County","state_id":"AR"},{"zip":"72072","fips":"05069","name":"Jefferson County","state_id":"AR"},{"zip":"72073","fips":"05001","name":"Arkansas County","state_id":"AR"},{"zip":"72073","fips":"05069","name":"Jefferson County","state_id":"AR"},{"zip":"72074","fips":"05147","name":"Woodruff County","state_id":"AR"},{"zip":"72075","fips":"05067","name":"Jackson County","state_id":"AR"},{"zip":"72076","fips":"05045","name":"Faulkner County","state_id":"AR"},{"zip":"72076","fips":"05085","name":"Lonoke County","state_id":"AR"},{"zip":"72076","fips":"05119","name":"Pulaski County","state_id":"AR"},{"zip":"72078","fips":"05119","name":"Pulaski County","state_id":"AR"},{"zip":"72079","fips":"05053","name":"Grant County","state_id":"AR"},{"zip":"72079","fips":"05069","name":"Jefferson County","state_id":"AR"},{"zip":"72080","fips":"05141","name":"Van Buren County","state_id":"AR"},{"zip":"72080","fips":"05029","name":"Conway County","state_id":"AR"},{"zip":"72080","fips":"05115","name":"Pope County","state_id":"AR"},{"zip":"72081","fips":"05145","name":"White County","state_id":"AR"},{"zip":"72081","fips":"05063","name":"Independence County","state_id":"AR"},{"zip":"72082","fips":"05145","name":"White County","state_id":"AR"},{"zip":"72083","fips":"05085","name":"Lonoke County","state_id":"AR"},{"zip":"72084","fips":"05059","name":"Hot Spring County","state_id":"AR"},{"zip":"72084","fips":"05039","name":"Dallas County","state_id":"AR"},{"zip":"72084","fips":"05053","name":"Grant County","state_id":"AR"},{"zip":"72085","fips":"05145","name":"White County","state_id":"AR"},{"zip":"72086","fips":"05085","name":"Lonoke County","state_id":"AR"},{"zip":"72086","fips":"05117","name":"Prairie County","state_id":"AR"},{"zip":"72087","fips":"05051","name":"Garland County","state_id":"AR"},{"zip":"72087","fips":"05125","name":"Saline County","state_id":"AR"},{"zip":"72088","fips":"05023","name":"Cleburne County","state_id":"AR"},{"zip":"72088","fips":"05141","name":"Van Buren County","state_id":"AR"},{"zip":"72089","fips":"05125","name":"Saline County","state_id":"AR"},{"zip":"72099","fips":"05119","name":"Pulaski County","state_id":"AR"}]
