[{"zip":"72101","fips":"05067","name":"Jackson County","state_id":"AR"},{"zip":"72101","fips":"05037","name":"Cross County","state_id":"AR"},{"zip":"72101","fips":"05147","name":"Woodruff County","state_id":"AR"},{"zip":"72102","fips":"05145","name":"White County","state_id":"AR"},{"zip":"72103","fips":"05119","name":"Pulaski County","state_id":"AR"},{"zip":"72103","fips":"05125","name":"Saline County","state_id":"AR"},{"zip":"72104","fips":"05053","name":"Grant County","state_id":"AR"},{"zip":"72104","fips":"05059","name":"Hot Spring County","state_id":"AR"},{"zip":"72104","fips":"05125","name":"Saline County","state_id":"AR"},{"zip":"72104","fips":"05051","name":"Garland County","state_id":"AR"},{"zip":"72106","fips":"05045","name":"Faulkner County","state_id":"AR"},{"zip":"72106","fips":"05119","name":"Pulaski County","state_id":"AR"},{"zip":"72107","fips":"05029","name":"Conway County","state_id":"AR"},{"zip":"72108","fips":"05095","name":"Monroe County","state_id":"AR"},{"zip":"72110","fips":"05029","name":"Conway County","state_id":"AR"},{"zip":"72111","fips":"05145","name":"White County","state_id":"AR"},{"zip":"72111","fips":"05045","name":"Faulkner County","state_id":"AR"},{"zip":"72112","fips":"05147","name":"Woodruff County","state_id":"AR"},{"zip":"72112","fips":"05067","name":"Jackson County","state_id":"AR"},{"zip":"72112","fips":"05063","name":"Independence County","state_id":"AR"},{"zip":"72113","fips":"05119","name":"Pulaski County","state_id":"AR"},{"zip":"72114","fips":"05119","name":"Pulaski County","state_id":"AR"},{"zip":"72115","fips":"05119","name":"Pulaski County","state_id":"AR"},{"zip":"72116","fips":"05119","name":"Pulaski County","state_id":"AR"},{"zip":"72117","fips":"05119","name":"Pulaski County","state_id":"AR"},{"zip":"72118","fips":"05119","name":"Pulaski County","state_id":"AR"},{"zip":"72119","fips":"05119","name":"Pulaski County","state_id":"AR"},{"zip":"72120","fips":"05045","name":"Faulkner County","state_id":"AR"},{"zip":"72120","fips":"05119","name":"Pulaski County","state_id":"AR"},{"zip":"72121","fips":"05023","name":"Cleburne County","state_id":"AR"},{"zip":"72121","fips":"05145","name":"White County","state_id":"AR"},{"zip":"72122","fips":"05125","name":"Saline County","state_id":"AR"},{"zip":"72122","fips":"05119","name":"Pulaski County","state_id":"AR"},{"zip":"72123","fips":"05147","name":"Woodruff County","state_id":"AR"},{"zip":"72124","fips":"05119","name":"Pulaski County","state_id":"AR"},{"zip":"72125","fips":"05029","name":"Conway County","state_id":"AR"},{"zip":"72125","fips":"05105","name":"Perry County","state_id":"AR"},{"zip":"72126","fips":"05119","name":"Pulaski County","state_id":"AR"},{"zip":"72126","fips":"05105","name":"Perry County","state_id":"AR"},{"zip":"72127","fips":"05029","name":"Conway County","state_id":"AR"},{"zip":"72128","fips":"05053","name":"Grant County","state_id":"AR"},{"zip":"72128","fips":"05059","name":"Hot Spring County","state_id":"AR"},{"zip":"72129","fips":"05053","name":"Grant County","state_id":"AR"},{"zip":"72130","fips":"05023","name":"Cleburne County","state_id":"AR"},{"zip":"72131","fips":"05023","name":"Cleburne County","state_id":"AR"},{"zip":"72131","fips":"05141","name":"Van Buren County","state_id":"AR"},{"zip":"72131","fips":"05045","name":"Faulkner County","state_id":"AR"},{"zip":"72132","fips":"05053","name":"Grant County","state_id":"AR"},{"zip":"72132","fips":"05069","name":"Jefferson County","state_id":"AR"},{"zip":"72132","fips":"05119","name":"Pulaski County","state_id":"AR"},{"zip":"72133","fips":"05069","name":"Jefferson County","state_id":"AR"},{"zip":"72134","fips":"05095","name":"Monroe County","state_id":"AR"},{"zip":"72134","fips":"05117","name":"Prairie County","state_id":"AR"},{"zip":"72134","fips":"05001","name":"Arkansas County","state_id":"AR"},{"zip":"72135","fips":"05105","name":"Perry County","state_id":"AR"},{"zip":"72135","fips":"05119","name":"Pulaski County","state_id":"AR"},{"zip":"72136","fips":"05145","name":"White County","state_id":"AR"},{"zip":"72137","fips":"05145","name":"White County","state_id":"AR"},{"zip":"72137","fips":"05023","name":"Cleburne County","state_id":"AR"},{"zip":"72139","fips":"05145","name":"White County","state_id":"AR"},{"zip":"72140","fips":"05001","name":"Arkansas County","state_id":"AR"},{"zip":"72141","fips":"05141","name":"Van Buren County","state_id":"AR"},{"zip":"72142","fips":"05085","name":"Lonoke County","state_id":"AR"},{"zip":"72142","fips":"05119","name":"Pulaski County","state_id":"AR"},{"zip":"72143","fips":"05023","name":"Cleburne County","state_id":"AR"},{"zip":"72143","fips":"05145","name":"White County","state_id":"AR"},{"zip":"72145","fips":"05145","name":"White County","state_id":"AR"},{"zip":"72149","fips":"05145","name":"White County","state_id":"AR"},{"zip":"72150","fips":"05069","name":"Jefferson County","state_id":"AR"},{"zip":"72150","fips":"05053","name":"Grant County","state_id":"AR"},{"zip":"72152","fips":"05069","name":"Jefferson County","state_id":"AR"},{"zip":"72153","fips":"05141","name":"Van Buren County","state_id":"AR"},{"zip":"72153","fips":"05023","name":"Cleburne County","state_id":"AR"},{"zip":"72153","fips":"05137","name":"Stone County","state_id":"AR"},{"zip":"72156","fips":"05029","name":"Conway County","state_id":"AR"},{"zip":"72157","fips":"05029","name":"Conway County","state_id":"AR"},{"zip":"72160","fips":"05117","name":"Prairie County","state_id":"AR"},{"zip":"72160","fips":"05001","name":"Arkansas County","state_id":"AR"},{"zip":"72160","fips":"05069","name":"Jefferson County","state_id":"AR"},{"zip":"72160","fips":"05085","name":"Lonoke County","state_id":"AR"},{"zip":"72164","fips":"05119","name":"Pulaski County","state_id":"AR"},{"zip":"72165","fips":"05063","name":"Independence County","state_id":"AR"},{"zip":"72166","fips":"05001","name":"Arkansas County","state_id":"AR"},{"zip":"72167","fips":"05059","name":"Hot Spring County","state_id":"AR"},{"zip":"72167","fips":"05053","name":"Grant County","state_id":"AR"},{"zip":"72167","fips":"05125","name":"Saline County","state_id":"AR"},{"zip":"72168","fips":"05069","name":"Jefferson County","state_id":"AR"},{"zip":"72169","fips":"05067","name":"Jackson County","state_id":"AR"},{"zip":"72170","fips":"05117","name":"Prairie County","state_id":"AR"},{"zip":"72173","fips":"05119","name":"Pulaski County","state_id":"AR"},{"zip":"72173","fips":"05085","name":"Lonoke County","state_id":"AR"},{"zip":"72173","fips":"05145","name":"White County","state_id":"AR"},{"zip":"72173","fips":"05045","name":"Faulkner County","state_id":"AR"},{"zip":"72175","fips":"05069","name":"Jefferson County","state_id":"AR"},{"zip":"72176","fips":"05117","name":"Prairie County","state_id":"AR"},{"zip":"72176","fips":"05085","name":"Lonoke County","state_id":"AR"},{"zip":"72178","fips":"05145","name":"White County","state_id":"AR"},{"zip":"72179","fips":"05023","name":"Cleburne County","state_id":"AR"},{"zip":"72180","fips":"05119","name":"Pulaski County","state_id":"AR"},{"zip":"72181","fips":"05045","name":"Faulkner County","state_id":"AR"},{"zip":"72182","fips":"05069","name":"Jefferson County","state_id":"AR"},{"zip":"72183","fips":"05119","name":"Pulaski County","state_id":"AR"},{"zip":"72190","fips":"05119","name":"Pulaski County","state_id":"AR"},{"zip":"72199","fips":"05119","name":"Pulaski County","state_id":"AR"}]
