[{"zip":"72201","fips":"05119","name":"Pulaski County","state_id":"AR"},{"zip":"72202","fips":"05119","name":"Pulaski County","state_id":"AR"},{"zip":"72203","fips":"05119","name":"Pulaski County","state_id":"AR"},{"zip":"72204","fips":"05119","name":"Pulaski County","state_id":"AR"},{"zip":"72205","fips":"05119","name":"Pulaski County","state_id":"AR"},{"zip":"72206","fips":"05125","name":"Saline County","state_id":"AR"},{"zip":"72206","fips":"05119","name":"Pulaski County","state_id":"AR"},{"zip":"72207","fips":"05119","name":"Pulaski County","state_id":"AR"},{"zip":"72209","fips":"05119","name":"Pulaski County","state_id":"AR"},{"zip":"72210","fips":"05119","name":"Pulaski County","state_id":"AR"},{"zip":"72210","fips":"05125","name":"Saline County","state_id":"AR"},{"zip":"72211","fips":"05119","name":"Pulaski County","state_id":"AR"},{"zip":"72212","fips":"05119","name":"Pulaski County","state_id":"AR"},{"zip":"72214","fips":"05119","name":"Pulaski County","state_id":"AR"},{"zip":"72215","fips":"05119","name":"Pulaski County","state_id":"AR"},{"zip":"72216","fips":"05119","name":"Pulaski County","state_id":"AR"},{"zip":"72217","fips":"05119","name":"Pulaski County","state_id":"AR"},{"zip":"72219","fips":"05119","name":"Pulaski County","state_id":"AR"},{"zip":"72221","fips":"05119","name":"Pulaski County","state_id":"AR"},{"zip":"72222","fips":"05119","name":"Pulaski County","state_id":"AR"},{"zip":"72223","fips":"05119","name":"Pulaski County","state_id":"AR"},{"zip":"72225","fips":"05119","name":"Pulaski County","state_id":"AR"},{"zip":"72227","fips":"05119","name":"Pulaski County","state_id":"AR"},{"zip":"72231","fips":"05119","name":"Pulaski County","state_id":"AR"},{"zip":"72255","fips":"05119","name":"Pulaski County","state_id":"AR"},{"zip":"72260","fips":"05119","name":"Pulaski County","state_id":"AR"}]
