[{"zip":"72301","fips":"05035","name":"Crittenden County","state_id":"AR"},{"zip":"72310","fips":"05093","name":"Mississippi County","state_id":"AR"},{"zip":"72311","fips":"05077","name":"Lee County","state_id":"AR"},{"zip":"72312","fips":"05107","name":"Phillips County","state_id":"AR"},{"zip":"72313","fips":"05093","name":"Mississippi County","state_id":"AR"},{"zip":"72315","fips":"05093","name":"Mississippi County","state_id":"AR"},{"zip":"72316","fips":"05093","name":"Mississippi County","state_id":"AR"},{"zip":"72320","fips":"05077","name":"Lee County","state_id":"AR"},{"zip":"72321","fips":"05093","name":"Mississippi County","state_id":"AR"},{"zip":"72322","fips":"05123","name":"St. Francis County","state_id":"AR"},{"zip":"72324","fips":"05111","name":"Poinsett County","state_id":"AR"},{"zip":"72324","fips":"05037","name":"Cross County","state_id":"AR"},{"zip":"72325","fips":"05035","name":"Crittenden County","state_id":"AR"},{"zip":"72326","fips":"05123","name":"St. Francis County","state_id":"AR"},{"zip":"72326","fips":"05037","name":"Cross County","state_id":"AR"},{"zip":"72327","fips":"05035","name":"Crittenden County","state_id":"AR"},{"zip":"72328","fips":"05107","name":"Phillips County","state_id":"AR"},{"zip":"72329","fips":"05093","name":"Mississippi County","state_id":"AR"},{"zip":"72330","fips":"05093","name":"Mississippi County","state_id":"AR"},{"zip":"72331","fips":"05037","name":"Cross County","state_id":"AR"},{"zip":"72331","fips":"05035","name":"Crittenden County","state_id":"AR"},{"zip":"72332","fips":"05035","name":"Crittenden County","state_id":"AR"},{"zip":"72333","fips":"05107","name":"Phillips County","state_id":"AR"},{"zip":"72335","fips":"05123","name":"St. Francis County","state_id":"AR"},{"zip":"72335","fips":"05077","name":"Lee County","state_id":"AR"},{"zip":"72338","fips":"05093","name":"Mississippi County","state_id":"AR"},{"zip":"72339","fips":"05035","name":"Crittenden County","state_id":"AR"},{"zip":"72340","fips":"05123","name":"St. Francis County","state_id":"AR"},{"zip":"72341","fips":"05077","name":"Lee County","state_id":"AR"},{"zip":"72342","fips":"05107","name":"Phillips County","state_id":"AR"},{"zip":"72346","fips":"05123","name":"St. Francis County","state_id":"AR"},{"zip":"72347","fips":"05067","name":"Jackson County","state_id":"AR"},{"zip":"72347","fips":"05037","name":"Cross County","state_id":"AR"},{"zip":"72348","fips":"05077","name":"Lee County","state_id":"AR"},{"zip":"72348","fips":"05123","name":"St. Francis County","state_id":"AR"},{"zip":"72348","fips":"05035","name":"Crittenden County","state_id":"AR"},{"zip":"72350","fips":"05093","name":"Mississippi County","state_id":"AR"},{"zip":"72351","fips":"05093","name":"Mississippi County","state_id":"AR"},{"zip":"72352","fips":"05077","name":"Lee County","state_id":"AR"},{"zip":"72353","fips":"05107","name":"Phillips County","state_id":"AR"},{"zip":"72354","fips":"05111","name":"Poinsett County","state_id":"AR"},{"zip":"72354","fips":"05093","name":"Mississippi County","state_id":"AR"},{"zip":"72355","fips":"05077","name":"Lee County","state_id":"AR"},{"zip":"72355","fips":"05107","name":"Phillips County","state_id":"AR"},{"zip":"72358","fips":"05093","name":"Mississippi County","state_id":"AR"},{"zip":"72359","fips":"05123","name":"St. Francis County","state_id":"AR"},{"zip":"72360","fips":"05077","name":"Lee County","state_id":"AR"},{"zip":"72360","fips":"05123","name":"St. Francis County","state_id":"AR"},{"zip":"72364","fips":"05035","name":"Crittenden County","state_id":"AR"},{"zip":"72365","fips":"05111","name":"Poinsett County","state_id":"AR"},{"zip":"72366","fips":"05107","name":"Phillips County","state_id":"AR"},{"zip":"72366","fips":"05077","name":"Lee County","state_id":"AR"},{"zip":"72366","fips":"05095","name":"Monroe County","state_id":"AR"},{"zip":"72367","fips":"05107","name":"Phillips County","state_id":"AR"},{"zip":"72368","fips":"05095","name":"Monroe County","state_id":"AR"},{"zip":"72368","fips":"05077","name":"Lee County","state_id":"AR"},{"zip":"72368","fips":"05123","name":"St. Francis County","state_id":"AR"},{"zip":"72369","fips":"05107","name":"Phillips County","state_id":"AR"},{"zip":"72370","fips":"05093","name":"Mississippi County","state_id":"AR"},{"zip":"72372","fips":"05123","name":"St. Francis County","state_id":"AR"},{"zip":"72372","fips":"05077","name":"Lee County","state_id":"AR"},{"zip":"72373","fips":"05037","name":"Cross County","state_id":"AR"},{"zip":"72374","fips":"05107","name":"Phillips County","state_id":"AR"},{"zip":"72374","fips":"05077","name":"Lee County","state_id":"AR"},{"zip":"72376","fips":"05035","name":"Crittenden County","state_id":"AR"},{"zip":"72376","fips":"05123","name":"St. Francis County","state_id":"AR"},{"zip":"72377","fips":"05111","name":"Poinsett County","state_id":"AR"},{"zip":"72379","fips":"05041","name":"Desha County","state_id":"AR"},{"zip":"72383","fips":"05107","name":"Phillips County","state_id":"AR"},{"zip":"72384","fips":"05035","name":"Crittenden County","state_id":"AR"},{"zip":"72386","fips":"05111","name":"Poinsett County","state_id":"AR"},{"zip":"72386","fips":"05035","name":"Crittenden County","state_id":"AR"},{"zip":"72386","fips":"05093","name":"Mississippi County","state_id":"AR"},{"zip":"72387","fips":"05037","name":"Cross County","state_id":"AR"},{"zip":"72389","fips":"05107","name":"Phillips County","state_id":"AR"},{"zip":"72390","fips":"05107","name":"Phillips County","state_id":"AR"},{"zip":"72391","fips":"05093","name":"Mississippi County","state_id":"AR"},{"zip":"72392","fips":"05123","name":"St. Francis County","state_id":"AR"},{"zip":"72392","fips":"05147","name":"Woodruff County","state_id":"AR"},{"zip":"72392","fips":"05095","name":"Monroe County","state_id":"AR"},{"zip":"72394","fips":"05123","name":"St. Francis County","state_id":"AR"},{"zip":"72395","fips":"05093","name":"Mississippi County","state_id":"AR"},{"zip":"72396","fips":"05037","name":"Cross County","state_id":"AR"},{"zip":"72396","fips":"05123","name":"St. Francis County","state_id":"AR"},{"zip":"72396","fips":"05147","name":"Woodruff County","state_id":"AR"}]
