[{"zip":"72401","fips":"05031","name":"Craighead County","state_id":"AR"},{"zip":"72401","fips":"05055","name":"Greene County","state_id":"AR"},{"zip":"72402","fips":"05031","name":"Craighead County","state_id":"AR"},{"zip":"72403","fips":"05031","name":"Craighead County","state_id":"AR"},{"zip":"72404","fips":"05031","name":"Craighead County","state_id":"AR"},{"zip":"72405","fips":"05055","name":"Greene County","state_id":"AR"},{"zip":"72405","fips":"05031","name":"Craighead County","state_id":"AR"},{"zip":"72410","fips":"05075","name":"Lawrence County","state_id":"AR"},{"zip":"72411","fips":"05031","name":"Craighead County","state_id":"AR"},{"zip":"72412","fips":"05055","name":"Greene County","state_id":"AR"},{"zip":"72413","fips":"05121","name":"Randolph County","state_id":"AR"},{"zip":"72413","fips":"05021","name":"Clay County","state_id":"AR"},{"zip":"72414","fips":"05031","name":"Craighead County","state_id":"AR"},{"zip":"72415","fips":"05075","name":"Lawrence County","state_id":"AR"},{"zip":"72416","fips":"05055","name":"Greene County","state_id":"AR"},{"zip":"72416","fips":"05031","name":"Craighead County","state_id":"AR"},{"zip":"72416","fips":"05075","name":"Lawrence County","state_id":"AR"},{"zip":"72417","fips":"05031","name":"Craighead County","state_id":"AR"},{"zip":"72417","fips":"05055","name":"Greene County","state_id":"AR"},{"zip":"72419","fips":"05093","name":"Mississippi County","state_id":"AR"},{"zip":"72419","fips":"05031","name":"Craighead County","state_id":"AR"},{"zip":"72419","fips":"05111","name":"Poinsett County","state_id":"AR"},{"zip":"72421","fips":"05067","name":"Jackson County","state_id":"AR"},{"zip":"72421","fips":"05111","name":"Poinsett County","state_id":"AR"},{"zip":"72421","fips":"05031","name":"Craighead County","state_id":"AR"},{"zip":"72422","fips":"05021","name":"Clay County","state_id":"AR"},{"zip":"72422","fips":"05121","name":"Randolph County","state_id":"AR"},{"zip":"72424","fips":"05021","name":"Clay County","state_id":"AR"},{"zip":"72425","fips":"05075","name":"Lawrence County","state_id":"AR"},{"zip":"72425","fips":"05055","name":"Greene County","state_id":"AR"},{"zip":"72425","fips":"05121","name":"Randolph County","state_id":"AR"},{"zip":"72425","fips":"05021","name":"Clay County","state_id":"AR"},{"zip":"72426","fips":"05093","name":"Mississippi County","state_id":"AR"},{"zip":"72427","fips":"05031","name":"Craighead County","state_id":"AR"},{"zip":"72428","fips":"05093","name":"Mississippi County","state_id":"AR"},{"zip":"72429","fips":"05111","name":"Poinsett County","state_id":"AR"},{"zip":"72430","fips":"05021","name":"Clay County","state_id":"AR"},{"zip":"72431","fips":"05067","name":"Jackson County","state_id":"AR"},{"zip":"72432","fips":"05111","name":"Poinsett County","state_id":"AR"},{"zip":"72433","fips":"05075","name":"Lawrence County","state_id":"AR"},{"zip":"72434","fips":"05075","name":"Lawrence County","state_id":"AR"},{"zip":"72434","fips":"05121","name":"Randolph County","state_id":"AR"},{"zip":"72435","fips":"05021","name":"Clay County","state_id":"AR"},{"zip":"72436","fips":"05055","name":"Greene County","state_id":"AR"},{"zip":"72436","fips":"05021","name":"Clay County","state_id":"AR"},{"zip":"72437","fips":"05031","name":"Craighead County","state_id":"AR"},{"zip":"72438","fips":"05093","name":"Mississippi County","state_id":"AR"},{"zip":"72438","fips":"05031","name":"Craighead County","state_id":"AR"},{"zip":"72440","fips":"05075","name":"Lawrence County","state_id":"AR"},{"zip":"72441","fips":"05021","name":"Clay County","state_id":"AR"},{"zip":"72442","fips":"05093","name":"Mississippi County","state_id":"AR"},{"zip":"72442","fips":"05031","name":"Craighead County","state_id":"AR"},{"zip":"72443","fips":"05055","name":"Greene County","state_id":"AR"},{"zip":"72444","fips":"05121","name":"Randolph County","state_id":"AR"},{"zip":"72445","fips":"05075","name":"Lawrence County","state_id":"AR"},{"zip":"72447","fips":"05031","name":"Craighead County","state_id":"AR"},{"zip":"72449","fips":"05121","name":"Randolph County","state_id":"AR"},{"zip":"72450","fips":"05055","name":"Greene County","state_id":"AR"},{"zip":"72450","fips":"05031","name":"Craighead County","state_id":"AR"},{"zip":"72451","fips":"05055","name":"Greene County","state_id":"AR"},{"zip":"72453","fips":"05021","name":"Clay County","state_id":"AR"},{"zip":"72453","fips":"05055","name":"Greene County","state_id":"AR"},{"zip":"72454","fips":"05021","name":"Clay County","state_id":"AR"},{"zip":"72455","fips":"05121","name":"Randolph County","state_id":"AR"},{"zip":"72456","fips":"05021","name":"Clay County","state_id":"AR"},{"zip":"72457","fips":"05075","name":"Lawrence County","state_id":"AR"},{"zip":"72458","fips":"05075","name":"Lawrence County","state_id":"AR"},{"zip":"72459","fips":"05075","name":"Lawrence County","state_id":"AR"},{"zip":"72459","fips":"05121","name":"Randolph County","state_id":"AR"},{"zip":"72459","fips":"05135","name":"Sharp County","state_id":"AR"},{"zip":"72460","fips":"05121","name":"Randolph County","state_id":"AR"},{"zip":"72461","fips":"05055","name":"Greene County","state_id":"AR"},{"zip":"72461","fips":"05021","name":"Clay County","state_id":"AR"},{"zip":"72462","fips":"05121","name":"Randolph County","state_id":"AR"},{"zip":"72464","fips":"05021","name":"Clay County","state_id":"AR"},{"zip":"72465","fips":"05075","name":"Lawrence County","state_id":"AR"},{"zip":"72466","fips":"05075","name":"Lawrence County","state_id":"AR"},{"zip":"72466","fips":"05135","name":"Sharp County","state_id":"AR"},{"zip":"72467","fips":"05031","name":"Craighead County","state_id":"AR"},{"zip":"72469","fips":"05135","name":"Sharp County","state_id":"AR"},{"zip":"72469","fips":"05075","name":"Lawrence County","state_id":"AR"},{"zip":"72470","fips":"05021","name":"Clay County","state_id":"AR"},{"zip":"72471","fips":"05067","name":"Jackson County","state_id":"AR"},{"zip":"72472","fips":"05031","name":"Craighead County","state_id":"AR"},{"zip":"72472","fips":"05111","name":"Poinsett County","state_id":"AR"},{"zip":"72473","fips":"05067","name":"Jackson County","state_id":"AR"},{"zip":"72474","fips":"05055","name":"Greene County","state_id":"AR"},{"zip":"72475","fips":"05111","name":"Poinsett County","state_id":"AR"},{"zip":"72476","fips":"05031","name":"Craighead County","state_id":"AR"},{"zip":"72476","fips":"05075","name":"Lawrence County","state_id":"AR"},{"zip":"72476","fips":"05121","name":"Randolph County","state_id":"AR"},{"zip":"72478","fips":"05121","name":"Randolph County","state_id":"AR"},{"zip":"72479","fips":"05031","name":"Craighead County","state_id":"AR"},{"zip":"72479","fips":"05067","name":"Jackson County","state_id":"AR"},{"zip":"72479","fips":"05111","name":"Poinsett County","state_id":"AR"},{"zip":"72482","fips":"05075","name":"Lawrence County","state_id":"AR"},{"zip":"72482","fips":"05135","name":"Sharp County","state_id":"AR"}]
