[{"zip":"72501","fips":"05063","name":"Independence County","state_id":"AR"},{"zip":"72501","fips":"05065","name":"Izard County","state_id":"AR"},{"zip":"72512","fips":"05049","name":"Fulton County","state_id":"AR"},{"zip":"72512","fips":"05065","name":"Izard County","state_id":"AR"},{"zip":"72513","fips":"05065","name":"Izard County","state_id":"AR"},{"zip":"72513","fips":"05135","name":"Sharp County","state_id":"AR"},{"zip":"72513","fips":"05049","name":"Fulton County","state_id":"AR"},{"zip":"72515","fips":"05049","name":"Fulton County","state_id":"AR"},{"zip":"72517","fips":"05065","name":"Izard County","state_id":"AR"},{"zip":"72519","fips":"05065","name":"Izard County","state_id":"AR"},{"zip":"72519","fips":"05137","name":"Stone County","state_id":"AR"},{"zip":"72519","fips":"05005","name":"Baxter County","state_id":"AR"},{"zip":"72520","fips":"05049","name":"Fulton County","state_id":"AR"},{"zip":"72521","fips":"05063","name":"Independence County","state_id":"AR"},{"zip":"72521","fips":"05135","name":"Sharp County","state_id":"AR"},{"zip":"72522","fips":"05063","name":"Independence County","state_id":"AR"},{"zip":"72523","fips":"05063","name":"Independence County","state_id":"AR"},{"zip":"72523","fips":"05023","name":"Cleburne County","state_id":"AR"},{"zip":"72524","fips":"05063","name":"Independence County","state_id":"AR"},{"zip":"72526","fips":"05063","name":"Independence County","state_id":"AR"},{"zip":"72527","fips":"05063","name":"Independence County","state_id":"AR"},{"zip":"72528","fips":"05065","name":"Izard County","state_id":"AR"},{"zip":"72529","fips":"05135","name":"Sharp County","state_id":"AR"},{"zip":"72529","fips":"05049","name":"Fulton County","state_id":"AR"},{"zip":"72530","fips":"05137","name":"Stone County","state_id":"AR"},{"zip":"72530","fips":"05023","name":"Cleburne County","state_id":"AR"},{"zip":"72531","fips":"05005","name":"Baxter County","state_id":"AR"},{"zip":"72531","fips":"05049","name":"Fulton County","state_id":"AR"},{"zip":"72532","fips":"05135","name":"Sharp County","state_id":"AR"},{"zip":"72532","fips":"05065","name":"Izard County","state_id":"AR"},{"zip":"72533","fips":"05137","name":"Stone County","state_id":"AR"},{"zip":"72534","fips":"05023","name":"Cleburne County","state_id":"AR"},{"zip":"72534","fips":"05063","name":"Independence County","state_id":"AR"},{"zip":"72536","fips":"05065","name":"Izard County","state_id":"AR"},{"zip":"72537","fips":"05005","name":"Baxter County","state_id":"AR"},{"zip":"72538","fips":"05005","name":"Baxter County","state_id":"AR"},{"zip":"72538","fips":"05049","name":"Fulton County","state_id":"AR"},{"zip":"72539","fips":"05049","name":"Fulton County","state_id":"AR"},{"zip":"72540","fips":"05065","name":"Izard County","state_id":"AR"},{"zip":"72542","fips":"05135","name":"Sharp County","state_id":"AR"},{"zip":"72542","fips":"05049","name":"Fulton County","state_id":"AR"},{"zip":"72543","fips":"05023","name":"Cleburne County","state_id":"AR"},{"zip":"72544","fips":"05005","name":"Baxter County","state_id":"AR"},{"zip":"72545","fips":"05023","name":"Cleburne County","state_id":"AR"},{"zip":"72546","fips":"05023","name":"Cleburne County","state_id":"AR"},{"zip":"72550","fips":"05137","name":"Stone County","state_id":"AR"},{"zip":"72550","fips":"05023","name":"Cleburne County","state_id":"AR"},{"zip":"72550","fips":"05063","name":"Independence County","state_id":"AR"},{"zip":"72553","fips":"05063","name":"Independence County","state_id":"AR"},{"zip":"72554","fips":"05121","name":"Randolph County","state_id":"AR"},{"zip":"72554","fips":"05135","name":"Sharp County","state_id":"AR"},{"zip":"72554","fips":"05049","name":"Fulton County","state_id":"AR"},{"zip":"72555","fips":"05137","name":"Stone County","state_id":"AR"},{"zip":"72556","fips":"05137","name":"Stone County","state_id":"AR"},{"zip":"72556","fips":"05065","name":"Izard County","state_id":"AR"},{"zip":"72560","fips":"05023","name":"Cleburne County","state_id":"AR"},{"zip":"72560","fips":"05137","name":"Stone County","state_id":"AR"},{"zip":"72560","fips":"05065","name":"Izard County","state_id":"AR"},{"zip":"72561","fips":"05065","name":"Izard County","state_id":"AR"},{"zip":"72562","fips":"05063","name":"Independence County","state_id":"AR"},{"zip":"72564","fips":"05063","name":"Independence County","state_id":"AR"},{"zip":"72565","fips":"05065","name":"Izard County","state_id":"AR"},{"zip":"72566","fips":"05049","name":"Fulton County","state_id":"AR"},{"zip":"72566","fips":"05065","name":"Izard County","state_id":"AR"},{"zip":"72567","fips":"05137","name":"Stone County","state_id":"AR"},{"zip":"72568","fips":"05063","name":"Independence County","state_id":"AR"},{"zip":"72568","fips":"05145","name":"White County","state_id":"AR"},{"zip":"72569","fips":"05135","name":"Sharp County","state_id":"AR"},{"zip":"72571","fips":"05063","name":"Independence County","state_id":"AR"},{"zip":"72572","fips":"05075","name":"Lawrence County","state_id":"AR"},{"zip":"72572","fips":"05063","name":"Independence County","state_id":"AR"},{"zip":"72573","fips":"05065","name":"Izard County","state_id":"AR"},{"zip":"72575","fips":"05063","name":"Independence County","state_id":"AR"},{"zip":"72576","fips":"05049","name":"Fulton County","state_id":"AR"},{"zip":"72576","fips":"05065","name":"Izard County","state_id":"AR"},{"zip":"72577","fips":"05135","name":"Sharp County","state_id":"AR"},{"zip":"72577","fips":"05065","name":"Izard County","state_id":"AR"},{"zip":"72578","fips":"05049","name":"Fulton County","state_id":"AR"},{"zip":"72579","fips":"05135","name":"Sharp County","state_id":"AR"},{"zip":"72579","fips":"05063","name":"Independence County","state_id":"AR"},{"zip":"72581","fips":"05023","name":"Cleburne County","state_id":"AR"},{"zip":"72583","fips":"05049","name":"Fulton County","state_id":"AR"},{"zip":"72584","fips":"05065","name":"Izard County","state_id":"AR"},{"zip":"72585","fips":"05065","name":"Izard County","state_id":"AR"},{"zip":"72587","fips":"05065","name":"Izard County","state_id":"AR"}]
