[{"zip":"72601","fips":"05009","name":"Boone County","state_id":"AR"},{"zip":"72601","fips":"05101","name":"Newton County","state_id":"AR"},{"zip":"72601","fips":"05089","name":"Marion County","state_id":"AR"},{"zip":"72601","fips":"05015","name":"Carroll County","state_id":"AR"},{"zip":"72602","fips":"05009","name":"Boone County","state_id":"AR"},{"zip":"72611","fips":"05015","name":"Carroll County","state_id":"AR"},{"zip":"72611","fips":"05009","name":"Boone County","state_id":"AR"},{"zip":"72613","fips":"05015","name":"Carroll County","state_id":"AR"},{"zip":"72615","fips":"05009","name":"Boone County","state_id":"AR"},{"zip":"72616","fips":"05015","name":"Carroll County","state_id":"AR"},{"zip":"72617","fips":"05137","name":"Stone County","state_id":"AR"},{"zip":"72617","fips":"05005","name":"Baxter County","state_id":"AR"},{"zip":"72617","fips":"05129","name":"Searcy County","state_id":"AR"},{"zip":"72619","fips":"05089","name":"Marion County","state_id":"AR"},{"zip":"72623","fips":"05005","name":"Baxter County","state_id":"AR"},{"zip":"72624","fips":"05101","name":"Newton County","state_id":"AR"},{"zip":"72624","fips":"05015","name":"Carroll County","state_id":"AR"},{"zip":"72626","fips":"05005","name":"Baxter County","state_id":"AR"},{"zip":"72628","fips":"05101","name":"Newton County","state_id":"AR"},{"zip":"72629","fips":"05129","name":"Searcy County","state_id":"AR"},{"zip":"72629","fips":"05141","name":"Van Buren County","state_id":"AR"},{"zip":"72631","fips":"05015","name":"Carroll County","state_id":"AR"},{"zip":"72632","fips":"05015","name":"Carroll County","state_id":"AR"},{"zip":"72632","fips":"05087","name":"Madison County","state_id":"AR"},{"zip":"72633","fips":"05009","name":"Boone County","state_id":"AR"},{"zip":"72633","fips":"05129","name":"Searcy County","state_id":"AR"},{"zip":"72633","fips":"05089","name":"Marion County","state_id":"AR"},{"zip":"72634","fips":"05023","name":"Cleburne County","state_id":"AR"},{"zip":"72634","fips":"05089","name":"Marion County","state_id":"AR"},{"zip":"72635","fips":"05005","name":"Baxter County","state_id":"AR"},{"zip":"72636","fips":"05129","name":"Searcy County","state_id":"AR"},{"zip":"72638","fips":"05015","name":"Carroll County","state_id":"AR"},{"zip":"72638","fips":"05101","name":"Newton County","state_id":"AR"},{"zip":"72639","fips":"05129","name":"Searcy County","state_id":"AR"},{"zip":"72640","fips":"05101","name":"Newton County","state_id":"AR"},{"zip":"72641","fips":"05101","name":"Newton County","state_id":"AR"},{"zip":"72642","fips":"05005","name":"Baxter County","state_id":"AR"},{"zip":"72643","fips":"05009","name":"Boone County","state_id":"AR"},{"zip":"72644","fips":"05009","name":"Boone County","state_id":"AR"},{"zip":"72644","fips":"05089","name":"Marion County","state_id":"AR"},{"zip":"72645","fips":"05129","name":"Searcy County","state_id":"AR"},{"zip":"72645","fips":"05141","name":"Van Buren County","state_id":"AR"},{"zip":"72645","fips":"05137","name":"Stone County","state_id":"AR"},{"zip":"72648","fips":"05101","name":"Newton County","state_id":"AR"},{"zip":"72650","fips":"05129","name":"Searcy County","state_id":"AR"},{"zip":"72650","fips":"05137","name":"Stone County","state_id":"AR"},{"zip":"72651","fips":"05005","name":"Baxter County","state_id":"AR"},{"zip":"72653","fips":"05005","name":"Baxter County","state_id":"AR"},{"zip":"72653","fips":"05089","name":"Marion County","state_id":"AR"},{"zip":"72654","fips":"05005","name":"Baxter County","state_id":"AR"},{"zip":"72655","fips":"05101","name":"Newton County","state_id":"AR"},{"zip":"72657","fips":"05137","name":"Stone County","state_id":"AR"},{"zip":"72658","fips":"05005","name":"Baxter County","state_id":"AR"},{"zip":"72659","fips":"05005","name":"Baxter County","state_id":"AR"},{"zip":"72660","fips":"05015","name":"Carroll County","state_id":"AR"},{"zip":"72661","fips":"05089","name":"Marion County","state_id":"AR"},{"zip":"72662","fips":"05015","name":"Carroll County","state_id":"AR"},{"zip":"72662","fips":"05009","name":"Boone County","state_id":"AR"},{"zip":"72663","fips":"05005","name":"Baxter County","state_id":"AR"},{"zip":"72663","fips":"05137","name":"Stone County","state_id":"AR"},{"zip":"72666","fips":"05101","name":"Newton County","state_id":"AR"},{"zip":"72668","fips":"05089","name":"Marion County","state_id":"AR"},{"zip":"72669","fips":"05129","name":"Searcy County","state_id":"AR"},{"zip":"72670","fips":"05101","name":"Newton County","state_id":"AR"},{"zip":"72672","fips":"05089","name":"Marion County","state_id":"AR"},{"zip":"72675","fips":"05129","name":"Searcy County","state_id":"AR"},{"zip":"72675","fips":"05089","name":"Marion County","state_id":"AR"},{"zip":"72677","fips":"05089","name":"Marion County","state_id":"AR"},{"zip":"72679","fips":"05115","name":"Pope County","state_id":"AR"},{"zip":"72679","fips":"05129","name":"Searcy County","state_id":"AR"},{"zip":"72679","fips":"05141","name":"Van Buren County","state_id":"AR"},{"zip":"72680","fips":"05129","name":"Searcy County","state_id":"AR"},{"zip":"72680","fips":"05137","name":"Stone County","state_id":"AR"},{"zip":"72682","fips":"05089","name":"Marion County","state_id":"AR"},{"zip":"72682","fips":"05009","name":"Boone County","state_id":"AR"},{"zip":"72683","fips":"05101","name":"Newton County","state_id":"AR"},{"zip":"72685","fips":"05009","name":"Boone County","state_id":"AR"},{"zip":"72685","fips":"05101","name":"Newton County","state_id":"AR"},{"zip":"72685","fips":"05129","name":"Searcy County","state_id":"AR"},{"zip":"72686","fips":"05115","name":"Pope County","state_id":"AR"},{"zip":"72686","fips":"05129","name":"Searcy County","state_id":"AR"},{"zip":"72687","fips":"05129","name":"Searcy County","state_id":"AR"},{"zip":"72687","fips":"05009","name":"Boone County","state_id":"AR"},{"zip":"72687","fips":"05089","name":"Marion County","state_id":"AR"}]
