[{"zip":"72701","fips":"05143","name":"Washington County","state_id":"AR"},{"zip":"72702","fips":"05143","name":"Washington County","state_id":"AR"},{"zip":"72703","fips":"05087","name":"Madison County","state_id":"AR"},{"zip":"72703","fips":"05143","name":"Washington County","state_id":"AR"},{"zip":"72704","fips":"05143","name":"Washington County","state_id":"AR"},{"zip":"72704","fips":"05007","name":"Benton County","state_id":"AR"},{"zip":"72711","fips":"05007","name":"Benton County","state_id":"AR"},{"zip":"72712","fips":"05007","name":"Benton County","state_id":"AR"},{"zip":"72713","fips":"05007","name":"Benton County","state_id":"AR"},{"zip":"72714","fips":"05007","name":"Benton County","state_id":"AR"},{"zip":"72715","fips":"05007","name":"Benton County","state_id":"AR"},{"zip":"72716","fips":"05007","name":"Benton County","state_id":"AR"},{"zip":"72717","fips":"05143","name":"Washington County","state_id":"AR"},{"zip":"72718","fips":"05007","name":"Benton County","state_id":"AR"},{"zip":"72719","fips":"05007","name":"Benton County","state_id":"AR"},{"zip":"72721","fips":"05047","name":"Franklin County","state_id":"AR"},{"zip":"72721","fips":"05087","name":"Madison County","state_id":"AR"},{"zip":"72722","fips":"05007","name":"Benton County","state_id":"AR"},{"zip":"72727","fips":"05143","name":"Washington County","state_id":"AR"},{"zip":"72727","fips":"05087","name":"Madison County","state_id":"AR"},{"zip":"72728","fips":"05143","name":"Washington County","state_id":"AR"},{"zip":"72729","fips":"05143","name":"Washington County","state_id":"AR"},{"zip":"72730","fips":"05143","name":"Washington County","state_id":"AR"},{"zip":"72732","fips":"05007","name":"Benton County","state_id":"AR"},{"zip":"72733","fips":"05007","name":"Benton County","state_id":"AR"},{"zip":"72734","fips":"05007","name":"Benton County","state_id":"AR"},{"zip":"72734","fips":"05143","name":"Washington County","state_id":"AR"},{"zip":"72735","fips":"05143","name":"Washington County","state_id":"AR"},{"zip":"72736","fips":"05007","name":"Benton County","state_id":"AR"},{"zip":"72737","fips":"05143","name":"Washington County","state_id":"AR"},{"zip":"72738","fips":"05087","name":"Madison County","state_id":"AR"},{"zip":"72738","fips":"05007","name":"Benton County","state_id":"AR"},{"zip":"72738","fips":"05143","name":"Washington County","state_id":"AR"},{"zip":"72739","fips":"05007","name":"Benton County","state_id":"AR"},{"zip":"72740","fips":"05087","name":"Madison County","state_id":"AR"},{"zip":"72740","fips":"05015","name":"Carroll County","state_id":"AR"},{"zip":"72741","fips":"05143","name":"Washington County","state_id":"AR"},{"zip":"72742","fips":"05087","name":"Madison County","state_id":"AR"},{"zip":"72744","fips":"05143","name":"Washington County","state_id":"AR"},{"zip":"72745","fips":"05007","name":"Benton County","state_id":"AR"},{"zip":"72747","fips":"05007","name":"Benton County","state_id":"AR"},{"zip":"72749","fips":"05143","name":"Washington County","state_id":"AR"},{"zip":"72751","fips":"05007","name":"Benton County","state_id":"AR"},{"zip":"72752","fips":"05087","name":"Madison County","state_id":"AR"},{"zip":"72752","fips":"05071","name":"Johnson County","state_id":"AR"},{"zip":"72753","fips":"05143","name":"Washington County","state_id":"AR"},{"zip":"72756","fips":"05087","name":"Madison County","state_id":"AR"},{"zip":"72756","fips":"05007","name":"Benton County","state_id":"AR"},{"zip":"72757","fips":"05007","name":"Benton County","state_id":"AR"},{"zip":"72758","fips":"05007","name":"Benton County","state_id":"AR"},{"zip":"72760","fips":"05087","name":"Madison County","state_id":"AR"},{"zip":"72761","fips":"05007","name":"Benton County","state_id":"AR"},{"zip":"72761","fips":"05143","name":"Washington County","state_id":"AR"},{"zip":"72762","fips":"05143","name":"Washington County","state_id":"AR"},{"zip":"72762","fips":"05007","name":"Benton County","state_id":"AR"},{"zip":"72764","fips":"05143","name":"Washington County","state_id":"AR"},{"zip":"72764","fips":"05007","name":"Benton County","state_id":"AR"},{"zip":"72765","fips":"05143","name":"Washington County","state_id":"AR"},{"zip":"72766","fips":"05143","name":"Washington County","state_id":"AR"},{"zip":"72768","fips":"05007","name":"Benton County","state_id":"AR"},{"zip":"72769","fips":"05143","name":"Washington County","state_id":"AR"},{"zip":"72770","fips":"05143","name":"Washington County","state_id":"AR"},{"zip":"72773","fips":"05087","name":"Madison County","state_id":"AR"},{"zip":"72773","fips":"05143","name":"Washington County","state_id":"AR"},{"zip":"72774","fips":"05033","name":"Crawford County","state_id":"AR"},{"zip":"72774","fips":"05143","name":"Washington County","state_id":"AR"},{"zip":"72776","fips":"05087","name":"Madison County","state_id":"AR"}]
