[{"zip":"72801","fips":"05115","name":"Pope County","state_id":"AR"},{"zip":"72802","fips":"05115","name":"Pope County","state_id":"AR"},{"zip":"72811","fips":"05115","name":"Pope County","state_id":"AR"},{"zip":"72812","fips":"05115","name":"Pope County","state_id":"AR"},{"zip":"72820","fips":"05047","name":"Franklin County","state_id":"AR"},{"zip":"72821","fips":"05047","name":"Franklin County","state_id":"AR"},{"zip":"72821","fips":"05071","name":"Johnson County","state_id":"AR"},{"zip":"72823","fips":"05029","name":"Conway County","state_id":"AR"},{"zip":"72823","fips":"05115","name":"Pope County","state_id":"AR"},{"zip":"72824","fips":"05149","name":"Yell County","state_id":"AR"},{"zip":"72826","fips":"05083","name":"Logan County","state_id":"AR"},{"zip":"72827","fips":"05149","name":"Yell County","state_id":"AR"},{"zip":"72828","fips":"05149","name":"Yell County","state_id":"AR"},{"zip":"72829","fips":"05149","name":"Yell County","state_id":"AR"},{"zip":"72830","fips":"05071","name":"Johnson County","state_id":"AR"},{"zip":"72832","fips":"05071","name":"Johnson County","state_id":"AR"},{"zip":"72833","fips":"05149","name":"Yell County","state_id":"AR"},{"zip":"72833","fips":"05127","name":"Scott County","state_id":"AR"},{"zip":"72834","fips":"05083","name":"Logan County","state_id":"AR"},{"zip":"72834","fips":"05149","name":"Yell County","state_id":"AR"},{"zip":"72835","fips":"05083","name":"Logan County","state_id":"AR"},{"zip":"72837","fips":"05115","name":"Pope County","state_id":"AR"},{"zip":"72838","fips":"05127","name":"Scott County","state_id":"AR"},{"zip":"72838","fips":"05149","name":"Yell County","state_id":"AR"},{"zip":"72839","fips":"05071","name":"Johnson County","state_id":"AR"},{"zip":"72839","fips":"05115","name":"Pope County","state_id":"AR"},{"zip":"72840","fips":"05071","name":"Johnson County","state_id":"AR"},{"zip":"72841","fips":"05149","name":"Yell County","state_id":"AR"},{"zip":"72841","fips":"05127","name":"Scott County","state_id":"AR"},{"zip":"72842","fips":"05149","name":"Yell County","state_id":"AR"},{"zip":"72842","fips":"05083","name":"Logan County","state_id":"AR"},{"zip":"72843","fips":"05115","name":"Pope County","state_id":"AR"},{"zip":"72845","fips":"05071","name":"Johnson County","state_id":"AR"},{"zip":"72846","fips":"05071","name":"Johnson County","state_id":"AR"},{"zip":"72846","fips":"05115","name":"Pope County","state_id":"AR"},{"zip":"72847","fips":"05071","name":"Johnson County","state_id":"AR"},{"zip":"72847","fips":"05115","name":"Pope County","state_id":"AR"},{"zip":"72851","fips":"05083","name":"Logan County","state_id":"AR"},{"zip":"72852","fips":"05087","name":"Madison County","state_id":"AR"},{"zip":"72852","fips":"05071","name":"Johnson County","state_id":"AR"},{"zip":"72853","fips":"05105","name":"Perry County","state_id":"AR"},{"zip":"72853","fips":"05149","name":"Yell County","state_id":"AR"},{"zip":"72854","fips":"05071","name":"Johnson County","state_id":"AR"},{"zip":"72855","fips":"05047","name":"Franklin County","state_id":"AR"},{"zip":"72855","fips":"05083","name":"Logan County","state_id":"AR"},{"zip":"72856","fips":"05115","name":"Pope County","state_id":"AR"},{"zip":"72857","fips":"05149","name":"Yell County","state_id":"AR"},{"zip":"72857","fips":"05105","name":"Perry County","state_id":"AR"},{"zip":"72858","fips":"05115","name":"Pope County","state_id":"AR"},{"zip":"72860","fips":"05149","name":"Yell County","state_id":"AR"},{"zip":"72863","fips":"05083","name":"Logan County","state_id":"AR"},{"zip":"72865","fips":"05083","name":"Logan County","state_id":"AR"}]
