[{"zip":"72901","fips":"05131","name":"Sebastian County","state_id":"AR"},{"zip":"72902","fips":"05131","name":"Sebastian County","state_id":"AR"},{"zip":"72903","fips":"05131","name":"Sebastian County","state_id":"AR"},{"zip":"72904","fips":"05131","name":"Sebastian County","state_id":"AR"},{"zip":"72905","fips":"05131","name":"Sebastian County","state_id":"AR"},{"zip":"72906","fips":"05131","name":"Sebastian County","state_id":"AR"},{"zip":"72908","fips":"05131","name":"Sebastian County","state_id":"AR"},{"zip":"72913","fips":"05131","name":"Sebastian County","state_id":"AR"},{"zip":"72914","fips":"05131","name":"Sebastian County","state_id":"AR"},{"zip":"72916","fips":"05131","name":"Sebastian County","state_id":"AR"},{"zip":"72917","fips":"05131","name":"Sebastian County","state_id":"AR"},{"zip":"72918","fips":"05131","name":"Sebastian County","state_id":"AR"},{"zip":"72919","fips":"05131","name":"Sebastian County","state_id":"AR"},{"zip":"72921","fips":"05033","name":"Crawford County","state_id":"AR"},{"zip":"72923","fips":"05131","name":"Sebastian County","state_id":"AR"},{"zip":"72926","fips":"05127","name":"Scott County","state_id":"AR"},{"zip":"72927","fips":"05131","name":"Sebastian County","state_id":"AR"},{"zip":"72927","fips":"05083","name":"Logan County","state_id":"AR"},{"zip":"72927","fips":"05127","name":"Scott County","state_id":"AR"},{"zip":"72928","fips":"05083","name":"Logan County","state_id":"AR"},{"zip":"72928","fips":"05047","name":"Franklin County","state_id":"AR"},{"zip":"72930","fips":"05047","name":"Franklin County","state_id":"AR"},{"zip":"72930","fips":"05131","name":"Sebastian County","state_id":"AR"},{"zip":"72932","fips":"05033","name":"Crawford County","state_id":"AR"},{"zip":"72933","fips":"05047","name":"Franklin County","state_id":"AR"},{"zip":"72933","fips":"05131","name":"Sebastian County","state_id":"AR"},{"zip":"72933","fips":"05083","name":"Logan County","state_id":"AR"},{"zip":"72934","fips":"05033","name":"Crawford County","state_id":"AR"},{"zip":"72935","fips":"05033","name":"Crawford County","state_id":"AR"},{"zip":"72936","fips":"05131","name":"Sebastian County","state_id":"AR"},{"zip":"72937","fips":"05131","name":"Sebastian County","state_id":"AR"},{"zip":"72938","fips":"05131","name":"Sebastian County","state_id":"AR"},{"zip":"72940","fips":"05131","name":"Sebastian County","state_id":"AR"},{"zip":"72941","fips":"05131","name":"Sebastian County","state_id":"AR"},{"zip":"72943","fips":"05083","name":"Logan County","state_id":"AR"},{"zip":"72943","fips":"05047","name":"Franklin County","state_id":"AR"},{"zip":"72943","fips":"05149","name":"Yell County","state_id":"AR"},{"zip":"72944","fips":"05127","name":"Scott County","state_id":"AR"},{"zip":"72944","fips":"05131","name":"Sebastian County","state_id":"AR"},{"zip":"72945","fips":"05131","name":"Sebastian County","state_id":"AR"},{"zip":"72946","fips":"05033","name":"Crawford County","state_id":"AR"},{"zip":"72946","fips":"05047","name":"Franklin County","state_id":"AR"},{"zip":"72947","fips":"05033","name":"Crawford County","state_id":"AR"},{"zip":"72947","fips":"05047","name":"Franklin County","state_id":"AR"},{"zip":"72948","fips":"05033","name":"Crawford County","state_id":"AR"},{"zip":"72948","fips":"05143","name":"Washington County","state_id":"AR"},{"zip":"72949","fips":"05083","name":"Logan County","state_id":"AR"},{"zip":"72949","fips":"05071","name":"Johnson County","state_id":"AR"},{"zip":"72949","fips":"05047","name":"Franklin County","state_id":"AR"},{"zip":"72950","fips":"05127","name":"Scott County","state_id":"AR"},{"zip":"72951","fips":"05083","name":"Logan County","state_id":"AR"},{"zip":"72951","fips":"05047","name":"Franklin County","state_id":"AR"},{"zip":"72952","fips":"05033","name":"Crawford County","state_id":"AR"},{"zip":"72955","fips":"05033","name":"Crawford County","state_id":"AR"},{"zip":"72956","fips":"05033","name":"Crawford County","state_id":"AR"},{"zip":"72957","fips":"05033","name":"Crawford County","state_id":"AR"},{"zip":"72958","fips":"05127","name":"Scott County","state_id":"AR"},{"zip":"72959","fips":"05087","name":"Madison County","state_id":"AR"},{"zip":"72959","fips":"05033","name":"Crawford County","state_id":"AR"},{"zip":"72959","fips":"05143","name":"Washington County","state_id":"AR"},{"zip":"72959","fips":"05047","name":"Franklin County","state_id":"AR"}]
