[{"zip":"73001","fips":"40015","name":"Caddo County","state_id":"OK"},{"zip":"73002","fips":"40051","name":"Grady County","state_id":"OK"},{"zip":"73002","fips":"40087","name":"McClain County","state_id":"OK"},{"zip":"73003","fips":"40109","name":"Oklahoma County","state_id":"OK"},{"zip":"73004","fips":"40051","name":"Grady County","state_id":"OK"},{"zip":"73005","fips":"40015","name":"Caddo County","state_id":"OK"},{"zip":"73006","fips":"40031","name":"Comanche County","state_id":"OK"},{"zip":"73006","fips":"40015","name":"Caddo County","state_id":"OK"},{"zip":"73007","fips":"40083","name":"Logan County","state_id":"OK"},{"zip":"73007","fips":"40109","name":"Oklahoma County","state_id":"OK"},{"zip":"73008","fips":"40109","name":"Oklahoma County","state_id":"OK"},{"zip":"73009","fips":"40015","name":"Caddo County","state_id":"OK"},{"zip":"73010","fips":"40087","name":"McClain County","state_id":"OK"},{"zip":"73010","fips":"40051","name":"Grady County","state_id":"OK"},{"zip":"73011","fips":"40049","name":"Garvin County","state_id":"OK"},{"zip":"73011","fips":"40051","name":"Grady County","state_id":"OK"},{"zip":"73012","fips":"40109","name":"Oklahoma County","state_id":"OK"},{"zip":"73013","fips":"40109","name":"Oklahoma County","state_id":"OK"},{"zip":"73014","fips":"40017","name":"Canadian County","state_id":"OK"},{"zip":"73015","fips":"40149","name":"Washita County","state_id":"OK"},{"zip":"73015","fips":"40015","name":"Caddo County","state_id":"OK"},{"zip":"73016","fips":"40083","name":"Logan County","state_id":"OK"},{"zip":"73016","fips":"40073","name":"Kingfisher County","state_id":"OK"},{"zip":"73016","fips":"40017","name":"Canadian County","state_id":"OK"},{"zip":"73017","fips":"40031","name":"Comanche County","state_id":"OK"},{"zip":"73017","fips":"40015","name":"Caddo County","state_id":"OK"},{"zip":"73017","fips":"40051","name":"Grady County","state_id":"OK"},{"zip":"73018","fips":"40051","name":"Grady County","state_id":"OK"},{"zip":"73019","fips":"40027","name":"Cleveland County","state_id":"OK"},{"zip":"73020","fips":"40027","name":"Cleveland County","state_id":"OK"},{"zip":"73020","fips":"40109","name":"Oklahoma County","state_id":"OK"},{"zip":"73021","fips":"40149","name":"Washita County","state_id":"OK"},{"zip":"73022","fips":"40017","name":"Canadian County","state_id":"OK"},{"zip":"73023","fips":"40051","name":"Grady County","state_id":"OK"},{"zip":"73024","fips":"40149","name":"Washita County","state_id":"OK"},{"zip":"73024","fips":"40039","name":"Custer County","state_id":"OK"},{"zip":"73025","fips":"40083","name":"Logan County","state_id":"OK"},{"zip":"73025","fips":"40109","name":"Oklahoma County","state_id":"OK"},{"zip":"73026","fips":"40027","name":"Cleveland County","state_id":"OK"},{"zip":"73027","fips":"40119","name":"Payne County","state_id":"OK"},{"zip":"73027","fips":"40083","name":"Logan County","state_id":"OK"},{"zip":"73028","fips":"40073","name":"Kingfisher County","state_id":"OK"},{"zip":"73028","fips":"40083","name":"Logan County","state_id":"OK"},{"zip":"73029","fips":"40015","name":"Caddo County","state_id":"OK"},{"zip":"73030","fips":"40099","name":"Murray County","state_id":"OK"},{"zip":"73030","fips":"40019","name":"Carter County","state_id":"OK"},{"zip":"73030","fips":"40049","name":"Garvin County","state_id":"OK"},{"zip":"73031","fips":"40087","name":"McClain County","state_id":"OK"},{"zip":"73032","fips":"40099","name":"Murray County","state_id":"OK"},{"zip":"73033","fips":"40015","name":"Caddo County","state_id":"OK"},{"zip":"73034","fips":"40083","name":"Logan County","state_id":"OK"},{"zip":"73034","fips":"40109","name":"Oklahoma County","state_id":"OK"},{"zip":"73036","fips":"40017","name":"Canadian County","state_id":"OK"},{"zip":"73038","fips":"40015","name":"Caddo County","state_id":"OK"},{"zip":"73040","fips":"40011","name":"Blaine County","state_id":"OK"},{"zip":"73040","fips":"40017","name":"Canadian County","state_id":"OK"},{"zip":"73041","fips":"40075","name":"Kiowa County","state_id":"OK"},{"zip":"73041","fips":"40149","name":"Washita County","state_id":"OK"},{"zip":"73042","fips":"40015","name":"Caddo County","state_id":"OK"},{"zip":"73043","fips":"40011","name":"Blaine County","state_id":"OK"},{"zip":"73044","fips":"40083","name":"Logan County","state_id":"OK"},{"zip":"73045","fips":"40125","name":"Pottawatomie County","state_id":"OK"},{"zip":"73045","fips":"40081","name":"Lincoln County","state_id":"OK"},{"zip":"73045","fips":"40109","name":"Oklahoma County","state_id":"OK"},{"zip":"73047","fips":"40015","name":"Caddo County","state_id":"OK"},{"zip":"73047","fips":"40017","name":"Canadian County","state_id":"OK"},{"zip":"73047","fips":"40051","name":"Grady County","state_id":"OK"},{"zip":"73047","fips":"40011","name":"Blaine County","state_id":"OK"},{"zip":"73048","fips":"40011","name":"Blaine County","state_id":"OK"},{"zip":"73048","fips":"40015","name":"Caddo County","state_id":"OK"},{"zip":"73048","fips":"40039","name":"Custer County","state_id":"OK"},{"zip":"73049","fips":"40109","name":"Oklahoma County","state_id":"OK"},{"zip":"73050","fips":"40083","name":"Logan County","state_id":"OK"},{"zip":"73051","fips":"40027","name":"Cleveland County","state_id":"OK"},{"zip":"73051","fips":"40125","name":"Pottawatomie County","state_id":"OK"},{"zip":"73052","fips":"40051","name":"Grady County","state_id":"OK"},{"zip":"73052","fips":"40049","name":"Garvin County","state_id":"OK"},{"zip":"73052","fips":"40087","name":"McClain County","state_id":"OK"},{"zip":"73053","fips":"40015","name":"Caddo County","state_id":"OK"},{"zip":"73054","fips":"40083","name":"Logan County","state_id":"OK"},{"zip":"73054","fips":"40109","name":"Oklahoma County","state_id":"OK"},{"zip":"73054","fips":"40081","name":"Lincoln County","state_id":"OK"},{"zip":"73055","fips":"40031","name":"Comanche County","state_id":"OK"},{"zip":"73055","fips":"40051","name":"Grady County","state_id":"OK"},{"zip":"73055","fips":"40137","name":"Stephens County","state_id":"OK"},{"zip":"73056","fips":"40083","name":"Logan County","state_id":"OK"},{"zip":"73056","fips":"40047","name":"Garfield County","state_id":"OK"},{"zip":"73057","fips":"40049","name":"Garvin County","state_id":"OK"},{"zip":"73057","fips":"40087","name":"McClain County","state_id":"OK"},{"zip":"73058","fips":"40083","name":"Logan County","state_id":"OK"},{"zip":"73059","fips":"40017","name":"Canadian County","state_id":"OK"},{"zip":"73059","fips":"40051","name":"Grady County","state_id":"OK"},{"zip":"73059","fips":"40015","name":"Caddo County","state_id":"OK"},{"zip":"73061","fips":"40117","name":"Pawnee County","state_id":"OK"},{"zip":"73061","fips":"40103","name":"Noble County","state_id":"OK"},{"zip":"73062","fips":"40149","name":"Washita County","state_id":"OK"},{"zip":"73062","fips":"40075","name":"Kiowa County","state_id":"OK"},{"zip":"73063","fips":"40119","name":"Payne County","state_id":"OK"},{"zip":"73063","fips":"40083","name":"Logan County","state_id":"OK"},{"zip":"73064","fips":"40017","name":"Canadian County","state_id":"OK"},{"zip":"73065","fips":"40087","name":"McClain County","state_id":"OK"},{"zip":"73065","fips":"40109","name":"Oklahoma County","state_id":"OK"},{"zip":"73065","fips":"40051","name":"Grady County","state_id":"OK"},{"zip":"73066","fips":"40109","name":"Oklahoma County","state_id":"OK"},{"zip":"73067","fips":"40051","name":"Grady County","state_id":"OK"},{"zip":"73068","fips":"40027","name":"Cleveland County","state_id":"OK"},{"zip":"73069","fips":"40027","name":"Cleveland County","state_id":"OK"},{"zip":"73070","fips":"40027","name":"Cleveland County","state_id":"OK"},{"zip":"73071","fips":"40027","name":"Cleveland County","state_id":"OK"},{"zip":"73072","fips":"40027","name":"Cleveland County","state_id":"OK"},{"zip":"73072","fips":"40087","name":"McClain County","state_id":"OK"},{"zip":"73073","fips":"40047","name":"Garfield County","state_id":"OK"},{"zip":"73073","fips":"40119","name":"Payne County","state_id":"OK"},{"zip":"73073","fips":"40083","name":"Logan County","state_id":"OK"},{"zip":"73073","fips":"40103","name":"Noble County","state_id":"OK"},{"zip":"73074","fips":"40087","name":"McClain County","state_id":"OK"},{"zip":"73074","fips":"40049","name":"Garvin County","state_id":"OK"},{"zip":"73075","fips":"40049","name":"Garvin County","state_id":"OK"},{"zip":"73077","fips":"40119","name":"Payne County","state_id":"OK"},{"zip":"73077","fips":"40103","name":"Noble County","state_id":"OK"},{"zip":"73078","fips":"40017","name":"Canadian County","state_id":"OK"},{"zip":"73078","fips":"40109","name":"Oklahoma County","state_id":"OK"},{"zip":"73079","fips":"40015","name":"Caddo County","state_id":"OK"},{"zip":"73079","fips":"40051","name":"Grady County","state_id":"OK"},{"zip":"73080","fips":"40087","name":"McClain County","state_id":"OK"},{"zip":"73082","fips":"40051","name":"Grady County","state_id":"OK"},{"zip":"73082","fips":"40031","name":"Comanche County","state_id":"OK"},{"zip":"73083","fips":"40109","name":"Oklahoma County","state_id":"OK"},{"zip":"73084","fips":"40109","name":"Oklahoma County","state_id":"OK"},{"zip":"73085","fips":"40017","name":"Canadian County","state_id":"OK"},{"zip":"73086","fips":"40099","name":"Murray County","state_id":"OK"},{"zip":"73089","fips":"40051","name":"Grady County","state_id":"OK"},{"zip":"73090","fips":"40017","name":"Canadian County","state_id":"OK"},{"zip":"73092","fips":"40015","name":"Caddo County","state_id":"OK"},{"zip":"73092","fips":"40051","name":"Grady County","state_id":"OK"},{"zip":"73093","fips":"40087","name":"McClain County","state_id":"OK"},{"zip":"73095","fips":"40087","name":"McClain County","state_id":"OK"},{"zip":"73095","fips":"40049","name":"Garvin County","state_id":"OK"},{"zip":"73096","fips":"40011","name":"Blaine County","state_id":"OK"},{"zip":"73096","fips":"40039","name":"Custer County","state_id":"OK"},{"zip":"73096","fips":"40149","name":"Washita County","state_id":"OK"},{"zip":"73097","fips":"40109","name":"Oklahoma County","state_id":"OK"},{"zip":"73098","fips":"40049","name":"Garvin County","state_id":"OK"},{"zip":"73098","fips":"40099","name":"Murray County","state_id":"OK"},{"zip":"73099","fips":"40109","name":"Oklahoma County","state_id":"OK"},{"zip":"73099","fips":"40017","name":"Canadian County","state_id":"OK"}]
