[{"zip":"73101","fips":"40109","name":"Oklahoma County","state_id":"OK"},{"zip":"73102","fips":"40109","name":"Oklahoma County","state_id":"OK"},{"zip":"73103","fips":"40109","name":"Oklahoma County","state_id":"OK"},{"zip":"73104","fips":"40027","name":"Cleveland County","state_id":"OK"},{"zip":"73104","fips":"40109","name":"Oklahoma County","state_id":"OK"},{"zip":"73105","fips":"40109","name":"Oklahoma County","state_id":"OK"},{"zip":"73106","fips":"40109","name":"Oklahoma County","state_id":"OK"},{"zip":"73107","fips":"40109","name":"Oklahoma County","state_id":"OK"},{"zip":"73108","fips":"40109","name":"Oklahoma County","state_id":"OK"},{"zip":"73109","fips":"40109","name":"Oklahoma County","state_id":"OK"},{"zip":"73110","fips":"40109","name":"Oklahoma County","state_id":"OK"},{"zip":"73110","fips":"40027","name":"Cleveland County","state_id":"OK"},{"zip":"73111","fips":"40027","name":"Cleveland County","state_id":"OK"},{"zip":"73111","fips":"40109","name":"Oklahoma County","state_id":"OK"},{"zip":"73112","fips":"40109","name":"Oklahoma County","state_id":"OK"},{"zip":"73113","fips":"40109","name":"Oklahoma County","state_id":"OK"},{"zip":"73114","fips":"40109","name":"Oklahoma County","state_id":"OK"},{"zip":"73115","fips":"40109","name":"Oklahoma County","state_id":"OK"},{"zip":"73115","fips":"40027","name":"Cleveland County","state_id":"OK"},{"zip":"73116","fips":"40109","name":"Oklahoma County","state_id":"OK"},{"zip":"73117","fips":"40109","name":"Oklahoma County","state_id":"OK"},{"zip":"73118","fips":"40109","name":"Oklahoma County","state_id":"OK"},{"zip":"73119","fips":"40109","name":"Oklahoma County","state_id":"OK"},{"zip":"73120","fips":"40109","name":"Oklahoma County","state_id":"OK"},{"zip":"73121","fips":"40109","name":"Oklahoma County","state_id":"OK"},{"zip":"73122","fips":"40109","name":"Oklahoma County","state_id":"OK"},{"zip":"73123","fips":"40109","name":"Oklahoma County","state_id":"OK"},{"zip":"73125","fips":"40109","name":"Oklahoma County","state_id":"OK"},{"zip":"73127","fips":"40109","name":"Oklahoma County","state_id":"OK"},{"zip":"73127","fips":"40017","name":"Canadian County","state_id":"OK"},{"zip":"73128","fips":"40017","name":"Canadian County","state_id":"OK"},{"zip":"73128","fips":"40109","name":"Oklahoma County","state_id":"OK"},{"zip":"73129","fips":"40027","name":"Cleveland County","state_id":"OK"},{"zip":"73129","fips":"40109","name":"Oklahoma County","state_id":"OK"},{"zip":"73130","fips":"40109","name":"Oklahoma County","state_id":"OK"},{"zip":"73131","fips":"40109","name":"Oklahoma County","state_id":"OK"},{"zip":"73132","fips":"40109","name":"Oklahoma County","state_id":"OK"},{"zip":"73134","fips":"40109","name":"Oklahoma County","state_id":"OK"},{"zip":"73135","fips":"40027","name":"Cleveland County","state_id":"OK"},{"zip":"73135","fips":"40109","name":"Oklahoma County","state_id":"OK"},{"zip":"73136","fips":"40109","name":"Oklahoma County","state_id":"OK"},{"zip":"73137","fips":"40109","name":"Oklahoma County","state_id":"OK"},{"zip":"73139","fips":"40027","name":"Cleveland County","state_id":"OK"},{"zip":"73139","fips":"40109","name":"Oklahoma County","state_id":"OK"},{"zip":"73140","fips":"40109","name":"Oklahoma County","state_id":"OK"},{"zip":"73141","fips":"40109","name":"Oklahoma County","state_id":"OK"},{"zip":"73142","fips":"40109","name":"Oklahoma County","state_id":"OK"},{"zip":"73142","fips":"40017","name":"Canadian County","state_id":"OK"},{"zip":"73143","fips":"40109","name":"Oklahoma County","state_id":"OK"},{"zip":"73144","fips":"40109","name":"Oklahoma County","state_id":"OK"},{"zip":"73145","fips":"40109","name":"Oklahoma County","state_id":"OK"},{"zip":"73146","fips":"40109","name":"Oklahoma County","state_id":"OK"},{"zip":"73147","fips":"40109","name":"Oklahoma County","state_id":"OK"},{"zip":"73148","fips":"40109","name":"Oklahoma County","state_id":"OK"},{"zip":"73149","fips":"40109","name":"Oklahoma County","state_id":"OK"},{"zip":"73149","fips":"40027","name":"Cleveland County","state_id":"OK"},{"zip":"73150","fips":"40027","name":"Cleveland County","state_id":"OK"},{"zip":"73150","fips":"40109","name":"Oklahoma County","state_id":"OK"},{"zip":"73151","fips":"40109","name":"Oklahoma County","state_id":"OK"},{"zip":"73152","fips":"40109","name":"Oklahoma County","state_id":"OK"},{"zip":"73153","fips":"40027","name":"Cleveland County","state_id":"OK"},{"zip":"73154","fips":"40109","name":"Oklahoma County","state_id":"OK"},{"zip":"73155","fips":"40109","name":"Oklahoma County","state_id":"OK"},{"zip":"73156","fips":"40109","name":"Oklahoma County","state_id":"OK"},{"zip":"73157","fips":"40109","name":"Oklahoma County","state_id":"OK"},{"zip":"73159","fips":"40027","name":"Cleveland County","state_id":"OK"},{"zip":"73159","fips":"40109","name":"Oklahoma County","state_id":"OK"},{"zip":"73160","fips":"40109","name":"Oklahoma County","state_id":"OK"},{"zip":"73160","fips":"40027","name":"Cleveland County","state_id":"OK"},{"zip":"73162","fips":"40109","name":"Oklahoma County","state_id":"OK"},{"zip":"73165","fips":"40109","name":"Oklahoma County","state_id":"OK"},{"zip":"73165","fips":"40027","name":"Cleveland County","state_id":"OK"},{"zip":"73169","fips":"40027","name":"Cleveland County","state_id":"OK"},{"zip":"73169","fips":"40109","name":"Oklahoma County","state_id":"OK"},{"zip":"73170","fips":"40027","name":"Cleveland County","state_id":"OK"},{"zip":"73172","fips":"40109","name":"Oklahoma County","state_id":"OK"},{"zip":"73173","fips":"40027","name":"Cleveland County","state_id":"OK"},{"zip":"73173","fips":"40017","name":"Canadian County","state_id":"OK"},{"zip":"73179","fips":"40109","name":"Oklahoma County","state_id":"OK"},{"zip":"73179","fips":"40017","name":"Canadian County","state_id":"OK"},{"zip":"73184","fips":"40109","name":"Oklahoma County","state_id":"OK"},{"zip":"73189","fips":"40027","name":"Cleveland County","state_id":"OK"},{"zip":"73190","fips":"40109","name":"Oklahoma County","state_id":"OK"},{"zip":"73194","fips":"40109","name":"Oklahoma County","state_id":"OK"},{"zip":"73195","fips":"40109","name":"Oklahoma County","state_id":"OK"}]
