[{"zip":"73401","fips":"40095","name":"Marshall County","state_id":"OK"},{"zip":"73401","fips":"40085","name":"Love County","state_id":"OK"},{"zip":"73401","fips":"40019","name":"Carter County","state_id":"OK"},{"zip":"73401","fips":"40069","name":"Johnston County","state_id":"OK"},{"zip":"73402","fips":"40019","name":"Carter County","state_id":"OK"},{"zip":"73403","fips":"40019","name":"Carter County","state_id":"OK"},{"zip":"73425","fips":"40137","name":"Stephens County","state_id":"OK"},{"zip":"73430","fips":"40085","name":"Love County","state_id":"OK"},{"zip":"73432","fips":"40005","name":"Atoka County","state_id":"OK"},{"zip":"73432","fips":"40069","name":"Johnston County","state_id":"OK"},{"zip":"73433","fips":"40049","name":"Garvin County","state_id":"OK"},{"zip":"73433","fips":"40019","name":"Carter County","state_id":"OK"},{"zip":"73434","fips":"40049","name":"Garvin County","state_id":"OK"},{"zip":"73434","fips":"40137","name":"Stephens County","state_id":"OK"},{"zip":"73435","fips":"40019","name":"Carter County","state_id":"OK"},{"zip":"73436","fips":"40019","name":"Carter County","state_id":"OK"},{"zip":"73437","fips":"40019","name":"Carter County","state_id":"OK"},{"zip":"73438","fips":"40019","name":"Carter County","state_id":"OK"},{"zip":"73439","fips":"40095","name":"Marshall County","state_id":"OK"},{"zip":"73440","fips":"40095","name":"Marshall County","state_id":"OK"},{"zip":"73441","fips":"40085","name":"Love County","state_id":"OK"},{"zip":"73442","fips":"40067","name":"Jefferson County","state_id":"OK"},{"zip":"73442","fips":"40137","name":"Stephens County","state_id":"OK"},{"zip":"73443","fips":"40019","name":"Carter County","state_id":"OK"},{"zip":"73444","fips":"40019","name":"Carter County","state_id":"OK"},{"zip":"73444","fips":"40099","name":"Murray County","state_id":"OK"},{"zip":"73444","fips":"40049","name":"Garvin County","state_id":"OK"},{"zip":"73446","fips":"40085","name":"Love County","state_id":"OK"},{"zip":"73446","fips":"40095","name":"Marshall County","state_id":"OK"},{"zip":"73446","fips":"40069","name":"Johnston County","state_id":"OK"},{"zip":"73446","fips":"40019","name":"Carter County","state_id":"OK"},{"zip":"73447","fips":"40095","name":"Marshall County","state_id":"OK"},{"zip":"73447","fips":"40069","name":"Johnston County","state_id":"OK"},{"zip":"73448","fips":"40085","name":"Love County","state_id":"OK"},{"zip":"73448","fips":"40095","name":"Marshall County","state_id":"OK"},{"zip":"73449","fips":"40013","name":"Bryan County","state_id":"OK"},{"zip":"73450","fips":"40069","name":"Johnston County","state_id":"OK"},{"zip":"73453","fips":"40019","name":"Carter County","state_id":"OK"},{"zip":"73453","fips":"40085","name":"Love County","state_id":"OK"},{"zip":"73455","fips":"40069","name":"Johnston County","state_id":"OK"},{"zip":"73456","fips":"40085","name":"Love County","state_id":"OK"},{"zip":"73456","fips":"40067","name":"Jefferson County","state_id":"OK"},{"zip":"73456","fips":"40019","name":"Carter County","state_id":"OK"},{"zip":"73458","fips":"40019","name":"Carter County","state_id":"OK"},{"zip":"73459","fips":"40085","name":"Love County","state_id":"OK"},{"zip":"73460","fips":"40069","name":"Johnston County","state_id":"OK"},{"zip":"73461","fips":"40069","name":"Johnston County","state_id":"OK"},{"zip":"73461","fips":"40005","name":"Atoka County","state_id":"OK"},{"zip":"73463","fips":"40085","name":"Love County","state_id":"OK"},{"zip":"73463","fips":"40019","name":"Carter County","state_id":"OK"},{"zip":"73481","fips":"40137","name":"Stephens County","state_id":"OK"},{"zip":"73481","fips":"40019","name":"Carter County","state_id":"OK"},{"zip":"73487","fips":"40019","name":"Carter County","state_id":"OK"},{"zip":"73488","fips":"40019","name":"Carter County","state_id":"OK"},{"zip":"73488","fips":"40049","name":"Garvin County","state_id":"OK"},{"zip":"73491","fips":"40137","name":"Stephens County","state_id":"OK"}]
