[{"zip":"73501","fips":"40031","name":"Comanche County","state_id":"OK"},{"zip":"73501","fips":"40137","name":"Stephens County","state_id":"OK"},{"zip":"73502","fips":"40031","name":"Comanche County","state_id":"OK"},{"zip":"73503","fips":"40031","name":"Comanche County","state_id":"OK"},{"zip":"73505","fips":"40031","name":"Comanche County","state_id":"OK"},{"zip":"73506","fips":"40031","name":"Comanche County","state_id":"OK"},{"zip":"73507","fips":"40031","name":"Comanche County","state_id":"OK"},{"zip":"73520","fips":"40067","name":"Jefferson County","state_id":"OK"},{"zip":"73521","fips":"40065","name":"Jackson County","state_id":"OK"},{"zip":"73522","fips":"40065","name":"Jackson County","state_id":"OK"},{"zip":"73523","fips":"40065","name":"Jackson County","state_id":"OK"},{"zip":"73526","fips":"40055","name":"Greer County","state_id":"OK"},{"zip":"73526","fips":"40065","name":"Jackson County","state_id":"OK"},{"zip":"73527","fips":"40031","name":"Comanche County","state_id":"OK"},{"zip":"73528","fips":"40141","name":"Tillman County","state_id":"OK"},{"zip":"73528","fips":"40031","name":"Comanche County","state_id":"OK"},{"zip":"73528","fips":"40033","name":"Cotton County","state_id":"OK"},{"zip":"73529","fips":"40137","name":"Stephens County","state_id":"OK"},{"zip":"73530","fips":"40141","name":"Tillman County","state_id":"OK"},{"zip":"73531","fips":"40033","name":"Cotton County","state_id":"OK"},{"zip":"73532","fips":"40065","name":"Jackson County","state_id":"OK"},{"zip":"73533","fips":"40137","name":"Stephens County","state_id":"OK"},{"zip":"73537","fips":"40057","name":"Harmon County","state_id":"OK"},{"zip":"73537","fips":"40065","name":"Jackson County","state_id":"OK"},{"zip":"73538","fips":"40031","name":"Comanche County","state_id":"OK"},{"zip":"73539","fips":"40065","name":"Jackson County","state_id":"OK"},{"zip":"73540","fips":"40033","name":"Cotton County","state_id":"OK"},{"zip":"73540","fips":"40031","name":"Comanche County","state_id":"OK"},{"zip":"73541","fips":"40031","name":"Comanche County","state_id":"OK"},{"zip":"73542","fips":"40141","name":"Tillman County","state_id":"OK"},{"zip":"73543","fips":"40031","name":"Comanche County","state_id":"OK"},{"zip":"73544","fips":"40057","name":"Harmon County","state_id":"OK"},{"zip":"73546","fips":"40141","name":"Tillman County","state_id":"OK"},{"zip":"73547","fips":"40055","name":"Greer County","state_id":"OK"},{"zip":"73548","fips":"40067","name":"Jefferson County","state_id":"OK"},{"zip":"73549","fips":"40065","name":"Jackson County","state_id":"OK"},{"zip":"73550","fips":"40057","name":"Harmon County","state_id":"OK"},{"zip":"73551","fips":"40141","name":"Tillman County","state_id":"OK"},{"zip":"73552","fips":"40141","name":"Tillman County","state_id":"OK"},{"zip":"73552","fips":"40031","name":"Comanche County","state_id":"OK"},{"zip":"73553","fips":"40141","name":"Tillman County","state_id":"OK"},{"zip":"73554","fips":"40057","name":"Harmon County","state_id":"OK"},{"zip":"73554","fips":"40055","name":"Greer County","state_id":"OK"},{"zip":"73555","fips":"40141","name":"Tillman County","state_id":"OK"},{"zip":"73556","fips":"40065","name":"Jackson County","state_id":"OK"},{"zip":"73557","fips":"40031","name":"Comanche County","state_id":"OK"},{"zip":"73559","fips":"40075","name":"Kiowa County","state_id":"OK"},{"zip":"73560","fips":"40065","name":"Jackson County","state_id":"OK"},{"zip":"73562","fips":"40033","name":"Cotton County","state_id":"OK"},{"zip":"73564","fips":"40075","name":"Kiowa County","state_id":"OK"},{"zip":"73565","fips":"40067","name":"Jefferson County","state_id":"OK"},{"zip":"73566","fips":"40075","name":"Kiowa County","state_id":"OK"},{"zip":"73566","fips":"40141","name":"Tillman County","state_id":"OK"},{"zip":"73567","fips":"40031","name":"Comanche County","state_id":"OK"},{"zip":"73568","fips":"40033","name":"Cotton County","state_id":"OK"},{"zip":"73569","fips":"40067","name":"Jefferson County","state_id":"OK"},{"zip":"73570","fips":"40141","name":"Tillman County","state_id":"OK"},{"zip":"73571","fips":"40057","name":"Harmon County","state_id":"OK"},{"zip":"73572","fips":"40031","name":"Comanche County","state_id":"OK"},{"zip":"73572","fips":"40033","name":"Cotton County","state_id":"OK"},{"zip":"73573","fips":"40067","name":"Jefferson County","state_id":"OK"},{"zip":"73573","fips":"40137","name":"Stephens County","state_id":"OK"}]
