[{"zip":"73601","fips":"40149","name":"Washita County","state_id":"OK"},{"zip":"73601","fips":"40039","name":"Custer County","state_id":"OK"},{"zip":"73620","fips":"40039","name":"Custer County","state_id":"OK"},{"zip":"73622","fips":"40149","name":"Washita County","state_id":"OK"},{"zip":"73624","fips":"40149","name":"Washita County","state_id":"OK"},{"zip":"73625","fips":"40039","name":"Custer County","state_id":"OK"},{"zip":"73626","fips":"40039","name":"Custer County","state_id":"OK"},{"zip":"73626","fips":"40149","name":"Washita County","state_id":"OK"},{"zip":"73627","fips":"40009","name":"Beckham County","state_id":"OK"},{"zip":"73628","fips":"40129","name":"Roger Mills County","state_id":"OK"},{"zip":"73632","fips":"40149","name":"Washita County","state_id":"OK"},{"zip":"73638","fips":"40129","name":"Roger Mills County","state_id":"OK"},{"zip":"73639","fips":"40039","name":"Custer County","state_id":"OK"},{"zip":"73641","fips":"40149","name":"Washita County","state_id":"OK"},{"zip":"73642","fips":"40129","name":"Roger Mills County","state_id":"OK"},{"zip":"73644","fips":"40009","name":"Beckham County","state_id":"OK"},{"zip":"73644","fips":"40149","name":"Washita County","state_id":"OK"},{"zip":"73644","fips":"40129","name":"Roger Mills County","state_id":"OK"},{"zip":"73645","fips":"40009","name":"Beckham County","state_id":"OK"},{"zip":"73646","fips":"40043","name":"Dewey County","state_id":"OK"},{"zip":"73647","fips":"40149","name":"Washita County","state_id":"OK"},{"zip":"73650","fips":"40039","name":"Custer County","state_id":"OK"},{"zip":"73650","fips":"40129","name":"Roger Mills County","state_id":"OK"},{"zip":"73651","fips":"40075","name":"Kiowa County","state_id":"OK"},{"zip":"73654","fips":"40043","name":"Dewey County","state_id":"OK"},{"zip":"73654","fips":"40039","name":"Custer County","state_id":"OK"},{"zip":"73654","fips":"40129","name":"Roger Mills County","state_id":"OK"},{"zip":"73655","fips":"40055","name":"Greer County","state_id":"OK"},{"zip":"73655","fips":"40149","name":"Washita County","state_id":"OK"},{"zip":"73655","fips":"40075","name":"Kiowa County","state_id":"OK"},{"zip":"73658","fips":"40043","name":"Dewey County","state_id":"OK"},{"zip":"73659","fips":"40043","name":"Dewey County","state_id":"OK"},{"zip":"73660","fips":"40129","name":"Roger Mills County","state_id":"OK"},{"zip":"73661","fips":"40149","name":"Washita County","state_id":"OK"},{"zip":"73662","fips":"40129","name":"Roger Mills County","state_id":"OK"},{"zip":"73662","fips":"40009","name":"Beckham County","state_id":"OK"},{"zip":"73663","fips":"40043","name":"Dewey County","state_id":"OK"},{"zip":"73664","fips":"40149","name":"Washita County","state_id":"OK"},{"zip":"73664","fips":"40009","name":"Beckham County","state_id":"OK"},{"zip":"73666","fips":"40009","name":"Beckham County","state_id":"OK"},{"zip":"73666","fips":"40129","name":"Roger Mills County","state_id":"OK"},{"zip":"73667","fips":"40043","name":"Dewey County","state_id":"OK"},{"zip":"73668","fips":"40009","name":"Beckham County","state_id":"OK"},{"zip":"73669","fips":"40039","name":"Custer County","state_id":"OK"},{"zip":"73673","fips":"40009","name":"Beckham County","state_id":"OK"},{"zip":"73673","fips":"40055","name":"Greer County","state_id":"OK"}]
