[{"zip":"73701","fips":"40047","name":"Garfield County","state_id":"OK"},{"zip":"73702","fips":"40047","name":"Garfield County","state_id":"OK"},{"zip":"73703","fips":"40047","name":"Garfield County","state_id":"OK"},{"zip":"73705","fips":"40047","name":"Garfield County","state_id":"OK"},{"zip":"73716","fips":"40151","name":"Woods County","state_id":"OK"},{"zip":"73716","fips":"40003","name":"Alfalfa County","state_id":"OK"},{"zip":"73717","fips":"40151","name":"Woods County","state_id":"OK"},{"zip":"73717","fips":"40003","name":"Alfalfa County","state_id":"OK"},{"zip":"73718","fips":"40047","name":"Garfield County","state_id":"OK"},{"zip":"73718","fips":"40093","name":"Major County","state_id":"OK"},{"zip":"73719","fips":"40003","name":"Alfalfa County","state_id":"OK"},{"zip":"73720","fips":"40047","name":"Garfield County","state_id":"OK"},{"zip":"73722","fips":"40003","name":"Alfalfa County","state_id":"OK"},{"zip":"73724","fips":"40011","name":"Blaine County","state_id":"OK"},{"zip":"73726","fips":"40151","name":"Woods County","state_id":"OK"},{"zip":"73726","fips":"40003","name":"Alfalfa County","state_id":"OK"},{"zip":"73726","fips":"40093","name":"Major County","state_id":"OK"},{"zip":"73727","fips":"40047","name":"Garfield County","state_id":"OK"},{"zip":"73728","fips":"40003","name":"Alfalfa County","state_id":"OK"},{"zip":"73729","fips":"40151","name":"Woods County","state_id":"OK"},{"zip":"73729","fips":"40093","name":"Major County","state_id":"OK"},{"zip":"73730","fips":"40047","name":"Garfield County","state_id":"OK"},{"zip":"73731","fips":"40151","name":"Woods County","state_id":"OK"},{"zip":"73733","fips":"40047","name":"Garfield County","state_id":"OK"},{"zip":"73734","fips":"40073","name":"Kingfisher County","state_id":"OK"},{"zip":"73735","fips":"40047","name":"Garfield County","state_id":"OK"},{"zip":"73736","fips":"40047","name":"Garfield County","state_id":"OK"},{"zip":"73737","fips":"40093","name":"Major County","state_id":"OK"},{"zip":"73738","fips":"40047","name":"Garfield County","state_id":"OK"},{"zip":"73739","fips":"40003","name":"Alfalfa County","state_id":"OK"},{"zip":"73739","fips":"40047","name":"Garfield County","state_id":"OK"},{"zip":"73741","fips":"40003","name":"Alfalfa County","state_id":"OK"},{"zip":"73742","fips":"40083","name":"Logan County","state_id":"OK"},{"zip":"73742","fips":"40073","name":"Kingfisher County","state_id":"OK"},{"zip":"73742","fips":"40047","name":"Garfield County","state_id":"OK"},{"zip":"73743","fips":"40047","name":"Garfield County","state_id":"OK"},{"zip":"73744","fips":"40011","name":"Blaine County","state_id":"OK"},{"zip":"73746","fips":"40151","name":"Woods County","state_id":"OK"},{"zip":"73747","fips":"40093","name":"Major County","state_id":"OK"},{"zip":"73747","fips":"40011","name":"Blaine County","state_id":"OK"},{"zip":"73749","fips":"40003","name":"Alfalfa County","state_id":"OK"},{"zip":"73750","fips":"40073","name":"Kingfisher County","state_id":"OK"},{"zip":"73753","fips":"40047","name":"Garfield County","state_id":"OK"},{"zip":"73754","fips":"40047","name":"Garfield County","state_id":"OK"},{"zip":"73754","fips":"40093","name":"Major County","state_id":"OK"},{"zip":"73755","fips":"40011","name":"Blaine County","state_id":"OK"},{"zip":"73756","fips":"40073","name":"Kingfisher County","state_id":"OK"},{"zip":"73757","fips":"40047","name":"Garfield County","state_id":"OK"},{"zip":"73757","fips":"40103","name":"Noble County","state_id":"OK"},{"zip":"73758","fips":"40053","name":"Grant County","state_id":"OK"},{"zip":"73759","fips":"40053","name":"Grant County","state_id":"OK"},{"zip":"73760","fips":"40093","name":"Major County","state_id":"OK"},{"zip":"73761","fips":"40047","name":"Garfield County","state_id":"OK"},{"zip":"73761","fips":"40053","name":"Grant County","state_id":"OK"},{"zip":"73762","fips":"40073","name":"Kingfisher County","state_id":"OK"},{"zip":"73762","fips":"40017","name":"Canadian County","state_id":"OK"},{"zip":"73763","fips":"40093","name":"Major County","state_id":"OK"},{"zip":"73763","fips":"40011","name":"Blaine County","state_id":"OK"},{"zip":"73764","fips":"40073","name":"Kingfisher County","state_id":"OK"},{"zip":"73766","fips":"40053","name":"Grant County","state_id":"OK"},{"zip":"73768","fips":"40093","name":"Major County","state_id":"OK"},{"zip":"73770","fips":"40011","name":"Blaine County","state_id":"OK"},{"zip":"73771","fips":"40053","name":"Grant County","state_id":"OK"},{"zip":"73772","fips":"40011","name":"Blaine County","state_id":"OK"},{"zip":"73773","fips":"40047","name":"Garfield County","state_id":"OK"}]
