[{"zip":"73801","fips":"40153","name":"Woodward County","state_id":"OK"},{"zip":"73832","fips":"40045","name":"Ellis County","state_id":"OK"},{"zip":"73834","fips":"40059","name":"Harper County","state_id":"OK"},{"zip":"73835","fips":"40043","name":"Dewey County","state_id":"OK"},{"zip":"73838","fips":"40093","name":"Major County","state_id":"OK"},{"zip":"73840","fips":"40045","name":"Ellis County","state_id":"OK"},{"zip":"73840","fips":"40153","name":"Woodward County","state_id":"OK"},{"zip":"73841","fips":"40153","name":"Woodward County","state_id":"OK"},{"zip":"73842","fips":"40151","name":"Woods County","state_id":"OK"},{"zip":"73843","fips":"40045","name":"Ellis County","state_id":"OK"},{"zip":"73844","fips":"40007","name":"Beaver County","state_id":"OK"},{"zip":"73848","fips":"40059","name":"Harper County","state_id":"OK"},{"zip":"73851","fips":"40059","name":"Harper County","state_id":"OK"},{"zip":"73852","fips":"40153","name":"Woodward County","state_id":"OK"},{"zip":"73852","fips":"40093","name":"Major County","state_id":"OK"},{"zip":"73853","fips":"40153","name":"Woodward County","state_id":"OK"},{"zip":"73855","fips":"40059","name":"Harper County","state_id":"OK"},{"zip":"73857","fips":"40153","name":"Woodward County","state_id":"OK"},{"zip":"73858","fips":"40045","name":"Ellis County","state_id":"OK"},{"zip":"73859","fips":"40043","name":"Dewey County","state_id":"OK"},{"zip":"73860","fips":"40151","name":"Woods County","state_id":"OK"}]
