[{"zip":"73901","fips":"40139","name":"Texas County","state_id":"OK"},{"zip":"73931","fips":"40007","name":"Beaver County","state_id":"OK"},{"zip":"73932","fips":"40007","name":"Beaver County","state_id":"OK"},{"zip":"73933","fips":"40025","name":"Cimarron County","state_id":"OK"},{"zip":"73937","fips":"40025","name":"Cimarron County","state_id":"OK"},{"zip":"73938","fips":"40007","name":"Beaver County","state_id":"OK"},{"zip":"73939","fips":"40139","name":"Texas County","state_id":"OK"},{"zip":"73942","fips":"40139","name":"Texas County","state_id":"OK"},{"zip":"73944","fips":"40139","name":"Texas County","state_id":"OK"},{"zip":"73945","fips":"40139","name":"Texas County","state_id":"OK"},{"zip":"73946","fips":"40025","name":"Cimarron County","state_id":"OK"},{"zip":"73947","fips":"40025","name":"Cimarron County","state_id":"OK"},{"zip":"73949","fips":"40139","name":"Texas County","state_id":"OK"},{"zip":"73950","fips":"40007","name":"Beaver County","state_id":"OK"},{"zip":"73951","fips":"40139","name":"Texas County","state_id":"OK"},{"zip":"73960","fips":"48421","name":"Sherman County","state_id":"TX"}]
