[{"zip":"74001","fips":"40113","name":"Osage County","state_id":"OK"},{"zip":"74002","fips":"40113","name":"Osage County","state_id":"OK"},{"zip":"74003","fips":"40113","name":"Osage County","state_id":"OK"},{"zip":"74003","fips":"40147","name":"Washington County","state_id":"OK"},{"zip":"74005","fips":"40147","name":"Washington County","state_id":"OK"},{"zip":"74006","fips":"40105","name":"Nowata County","state_id":"OK"},{"zip":"74006","fips":"40147","name":"Washington County","state_id":"OK"},{"zip":"74008","fips":"40145","name":"Wagoner County","state_id":"OK"},{"zip":"74008","fips":"40143","name":"Tulsa County","state_id":"OK"},{"zip":"74010","fips":"40037","name":"Creek County","state_id":"OK"},{"zip":"74010","fips":"40107","name":"Okfuskee County","state_id":"OK"},{"zip":"74011","fips":"40143","name":"Tulsa County","state_id":"OK"},{"zip":"74012","fips":"40143","name":"Tulsa County","state_id":"OK"},{"zip":"74013","fips":"40143","name":"Tulsa County","state_id":"OK"},{"zip":"74014","fips":"40143","name":"Tulsa County","state_id":"OK"},{"zip":"74014","fips":"40145","name":"Wagoner County","state_id":"OK"},{"zip":"74015","fips":"40143","name":"Tulsa County","state_id":"OK"},{"zip":"74015","fips":"40145","name":"Wagoner County","state_id":"OK"},{"zip":"74015","fips":"40131","name":"Rogers County","state_id":"OK"},{"zip":"74016","fips":"40131","name":"Rogers County","state_id":"OK"},{"zip":"74016","fips":"40097","name":"Mayes County","state_id":"OK"},{"zip":"74016","fips":"40105","name":"Nowata County","state_id":"OK"},{"zip":"74016","fips":"40035","name":"Craig County","state_id":"OK"},{"zip":"74017","fips":"40131","name":"Rogers County","state_id":"OK"},{"zip":"74018","fips":"40131","name":"Rogers County","state_id":"OK"},{"zip":"74019","fips":"40131","name":"Rogers County","state_id":"OK"},{"zip":"74019","fips":"40097","name":"Mayes County","state_id":"OK"},{"zip":"74020","fips":"40117","name":"Pawnee County","state_id":"OK"},{"zip":"74021","fips":"40143","name":"Tulsa County","state_id":"OK"},{"zip":"74021","fips":"40131","name":"Rogers County","state_id":"OK"},{"zip":"74021","fips":"40147","name":"Washington County","state_id":"OK"},{"zip":"74022","fips":"40113","name":"Osage County","state_id":"OK"},{"zip":"74022","fips":"40147","name":"Washington County","state_id":"OK"},{"zip":"74023","fips":"40119","name":"Payne County","state_id":"OK"},{"zip":"74023","fips":"40081","name":"Lincoln County","state_id":"OK"},{"zip":"74023","fips":"40037","name":"Creek County","state_id":"OK"},{"zip":"74026","fips":"40081","name":"Lincoln County","state_id":"OK"},{"zip":"74027","fips":"40105","name":"Nowata County","state_id":"OK"},{"zip":"74028","fips":"40037","name":"Creek County","state_id":"OK"},{"zip":"74028","fips":"40081","name":"Lincoln County","state_id":"OK"},{"zip":"74029","fips":"40147","name":"Washington County","state_id":"OK"},{"zip":"74030","fips":"40119","name":"Payne County","state_id":"OK"},{"zip":"74030","fips":"40037","name":"Creek County","state_id":"OK"},{"zip":"74031","fips":"40131","name":"Rogers County","state_id":"OK"},{"zip":"74032","fips":"40119","name":"Payne County","state_id":"OK"},{"zip":"74032","fips":"40103","name":"Noble County","state_id":"OK"},{"zip":"74032","fips":"40117","name":"Pawnee County","state_id":"OK"},{"zip":"74033","fips":"40037","name":"Creek County","state_id":"OK"},{"zip":"74033","fips":"40143","name":"Tulsa County","state_id":"OK"},{"zip":"74034","fips":"40117","name":"Pawnee County","state_id":"OK"},{"zip":"74035","fips":"40113","name":"Osage County","state_id":"OK"},{"zip":"74036","fips":"40145","name":"Wagoner County","state_id":"OK"},{"zip":"74036","fips":"40097","name":"Mayes County","state_id":"OK"},{"zip":"74036","fips":"40131","name":"Rogers County","state_id":"OK"},{"zip":"74037","fips":"40143","name":"Tulsa County","state_id":"OK"},{"zip":"74038","fips":"40037","name":"Creek County","state_id":"OK"},{"zip":"74038","fips":"40117","name":"Pawnee County","state_id":"OK"},{"zip":"74039","fips":"40037","name":"Creek County","state_id":"OK"},{"zip":"74041","fips":"40037","name":"Creek County","state_id":"OK"},{"zip":"74042","fips":"40105","name":"Nowata County","state_id":"OK"},{"zip":"74043","fips":"40143","name":"Tulsa County","state_id":"OK"},{"zip":"74044","fips":"40037","name":"Creek County","state_id":"OK"},{"zip":"74044","fips":"40117","name":"Pawnee County","state_id":"OK"},{"zip":"74045","fips":"40117","name":"Pawnee County","state_id":"OK"},{"zip":"74045","fips":"40119","name":"Payne County","state_id":"OK"},{"zip":"74046","fips":"40037","name":"Creek County","state_id":"OK"},{"zip":"74047","fips":"40037","name":"Creek County","state_id":"OK"},{"zip":"74047","fips":"40143","name":"Tulsa County","state_id":"OK"},{"zip":"74047","fips":"40111","name":"Okmulgee County","state_id":"OK"},{"zip":"74048","fips":"40131","name":"Rogers County","state_id":"OK"},{"zip":"74048","fips":"40105","name":"Nowata County","state_id":"OK"},{"zip":"74048","fips":"40147","name":"Washington County","state_id":"OK"},{"zip":"74050","fips":"40143","name":"Tulsa County","state_id":"OK"},{"zip":"74051","fips":"40147","name":"Washington County","state_id":"OK"},{"zip":"74051","fips":"40113","name":"Osage County","state_id":"OK"},{"zip":"74052","fips":"40037","name":"Creek County","state_id":"OK"},{"zip":"74053","fips":"40143","name":"Tulsa County","state_id":"OK"},{"zip":"74053","fips":"40131","name":"Rogers County","state_id":"OK"},{"zip":"74054","fips":"40113","name":"Osage County","state_id":"OK"},{"zip":"74055","fips":"40131","name":"Rogers County","state_id":"OK"},{"zip":"74055","fips":"40143","name":"Tulsa County","state_id":"OK"},{"zip":"74056","fips":"40113","name":"Osage County","state_id":"OK"},{"zip":"74058","fips":"40117","name":"Pawnee County","state_id":"OK"},{"zip":"74059","fips":"40119","name":"Payne County","state_id":"OK"},{"zip":"74059","fips":"40081","name":"Lincoln County","state_id":"OK"},{"zip":"74059","fips":"40083","name":"Logan County","state_id":"OK"},{"zip":"74060","fips":"40113","name":"Osage County","state_id":"OK"},{"zip":"74061","fips":"40147","name":"Washington County","state_id":"OK"},{"zip":"74061","fips":"40113","name":"Osage County","state_id":"OK"},{"zip":"74062","fips":"40119","name":"Payne County","state_id":"OK"},{"zip":"74063","fips":"40113","name":"Osage County","state_id":"OK"},{"zip":"74063","fips":"40143","name":"Tulsa County","state_id":"OK"},{"zip":"74063","fips":"40037","name":"Creek County","state_id":"OK"},{"zip":"74066","fips":"40143","name":"Tulsa County","state_id":"OK"},{"zip":"74066","fips":"40037","name":"Creek County","state_id":"OK"},{"zip":"74067","fips":"40037","name":"Creek County","state_id":"OK"},{"zip":"74068","fips":"40037","name":"Creek County","state_id":"OK"},{"zip":"74070","fips":"40113","name":"Osage County","state_id":"OK"},{"zip":"74070","fips":"40147","name":"Washington County","state_id":"OK"},{"zip":"74070","fips":"40143","name":"Tulsa County","state_id":"OK"},{"zip":"74071","fips":"40037","name":"Creek County","state_id":"OK"},{"zip":"74072","fips":"40105","name":"Nowata County","state_id":"OK"},{"zip":"74073","fips":"40113","name":"Osage County","state_id":"OK"},{"zip":"74073","fips":"40143","name":"Tulsa County","state_id":"OK"},{"zip":"74074","fips":"40119","name":"Payne County","state_id":"OK"},{"zip":"74075","fips":"40119","name":"Payne County","state_id":"OK"},{"zip":"74075","fips":"40103","name":"Noble County","state_id":"OK"},{"zip":"74076","fips":"40119","name":"Payne County","state_id":"OK"},{"zip":"74077","fips":"40119","name":"Payne County","state_id":"OK"},{"zip":"74078","fips":"40119","name":"Payne County","state_id":"OK"},{"zip":"74079","fips":"40037","name":"Creek County","state_id":"OK"},{"zip":"74079","fips":"40125","name":"Pottawatomie County","state_id":"OK"},{"zip":"74079","fips":"40081","name":"Lincoln County","state_id":"OK"},{"zip":"74080","fips":"40147","name":"Washington County","state_id":"OK"},{"zip":"74080","fips":"40131","name":"Rogers County","state_id":"OK"},{"zip":"74081","fips":"40037","name":"Creek County","state_id":"OK"},{"zip":"74081","fips":"40117","name":"Pawnee County","state_id":"OK"},{"zip":"74082","fips":"40147","name":"Washington County","state_id":"OK"},{"zip":"74083","fips":"40105","name":"Nowata County","state_id":"OK"},{"zip":"74083","fips":"40147","name":"Washington County","state_id":"OK"},{"zip":"74084","fips":"40113","name":"Osage County","state_id":"OK"},{"zip":"74085","fips":"40119","name":"Payne County","state_id":"OK"}]
