[{"zip":"74101","fips":"40143","name":"Tulsa County","state_id":"OK"},{"zip":"74103","fips":"40143","name":"Tulsa County","state_id":"OK"},{"zip":"74103","fips":"40113","name":"Osage County","state_id":"OK"},{"zip":"74104","fips":"40143","name":"Tulsa County","state_id":"OK"},{"zip":"74105","fips":"40143","name":"Tulsa County","state_id":"OK"},{"zip":"74106","fips":"40143","name":"Tulsa County","state_id":"OK"},{"zip":"74106","fips":"40113","name":"Osage County","state_id":"OK"},{"zip":"74107","fips":"40143","name":"Tulsa County","state_id":"OK"},{"zip":"74107","fips":"40037","name":"Creek County","state_id":"OK"},{"zip":"74108","fips":"40143","name":"Tulsa County","state_id":"OK"},{"zip":"74108","fips":"40145","name":"Wagoner County","state_id":"OK"},{"zip":"74110","fips":"40143","name":"Tulsa County","state_id":"OK"},{"zip":"74112","fips":"40143","name":"Tulsa County","state_id":"OK"},{"zip":"74114","fips":"40143","name":"Tulsa County","state_id":"OK"},{"zip":"74115","fips":"40143","name":"Tulsa County","state_id":"OK"},{"zip":"74116","fips":"40131","name":"Rogers County","state_id":"OK"},{"zip":"74116","fips":"40143","name":"Tulsa County","state_id":"OK"},{"zip":"74116","fips":"40145","name":"Wagoner County","state_id":"OK"},{"zip":"74117","fips":"40143","name":"Tulsa County","state_id":"OK"},{"zip":"74119","fips":"40143","name":"Tulsa County","state_id":"OK"},{"zip":"74120","fips":"40143","name":"Tulsa County","state_id":"OK"},{"zip":"74126","fips":"40113","name":"Osage County","state_id":"OK"},{"zip":"74126","fips":"40143","name":"Tulsa County","state_id":"OK"},{"zip":"74127","fips":"40143","name":"Tulsa County","state_id":"OK"},{"zip":"74127","fips":"40113","name":"Osage County","state_id":"OK"},{"zip":"74128","fips":"40143","name":"Tulsa County","state_id":"OK"},{"zip":"74129","fips":"40143","name":"Tulsa County","state_id":"OK"},{"zip":"74130","fips":"40143","name":"Tulsa County","state_id":"OK"},{"zip":"74131","fips":"40037","name":"Creek County","state_id":"OK"},{"zip":"74131","fips":"40143","name":"Tulsa County","state_id":"OK"},{"zip":"74132","fips":"40143","name":"Tulsa County","state_id":"OK"},{"zip":"74132","fips":"40037","name":"Creek County","state_id":"OK"},{"zip":"74133","fips":"40143","name":"Tulsa County","state_id":"OK"},{"zip":"74134","fips":"40143","name":"Tulsa County","state_id":"OK"},{"zip":"74135","fips":"40143","name":"Tulsa County","state_id":"OK"},{"zip":"74136","fips":"40143","name":"Tulsa County","state_id":"OK"},{"zip":"74137","fips":"40143","name":"Tulsa County","state_id":"OK"},{"zip":"74141","fips":"40143","name":"Tulsa County","state_id":"OK"},{"zip":"74145","fips":"40143","name":"Tulsa County","state_id":"OK"},{"zip":"74146","fips":"40143","name":"Tulsa County","state_id":"OK"},{"zip":"74147","fips":"40143","name":"Tulsa County","state_id":"OK"},{"zip":"74148","fips":"40143","name":"Tulsa County","state_id":"OK"},{"zip":"74149","fips":"40143","name":"Tulsa County","state_id":"OK"},{"zip":"74150","fips":"40143","name":"Tulsa County","state_id":"OK"},{"zip":"74152","fips":"40143","name":"Tulsa County","state_id":"OK"},{"zip":"74153","fips":"40143","name":"Tulsa County","state_id":"OK"},{"zip":"74155","fips":"40143","name":"Tulsa County","state_id":"OK"},{"zip":"74156","fips":"40143","name":"Tulsa County","state_id":"OK"},{"zip":"74157","fips":"40143","name":"Tulsa County","state_id":"OK"},{"zip":"74158","fips":"40143","name":"Tulsa County","state_id":"OK"},{"zip":"74159","fips":"40143","name":"Tulsa County","state_id":"OK"},{"zip":"74169","fips":"40143","name":"Tulsa County","state_id":"OK"},{"zip":"74170","fips":"40143","name":"Tulsa County","state_id":"OK"},{"zip":"74171","fips":"40143","name":"Tulsa County","state_id":"OK"},{"zip":"74172","fips":"40143","name":"Tulsa County","state_id":"OK"},{"zip":"74182","fips":"40143","name":"Tulsa County","state_id":"OK"},{"zip":"74186","fips":"40143","name":"Tulsa County","state_id":"OK"},{"zip":"74187","fips":"40143","name":"Tulsa County","state_id":"OK"},{"zip":"74192","fips":"40143","name":"Tulsa County","state_id":"OK"},{"zip":"74193","fips":"40143","name":"Tulsa County","state_id":"OK"}]
