[{"zip":"74301","fips":"40105","name":"Nowata County","state_id":"OK"},{"zip":"74301","fips":"40097","name":"Mayes County","state_id":"OK"},{"zip":"74301","fips":"40041","name":"Delaware County","state_id":"OK"},{"zip":"74301","fips":"40035","name":"Craig County","state_id":"OK"},{"zip":"74330","fips":"40035","name":"Craig County","state_id":"OK"},{"zip":"74330","fips":"40097","name":"Mayes County","state_id":"OK"},{"zip":"74331","fips":"40115","name":"Ottawa County","state_id":"OK"},{"zip":"74331","fips":"40041","name":"Delaware County","state_id":"OK"},{"zip":"74331","fips":"40035","name":"Craig County","state_id":"OK"},{"zip":"74332","fips":"40131","name":"Rogers County","state_id":"OK"},{"zip":"74332","fips":"40097","name":"Mayes County","state_id":"OK"},{"zip":"74332","fips":"40035","name":"Craig County","state_id":"OK"},{"zip":"74333","fips":"40115","name":"Ottawa County","state_id":"OK"},{"zip":"74333","fips":"40035","name":"Craig County","state_id":"OK"},{"zip":"74335","fips":"40115","name":"Ottawa County","state_id":"OK"},{"zip":"74337","fips":"40097","name":"Mayes County","state_id":"OK"},{"zip":"74337","fips":"40145","name":"Wagoner County","state_id":"OK"},{"zip":"74338","fips":"40041","name":"Delaware County","state_id":"OK"},{"zip":"74339","fips":"40115","name":"Ottawa County","state_id":"OK"},{"zip":"74340","fips":"40097","name":"Mayes County","state_id":"OK"},{"zip":"74342","fips":"40041","name":"Delaware County","state_id":"OK"},{"zip":"74343","fips":"40041","name":"Delaware County","state_id":"OK"},{"zip":"74343","fips":"40115","name":"Ottawa County","state_id":"OK"},{"zip":"74344","fips":"40041","name":"Delaware County","state_id":"OK"},{"zip":"74344","fips":"40115","name":"Ottawa County","state_id":"OK"},{"zip":"74345","fips":"40041","name":"Delaware County","state_id":"OK"},{"zip":"74346","fips":"40041","name":"Delaware County","state_id":"OK"},{"zip":"74347","fips":"40041","name":"Delaware County","state_id":"OK"},{"zip":"74347","fips":"40001","name":"Adair County","state_id":"OK"},{"zip":"74347","fips":"40021","name":"Cherokee County","state_id":"OK"},{"zip":"74349","fips":"40035","name":"Craig County","state_id":"OK"},{"zip":"74350","fips":"40097","name":"Mayes County","state_id":"OK"},{"zip":"74352","fips":"40021","name":"Cherokee County","state_id":"OK"},{"zip":"74352","fips":"40097","name":"Mayes County","state_id":"OK"},{"zip":"74352","fips":"40145","name":"Wagoner County","state_id":"OK"},{"zip":"74354","fips":"40035","name":"Craig County","state_id":"OK"},{"zip":"74354","fips":"40115","name":"Ottawa County","state_id":"OK"},{"zip":"74358","fips":"40115","name":"Ottawa County","state_id":"OK"},{"zip":"74359","fips":"40041","name":"Delaware County","state_id":"OK"},{"zip":"74359","fips":"40021","name":"Cherokee County","state_id":"OK"},{"zip":"74360","fips":"40115","name":"Ottawa County","state_id":"OK"},{"zip":"74361","fips":"40097","name":"Mayes County","state_id":"OK"},{"zip":"74361","fips":"40131","name":"Rogers County","state_id":"OK"},{"zip":"74363","fips":"40115","name":"Ottawa County","state_id":"OK"},{"zip":"74364","fips":"40097","name":"Mayes County","state_id":"OK"},{"zip":"74364","fips":"40021","name":"Cherokee County","state_id":"OK"},{"zip":"74364","fips":"40041","name":"Delaware County","state_id":"OK"},{"zip":"74365","fips":"40097","name":"Mayes County","state_id":"OK"},{"zip":"74365","fips":"40041","name":"Delaware County","state_id":"OK"},{"zip":"74366","fips":"40041","name":"Delaware County","state_id":"OK"},{"zip":"74366","fips":"40097","name":"Mayes County","state_id":"OK"},{"zip":"74367","fips":"40097","name":"Mayes County","state_id":"OK"},{"zip":"74368","fips":"40041","name":"Delaware County","state_id":"OK"},{"zip":"74369","fips":"40035","name":"Craig County","state_id":"OK"},{"zip":"74370","fips":"40041","name":"Delaware County","state_id":"OK"},{"zip":"74370","fips":"40115","name":"Ottawa County","state_id":"OK"}]
