[{"zip":"74401","fips":"40101","name":"Muskogee County","state_id":"OK"},{"zip":"74402","fips":"40101","name":"Muskogee County","state_id":"OK"},{"zip":"74403","fips":"40101","name":"Muskogee County","state_id":"OK"},{"zip":"74403","fips":"40145","name":"Wagoner County","state_id":"OK"},{"zip":"74421","fips":"40111","name":"Okmulgee County","state_id":"OK"},{"zip":"74421","fips":"40037","name":"Creek County","state_id":"OK"},{"zip":"74422","fips":"40111","name":"Okmulgee County","state_id":"OK"},{"zip":"74422","fips":"40101","name":"Muskogee County","state_id":"OK"},{"zip":"74423","fips":"40101","name":"Muskogee County","state_id":"OK"},{"zip":"74425","fips":"40121","name":"Pittsburg County","state_id":"OK"},{"zip":"74426","fips":"40091","name":"McIntosh County","state_id":"OK"},{"zip":"74427","fips":"40021","name":"Cherokee County","state_id":"OK"},{"zip":"74428","fips":"40111","name":"Okmulgee County","state_id":"OK"},{"zip":"74428","fips":"40101","name":"Muskogee County","state_id":"OK"},{"zip":"74428","fips":"40091","name":"McIntosh County","state_id":"OK"},{"zip":"74429","fips":"40145","name":"Wagoner County","state_id":"OK"},{"zip":"74430","fips":"40121","name":"Pittsburg County","state_id":"OK"},{"zip":"74431","fips":"40111","name":"Okmulgee County","state_id":"OK"},{"zip":"74432","fips":"40121","name":"Pittsburg County","state_id":"OK"},{"zip":"74432","fips":"40061","name":"Haskell County","state_id":"OK"},{"zip":"74432","fips":"40091","name":"McIntosh County","state_id":"OK"},{"zip":"74434","fips":"40145","name":"Wagoner County","state_id":"OK"},{"zip":"74434","fips":"40101","name":"Muskogee County","state_id":"OK"},{"zip":"74434","fips":"40021","name":"Cherokee County","state_id":"OK"},{"zip":"74435","fips":"40135","name":"Sequoyah County","state_id":"OK"},{"zip":"74435","fips":"40101","name":"Muskogee County","state_id":"OK"},{"zip":"74436","fips":"40101","name":"Muskogee County","state_id":"OK"},{"zip":"74436","fips":"40145","name":"Wagoner County","state_id":"OK"},{"zip":"74436","fips":"40111","name":"Okmulgee County","state_id":"OK"},{"zip":"74436","fips":"40143","name":"Tulsa County","state_id":"OK"},{"zip":"74437","fips":"40111","name":"Okmulgee County","state_id":"OK"},{"zip":"74437","fips":"40091","name":"McIntosh County","state_id":"OK"},{"zip":"74438","fips":"40091","name":"McIntosh County","state_id":"OK"},{"zip":"74441","fips":"40097","name":"Mayes County","state_id":"OK"},{"zip":"74441","fips":"40021","name":"Cherokee County","state_id":"OK"},{"zip":"74442","fips":"40121","name":"Pittsburg County","state_id":"OK"},{"zip":"74444","fips":"40021","name":"Cherokee County","state_id":"OK"},{"zip":"74445","fips":"40111","name":"Okmulgee County","state_id":"OK"},{"zip":"74445","fips":"40091","name":"McIntosh County","state_id":"OK"},{"zip":"74445","fips":"40101","name":"Muskogee County","state_id":"OK"},{"zip":"74446","fips":"40145","name":"Wagoner County","state_id":"OK"},{"zip":"74447","fips":"40111","name":"Okmulgee County","state_id":"OK"},{"zip":"74447","fips":"40107","name":"Okfuskee County","state_id":"OK"},{"zip":"74450","fips":"40101","name":"Muskogee County","state_id":"OK"},{"zip":"74450","fips":"40091","name":"McIntosh County","state_id":"OK"},{"zip":"74451","fips":"40021","name":"Cherokee County","state_id":"OK"},{"zip":"74452","fips":"40097","name":"Mayes County","state_id":"OK"},{"zip":"74452","fips":"40021","name":"Cherokee County","state_id":"OK"},{"zip":"74454","fips":"40145","name":"Wagoner County","state_id":"OK"},{"zip":"74455","fips":"40091","name":"McIntosh County","state_id":"OK"},{"zip":"74455","fips":"40101","name":"Muskogee County","state_id":"OK"},{"zip":"74456","fips":"40111","name":"Okmulgee County","state_id":"OK"},{"zip":"74457","fips":"40001","name":"Adair County","state_id":"OK"},{"zip":"74457","fips":"40021","name":"Cherokee County","state_id":"OK"},{"zip":"74458","fips":"40145","name":"Wagoner County","state_id":"OK"},{"zip":"74459","fips":"40091","name":"McIntosh County","state_id":"OK"},{"zip":"74460","fips":"40111","name":"Okmulgee County","state_id":"OK"},{"zip":"74462","fips":"40121","name":"Pittsburg County","state_id":"OK"},{"zip":"74462","fips":"40061","name":"Haskell County","state_id":"OK"},{"zip":"74463","fips":"40101","name":"Muskogee County","state_id":"OK"},{"zip":"74464","fips":"40021","name":"Cherokee County","state_id":"OK"},{"zip":"74465","fips":"40021","name":"Cherokee County","state_id":"OK"},{"zip":"74467","fips":"40145","name":"Wagoner County","state_id":"OK"},{"zip":"74468","fips":"40101","name":"Muskogee County","state_id":"OK"},{"zip":"74469","fips":"40091","name":"McIntosh County","state_id":"OK"},{"zip":"74469","fips":"40101","name":"Muskogee County","state_id":"OK"},{"zip":"74470","fips":"40101","name":"Muskogee County","state_id":"OK"},{"zip":"74471","fips":"40021","name":"Cherokee County","state_id":"OK"},{"zip":"74472","fips":"40061","name":"Haskell County","state_id":"OK"}]
