[{"zip":"74501","fips":"40121","name":"Pittsburg County","state_id":"OK"},{"zip":"74521","fips":"40127","name":"Pushmataha County","state_id":"OK"},{"zip":"74522","fips":"40121","name":"Pittsburg County","state_id":"OK"},{"zip":"74523","fips":"40127","name":"Pushmataha County","state_id":"OK"},{"zip":"74525","fips":"40005","name":"Atoka County","state_id":"OK"},{"zip":"74525","fips":"40069","name":"Johnston County","state_id":"OK"},{"zip":"74525","fips":"40023","name":"Choctaw County","state_id":"OK"},{"zip":"74528","fips":"40121","name":"Pittsburg County","state_id":"OK"},{"zip":"74529","fips":"40121","name":"Pittsburg County","state_id":"OK"},{"zip":"74530","fips":"40069","name":"Johnston County","state_id":"OK"},{"zip":"74531","fips":"40063","name":"Hughes County","state_id":"OK"},{"zip":"74533","fips":"40005","name":"Atoka County","state_id":"OK"},{"zip":"74534","fips":"40029","name":"Coal County","state_id":"OK"},{"zip":"74535","fips":"40029","name":"Coal County","state_id":"OK"},{"zip":"74536","fips":"40127","name":"Pushmataha County","state_id":"OK"},{"zip":"74536","fips":"40077","name":"Latimer County","state_id":"OK"},{"zip":"74536","fips":"40121","name":"Pittsburg County","state_id":"OK"},{"zip":"74538","fips":"40005","name":"Atoka County","state_id":"OK"},{"zip":"74538","fips":"40029","name":"Coal County","state_id":"OK"},{"zip":"74540","fips":"40127","name":"Pushmataha County","state_id":"OK"},{"zip":"74540","fips":"40005","name":"Atoka County","state_id":"OK"},{"zip":"74543","fips":"40127","name":"Pushmataha County","state_id":"OK"},{"zip":"74545","fips":"40077","name":"Latimer County","state_id":"OK"},{"zip":"74546","fips":"40121","name":"Pittsburg County","state_id":"OK"},{"zip":"74547","fips":"40121","name":"Pittsburg County","state_id":"OK"},{"zip":"74547","fips":"40077","name":"Latimer County","state_id":"OK"},{"zip":"74549","fips":"40079","name":"Le Flore County","state_id":"OK"},{"zip":"74549","fips":"40127","name":"Pushmataha County","state_id":"OK"},{"zip":"74552","fips":"40061","name":"Haskell County","state_id":"OK"},{"zip":"74553","fips":"40121","name":"Pittsburg County","state_id":"OK"},{"zip":"74553","fips":"40005","name":"Atoka County","state_id":"OK"},{"zip":"74554","fips":"40121","name":"Pittsburg County","state_id":"OK"},{"zip":"74555","fips":"40005","name":"Atoka County","state_id":"OK"},{"zip":"74556","fips":"40029","name":"Coal County","state_id":"OK"},{"zip":"74557","fips":"40127","name":"Pushmataha County","state_id":"OK"},{"zip":"74558","fips":"40127","name":"Pushmataha County","state_id":"OK"},{"zip":"74559","fips":"40077","name":"Latimer County","state_id":"OK"},{"zip":"74560","fips":"40005","name":"Atoka County","state_id":"OK"},{"zip":"74560","fips":"40121","name":"Pittsburg County","state_id":"OK"},{"zip":"74561","fips":"40121","name":"Pittsburg County","state_id":"OK"},{"zip":"74561","fips":"40061","name":"Haskell County","state_id":"OK"},{"zip":"74562","fips":"40127","name":"Pushmataha County","state_id":"OK"},{"zip":"74562","fips":"40089","name":"McCurtain County","state_id":"OK"},{"zip":"74563","fips":"40077","name":"Latimer County","state_id":"OK"},{"zip":"74563","fips":"40079","name":"Le Flore County","state_id":"OK"},{"zip":"74565","fips":"40121","name":"Pittsburg County","state_id":"OK"},{"zip":"74567","fips":"40127","name":"Pushmataha County","state_id":"OK"},{"zip":"74569","fips":"40005","name":"Atoka County","state_id":"OK"},{"zip":"74570","fips":"40063","name":"Hughes County","state_id":"OK"},{"zip":"74570","fips":"40121","name":"Pittsburg County","state_id":"OK"},{"zip":"74571","fips":"40079","name":"Le Flore County","state_id":"OK"},{"zip":"74571","fips":"40077","name":"Latimer County","state_id":"OK"},{"zip":"74571","fips":"40127","name":"Pushmataha County","state_id":"OK"},{"zip":"74572","fips":"40029","name":"Coal County","state_id":"OK"},{"zip":"74572","fips":"40123","name":"Pontotoc County","state_id":"OK"},{"zip":"74574","fips":"40077","name":"Latimer County","state_id":"OK"},{"zip":"74574","fips":"40127","name":"Pushmataha County","state_id":"OK"},{"zip":"74576","fips":"40005","name":"Atoka County","state_id":"OK"},{"zip":"74576","fips":"40121","name":"Pittsburg County","state_id":"OK"},{"zip":"74577","fips":"40079","name":"Le Flore County","state_id":"OK"},{"zip":"74578","fips":"40077","name":"Latimer County","state_id":"OK"}]
