[{"zip":"74601","fips":"40103","name":"Noble County","state_id":"OK"},{"zip":"74601","fips":"40071","name":"Kay County","state_id":"OK"},{"zip":"74602","fips":"40071","name":"Kay County","state_id":"OK"},{"zip":"74604","fips":"40071","name":"Kay County","state_id":"OK"},{"zip":"74604","fips":"40113","name":"Osage County","state_id":"OK"},{"zip":"74630","fips":"40103","name":"Noble County","state_id":"OK"},{"zip":"74630","fips":"40047","name":"Garfield County","state_id":"OK"},{"zip":"74630","fips":"40071","name":"Kay County","state_id":"OK"},{"zip":"74631","fips":"40071","name":"Kay County","state_id":"OK"},{"zip":"74632","fips":"40071","name":"Kay County","state_id":"OK"},{"zip":"74633","fips":"40113","name":"Osage County","state_id":"OK"},{"zip":"74636","fips":"40053","name":"Grant County","state_id":"OK"},{"zip":"74637","fips":"40113","name":"Osage County","state_id":"OK"},{"zip":"74640","fips":"40053","name":"Grant County","state_id":"OK"},{"zip":"74640","fips":"40047","name":"Garfield County","state_id":"OK"},{"zip":"74641","fips":"40071","name":"Kay County","state_id":"OK"},{"zip":"74643","fips":"40071","name":"Kay County","state_id":"OK"},{"zip":"74643","fips":"40053","name":"Grant County","state_id":"OK"},{"zip":"74644","fips":"40117","name":"Pawnee County","state_id":"OK"},{"zip":"74644","fips":"40103","name":"Noble County","state_id":"OK"},{"zip":"74646","fips":"40071","name":"Kay County","state_id":"OK"},{"zip":"74646","fips":"40053","name":"Grant County","state_id":"OK"},{"zip":"74647","fips":"40071","name":"Kay County","state_id":"OK"},{"zip":"74650","fips":"40117","name":"Pawnee County","state_id":"OK"},{"zip":"74650","fips":"40113","name":"Osage County","state_id":"OK"},{"zip":"74651","fips":"40103","name":"Noble County","state_id":"OK"},{"zip":"74652","fips":"40113","name":"Osage County","state_id":"OK"},{"zip":"74652","fips":"40071","name":"Kay County","state_id":"OK"},{"zip":"74653","fips":"40071","name":"Kay County","state_id":"OK"}]
