[{"zip":"74701","fips":"40013","name":"Bryan County","state_id":"OK"},{"zip":"74702","fips":"40013","name":"Bryan County","state_id":"OK"},{"zip":"74720","fips":"40013","name":"Bryan County","state_id":"OK"},{"zip":"74721","fips":"40013","name":"Bryan County","state_id":"OK"},{"zip":"74722","fips":"40089","name":"McCurtain County","state_id":"OK"},{"zip":"74723","fips":"40013","name":"Bryan County","state_id":"OK"},{"zip":"74724","fips":"40089","name":"McCurtain County","state_id":"OK"},{"zip":"74726","fips":"40013","name":"Bryan County","state_id":"OK"},{"zip":"74727","fips":"40013","name":"Bryan County","state_id":"OK"},{"zip":"74727","fips":"40023","name":"Choctaw County","state_id":"OK"},{"zip":"74727","fips":"40005","name":"Atoka County","state_id":"OK"},{"zip":"74728","fips":"40089","name":"McCurtain County","state_id":"OK"},{"zip":"74729","fips":"40013","name":"Bryan County","state_id":"OK"},{"zip":"74729","fips":"40005","name":"Atoka County","state_id":"OK"},{"zip":"74730","fips":"40013","name":"Bryan County","state_id":"OK"},{"zip":"74731","fips":"40013","name":"Bryan County","state_id":"OK"},{"zip":"74733","fips":"40013","name":"Bryan County","state_id":"OK"},{"zip":"74734","fips":"40089","name":"McCurtain County","state_id":"OK"},{"zip":"74735","fips":"40127","name":"Pushmataha County","state_id":"OK"},{"zip":"74735","fips":"40023","name":"Choctaw County","state_id":"OK"},{"zip":"74736","fips":"40089","name":"McCurtain County","state_id":"OK"},{"zip":"74737","fips":"40089","name":"McCurtain County","state_id":"OK"},{"zip":"74738","fips":"40023","name":"Choctaw County","state_id":"OK"},{"zip":"74740","fips":"40089","name":"McCurtain County","state_id":"OK"},{"zip":"74741","fips":"40013","name":"Bryan County","state_id":"OK"},{"zip":"74743","fips":"40023","name":"Choctaw County","state_id":"OK"},{"zip":"74745","fips":"40089","name":"McCurtain County","state_id":"OK"},{"zip":"74748","fips":"40069","name":"Johnston County","state_id":"OK"},{"zip":"74748","fips":"40013","name":"Bryan County","state_id":"OK"},{"zip":"74748","fips":"40005","name":"Atoka County","state_id":"OK"},{"zip":"74750","fips":"40089","name":"McCurtain County","state_id":"OK"},{"zip":"74752","fips":"40089","name":"McCurtain County","state_id":"OK"},{"zip":"74753","fips":"40013","name":"Bryan County","state_id":"OK"},{"zip":"74754","fips":"40023","name":"Choctaw County","state_id":"OK"},{"zip":"74754","fips":"40127","name":"Pushmataha County","state_id":"OK"},{"zip":"74754","fips":"40089","name":"McCurtain County","state_id":"OK"},{"zip":"74755","fips":"40089","name":"McCurtain County","state_id":"OK"},{"zip":"74756","fips":"40023","name":"Choctaw County","state_id":"OK"},{"zip":"74759","fips":"40023","name":"Choctaw County","state_id":"OK"},{"zip":"74760","fips":"40023","name":"Choctaw County","state_id":"OK"},{"zip":"74761","fips":"40023","name":"Choctaw County","state_id":"OK"},{"zip":"74764","fips":"40023","name":"Choctaw County","state_id":"OK"},{"zip":"74764","fips":"40089","name":"McCurtain County","state_id":"OK"},{"zip":"74766","fips":"40089","name":"McCurtain County","state_id":"OK"}]
