[{"zip":"74801","fips":"40125","name":"Pottawatomie County","state_id":"OK"},{"zip":"74802","fips":"40125","name":"Pottawatomie County","state_id":"OK"},{"zip":"74804","fips":"40125","name":"Pottawatomie County","state_id":"OK"},{"zip":"74804","fips":"40133","name":"Seminole County","state_id":"OK"},{"zip":"74820","fips":"40123","name":"Pontotoc County","state_id":"OK"},{"zip":"74820","fips":"40069","name":"Johnston County","state_id":"OK"},{"zip":"74821","fips":"40123","name":"Pontotoc County","state_id":"OK"},{"zip":"74824","fips":"40081","name":"Lincoln County","state_id":"OK"},{"zip":"74824","fips":"40119","name":"Payne County","state_id":"OK"},{"zip":"74825","fips":"40029","name":"Coal County","state_id":"OK"},{"zip":"74825","fips":"40123","name":"Pontotoc County","state_id":"OK"},{"zip":"74825","fips":"40063","name":"Hughes County","state_id":"OK"},{"zip":"74826","fips":"40125","name":"Pottawatomie County","state_id":"OK"},{"zip":"74827","fips":"40063","name":"Hughes County","state_id":"OK"},{"zip":"74829","fips":"40107","name":"Okfuskee County","state_id":"OK"},{"zip":"74830","fips":"40133","name":"Seminole County","state_id":"OK"},{"zip":"74831","fips":"40087","name":"McClain County","state_id":"OK"},{"zip":"74831","fips":"40123","name":"Pontotoc County","state_id":"OK"},{"zip":"74831","fips":"40049","name":"Garvin County","state_id":"OK"},{"zip":"74832","fips":"40081","name":"Lincoln County","state_id":"OK"},{"zip":"74833","fips":"40107","name":"Okfuskee County","state_id":"OK"},{"zip":"74834","fips":"40081","name":"Lincoln County","state_id":"OK"},{"zip":"74836","fips":"40069","name":"Johnston County","state_id":"OK"},{"zip":"74837","fips":"40133","name":"Seminole County","state_id":"OK"},{"zip":"74839","fips":"40063","name":"Hughes County","state_id":"OK"},{"zip":"74840","fips":"40133","name":"Seminole County","state_id":"OK"},{"zip":"74840","fips":"40125","name":"Pottawatomie County","state_id":"OK"},{"zip":"74842","fips":"40123","name":"Pontotoc County","state_id":"OK"},{"zip":"74843","fips":"40123","name":"Pontotoc County","state_id":"OK"},{"zip":"74844","fips":"40123","name":"Pontotoc County","state_id":"OK"},{"zip":"74845","fips":"40091","name":"McIntosh County","state_id":"OK"},{"zip":"74848","fips":"40133","name":"Seminole County","state_id":"OK"},{"zip":"74848","fips":"40063","name":"Hughes County","state_id":"OK"},{"zip":"74849","fips":"40125","name":"Pottawatomie County","state_id":"OK"},{"zip":"74849","fips":"40133","name":"Seminole County","state_id":"OK"},{"zip":"74850","fips":"40063","name":"Hughes County","state_id":"OK"},{"zip":"74851","fips":"40081","name":"Lincoln County","state_id":"OK"},{"zip":"74851","fips":"40125","name":"Pottawatomie County","state_id":"OK"},{"zip":"74851","fips":"40027","name":"Cleveland County","state_id":"OK"},{"zip":"74852","fips":"40027","name":"Cleveland County","state_id":"OK"},{"zip":"74852","fips":"40125","name":"Pottawatomie County","state_id":"OK"},{"zip":"74854","fips":"40125","name":"Pottawatomie County","state_id":"OK"},{"zip":"74854","fips":"40133","name":"Seminole County","state_id":"OK"},{"zip":"74855","fips":"40081","name":"Lincoln County","state_id":"OK"},{"zip":"74855","fips":"40125","name":"Pottawatomie County","state_id":"OK"},{"zip":"74856","fips":"40099","name":"Murray County","state_id":"OK"},{"zip":"74856","fips":"40069","name":"Johnston County","state_id":"OK"},{"zip":"74857","fips":"40109","name":"Oklahoma County","state_id":"OK"},{"zip":"74857","fips":"40125","name":"Pottawatomie County","state_id":"OK"},{"zip":"74857","fips":"40027","name":"Cleveland County","state_id":"OK"},{"zip":"74859","fips":"40037","name":"Creek County","state_id":"OK"},{"zip":"74859","fips":"40107","name":"Okfuskee County","state_id":"OK"},{"zip":"74859","fips":"40133","name":"Seminole County","state_id":"OK"},{"zip":"74860","fips":"40107","name":"Okfuskee County","state_id":"OK"},{"zip":"74864","fips":"40107","name":"Okfuskee County","state_id":"OK"},{"zip":"74864","fips":"40081","name":"Lincoln County","state_id":"OK"},{"zip":"74864","fips":"40125","name":"Pottawatomie County","state_id":"OK"},{"zip":"74865","fips":"40099","name":"Murray County","state_id":"OK"},{"zip":"74865","fips":"40123","name":"Pontotoc County","state_id":"OK"},{"zip":"74865","fips":"40049","name":"Garvin County","state_id":"OK"},{"zip":"74866","fips":"40125","name":"Pottawatomie County","state_id":"OK"},{"zip":"74867","fips":"40133","name":"Seminole County","state_id":"OK"},{"zip":"74868","fips":"40133","name":"Seminole County","state_id":"OK"},{"zip":"74869","fips":"40081","name":"Lincoln County","state_id":"OK"},{"zip":"74871","fips":"40069","name":"Johnston County","state_id":"OK"},{"zip":"74871","fips":"40029","name":"Coal County","state_id":"OK"},{"zip":"74871","fips":"40123","name":"Pontotoc County","state_id":"OK"},{"zip":"74872","fips":"40049","name":"Garvin County","state_id":"OK"},{"zip":"74872","fips":"40123","name":"Pontotoc County","state_id":"OK"},{"zip":"74872","fips":"40087","name":"McClain County","state_id":"OK"},{"zip":"74873","fips":"40125","name":"Pottawatomie County","state_id":"OK"},{"zip":"74875","fips":"40081","name":"Lincoln County","state_id":"OK"},{"zip":"74878","fips":"40125","name":"Pottawatomie County","state_id":"OK"},{"zip":"74878","fips":"40027","name":"Cleveland County","state_id":"OK"},{"zip":"74880","fips":"40111","name":"Okmulgee County","state_id":"OK"},{"zip":"74880","fips":"40107","name":"Okfuskee County","state_id":"OK"},{"zip":"74880","fips":"40091","name":"McIntosh County","state_id":"OK"},{"zip":"74881","fips":"40083","name":"Logan County","state_id":"OK"},{"zip":"74881","fips":"40081","name":"Lincoln County","state_id":"OK"},{"zip":"74883","fips":"40063","name":"Hughes County","state_id":"OK"},{"zip":"74883","fips":"40107","name":"Okfuskee County","state_id":"OK"},{"zip":"74884","fips":"40063","name":"Hughes County","state_id":"OK"},{"zip":"74884","fips":"40133","name":"Seminole County","state_id":"OK"}]
