[{"zip":"74901","fips":"40079","name":"Le Flore County","state_id":"OK"},{"zip":"74902","fips":"40079","name":"Le Flore County","state_id":"OK"},{"zip":"74930","fips":"40079","name":"Le Flore County","state_id":"OK"},{"zip":"74931","fips":"40001","name":"Adair County","state_id":"OK"},{"zip":"74931","fips":"40135","name":"Sequoyah County","state_id":"OK"},{"zip":"74931","fips":"40021","name":"Cherokee County","state_id":"OK"},{"zip":"74932","fips":"40079","name":"Le Flore County","state_id":"OK"},{"zip":"74935","fips":"40079","name":"Le Flore County","state_id":"OK"},{"zip":"74936","fips":"40135","name":"Sequoyah County","state_id":"OK"},{"zip":"74937","fips":"40079","name":"Le Flore County","state_id":"OK"},{"zip":"74939","fips":"40079","name":"Le Flore County","state_id":"OK"},{"zip":"74940","fips":"40079","name":"Le Flore County","state_id":"OK"},{"zip":"74941","fips":"40061","name":"Haskell County","state_id":"OK"},{"zip":"74941","fips":"40079","name":"Le Flore County","state_id":"OK"},{"zip":"74942","fips":"40079","name":"Le Flore County","state_id":"OK"},{"zip":"74943","fips":"40061","name":"Haskell County","state_id":"OK"},{"zip":"74944","fips":"40061","name":"Haskell County","state_id":"OK"},{"zip":"74944","fips":"40079","name":"Le Flore County","state_id":"OK"},{"zip":"74945","fips":"40135","name":"Sequoyah County","state_id":"OK"},{"zip":"74946","fips":"40135","name":"Sequoyah County","state_id":"OK"},{"zip":"74947","fips":"40079","name":"Le Flore County","state_id":"OK"},{"zip":"74948","fips":"40135","name":"Sequoyah County","state_id":"OK"},{"zip":"74949","fips":"40079","name":"Le Flore County","state_id":"OK"},{"zip":"74951","fips":"40079","name":"Le Flore County","state_id":"OK"},{"zip":"74953","fips":"40079","name":"Le Flore County","state_id":"OK"},{"zip":"74954","fips":"40135","name":"Sequoyah County","state_id":"OK"},{"zip":"74955","fips":"40135","name":"Sequoyah County","state_id":"OK"},{"zip":"74956","fips":"40079","name":"Le Flore County","state_id":"OK"},{"zip":"74957","fips":"40079","name":"Le Flore County","state_id":"OK"},{"zip":"74957","fips":"40089","name":"McCurtain County","state_id":"OK"},{"zip":"74959","fips":"40079","name":"Le Flore County","state_id":"OK"},{"zip":"74960","fips":"40001","name":"Adair County","state_id":"OK"},{"zip":"74960","fips":"40021","name":"Cherokee County","state_id":"OK"},{"zip":"74962","fips":"40135","name":"Sequoyah County","state_id":"OK"},{"zip":"74962","fips":"40021","name":"Cherokee County","state_id":"OK"},{"zip":"74963","fips":"40089","name":"McCurtain County","state_id":"OK"},{"zip":"74964","fips":"40041","name":"Delaware County","state_id":"OK"},{"zip":"74964","fips":"40001","name":"Adair County","state_id":"OK"},{"zip":"74965","fips":"40001","name":"Adair County","state_id":"OK"},{"zip":"74966","fips":"40079","name":"Le Flore County","state_id":"OK"},{"zip":"74966","fips":"40077","name":"Latimer County","state_id":"OK"}]
