[{"zip":"75001","fips":"48113","name":"Dallas County","state_id":"TX"},{"zip":"75002","fips":"48085","name":"Collin County","state_id":"TX"},{"zip":"75006","fips":"48113","name":"Dallas County","state_id":"TX"},{"zip":"75007","fips":"48085","name":"Collin County","state_id":"TX"},{"zip":"75007","fips":"48113","name":"Dallas County","state_id":"TX"},{"zip":"75007","fips":"48121","name":"Denton County","state_id":"TX"},{"zip":"75009","fips":"48121","name":"Denton County","state_id":"TX"},{"zip":"75009","fips":"48085","name":"Collin County","state_id":"TX"},{"zip":"75010","fips":"48121","name":"Denton County","state_id":"TX"},{"zip":"75011","fips":"48113","name":"Dallas County","state_id":"TX"},{"zip":"75011","fips":"48121","name":"Denton County","state_id":"TX"},{"zip":"75013","fips":"48085","name":"Collin County","state_id":"TX"},{"zip":"75014","fips":"48113","name":"Dallas County","state_id":"TX"},{"zip":"75015","fips":"48113","name":"Dallas County","state_id":"TX"},{"zip":"75016","fips":"48113","name":"Dallas County","state_id":"TX"},{"zip":"75017","fips":"48113","name":"Dallas County","state_id":"TX"},{"zip":"75019","fips":"48113","name":"Dallas County","state_id":"TX"},{"zip":"75019","fips":"48121","name":"Denton County","state_id":"TX"},{"zip":"75020","fips":"48181","name":"Grayson County","state_id":"TX"},{"zip":"75021","fips":"48181","name":"Grayson County","state_id":"TX"},{"zip":"75022","fips":"48121","name":"Denton County","state_id":"TX"},{"zip":"75022","fips":"48439","name":"Tarrant County","state_id":"TX"},{"zip":"75023","fips":"48085","name":"Collin County","state_id":"TX"},{"zip":"75024","fips":"48121","name":"Denton County","state_id":"TX"},{"zip":"75024","fips":"48085","name":"Collin County","state_id":"TX"},{"zip":"75025","fips":"48085","name":"Collin County","state_id":"TX"},{"zip":"75026","fips":"48085","name":"Collin County","state_id":"TX"},{"zip":"75027","fips":"48121","name":"Denton County","state_id":"TX"},{"zip":"75028","fips":"48121","name":"Denton County","state_id":"TX"},{"zip":"75028","fips":"48439","name":"Tarrant County","state_id":"TX"},{"zip":"75029","fips":"48121","name":"Denton County","state_id":"TX"},{"zip":"75030","fips":"48113","name":"Dallas County","state_id":"TX"},{"zip":"75032","fips":"48257","name":"Kaufman County","state_id":"TX"},{"zip":"75032","fips":"48397","name":"Rockwall County","state_id":"TX"},{"zip":"75033","fips":"48121","name":"Denton County","state_id":"TX"},{"zip":"75033","fips":"48085","name":"Collin County","state_id":"TX"},{"zip":"75034","fips":"48085","name":"Collin County","state_id":"TX"},{"zip":"75034","fips":"48121","name":"Denton County","state_id":"TX"},{"zip":"75035","fips":"48121","name":"Denton County","state_id":"TX"},{"zip":"75035","fips":"48085","name":"Collin County","state_id":"TX"},{"zip":"75036","fips":"48121","name":"Denton County","state_id":"TX"},{"zip":"75038","fips":"48113","name":"Dallas County","state_id":"TX"},{"zip":"75039","fips":"48113","name":"Dallas County","state_id":"TX"},{"zip":"75040","fips":"48113","name":"Dallas County","state_id":"TX"},{"zip":"75041","fips":"48113","name":"Dallas County","state_id":"TX"},{"zip":"75042","fips":"48113","name":"Dallas County","state_id":"TX"},{"zip":"75043","fips":"48113","name":"Dallas County","state_id":"TX"},{"zip":"75044","fips":"48085","name":"Collin County","state_id":"TX"},{"zip":"75044","fips":"48113","name":"Dallas County","state_id":"TX"},{"zip":"75045","fips":"48113","name":"Dallas County","state_id":"TX"},{"zip":"75046","fips":"48113","name":"Dallas County","state_id":"TX"},{"zip":"75047","fips":"48113","name":"Dallas County","state_id":"TX"},{"zip":"75048","fips":"48113","name":"Dallas County","state_id":"TX"},{"zip":"75048","fips":"48085","name":"Collin County","state_id":"TX"},{"zip":"75049","fips":"48113","name":"Dallas County","state_id":"TX"},{"zip":"75050","fips":"48113","name":"Dallas County","state_id":"TX"},{"zip":"75050","fips":"48439","name":"Tarrant County","state_id":"TX"},{"zip":"75051","fips":"48439","name":"Tarrant County","state_id":"TX"},{"zip":"75051","fips":"48113","name":"Dallas County","state_id":"TX"},{"zip":"75052","fips":"48113","name":"Dallas County","state_id":"TX"},{"zip":"75052","fips":"48439","name":"Tarrant County","state_id":"TX"},{"zip":"75053","fips":"48439","name":"Tarrant County","state_id":"TX"},{"zip":"75053","fips":"48113","name":"Dallas County","state_id":"TX"},{"zip":"75054","fips":"48439","name":"Tarrant County","state_id":"TX"},{"zip":"75054","fips":"48113","name":"Dallas County","state_id":"TX"},{"zip":"75056","fips":"48121","name":"Denton County","state_id":"TX"},{"zip":"75057","fips":"48121","name":"Denton County","state_id":"TX"},{"zip":"75058","fips":"48085","name":"Collin County","state_id":"TX"},{"zip":"75058","fips":"48181","name":"Grayson County","state_id":"TX"},{"zip":"75059","fips":"48113","name":"Dallas County","state_id":"TX"},{"zip":"75060","fips":"48113","name":"Dallas County","state_id":"TX"},{"zip":"75061","fips":"48113","name":"Dallas County","state_id":"TX"},{"zip":"75062","fips":"48113","name":"Dallas County","state_id":"TX"},{"zip":"75063","fips":"48113","name":"Dallas County","state_id":"TX"},{"zip":"75065","fips":"48121","name":"Denton County","state_id":"TX"},{"zip":"75067","fips":"48113","name":"Dallas County","state_id":"TX"},{"zip":"75067","fips":"48121","name":"Denton County","state_id":"TX"},{"zip":"75068","fips":"48121","name":"Denton County","state_id":"TX"},{"zip":"75069","fips":"48085","name":"Collin County","state_id":"TX"},{"zip":"75070","fips":"48085","name":"Collin County","state_id":"TX"},{"zip":"75071","fips":"48085","name":"Collin County","state_id":"TX"},{"zip":"75072","fips":"48085","name":"Collin County","state_id":"TX"},{"zip":"75074","fips":"48085","name":"Collin County","state_id":"TX"},{"zip":"75075","fips":"48085","name":"Collin County","state_id":"TX"},{"zip":"75076","fips":"48181","name":"Grayson County","state_id":"TX"},{"zip":"75077","fips":"48121","name":"Denton County","state_id":"TX"},{"zip":"75078","fips":"48121","name":"Denton County","state_id":"TX"},{"zip":"75078","fips":"48085","name":"Collin County","state_id":"TX"},{"zip":"75080","fips":"48085","name":"Collin County","state_id":"TX"},{"zip":"75080","fips":"48113","name":"Dallas County","state_id":"TX"},{"zip":"75081","fips":"48113","name":"Dallas County","state_id":"TX"},{"zip":"75082","fips":"48113","name":"Dallas County","state_id":"TX"},{"zip":"75082","fips":"48085","name":"Collin County","state_id":"TX"},{"zip":"75083","fips":"48113","name":"Dallas County","state_id":"TX"},{"zip":"75085","fips":"48113","name":"Dallas County","state_id":"TX"},{"zip":"75086","fips":"48085","name":"Collin County","state_id":"TX"},{"zip":"75087","fips":"48085","name":"Collin County","state_id":"TX"},{"zip":"75087","fips":"48397","name":"Rockwall County","state_id":"TX"},{"zip":"75088","fips":"48113","name":"Dallas County","state_id":"TX"},{"zip":"75088","fips":"48397","name":"Rockwall County","state_id":"TX"},{"zip":"75089","fips":"48397","name":"Rockwall County","state_id":"TX"},{"zip":"75089","fips":"48113","name":"Dallas County","state_id":"TX"},{"zip":"75090","fips":"48181","name":"Grayson County","state_id":"TX"},{"zip":"75091","fips":"48181","name":"Grayson County","state_id":"TX"},{"zip":"75092","fips":"48181","name":"Grayson County","state_id":"TX"},{"zip":"75093","fips":"48085","name":"Collin County","state_id":"TX"},{"zip":"75093","fips":"48121","name":"Denton County","state_id":"TX"},{"zip":"75094","fips":"48085","name":"Collin County","state_id":"TX"},{"zip":"75097","fips":"48085","name":"Collin County","state_id":"TX"},{"zip":"75098","fips":"48397","name":"Rockwall County","state_id":"TX"},{"zip":"75098","fips":"48113","name":"Dallas County","state_id":"TX"},{"zip":"75098","fips":"48085","name":"Collin County","state_id":"TX"},{"zip":"75099","fips":"48113","name":"Dallas County","state_id":"TX"}]
