[{"zip":"75101","fips":"48139","name":"Ellis County","state_id":"TX"},{"zip":"75102","fips":"48349","name":"Navarro County","state_id":"TX"},{"zip":"75103","fips":"48467","name":"Van Zandt County","state_id":"TX"},{"zip":"75104","fips":"48139","name":"Ellis County","state_id":"TX"},{"zip":"75104","fips":"48113","name":"Dallas County","state_id":"TX"},{"zip":"75105","fips":"48349","name":"Navarro County","state_id":"TX"},{"zip":"75106","fips":"48113","name":"Dallas County","state_id":"TX"},{"zip":"75109","fips":"48349","name":"Navarro County","state_id":"TX"},{"zip":"75110","fips":"48349","name":"Navarro County","state_id":"TX"},{"zip":"75114","fips":"48257","name":"Kaufman County","state_id":"TX"},{"zip":"75115","fips":"48113","name":"Dallas County","state_id":"TX"},{"zip":"75116","fips":"48113","name":"Dallas County","state_id":"TX"},{"zip":"75117","fips":"48467","name":"Van Zandt County","state_id":"TX"},{"zip":"75118","fips":"48257","name":"Kaufman County","state_id":"TX"},{"zip":"75119","fips":"48139","name":"Ellis County","state_id":"TX"},{"zip":"75119","fips":"48349","name":"Navarro County","state_id":"TX"},{"zip":"75121","fips":"48085","name":"Collin County","state_id":"TX"},{"zip":"75123","fips":"48113","name":"Dallas County","state_id":"TX"},{"zip":"75124","fips":"48467","name":"Van Zandt County","state_id":"TX"},{"zip":"75124","fips":"48213","name":"Henderson County","state_id":"TX"},{"zip":"75125","fips":"48139","name":"Ellis County","state_id":"TX"},{"zip":"75125","fips":"48113","name":"Dallas County","state_id":"TX"},{"zip":"75126","fips":"48397","name":"Rockwall County","state_id":"TX"},{"zip":"75126","fips":"48257","name":"Kaufman County","state_id":"TX"},{"zip":"75127","fips":"48467","name":"Van Zandt County","state_id":"TX"},{"zip":"75132","fips":"48397","name":"Rockwall County","state_id":"TX"},{"zip":"75134","fips":"48113","name":"Dallas County","state_id":"TX"},{"zip":"75135","fips":"48231","name":"Hunt County","state_id":"TX"},{"zip":"75137","fips":"48113","name":"Dallas County","state_id":"TX"},{"zip":"75138","fips":"48113","name":"Dallas County","state_id":"TX"},{"zip":"75140","fips":"48423","name":"Smith County","state_id":"TX"},{"zip":"75140","fips":"48467","name":"Van Zandt County","state_id":"TX"},{"zip":"75141","fips":"48113","name":"Dallas County","state_id":"TX"},{"zip":"75142","fips":"48257","name":"Kaufman County","state_id":"TX"},{"zip":"75143","fips":"48213","name":"Henderson County","state_id":"TX"},{"zip":"75143","fips":"48257","name":"Kaufman County","state_id":"TX"},{"zip":"75144","fips":"48349","name":"Navarro County","state_id":"TX"},{"zip":"75146","fips":"48139","name":"Ellis County","state_id":"TX"},{"zip":"75146","fips":"48113","name":"Dallas County","state_id":"TX"},{"zip":"75147","fips":"48467","name":"Van Zandt County","state_id":"TX"},{"zip":"75147","fips":"48213","name":"Henderson County","state_id":"TX"},{"zip":"75147","fips":"48257","name":"Kaufman County","state_id":"TX"},{"zip":"75148","fips":"48213","name":"Henderson County","state_id":"TX"},{"zip":"75149","fips":"48113","name":"Dallas County","state_id":"TX"},{"zip":"75150","fips":"48113","name":"Dallas County","state_id":"TX"},{"zip":"75151","fips":"48349","name":"Navarro County","state_id":"TX"},{"zip":"75152","fips":"48139","name":"Ellis County","state_id":"TX"},{"zip":"75153","fips":"48349","name":"Navarro County","state_id":"TX"},{"zip":"75154","fips":"48113","name":"Dallas County","state_id":"TX"},{"zip":"75154","fips":"48139","name":"Ellis County","state_id":"TX"},{"zip":"75155","fips":"48349","name":"Navarro County","state_id":"TX"},{"zip":"75156","fips":"48257","name":"Kaufman County","state_id":"TX"},{"zip":"75156","fips":"48213","name":"Henderson County","state_id":"TX"},{"zip":"75157","fips":"48257","name":"Kaufman County","state_id":"TX"},{"zip":"75158","fips":"48257","name":"Kaufman County","state_id":"TX"},{"zip":"75159","fips":"48257","name":"Kaufman County","state_id":"TX"},{"zip":"75159","fips":"48113","name":"Dallas County","state_id":"TX"},{"zip":"75160","fips":"48257","name":"Kaufman County","state_id":"TX"},{"zip":"75160","fips":"48397","name":"Rockwall County","state_id":"TX"},{"zip":"75160","fips":"48231","name":"Hunt County","state_id":"TX"},{"zip":"75161","fips":"48257","name":"Kaufman County","state_id":"TX"},{"zip":"75163","fips":"48213","name":"Henderson County","state_id":"TX"},{"zip":"75164","fips":"48085","name":"Collin County","state_id":"TX"},{"zip":"75165","fips":"48139","name":"Ellis County","state_id":"TX"},{"zip":"75166","fips":"48085","name":"Collin County","state_id":"TX"},{"zip":"75167","fips":"48139","name":"Ellis County","state_id":"TX"},{"zip":"75168","fips":"48139","name":"Ellis County","state_id":"TX"},{"zip":"75169","fips":"48231","name":"Hunt County","state_id":"TX"},{"zip":"75169","fips":"48467","name":"Van Zandt County","state_id":"TX"},{"zip":"75169","fips":"48257","name":"Kaufman County","state_id":"TX"},{"zip":"75172","fips":"48113","name":"Dallas County","state_id":"TX"},{"zip":"75173","fips":"48085","name":"Collin County","state_id":"TX"},{"zip":"75180","fips":"48113","name":"Dallas County","state_id":"TX"},{"zip":"75181","fips":"48113","name":"Dallas County","state_id":"TX"},{"zip":"75182","fips":"48113","name":"Dallas County","state_id":"TX"},{"zip":"75182","fips":"48257","name":"Kaufman County","state_id":"TX"},{"zip":"75185","fips":"48113","name":"Dallas County","state_id":"TX"},{"zip":"75187","fips":"48113","name":"Dallas County","state_id":"TX"},{"zip":"75189","fips":"48085","name":"Collin County","state_id":"TX"},{"zip":"75189","fips":"48231","name":"Hunt County","state_id":"TX"},{"zip":"75189","fips":"48397","name":"Rockwall County","state_id":"TX"}]
