[{"zip":"75201","fips":"48113","name":"Dallas County","state_id":"TX"},{"zip":"75202","fips":"48113","name":"Dallas County","state_id":"TX"},{"zip":"75203","fips":"48113","name":"Dallas County","state_id":"TX"},{"zip":"75204","fips":"48113","name":"Dallas County","state_id":"TX"},{"zip":"75205","fips":"48113","name":"Dallas County","state_id":"TX"},{"zip":"75206","fips":"48113","name":"Dallas County","state_id":"TX"},{"zip":"75207","fips":"48113","name":"Dallas County","state_id":"TX"},{"zip":"75208","fips":"48113","name":"Dallas County","state_id":"TX"},{"zip":"75209","fips":"48113","name":"Dallas County","state_id":"TX"},{"zip":"75210","fips":"48113","name":"Dallas County","state_id":"TX"},{"zip":"75211","fips":"48113","name":"Dallas County","state_id":"TX"},{"zip":"75212","fips":"48113","name":"Dallas County","state_id":"TX"},{"zip":"75214","fips":"48113","name":"Dallas County","state_id":"TX"},{"zip":"75215","fips":"48113","name":"Dallas County","state_id":"TX"},{"zip":"75216","fips":"48113","name":"Dallas County","state_id":"TX"},{"zip":"75217","fips":"48113","name":"Dallas County","state_id":"TX"},{"zip":"75218","fips":"48113","name":"Dallas County","state_id":"TX"},{"zip":"75219","fips":"48113","name":"Dallas County","state_id":"TX"},{"zip":"75220","fips":"48113","name":"Dallas County","state_id":"TX"},{"zip":"75221","fips":"48113","name":"Dallas County","state_id":"TX"},{"zip":"75222","fips":"48113","name":"Dallas County","state_id":"TX"},{"zip":"75223","fips":"48113","name":"Dallas County","state_id":"TX"},{"zip":"75224","fips":"48113","name":"Dallas County","state_id":"TX"},{"zip":"75225","fips":"48113","name":"Dallas County","state_id":"TX"},{"zip":"75226","fips":"48113","name":"Dallas County","state_id":"TX"},{"zip":"75227","fips":"48113","name":"Dallas County","state_id":"TX"},{"zip":"75228","fips":"48113","name":"Dallas County","state_id":"TX"},{"zip":"75229","fips":"48113","name":"Dallas County","state_id":"TX"},{"zip":"75230","fips":"48113","name":"Dallas County","state_id":"TX"},{"zip":"75231","fips":"48113","name":"Dallas County","state_id":"TX"},{"zip":"75232","fips":"48113","name":"Dallas County","state_id":"TX"},{"zip":"75233","fips":"48113","name":"Dallas County","state_id":"TX"},{"zip":"75234","fips":"48113","name":"Dallas County","state_id":"TX"},{"zip":"75235","fips":"48113","name":"Dallas County","state_id":"TX"},{"zip":"75236","fips":"48113","name":"Dallas County","state_id":"TX"},{"zip":"75237","fips":"48113","name":"Dallas County","state_id":"TX"},{"zip":"75238","fips":"48113","name":"Dallas County","state_id":"TX"},{"zip":"75240","fips":"48113","name":"Dallas County","state_id":"TX"},{"zip":"75241","fips":"48113","name":"Dallas County","state_id":"TX"},{"zip":"75242","fips":"48113","name":"Dallas County","state_id":"TX"},{"zip":"75243","fips":"48113","name":"Dallas County","state_id":"TX"},{"zip":"75244","fips":"48113","name":"Dallas County","state_id":"TX"},{"zip":"75246","fips":"48113","name":"Dallas County","state_id":"TX"},{"zip":"75247","fips":"48113","name":"Dallas County","state_id":"TX"},{"zip":"75248","fips":"48085","name":"Collin County","state_id":"TX"},{"zip":"75248","fips":"48113","name":"Dallas County","state_id":"TX"},{"zip":"75249","fips":"48113","name":"Dallas County","state_id":"TX"},{"zip":"75250","fips":"48113","name":"Dallas County","state_id":"TX"},{"zip":"75251","fips":"48113","name":"Dallas County","state_id":"TX"},{"zip":"75252","fips":"48085","name":"Collin County","state_id":"TX"},{"zip":"75252","fips":"48113","name":"Dallas County","state_id":"TX"},{"zip":"75253","fips":"48113","name":"Dallas County","state_id":"TX"},{"zip":"75254","fips":"48113","name":"Dallas County","state_id":"TX"},{"zip":"75260","fips":"48113","name":"Dallas County","state_id":"TX"},{"zip":"75261","fips":"48439","name":"Tarrant County","state_id":"TX"},{"zip":"75261","fips":"48113","name":"Dallas County","state_id":"TX"},{"zip":"75270","fips":"48113","name":"Dallas County","state_id":"TX"},{"zip":"75287","fips":"48113","name":"Dallas County","state_id":"TX"},{"zip":"75287","fips":"48085","name":"Collin County","state_id":"TX"},{"zip":"75287","fips":"48121","name":"Denton County","state_id":"TX"}]
