[{"zip":"75313","fips":"48113","name":"Dallas County","state_id":"TX"},{"zip":"75315","fips":"48113","name":"Dallas County","state_id":"TX"},{"zip":"75336","fips":"48113","name":"Dallas County","state_id":"TX"},{"zip":"75339","fips":"48113","name":"Dallas County","state_id":"TX"},{"zip":"75342","fips":"48113","name":"Dallas County","state_id":"TX"},{"zip":"75354","fips":"48113","name":"Dallas County","state_id":"TX"},{"zip":"75355","fips":"48113","name":"Dallas County","state_id":"TX"},{"zip":"75356","fips":"48113","name":"Dallas County","state_id":"TX"},{"zip":"75357","fips":"48113","name":"Dallas County","state_id":"TX"},{"zip":"75360","fips":"48113","name":"Dallas County","state_id":"TX"},{"zip":"75367","fips":"48113","name":"Dallas County","state_id":"TX"},{"zip":"75370","fips":"48085","name":"Collin County","state_id":"TX"},{"zip":"75371","fips":"48113","name":"Dallas County","state_id":"TX"},{"zip":"75372","fips":"48113","name":"Dallas County","state_id":"TX"},{"zip":"75374","fips":"48113","name":"Dallas County","state_id":"TX"},{"zip":"75376","fips":"48113","name":"Dallas County","state_id":"TX"},{"zip":"75378","fips":"48113","name":"Dallas County","state_id":"TX"},{"zip":"75379","fips":"48085","name":"Collin County","state_id":"TX"},{"zip":"75380","fips":"48113","name":"Dallas County","state_id":"TX"},{"zip":"75381","fips":"48113","name":"Dallas County","state_id":"TX"},{"zip":"75382","fips":"48113","name":"Dallas County","state_id":"TX"},{"zip":"75390","fips":"48113","name":"Dallas County","state_id":"TX"},{"zip":"75398","fips":"48113","name":"Dallas County","state_id":"TX"}]
