[{"zip":"75401","fips":"48231","name":"Hunt County","state_id":"TX"},{"zip":"75402","fips":"48231","name":"Hunt County","state_id":"TX"},{"zip":"75403","fips":"48231","name":"Hunt County","state_id":"TX"},{"zip":"75404","fips":"48231","name":"Hunt County","state_id":"TX"},{"zip":"75407","fips":"48085","name":"Collin County","state_id":"TX"},{"zip":"75409","fips":"48085","name":"Collin County","state_id":"TX"},{"zip":"75410","fips":"48499","name":"Wood County","state_id":"TX"},{"zip":"75410","fips":"48379","name":"Rains County","state_id":"TX"},{"zip":"75411","fips":"48277","name":"Lamar County","state_id":"TX"},{"zip":"75412","fips":"48387","name":"Red River County","state_id":"TX"},{"zip":"75413","fips":"48147","name":"Fannin County","state_id":"TX"},{"zip":"75414","fips":"48147","name":"Fannin County","state_id":"TX"},{"zip":"75414","fips":"48181","name":"Grayson County","state_id":"TX"},{"zip":"75415","fips":"48119","name":"Delta County","state_id":"TX"},{"zip":"75416","fips":"48387","name":"Red River County","state_id":"TX"},{"zip":"75416","fips":"48277","name":"Lamar County","state_id":"TX"},{"zip":"75417","fips":"48387","name":"Red River County","state_id":"TX"},{"zip":"75417","fips":"48277","name":"Lamar County","state_id":"TX"},{"zip":"75418","fips":"48147","name":"Fannin County","state_id":"TX"},{"zip":"75420","fips":"48223","name":"Hopkins County","state_id":"TX"},{"zip":"75421","fips":"48277","name":"Lamar County","state_id":"TX"},{"zip":"75422","fips":"48231","name":"Hunt County","state_id":"TX"},{"zip":"75423","fips":"48231","name":"Hunt County","state_id":"TX"},{"zip":"75423","fips":"48147","name":"Fannin County","state_id":"TX"},{"zip":"75424","fips":"48085","name":"Collin County","state_id":"TX"},{"zip":"75424","fips":"48147","name":"Fannin County","state_id":"TX"},{"zip":"75425","fips":"48277","name":"Lamar County","state_id":"TX"},{"zip":"75426","fips":"48387","name":"Red River County","state_id":"TX"},{"zip":"75428","fips":"48231","name":"Hunt County","state_id":"TX"},{"zip":"75428","fips":"48119","name":"Delta County","state_id":"TX"},{"zip":"75431","fips":"48499","name":"Wood County","state_id":"TX"},{"zip":"75431","fips":"48223","name":"Hopkins County","state_id":"TX"},{"zip":"75432","fips":"48119","name":"Delta County","state_id":"TX"},{"zip":"75433","fips":"48223","name":"Hopkins County","state_id":"TX"},{"zip":"75433","fips":"48231","name":"Hunt County","state_id":"TX"},{"zip":"75434","fips":"48277","name":"Lamar County","state_id":"TX"},{"zip":"75435","fips":"48387","name":"Red River County","state_id":"TX"},{"zip":"75435","fips":"48277","name":"Lamar County","state_id":"TX"},{"zip":"75436","fips":"48277","name":"Lamar County","state_id":"TX"},{"zip":"75436","fips":"48387","name":"Red River County","state_id":"TX"},{"zip":"75437","fips":"48223","name":"Hopkins County","state_id":"TX"},{"zip":"75438","fips":"48147","name":"Fannin County","state_id":"TX"},{"zip":"75439","fips":"48147","name":"Fannin County","state_id":"TX"},{"zip":"75440","fips":"48499","name":"Wood County","state_id":"TX"},{"zip":"75440","fips":"48379","name":"Rains County","state_id":"TX"},{"zip":"75441","fips":"48119","name":"Delta County","state_id":"TX"},{"zip":"75442","fips":"48231","name":"Hunt County","state_id":"TX"},{"zip":"75442","fips":"48085","name":"Collin County","state_id":"TX"},{"zip":"75443","fips":"48147","name":"Fannin County","state_id":"TX"},{"zip":"75444","fips":"48499","name":"Wood County","state_id":"TX"},{"zip":"75446","fips":"48277","name":"Lamar County","state_id":"TX"},{"zip":"75446","fips":"48147","name":"Fannin County","state_id":"TX"},{"zip":"75447","fips":"48147","name":"Fannin County","state_id":"TX"},{"zip":"75448","fips":"48119","name":"Delta County","state_id":"TX"},{"zip":"75448","fips":"48231","name":"Hunt County","state_id":"TX"},{"zip":"75449","fips":"48231","name":"Hunt County","state_id":"TX"},{"zip":"75449","fips":"48147","name":"Fannin County","state_id":"TX"},{"zip":"75450","fips":"48119","name":"Delta County","state_id":"TX"},{"zip":"75451","fips":"48459","name":"Upshur County","state_id":"TX"},{"zip":"75451","fips":"48499","name":"Wood County","state_id":"TX"},{"zip":"75451","fips":"48063","name":"Camp County","state_id":"TX"},{"zip":"75452","fips":"48147","name":"Fannin County","state_id":"TX"},{"zip":"75452","fips":"48085","name":"Collin County","state_id":"TX"},{"zip":"75452","fips":"48231","name":"Hunt County","state_id":"TX"},{"zip":"75453","fips":"48379","name":"Rains County","state_id":"TX"},{"zip":"75453","fips":"48223","name":"Hopkins County","state_id":"TX"},{"zip":"75453","fips":"48231","name":"Hunt County","state_id":"TX"},{"zip":"75454","fips":"48085","name":"Collin County","state_id":"TX"},{"zip":"75455","fips":"48159","name":"Franklin County","state_id":"TX"},{"zip":"75455","fips":"48449","name":"Titus County","state_id":"TX"},{"zip":"75456","fips":"48449","name":"Titus County","state_id":"TX"},{"zip":"75457","fips":"48223","name":"Hopkins County","state_id":"TX"},{"zip":"75457","fips":"48159","name":"Franklin County","state_id":"TX"},{"zip":"75458","fips":"48231","name":"Hunt County","state_id":"TX"},{"zip":"75459","fips":"48181","name":"Grayson County","state_id":"TX"},{"zip":"75460","fips":"48277","name":"Lamar County","state_id":"TX"},{"zip":"75461","fips":"48277","name":"Lamar County","state_id":"TX"},{"zip":"75462","fips":"48277","name":"Lamar County","state_id":"TX"},{"zip":"75468","fips":"48277","name":"Lamar County","state_id":"TX"},{"zip":"75469","fips":"48231","name":"Hunt County","state_id":"TX"},{"zip":"75469","fips":"48119","name":"Delta County","state_id":"TX"},{"zip":"75470","fips":"48277","name":"Lamar County","state_id":"TX"},{"zip":"75471","fips":"48499","name":"Wood County","state_id":"TX"},{"zip":"75471","fips":"48223","name":"Hopkins County","state_id":"TX"},{"zip":"75472","fips":"48379","name":"Rains County","state_id":"TX"},{"zip":"75472","fips":"48223","name":"Hopkins County","state_id":"TX"},{"zip":"75473","fips":"48277","name":"Lamar County","state_id":"TX"},{"zip":"75474","fips":"48231","name":"Hunt County","state_id":"TX"},{"zip":"75474","fips":"48467","name":"Van Zandt County","state_id":"TX"},{"zip":"75474","fips":"48257","name":"Kaufman County","state_id":"TX"},{"zip":"75475","fips":"48147","name":"Fannin County","state_id":"TX"},{"zip":"75476","fips":"48147","name":"Fannin County","state_id":"TX"},{"zip":"75477","fips":"48277","name":"Lamar County","state_id":"TX"},{"zip":"75478","fips":"48223","name":"Hopkins County","state_id":"TX"},{"zip":"75478","fips":"48159","name":"Franklin County","state_id":"TX"},{"zip":"75479","fips":"48147","name":"Fannin County","state_id":"TX"},{"zip":"75479","fips":"48181","name":"Grayson County","state_id":"TX"},{"zip":"75480","fips":"48499","name":"Wood County","state_id":"TX"},{"zip":"75480","fips":"48159","name":"Franklin County","state_id":"TX"},{"zip":"75481","fips":"48159","name":"Franklin County","state_id":"TX"},{"zip":"75481","fips":"48223","name":"Hopkins County","state_id":"TX"},{"zip":"75482","fips":"48223","name":"Hopkins County","state_id":"TX"},{"zip":"75483","fips":"48223","name":"Hopkins County","state_id":"TX"},{"zip":"75485","fips":"48085","name":"Collin County","state_id":"TX"},{"zip":"75486","fips":"48277","name":"Lamar County","state_id":"TX"},{"zip":"75487","fips":"48159","name":"Franklin County","state_id":"TX"},{"zip":"75487","fips":"48449","name":"Titus County","state_id":"TX"},{"zip":"75488","fips":"48147","name":"Fannin County","state_id":"TX"},{"zip":"75489","fips":"48181","name":"Grayson County","state_id":"TX"},{"zip":"75490","fips":"48147","name":"Fannin County","state_id":"TX"},{"zip":"75490","fips":"48181","name":"Grayson County","state_id":"TX"},{"zip":"75491","fips":"48147","name":"Fannin County","state_id":"TX"},{"zip":"75491","fips":"48085","name":"Collin County","state_id":"TX"},{"zip":"75491","fips":"48181","name":"Grayson County","state_id":"TX"},{"zip":"75492","fips":"48147","name":"Fannin County","state_id":"TX"},{"zip":"75493","fips":"48449","name":"Titus County","state_id":"TX"},{"zip":"75494","fips":"48063","name":"Camp County","state_id":"TX"},{"zip":"75494","fips":"48499","name":"Wood County","state_id":"TX"},{"zip":"75494","fips":"48159","name":"Franklin County","state_id":"TX"},{"zip":"75494","fips":"48459","name":"Upshur County","state_id":"TX"},{"zip":"75494","fips":"48223","name":"Hopkins County","state_id":"TX"},{"zip":"75495","fips":"48085","name":"Collin County","state_id":"TX"},{"zip":"75495","fips":"48181","name":"Grayson County","state_id":"TX"},{"zip":"75496","fips":"48231","name":"Hunt County","state_id":"TX"},{"zip":"75496","fips":"48147","name":"Fannin County","state_id":"TX"},{"zip":"75497","fips":"48499","name":"Wood County","state_id":"TX"},{"zip":"75497","fips":"48223","name":"Hopkins County","state_id":"TX"},{"zip":"75497","fips":"48379","name":"Rains County","state_id":"TX"}]
