[{"zip":"75501","fips":"48067","name":"Cass County","state_id":"TX"},{"zip":"75501","fips":"48037","name":"Bowie County","state_id":"TX"},{"zip":"75503","fips":"48037","name":"Bowie County","state_id":"TX"},{"zip":"75504","fips":"48037","name":"Bowie County","state_id":"TX"},{"zip":"75505","fips":"48037","name":"Bowie County","state_id":"TX"},{"zip":"75550","fips":"48387","name":"Red River County","state_id":"TX"},{"zip":"75551","fips":"48067","name":"Cass County","state_id":"TX"},{"zip":"75554","fips":"48387","name":"Red River County","state_id":"TX"},{"zip":"75554","fips":"48037","name":"Bowie County","state_id":"TX"},{"zip":"75555","fips":"48315","name":"Marion County","state_id":"TX"},{"zip":"75555","fips":"48067","name":"Cass County","state_id":"TX"},{"zip":"75556","fips":"48067","name":"Cass County","state_id":"TX"},{"zip":"75558","fips":"48343","name":"Morris County","state_id":"TX"},{"zip":"75558","fips":"48449","name":"Titus County","state_id":"TX"},{"zip":"75559","fips":"48037","name":"Bowie County","state_id":"TX"},{"zip":"75559","fips":"48387","name":"Red River County","state_id":"TX"},{"zip":"75560","fips":"48067","name":"Cass County","state_id":"TX"},{"zip":"75561","fips":"48037","name":"Bowie County","state_id":"TX"},{"zip":"75562","fips":"48067","name":"Cass County","state_id":"TX"},{"zip":"75563","fips":"48067","name":"Cass County","state_id":"TX"},{"zip":"75564","fips":"48315","name":"Marion County","state_id":"TX"},{"zip":"75565","fips":"48067","name":"Cass County","state_id":"TX"},{"zip":"75566","fips":"48067","name":"Cass County","state_id":"TX"},{"zip":"75567","fips":"48037","name":"Bowie County","state_id":"TX"},{"zip":"75568","fips":"48067","name":"Cass County","state_id":"TX"},{"zip":"75568","fips":"48343","name":"Morris County","state_id":"TX"},{"zip":"75569","fips":"48037","name":"Bowie County","state_id":"TX"},{"zip":"75570","fips":"48037","name":"Bowie County","state_id":"TX"},{"zip":"75571","fips":"48449","name":"Titus County","state_id":"TX"},{"zip":"75571","fips":"48343","name":"Morris County","state_id":"TX"},{"zip":"75572","fips":"48067","name":"Cass County","state_id":"TX"},{"zip":"75573","fips":"48037","name":"Bowie County","state_id":"TX"},{"zip":"75574","fips":"48037","name":"Bowie County","state_id":"TX"},{"zip":"75599","fips":"48037","name":"Bowie County","state_id":"TX"}]
