[{"zip":"75601","fips":"48203","name":"Harrison County","state_id":"TX"},{"zip":"75601","fips":"48183","name":"Gregg County","state_id":"TX"},{"zip":"75602","fips":"48203","name":"Harrison County","state_id":"TX"},{"zip":"75602","fips":"48183","name":"Gregg County","state_id":"TX"},{"zip":"75603","fips":"48401","name":"Rusk County","state_id":"TX"},{"zip":"75603","fips":"48183","name":"Gregg County","state_id":"TX"},{"zip":"75604","fips":"48459","name":"Upshur County","state_id":"TX"},{"zip":"75604","fips":"48183","name":"Gregg County","state_id":"TX"},{"zip":"75605","fips":"48183","name":"Gregg County","state_id":"TX"},{"zip":"75605","fips":"48203","name":"Harrison County","state_id":"TX"},{"zip":"75605","fips":"48459","name":"Upshur County","state_id":"TX"},{"zip":"75606","fips":"48183","name":"Gregg County","state_id":"TX"},{"zip":"75607","fips":"48183","name":"Gregg County","state_id":"TX"},{"zip":"75608","fips":"48183","name":"Gregg County","state_id":"TX"},{"zip":"75615","fips":"48183","name":"Gregg County","state_id":"TX"},{"zip":"75630","fips":"48315","name":"Marion County","state_id":"TX"},{"zip":"75630","fips":"48067","name":"Cass County","state_id":"TX"},{"zip":"75631","fips":"48365","name":"Panola County","state_id":"TX"},{"zip":"75633","fips":"48365","name":"Panola County","state_id":"TX"},{"zip":"75633","fips":"48401","name":"Rusk County","state_id":"TX"},{"zip":"75636","fips":"48343","name":"Morris County","state_id":"TX"},{"zip":"75637","fips":"48365","name":"Panola County","state_id":"TX"},{"zip":"75638","fips":"48067","name":"Cass County","state_id":"TX"},{"zip":"75638","fips":"48343","name":"Morris County","state_id":"TX"},{"zip":"75639","fips":"48365","name":"Panola County","state_id":"TX"},{"zip":"75639","fips":"48203","name":"Harrison County","state_id":"TX"},{"zip":"75640","fips":"48315","name":"Marion County","state_id":"TX"},{"zip":"75640","fips":"48203","name":"Harrison County","state_id":"TX"},{"zip":"75640","fips":"48459","name":"Upshur County","state_id":"TX"},{"zip":"75641","fips":"48183","name":"Gregg County","state_id":"TX"},{"zip":"75642","fips":"48203","name":"Harrison County","state_id":"TX"},{"zip":"75643","fips":"48419","name":"Shelby County","state_id":"TX"},{"zip":"75643","fips":"48365","name":"Panola County","state_id":"TX"},{"zip":"75644","fips":"48459","name":"Upshur County","state_id":"TX"},{"zip":"75644","fips":"48063","name":"Camp County","state_id":"TX"},{"zip":"75645","fips":"48459","name":"Upshur County","state_id":"TX"},{"zip":"75645","fips":"48183","name":"Gregg County","state_id":"TX"},{"zip":"75647","fips":"48459","name":"Upshur County","state_id":"TX"},{"zip":"75647","fips":"48183","name":"Gregg County","state_id":"TX"},{"zip":"75647","fips":"48423","name":"Smith County","state_id":"TX"},{"zip":"75650","fips":"48203","name":"Harrison County","state_id":"TX"},{"zip":"75651","fips":"48203","name":"Harrison County","state_id":"TX"},{"zip":"75651","fips":"48315","name":"Marion County","state_id":"TX"},{"zip":"75652","fips":"48365","name":"Panola County","state_id":"TX"},{"zip":"75652","fips":"48401","name":"Rusk County","state_id":"TX"},{"zip":"75654","fips":"48401","name":"Rusk County","state_id":"TX"},{"zip":"75656","fips":"48067","name":"Cass County","state_id":"TX"},{"zip":"75656","fips":"48343","name":"Morris County","state_id":"TX"},{"zip":"75657","fips":"48315","name":"Marion County","state_id":"TX"},{"zip":"75657","fips":"48203","name":"Harrison County","state_id":"TX"},{"zip":"75657","fips":"48067","name":"Cass County","state_id":"TX"},{"zip":"75658","fips":"48401","name":"Rusk County","state_id":"TX"},{"zip":"75659","fips":"48203","name":"Harrison County","state_id":"TX"},{"zip":"75660","fips":"48183","name":"Gregg County","state_id":"TX"},{"zip":"75661","fips":"48203","name":"Harrison County","state_id":"TX"},{"zip":"75662","fips":"48423","name":"Smith County","state_id":"TX"},{"zip":"75662","fips":"48183","name":"Gregg County","state_id":"TX"},{"zip":"75662","fips":"48401","name":"Rusk County","state_id":"TX"},{"zip":"75663","fips":"48183","name":"Gregg County","state_id":"TX"},{"zip":"75666","fips":"48401","name":"Rusk County","state_id":"TX"},{"zip":"75667","fips":"48401","name":"Rusk County","state_id":"TX"},{"zip":"75668","fips":"48315","name":"Marion County","state_id":"TX"},{"zip":"75668","fips":"48343","name":"Morris County","state_id":"TX"},{"zip":"75669","fips":"48365","name":"Panola County","state_id":"TX"},{"zip":"75669","fips":"48401","name":"Rusk County","state_id":"TX"},{"zip":"75670","fips":"48203","name":"Harrison County","state_id":"TX"},{"zip":"75671","fips":"48203","name":"Harrison County","state_id":"TX"},{"zip":"75672","fips":"48203","name":"Harrison County","state_id":"TX"},{"zip":"75672","fips":"48365","name":"Panola County","state_id":"TX"},{"zip":"75680","fips":"48401","name":"Rusk County","state_id":"TX"},{"zip":"75681","fips":"48401","name":"Rusk County","state_id":"TX"},{"zip":"75682","fips":"48401","name":"Rusk County","state_id":"TX"},{"zip":"75683","fips":"48315","name":"Marion County","state_id":"TX"},{"zip":"75683","fips":"48203","name":"Harrison County","state_id":"TX"},{"zip":"75683","fips":"48459","name":"Upshur County","state_id":"TX"},{"zip":"75684","fips":"48423","name":"Smith County","state_id":"TX"},{"zip":"75684","fips":"48401","name":"Rusk County","state_id":"TX"},{"zip":"75685","fips":"48365","name":"Panola County","state_id":"TX"},{"zip":"75686","fips":"48449","name":"Titus County","state_id":"TX"},{"zip":"75686","fips":"48459","name":"Upshur County","state_id":"TX"},{"zip":"75686","fips":"48063","name":"Camp County","state_id":"TX"},{"zip":"75687","fips":"48401","name":"Rusk County","state_id":"TX"},{"zip":"75688","fips":"48203","name":"Harrison County","state_id":"TX"},{"zip":"75689","fips":"48401","name":"Rusk County","state_id":"TX"},{"zip":"75691","fips":"48183","name":"Gregg County","state_id":"TX"},{"zip":"75691","fips":"48401","name":"Rusk County","state_id":"TX"},{"zip":"75691","fips":"48365","name":"Panola County","state_id":"TX"},{"zip":"75692","fips":"48203","name":"Harrison County","state_id":"TX"},{"zip":"75692","fips":"48365","name":"Panola County","state_id":"TX"},{"zip":"75693","fips":"48183","name":"Gregg County","state_id":"TX"},{"zip":"75693","fips":"48459","name":"Upshur County","state_id":"TX"},{"zip":"75694","fips":"48203","name":"Harrison County","state_id":"TX"}]
