[{"zip":"75701","fips":"48423","name":"Smith County","state_id":"TX"},{"zip":"75702","fips":"48423","name":"Smith County","state_id":"TX"},{"zip":"75703","fips":"48423","name":"Smith County","state_id":"TX"},{"zip":"75704","fips":"48423","name":"Smith County","state_id":"TX"},{"zip":"75705","fips":"48423","name":"Smith County","state_id":"TX"},{"zip":"75706","fips":"48423","name":"Smith County","state_id":"TX"},{"zip":"75707","fips":"48423","name":"Smith County","state_id":"TX"},{"zip":"75708","fips":"48423","name":"Smith County","state_id":"TX"},{"zip":"75709","fips":"48423","name":"Smith County","state_id":"TX"},{"zip":"75710","fips":"48423","name":"Smith County","state_id":"TX"},{"zip":"75711","fips":"48423","name":"Smith County","state_id":"TX"},{"zip":"75712","fips":"48423","name":"Smith County","state_id":"TX"},{"zip":"75713","fips":"48423","name":"Smith County","state_id":"TX"},{"zip":"75750","fips":"48423","name":"Smith County","state_id":"TX"},{"zip":"75751","fips":"48213","name":"Henderson County","state_id":"TX"},{"zip":"75751","fips":"48001","name":"Anderson County","state_id":"TX"},{"zip":"75752","fips":"48467","name":"Van Zandt County","state_id":"TX"},{"zip":"75752","fips":"48213","name":"Henderson County","state_id":"TX"},{"zip":"75752","fips":"48001","name":"Anderson County","state_id":"TX"},{"zip":"75754","fips":"48467","name":"Van Zandt County","state_id":"TX"},{"zip":"75755","fips":"48499","name":"Wood County","state_id":"TX"},{"zip":"75755","fips":"48459","name":"Upshur County","state_id":"TX"},{"zip":"75756","fips":"48467","name":"Van Zandt County","state_id":"TX"},{"zip":"75756","fips":"48213","name":"Henderson County","state_id":"TX"},{"zip":"75757","fips":"48073","name":"Cherokee County","state_id":"TX"},{"zip":"75757","fips":"48423","name":"Smith County","state_id":"TX"},{"zip":"75758","fips":"48467","name":"Van Zandt County","state_id":"TX"},{"zip":"75758","fips":"48213","name":"Henderson County","state_id":"TX"},{"zip":"75759","fips":"48073","name":"Cherokee County","state_id":"TX"},{"zip":"75760","fips":"48401","name":"Rusk County","state_id":"TX"},{"zip":"75760","fips":"48347","name":"Nacogdoches County","state_id":"TX"},{"zip":"75762","fips":"48423","name":"Smith County","state_id":"TX"},{"zip":"75763","fips":"48213","name":"Henderson County","state_id":"TX"},{"zip":"75763","fips":"48001","name":"Anderson County","state_id":"TX"},{"zip":"75764","fips":"48073","name":"Cherokee County","state_id":"TX"},{"zip":"75765","fips":"48499","name":"Wood County","state_id":"TX"},{"zip":"75765","fips":"48459","name":"Upshur County","state_id":"TX"},{"zip":"75766","fips":"48073","name":"Cherokee County","state_id":"TX"},{"zip":"75770","fips":"48001","name":"Anderson County","state_id":"TX"},{"zip":"75770","fips":"48213","name":"Henderson County","state_id":"TX"},{"zip":"75771","fips":"48423","name":"Smith County","state_id":"TX"},{"zip":"75772","fips":"48073","name":"Cherokee County","state_id":"TX"},{"zip":"75773","fips":"48467","name":"Van Zandt County","state_id":"TX"},{"zip":"75773","fips":"48499","name":"Wood County","state_id":"TX"},{"zip":"75773","fips":"48423","name":"Smith County","state_id":"TX"},{"zip":"75778","fips":"48467","name":"Van Zandt County","state_id":"TX"},{"zip":"75778","fips":"48213","name":"Henderson County","state_id":"TX"},{"zip":"75779","fips":"48001","name":"Anderson County","state_id":"TX"},{"zip":"75780","fips":"48073","name":"Cherokee County","state_id":"TX"},{"zip":"75782","fips":"48213","name":"Henderson County","state_id":"TX"},{"zip":"75783","fips":"48499","name":"Wood County","state_id":"TX"},{"zip":"75784","fips":"48401","name":"Rusk County","state_id":"TX"},{"zip":"75784","fips":"48073","name":"Cherokee County","state_id":"TX"},{"zip":"75785","fips":"48073","name":"Cherokee County","state_id":"TX"},{"zip":"75788","fips":"48347","name":"Nacogdoches County","state_id":"TX"},{"zip":"75789","fips":"48401","name":"Rusk County","state_id":"TX"},{"zip":"75789","fips":"48073","name":"Cherokee County","state_id":"TX"},{"zip":"75789","fips":"48423","name":"Smith County","state_id":"TX"},{"zip":"75790","fips":"48467","name":"Van Zandt County","state_id":"TX"},{"zip":"75790","fips":"48423","name":"Smith County","state_id":"TX"},{"zip":"75791","fips":"48423","name":"Smith County","state_id":"TX"},{"zip":"75792","fips":"48423","name":"Smith County","state_id":"TX"},{"zip":"75798","fips":"48423","name":"Smith County","state_id":"TX"},{"zip":"75799","fips":"48423","name":"Smith County","state_id":"TX"}]
