[{"zip":"75801","fips":"48001","name":"Anderson County","state_id":"TX"},{"zip":"75802","fips":"48001","name":"Anderson County","state_id":"TX"},{"zip":"75803","fips":"48213","name":"Henderson County","state_id":"TX"},{"zip":"75803","fips":"48001","name":"Anderson County","state_id":"TX"},{"zip":"75831","fips":"48161","name":"Freestone County","state_id":"TX"},{"zip":"75831","fips":"48289","name":"Leon County","state_id":"TX"},{"zip":"75832","fips":"48001","name":"Anderson County","state_id":"TX"},{"zip":"75833","fips":"48289","name":"Leon County","state_id":"TX"},{"zip":"75834","fips":"48455","name":"Trinity County","state_id":"TX"},{"zip":"75835","fips":"48225","name":"Houston County","state_id":"TX"},{"zip":"75838","fips":"48161","name":"Freestone County","state_id":"TX"},{"zip":"75838","fips":"48293","name":"Limestone County","state_id":"TX"},{"zip":"75839","fips":"48225","name":"Houston County","state_id":"TX"},{"zip":"75839","fips":"48001","name":"Anderson County","state_id":"TX"},{"zip":"75840","fips":"48161","name":"Freestone County","state_id":"TX"},{"zip":"75844","fips":"48001","name":"Anderson County","state_id":"TX"},{"zip":"75844","fips":"48225","name":"Houston County","state_id":"TX"},{"zip":"75845","fips":"48455","name":"Trinity County","state_id":"TX"},{"zip":"75846","fips":"48293","name":"Limestone County","state_id":"TX"},{"zip":"75846","fips":"48289","name":"Leon County","state_id":"TX"},{"zip":"75847","fips":"48455","name":"Trinity County","state_id":"TX"},{"zip":"75847","fips":"48225","name":"Houston County","state_id":"TX"},{"zip":"75848","fips":"48161","name":"Freestone County","state_id":"TX"},{"zip":"75849","fips":"48225","name":"Houston County","state_id":"TX"},{"zip":"75850","fips":"48289","name":"Leon County","state_id":"TX"},{"zip":"75851","fips":"48225","name":"Houston County","state_id":"TX"},{"zip":"75851","fips":"48455","name":"Trinity County","state_id":"TX"},{"zip":"75852","fips":"48313","name":"Madison County","state_id":"TX"},{"zip":"75852","fips":"48289","name":"Leon County","state_id":"TX"},{"zip":"75852","fips":"48471","name":"Walker County","state_id":"TX"},{"zip":"75853","fips":"48213","name":"Henderson County","state_id":"TX"},{"zip":"75853","fips":"48001","name":"Anderson County","state_id":"TX"},{"zip":"75855","fips":"48161","name":"Freestone County","state_id":"TX"},{"zip":"75855","fips":"48289","name":"Leon County","state_id":"TX"},{"zip":"75856","fips":"48455","name":"Trinity County","state_id":"TX"},{"zip":"75858","fips":"48225","name":"Houston County","state_id":"TX"},{"zip":"75859","fips":"48161","name":"Freestone County","state_id":"TX"},{"zip":"75859","fips":"48349","name":"Navarro County","state_id":"TX"},{"zip":"75860","fips":"48161","name":"Freestone County","state_id":"TX"},{"zip":"75861","fips":"48001","name":"Anderson County","state_id":"TX"},{"zip":"75862","fips":"48471","name":"Walker County","state_id":"TX"},{"zip":"75862","fips":"48455","name":"Trinity County","state_id":"TX"},{"zip":"75862","fips":"48225","name":"Houston County","state_id":"TX"},{"zip":"75865","fips":"48455","name":"Trinity County","state_id":"TX"},{"zip":"75880","fips":"48001","name":"Anderson County","state_id":"TX"},{"zip":"75882","fips":"48001","name":"Anderson County","state_id":"TX"},{"zip":"75884","fips":"48001","name":"Anderson County","state_id":"TX"},{"zip":"75886","fips":"48001","name":"Anderson County","state_id":"TX"}]
