[{"zip":"75901","fips":"48005","name":"Angelina County","state_id":"TX"},{"zip":"75902","fips":"48005","name":"Angelina County","state_id":"TX"},{"zip":"75903","fips":"48005","name":"Angelina County","state_id":"TX"},{"zip":"75904","fips":"48005","name":"Angelina County","state_id":"TX"},{"zip":"75904","fips":"48455","name":"Trinity County","state_id":"TX"},{"zip":"75915","fips":"48005","name":"Angelina County","state_id":"TX"},{"zip":"75925","fips":"48073","name":"Cherokee County","state_id":"TX"},{"zip":"75926","fips":"48455","name":"Trinity County","state_id":"TX"},{"zip":"75928","fips":"48351","name":"Newton County","state_id":"TX"},{"zip":"75929","fips":"48405","name":"San Augustine County","state_id":"TX"},{"zip":"75930","fips":"48403","name":"Sabine County","state_id":"TX"},{"zip":"75930","fips":"48405","name":"San Augustine County","state_id":"TX"},{"zip":"75931","fips":"48403","name":"Sabine County","state_id":"TX"},{"zip":"75931","fips":"48241","name":"Jasper County","state_id":"TX"},{"zip":"75932","fips":"48351","name":"Newton County","state_id":"TX"},{"zip":"75933","fips":"48351","name":"Newton County","state_id":"TX"},{"zip":"75933","fips":"48241","name":"Jasper County","state_id":"TX"},{"zip":"75934","fips":"48373","name":"Polk County","state_id":"TX"},{"zip":"75935","fips":"48405","name":"San Augustine County","state_id":"TX"},{"zip":"75935","fips":"48419","name":"Shelby County","state_id":"TX"},{"zip":"75936","fips":"48373","name":"Polk County","state_id":"TX"},{"zip":"75936","fips":"48457","name":"Tyler County","state_id":"TX"},{"zip":"75937","fips":"48347","name":"Nacogdoches County","state_id":"TX"},{"zip":"75938","fips":"48457","name":"Tyler County","state_id":"TX"},{"zip":"75939","fips":"48373","name":"Polk County","state_id":"TX"},{"zip":"75941","fips":"48005","name":"Angelina County","state_id":"TX"},{"zip":"75942","fips":"48457","name":"Tyler County","state_id":"TX"},{"zip":"75943","fips":"48347","name":"Nacogdoches County","state_id":"TX"},{"zip":"75944","fips":"48347","name":"Nacogdoches County","state_id":"TX"},{"zip":"75946","fips":"48347","name":"Nacogdoches County","state_id":"TX"},{"zip":"75946","fips":"48401","name":"Rusk County","state_id":"TX"},{"zip":"75948","fips":"48403","name":"Sabine County","state_id":"TX"},{"zip":"75949","fips":"48005","name":"Angelina County","state_id":"TX"},{"zip":"75951","fips":"48005","name":"Angelina County","state_id":"TX"},{"zip":"75951","fips":"48241","name":"Jasper County","state_id":"TX"},{"zip":"75951","fips":"48351","name":"Newton County","state_id":"TX"},{"zip":"75954","fips":"48365","name":"Panola County","state_id":"TX"},{"zip":"75954","fips":"48419","name":"Shelby County","state_id":"TX"},{"zip":"75956","fips":"48351","name":"Newton County","state_id":"TX"},{"zip":"75956","fips":"48241","name":"Jasper County","state_id":"TX"},{"zip":"75958","fips":"48347","name":"Nacogdoches County","state_id":"TX"},{"zip":"75959","fips":"48403","name":"Sabine County","state_id":"TX"},{"zip":"75960","fips":"48373","name":"Polk County","state_id":"TX"},{"zip":"75961","fips":"48405","name":"San Augustine County","state_id":"TX"},{"zip":"75961","fips":"48347","name":"Nacogdoches County","state_id":"TX"},{"zip":"75963","fips":"48347","name":"Nacogdoches County","state_id":"TX"},{"zip":"75964","fips":"48347","name":"Nacogdoches County","state_id":"TX"},{"zip":"75965","fips":"48347","name":"Nacogdoches County","state_id":"TX"},{"zip":"75966","fips":"48241","name":"Jasper County","state_id":"TX"},{"zip":"75966","fips":"48351","name":"Newton County","state_id":"TX"},{"zip":"75968","fips":"48403","name":"Sabine County","state_id":"TX"},{"zip":"75969","fips":"48073","name":"Cherokee County","state_id":"TX"},{"zip":"75969","fips":"48005","name":"Angelina County","state_id":"TX"},{"zip":"75972","fips":"48403","name":"Sabine County","state_id":"TX"},{"zip":"75972","fips":"48405","name":"San Augustine County","state_id":"TX"},{"zip":"75973","fips":"48419","name":"Shelby County","state_id":"TX"},{"zip":"75974","fips":"48365","name":"Panola County","state_id":"TX"},{"zip":"75974","fips":"48419","name":"Shelby County","state_id":"TX"},{"zip":"75975","fips":"48419","name":"Shelby County","state_id":"TX"},{"zip":"75975","fips":"48401","name":"Rusk County","state_id":"TX"},{"zip":"75975","fips":"48365","name":"Panola County","state_id":"TX"},{"zip":"75976","fips":"48073","name":"Cherokee County","state_id":"TX"},{"zip":"75977","fips":"48351","name":"Newton County","state_id":"TX"},{"zip":"75978","fips":"48347","name":"Nacogdoches County","state_id":"TX"},{"zip":"75979","fips":"48457","name":"Tyler County","state_id":"TX"},{"zip":"75980","fips":"48241","name":"Jasper County","state_id":"TX"},{"zip":"75980","fips":"48005","name":"Angelina County","state_id":"TX"},{"zip":"75990","fips":"48457","name":"Tyler County","state_id":"TX"}]
