[{"zip":"76001","fips":"48439","name":"Tarrant County","state_id":"TX"},{"zip":"76002","fips":"48439","name":"Tarrant County","state_id":"TX"},{"zip":"76003","fips":"48439","name":"Tarrant County","state_id":"TX"},{"zip":"76004","fips":"48439","name":"Tarrant County","state_id":"TX"},{"zip":"76005","fips":"48439","name":"Tarrant County","state_id":"TX"},{"zip":"76006","fips":"48439","name":"Tarrant County","state_id":"TX"},{"zip":"76007","fips":"48439","name":"Tarrant County","state_id":"TX"},{"zip":"76008","fips":"48439","name":"Tarrant County","state_id":"TX"},{"zip":"76008","fips":"48367","name":"Parker County","state_id":"TX"},{"zip":"76009","fips":"48251","name":"Johnson County","state_id":"TX"},{"zip":"76010","fips":"48439","name":"Tarrant County","state_id":"TX"},{"zip":"76011","fips":"48439","name":"Tarrant County","state_id":"TX"},{"zip":"76012","fips":"48439","name":"Tarrant County","state_id":"TX"},{"zip":"76013","fips":"48439","name":"Tarrant County","state_id":"TX"},{"zip":"76014","fips":"48439","name":"Tarrant County","state_id":"TX"},{"zip":"76015","fips":"48439","name":"Tarrant County","state_id":"TX"},{"zip":"76016","fips":"48439","name":"Tarrant County","state_id":"TX"},{"zip":"76017","fips":"48439","name":"Tarrant County","state_id":"TX"},{"zip":"76018","fips":"48439","name":"Tarrant County","state_id":"TX"},{"zip":"76019","fips":"48439","name":"Tarrant County","state_id":"TX"},{"zip":"76020","fips":"48497","name":"Wise County","state_id":"TX"},{"zip":"76020","fips":"48439","name":"Tarrant County","state_id":"TX"},{"zip":"76020","fips":"48367","name":"Parker County","state_id":"TX"},{"zip":"76021","fips":"48439","name":"Tarrant County","state_id":"TX"},{"zip":"76022","fips":"48439","name":"Tarrant County","state_id":"TX"},{"zip":"76023","fips":"48497","name":"Wise County","state_id":"TX"},{"zip":"76023","fips":"48367","name":"Parker County","state_id":"TX"},{"zip":"76028","fips":"48439","name":"Tarrant County","state_id":"TX"},{"zip":"76028","fips":"48251","name":"Johnson County","state_id":"TX"},{"zip":"76031","fips":"48251","name":"Johnson County","state_id":"TX"},{"zip":"76033","fips":"48251","name":"Johnson County","state_id":"TX"},{"zip":"76033","fips":"48221","name":"Hood County","state_id":"TX"},{"zip":"76033","fips":"48425","name":"Somervell County","state_id":"TX"},{"zip":"76034","fips":"48439","name":"Tarrant County","state_id":"TX"},{"zip":"76035","fips":"48251","name":"Johnson County","state_id":"TX"},{"zip":"76035","fips":"48221","name":"Hood County","state_id":"TX"},{"zip":"76035","fips":"48367","name":"Parker County","state_id":"TX"},{"zip":"76036","fips":"48251","name":"Johnson County","state_id":"TX"},{"zip":"76036","fips":"48439","name":"Tarrant County","state_id":"TX"},{"zip":"76039","fips":"48439","name":"Tarrant County","state_id":"TX"},{"zip":"76040","fips":"48439","name":"Tarrant County","state_id":"TX"},{"zip":"76041","fips":"48139","name":"Ellis County","state_id":"TX"},{"zip":"76043","fips":"48425","name":"Somervell County","state_id":"TX"},{"zip":"76043","fips":"48035","name":"Bosque County","state_id":"TX"},{"zip":"76044","fips":"48251","name":"Johnson County","state_id":"TX"},{"zip":"76044","fips":"48221","name":"Hood County","state_id":"TX"},{"zip":"76048","fips":"48425","name":"Somervell County","state_id":"TX"},{"zip":"76048","fips":"48221","name":"Hood County","state_id":"TX"},{"zip":"76049","fips":"48367","name":"Parker County","state_id":"TX"},{"zip":"76049","fips":"48221","name":"Hood County","state_id":"TX"},{"zip":"76049","fips":"48251","name":"Johnson County","state_id":"TX"},{"zip":"76050","fips":"48217","name":"Hill County","state_id":"TX"},{"zip":"76050","fips":"48251","name":"Johnson County","state_id":"TX"},{"zip":"76050","fips":"48139","name":"Ellis County","state_id":"TX"},{"zip":"76051","fips":"48113","name":"Dallas County","state_id":"TX"},{"zip":"76051","fips":"48439","name":"Tarrant County","state_id":"TX"},{"zip":"76052","fips":"48121","name":"Denton County","state_id":"TX"},{"zip":"76052","fips":"48497","name":"Wise County","state_id":"TX"},{"zip":"76052","fips":"48439","name":"Tarrant County","state_id":"TX"},{"zip":"76053","fips":"48439","name":"Tarrant County","state_id":"TX"},{"zip":"76054","fips":"48439","name":"Tarrant County","state_id":"TX"},{"zip":"76055","fips":"48217","name":"Hill County","state_id":"TX"},{"zip":"76055","fips":"48139","name":"Ellis County","state_id":"TX"},{"zip":"76058","fips":"48251","name":"Johnson County","state_id":"TX"},{"zip":"76059","fips":"48251","name":"Johnson County","state_id":"TX"},{"zip":"76060","fips":"48439","name":"Tarrant County","state_id":"TX"},{"zip":"76061","fips":"48251","name":"Johnson County","state_id":"TX"},{"zip":"76063","fips":"48139","name":"Ellis County","state_id":"TX"},{"zip":"76063","fips":"48439","name":"Tarrant County","state_id":"TX"},{"zip":"76063","fips":"48251","name":"Johnson County","state_id":"TX"},{"zip":"76064","fips":"48139","name":"Ellis County","state_id":"TX"},{"zip":"76065","fips":"48139","name":"Ellis County","state_id":"TX"},{"zip":"76065","fips":"48113","name":"Dallas County","state_id":"TX"},{"zip":"76066","fips":"48367","name":"Parker County","state_id":"TX"},{"zip":"76066","fips":"48363","name":"Palo Pinto County","state_id":"TX"},{"zip":"76067","fips":"48363","name":"Palo Pinto County","state_id":"TX"},{"zip":"76067","fips":"48367","name":"Parker County","state_id":"TX"},{"zip":"76070","fips":"48425","name":"Somervell County","state_id":"TX"},{"zip":"76070","fips":"48251","name":"Johnson County","state_id":"TX"},{"zip":"76071","fips":"48497","name":"Wise County","state_id":"TX"},{"zip":"76071","fips":"48439","name":"Tarrant County","state_id":"TX"},{"zip":"76073","fips":"48497","name":"Wise County","state_id":"TX"},{"zip":"76077","fips":"48425","name":"Somervell County","state_id":"TX"},{"zip":"76078","fips":"48497","name":"Wise County","state_id":"TX"},{"zip":"76078","fips":"48121","name":"Denton County","state_id":"TX"},{"zip":"76082","fips":"48497","name":"Wise County","state_id":"TX"},{"zip":"76082","fips":"48367","name":"Parker County","state_id":"TX"},{"zip":"76084","fips":"48251","name":"Johnson County","state_id":"TX"},{"zip":"76084","fips":"48139","name":"Ellis County","state_id":"TX"},{"zip":"76085","fips":"48367","name":"Parker County","state_id":"TX"},{"zip":"76086","fips":"48367","name":"Parker County","state_id":"TX"},{"zip":"76087","fips":"48367","name":"Parker County","state_id":"TX"},{"zip":"76087","fips":"48221","name":"Hood County","state_id":"TX"},{"zip":"76088","fips":"48367","name":"Parker County","state_id":"TX"},{"zip":"76092","fips":"48121","name":"Denton County","state_id":"TX"},{"zip":"76092","fips":"48439","name":"Tarrant County","state_id":"TX"},{"zip":"76093","fips":"48217","name":"Hill County","state_id":"TX"},{"zip":"76093","fips":"48251","name":"Johnson County","state_id":"TX"},{"zip":"76094","fips":"48439","name":"Tarrant County","state_id":"TX"},{"zip":"76095","fips":"48439","name":"Tarrant County","state_id":"TX"},{"zip":"76096","fips":"48439","name":"Tarrant County","state_id":"TX"},{"zip":"76097","fips":"48251","name":"Johnson County","state_id":"TX"},{"zip":"76098","fips":"48367","name":"Parker County","state_id":"TX"},{"zip":"76099","fips":"48439","name":"Tarrant County","state_id":"TX"}]
