[{"zip":"76101","fips":"48439","name":"Tarrant County","state_id":"TX"},{"zip":"76102","fips":"48439","name":"Tarrant County","state_id":"TX"},{"zip":"76103","fips":"48439","name":"Tarrant County","state_id":"TX"},{"zip":"76104","fips":"48439","name":"Tarrant County","state_id":"TX"},{"zip":"76105","fips":"48439","name":"Tarrant County","state_id":"TX"},{"zip":"76106","fips":"48439","name":"Tarrant County","state_id":"TX"},{"zip":"76107","fips":"48439","name":"Tarrant County","state_id":"TX"},{"zip":"76108","fips":"48367","name":"Parker County","state_id":"TX"},{"zip":"76108","fips":"48439","name":"Tarrant County","state_id":"TX"},{"zip":"76109","fips":"48439","name":"Tarrant County","state_id":"TX"},{"zip":"76110","fips":"48439","name":"Tarrant County","state_id":"TX"},{"zip":"76111","fips":"48439","name":"Tarrant County","state_id":"TX"},{"zip":"76112","fips":"48439","name":"Tarrant County","state_id":"TX"},{"zip":"76113","fips":"48439","name":"Tarrant County","state_id":"TX"},{"zip":"76114","fips":"48439","name":"Tarrant County","state_id":"TX"},{"zip":"76115","fips":"48439","name":"Tarrant County","state_id":"TX"},{"zip":"76116","fips":"48439","name":"Tarrant County","state_id":"TX"},{"zip":"76117","fips":"48439","name":"Tarrant County","state_id":"TX"},{"zip":"76118","fips":"48439","name":"Tarrant County","state_id":"TX"},{"zip":"76119","fips":"48439","name":"Tarrant County","state_id":"TX"},{"zip":"76120","fips":"48439","name":"Tarrant County","state_id":"TX"},{"zip":"76121","fips":"48439","name":"Tarrant County","state_id":"TX"},{"zip":"76122","fips":"48439","name":"Tarrant County","state_id":"TX"},{"zip":"76123","fips":"48439","name":"Tarrant County","state_id":"TX"},{"zip":"76124","fips":"48439","name":"Tarrant County","state_id":"TX"},{"zip":"76126","fips":"48439","name":"Tarrant County","state_id":"TX"},{"zip":"76126","fips":"48367","name":"Parker County","state_id":"TX"},{"zip":"76127","fips":"48439","name":"Tarrant County","state_id":"TX"},{"zip":"76129","fips":"48439","name":"Tarrant County","state_id":"TX"},{"zip":"76130","fips":"48439","name":"Tarrant County","state_id":"TX"},{"zip":"76131","fips":"48439","name":"Tarrant County","state_id":"TX"},{"zip":"76132","fips":"48439","name":"Tarrant County","state_id":"TX"},{"zip":"76133","fips":"48439","name":"Tarrant County","state_id":"TX"},{"zip":"76134","fips":"48439","name":"Tarrant County","state_id":"TX"},{"zip":"76135","fips":"48439","name":"Tarrant County","state_id":"TX"},{"zip":"76136","fips":"48439","name":"Tarrant County","state_id":"TX"},{"zip":"76137","fips":"48439","name":"Tarrant County","state_id":"TX"},{"zip":"76140","fips":"48439","name":"Tarrant County","state_id":"TX"},{"zip":"76147","fips":"48439","name":"Tarrant County","state_id":"TX"},{"zip":"76148","fips":"48439","name":"Tarrant County","state_id":"TX"},{"zip":"76155","fips":"48439","name":"Tarrant County","state_id":"TX"},{"zip":"76161","fips":"48439","name":"Tarrant County","state_id":"TX"},{"zip":"76162","fips":"48439","name":"Tarrant County","state_id":"TX"},{"zip":"76163","fips":"48439","name":"Tarrant County","state_id":"TX"},{"zip":"76164","fips":"48439","name":"Tarrant County","state_id":"TX"},{"zip":"76177","fips":"48439","name":"Tarrant County","state_id":"TX"},{"zip":"76177","fips":"48121","name":"Denton County","state_id":"TX"},{"zip":"76179","fips":"48439","name":"Tarrant County","state_id":"TX"},{"zip":"76180","fips":"48439","name":"Tarrant County","state_id":"TX"},{"zip":"76182","fips":"48439","name":"Tarrant County","state_id":"TX"},{"zip":"76185","fips":"48439","name":"Tarrant County","state_id":"TX"},{"zip":"76190","fips":"48439","name":"Tarrant County","state_id":"TX"},{"zip":"76191","fips":"48439","name":"Tarrant County","state_id":"TX"},{"zip":"76192","fips":"48439","name":"Tarrant County","state_id":"TX"},{"zip":"76193","fips":"48439","name":"Tarrant County","state_id":"TX"},{"zip":"76195","fips":"48439","name":"Tarrant County","state_id":"TX"},{"zip":"76196","fips":"48439","name":"Tarrant County","state_id":"TX"},{"zip":"76197","fips":"48439","name":"Tarrant County","state_id":"TX"},{"zip":"76199","fips":"48439","name":"Tarrant County","state_id":"TX"}]
