[{"zip":"76201","fips":"48121","name":"Denton County","state_id":"TX"},{"zip":"76202","fips":"48121","name":"Denton County","state_id":"TX"},{"zip":"76203","fips":"48121","name":"Denton County","state_id":"TX"},{"zip":"76204","fips":"48121","name":"Denton County","state_id":"TX"},{"zip":"76205","fips":"48121","name":"Denton County","state_id":"TX"},{"zip":"76206","fips":"48121","name":"Denton County","state_id":"TX"},{"zip":"76207","fips":"48121","name":"Denton County","state_id":"TX"},{"zip":"76208","fips":"48121","name":"Denton County","state_id":"TX"},{"zip":"76209","fips":"48121","name":"Denton County","state_id":"TX"},{"zip":"76210","fips":"48121","name":"Denton County","state_id":"TX"},{"zip":"76225","fips":"48497","name":"Wise County","state_id":"TX"},{"zip":"76226","fips":"48121","name":"Denton County","state_id":"TX"},{"zip":"76227","fips":"48121","name":"Denton County","state_id":"TX"},{"zip":"76228","fips":"48077","name":"Clay County","state_id":"TX"},{"zip":"76228","fips":"48337","name":"Montague County","state_id":"TX"},{"zip":"76230","fips":"48237","name":"Jack County","state_id":"TX"},{"zip":"76230","fips":"48337","name":"Montague County","state_id":"TX"},{"zip":"76230","fips":"48077","name":"Clay County","state_id":"TX"},{"zip":"76233","fips":"48097","name":"Cooke County","state_id":"TX"},{"zip":"76233","fips":"48181","name":"Grayson County","state_id":"TX"},{"zip":"76234","fips":"48337","name":"Montague County","state_id":"TX"},{"zip":"76234","fips":"48121","name":"Denton County","state_id":"TX"},{"zip":"76234","fips":"48497","name":"Wise County","state_id":"TX"},{"zip":"76234","fips":"48097","name":"Cooke County","state_id":"TX"},{"zip":"76238","fips":"48097","name":"Cooke County","state_id":"TX"},{"zip":"76239","fips":"48337","name":"Montague County","state_id":"TX"},{"zip":"76239","fips":"48097","name":"Cooke County","state_id":"TX"},{"zip":"76240","fips":"48181","name":"Grayson County","state_id":"TX"},{"zip":"76240","fips":"48097","name":"Cooke County","state_id":"TX"},{"zip":"76241","fips":"48097","name":"Cooke County","state_id":"TX"},{"zip":"76244","fips":"48439","name":"Tarrant County","state_id":"TX"},{"zip":"76245","fips":"48181","name":"Grayson County","state_id":"TX"},{"zip":"76246","fips":"48497","name":"Wise County","state_id":"TX"},{"zip":"76247","fips":"48497","name":"Wise County","state_id":"TX"},{"zip":"76247","fips":"48121","name":"Denton County","state_id":"TX"},{"zip":"76248","fips":"48439","name":"Tarrant County","state_id":"TX"},{"zip":"76249","fips":"48497","name":"Wise County","state_id":"TX"},{"zip":"76249","fips":"48121","name":"Denton County","state_id":"TX"},{"zip":"76250","fips":"48097","name":"Cooke County","state_id":"TX"},{"zip":"76251","fips":"48337","name":"Montague County","state_id":"TX"},{"zip":"76252","fips":"48337","name":"Montague County","state_id":"TX"},{"zip":"76252","fips":"48097","name":"Cooke County","state_id":"TX"},{"zip":"76253","fips":"48097","name":"Cooke County","state_id":"TX"},{"zip":"76255","fips":"48337","name":"Montague County","state_id":"TX"},{"zip":"76258","fips":"48121","name":"Denton County","state_id":"TX"},{"zip":"76258","fips":"48097","name":"Cooke County","state_id":"TX"},{"zip":"76258","fips":"48181","name":"Grayson County","state_id":"TX"},{"zip":"76259","fips":"48121","name":"Denton County","state_id":"TX"},{"zip":"76259","fips":"48497","name":"Wise County","state_id":"TX"},{"zip":"76261","fips":"48337","name":"Montague County","state_id":"TX"},{"zip":"76261","fips":"48077","name":"Clay County","state_id":"TX"},{"zip":"76262","fips":"48121","name":"Denton County","state_id":"TX"},{"zip":"76262","fips":"48439","name":"Tarrant County","state_id":"TX"},{"zip":"76263","fips":"48097","name":"Cooke County","state_id":"TX"},{"zip":"76264","fips":"48181","name":"Grayson County","state_id":"TX"},{"zip":"76265","fips":"48337","name":"Montague County","state_id":"TX"},{"zip":"76265","fips":"48097","name":"Cooke County","state_id":"TX"},{"zip":"76266","fips":"48121","name":"Denton County","state_id":"TX"},{"zip":"76266","fips":"48097","name":"Cooke County","state_id":"TX"},{"zip":"76267","fips":"48497","name":"Wise County","state_id":"TX"},{"zip":"76268","fips":"48181","name":"Grayson County","state_id":"TX"},{"zip":"76270","fips":"48497","name":"Wise County","state_id":"TX"},{"zip":"76270","fips":"48337","name":"Montague County","state_id":"TX"},{"zip":"76271","fips":"48181","name":"Grayson County","state_id":"TX"},{"zip":"76271","fips":"48097","name":"Cooke County","state_id":"TX"},{"zip":"76272","fips":"48097","name":"Cooke County","state_id":"TX"},{"zip":"76272","fips":"48121","name":"Denton County","state_id":"TX"},{"zip":"76273","fips":"48097","name":"Cooke County","state_id":"TX"},{"zip":"76273","fips":"48181","name":"Grayson County","state_id":"TX"}]
