[{"zip":"76301","fips":"48485","name":"Wichita County","state_id":"TX"},{"zip":"76302","fips":"48485","name":"Wichita County","state_id":"TX"},{"zip":"76302","fips":"48009","name":"Archer County","state_id":"TX"},{"zip":"76305","fips":"48077","name":"Clay County","state_id":"TX"},{"zip":"76305","fips":"48485","name":"Wichita County","state_id":"TX"},{"zip":"76306","fips":"48485","name":"Wichita County","state_id":"TX"},{"zip":"76307","fips":"48485","name":"Wichita County","state_id":"TX"},{"zip":"76308","fips":"48485","name":"Wichita County","state_id":"TX"},{"zip":"76308","fips":"48009","name":"Archer County","state_id":"TX"},{"zip":"76309","fips":"48485","name":"Wichita County","state_id":"TX"},{"zip":"76310","fips":"48077","name":"Clay County","state_id":"TX"},{"zip":"76310","fips":"48009","name":"Archer County","state_id":"TX"},{"zip":"76310","fips":"48485","name":"Wichita County","state_id":"TX"},{"zip":"76311","fips":"48485","name":"Wichita County","state_id":"TX"},{"zip":"76351","fips":"48009","name":"Archer County","state_id":"TX"},{"zip":"76352","fips":"48077","name":"Clay County","state_id":"TX"},{"zip":"76354","fips":"48485","name":"Wichita County","state_id":"TX"},{"zip":"76357","fips":"48077","name":"Clay County","state_id":"TX"},{"zip":"76360","fips":"48487","name":"Wilbarger County","state_id":"TX"},{"zip":"76360","fips":"48485","name":"Wichita County","state_id":"TX"},{"zip":"76360","fips":"48009","name":"Archer County","state_id":"TX"},{"zip":"76363","fips":"48275","name":"Knox County","state_id":"TX"},{"zip":"76364","fips":"48487","name":"Wilbarger County","state_id":"TX"},{"zip":"76365","fips":"48077","name":"Clay County","state_id":"TX"},{"zip":"76365","fips":"48237","name":"Jack County","state_id":"TX"},{"zip":"76366","fips":"48009","name":"Archer County","state_id":"TX"},{"zip":"76367","fips":"48485","name":"Wichita County","state_id":"TX"},{"zip":"76369","fips":"48485","name":"Wichita County","state_id":"TX"},{"zip":"76370","fips":"48009","name":"Archer County","state_id":"TX"},{"zip":"76371","fips":"48275","name":"Knox County","state_id":"TX"},{"zip":"76372","fips":"48447","name":"Throckmorton County","state_id":"TX"},{"zip":"76372","fips":"48503","name":"Young County","state_id":"TX"},{"zip":"76373","fips":"48487","name":"Wilbarger County","state_id":"TX"},{"zip":"76374","fips":"48447","name":"Throckmorton County","state_id":"TX"},{"zip":"76374","fips":"48009","name":"Archer County","state_id":"TX"},{"zip":"76374","fips":"48503","name":"Young County","state_id":"TX"},{"zip":"76377","fips":"48077","name":"Clay County","state_id":"TX"},{"zip":"76379","fips":"48009","name":"Archer County","state_id":"TX"},{"zip":"76379","fips":"48077","name":"Clay County","state_id":"TX"},{"zip":"76380","fips":"48023","name":"Baylor County","state_id":"TX"},{"zip":"76380","fips":"48275","name":"Knox County","state_id":"TX"},{"zip":"76384","fips":"48155","name":"Foard County","state_id":"TX"},{"zip":"76384","fips":"48487","name":"Wilbarger County","state_id":"TX"},{"zip":"76388","fips":"48207","name":"Haskell County","state_id":"TX"},{"zip":"76389","fips":"48009","name":"Archer County","state_id":"TX"},{"zip":"76389","fips":"48077","name":"Clay County","state_id":"TX"},{"zip":"76389","fips":"48237","name":"Jack County","state_id":"TX"},{"zip":"76389","fips":"48503","name":"Young County","state_id":"TX"}]
