[{"zip":"76401","fips":"48143","name":"Erath County","state_id":"TX"},{"zip":"76402","fips":"48143","name":"Erath County","state_id":"TX"},{"zip":"76424","fips":"48429","name":"Stephens County","state_id":"TX"},{"zip":"76424","fips":"48503","name":"Young County","state_id":"TX"},{"zip":"76426","fips":"48237","name":"Jack County","state_id":"TX"},{"zip":"76426","fips":"48497","name":"Wise County","state_id":"TX"},{"zip":"76427","fips":"48503","name":"Young County","state_id":"TX"},{"zip":"76427","fips":"48237","name":"Jack County","state_id":"TX"},{"zip":"76429","fips":"48363","name":"Palo Pinto County","state_id":"TX"},{"zip":"76429","fips":"48429","name":"Stephens County","state_id":"TX"},{"zip":"76430","fips":"48429","name":"Stephens County","state_id":"TX"},{"zip":"76430","fips":"48447","name":"Throckmorton County","state_id":"TX"},{"zip":"76430","fips":"48417","name":"Shackelford County","state_id":"TX"},{"zip":"76431","fips":"48237","name":"Jack County","state_id":"TX"},{"zip":"76431","fips":"48497","name":"Wise County","state_id":"TX"},{"zip":"76432","fips":"48049","name":"Brown County","state_id":"TX"},{"zip":"76432","fips":"48093","name":"Comanche County","state_id":"TX"},{"zip":"76433","fips":"48143","name":"Erath County","state_id":"TX"},{"zip":"76433","fips":"48221","name":"Hood County","state_id":"TX"},{"zip":"76433","fips":"48425","name":"Somervell County","state_id":"TX"},{"zip":"76435","fips":"48133","name":"Eastland County","state_id":"TX"},{"zip":"76436","fips":"48193","name":"Hamilton County","state_id":"TX"},{"zip":"76436","fips":"48093","name":"Comanche County","state_id":"TX"},{"zip":"76436","fips":"48143","name":"Erath County","state_id":"TX"},{"zip":"76437","fips":"48429","name":"Stephens County","state_id":"TX"},{"zip":"76437","fips":"48059","name":"Callahan County","state_id":"TX"},{"zip":"76437","fips":"48133","name":"Eastland County","state_id":"TX"},{"zip":"76439","fips":"48367","name":"Parker County","state_id":"TX"},{"zip":"76442","fips":"48049","name":"Brown County","state_id":"TX"},{"zip":"76442","fips":"48133","name":"Eastland County","state_id":"TX"},{"zip":"76442","fips":"48093","name":"Comanche County","state_id":"TX"},{"zip":"76442","fips":"48333","name":"Mills County","state_id":"TX"},{"zip":"76443","fips":"48059","name":"Callahan County","state_id":"TX"},{"zip":"76443","fips":"48083","name":"Coleman County","state_id":"TX"},{"zip":"76443","fips":"48049","name":"Brown County","state_id":"TX"},{"zip":"76443","fips":"48133","name":"Eastland County","state_id":"TX"},{"zip":"76444","fips":"48133","name":"Eastland County","state_id":"TX"},{"zip":"76444","fips":"48143","name":"Erath County","state_id":"TX"},{"zip":"76444","fips":"48093","name":"Comanche County","state_id":"TX"},{"zip":"76445","fips":"48093","name":"Comanche County","state_id":"TX"},{"zip":"76445","fips":"48133","name":"Eastland County","state_id":"TX"},{"zip":"76445","fips":"48143","name":"Erath County","state_id":"TX"},{"zip":"76446","fips":"48143","name":"Erath County","state_id":"TX"},{"zip":"76446","fips":"48193","name":"Hamilton County","state_id":"TX"},{"zip":"76446","fips":"48093","name":"Comanche County","state_id":"TX"},{"zip":"76448","fips":"48133","name":"Eastland County","state_id":"TX"},{"zip":"76449","fips":"48363","name":"Palo Pinto County","state_id":"TX"},{"zip":"76449","fips":"48237","name":"Jack County","state_id":"TX"},{"zip":"76450","fips":"48503","name":"Young County","state_id":"TX"},{"zip":"76450","fips":"48429","name":"Stephens County","state_id":"TX"},{"zip":"76450","fips":"48363","name":"Palo Pinto County","state_id":"TX"},{"zip":"76452","fips":"48093","name":"Comanche County","state_id":"TX"},{"zip":"76453","fips":"48143","name":"Erath County","state_id":"TX"},{"zip":"76453","fips":"48363","name":"Palo Pinto County","state_id":"TX"},{"zip":"76454","fips":"48093","name":"Comanche County","state_id":"TX"},{"zip":"76454","fips":"48133","name":"Eastland County","state_id":"TX"},{"zip":"76455","fips":"48093","name":"Comanche County","state_id":"TX"},{"zip":"76457","fips":"48193","name":"Hamilton County","state_id":"TX"},{"zip":"76457","fips":"48035","name":"Bosque County","state_id":"TX"},{"zip":"76457","fips":"48143","name":"Erath County","state_id":"TX"},{"zip":"76458","fips":"48497","name":"Wise County","state_id":"TX"},{"zip":"76458","fips":"48237","name":"Jack County","state_id":"TX"},{"zip":"76459","fips":"48237","name":"Jack County","state_id":"TX"},{"zip":"76460","fips":"48503","name":"Young County","state_id":"TX"},{"zip":"76460","fips":"48237","name":"Jack County","state_id":"TX"},{"zip":"76461","fips":"48143","name":"Erath County","state_id":"TX"},{"zip":"76462","fips":"48221","name":"Hood County","state_id":"TX"},{"zip":"76462","fips":"48143","name":"Erath County","state_id":"TX"},{"zip":"76462","fips":"48367","name":"Parker County","state_id":"TX"},{"zip":"76462","fips":"48363","name":"Palo Pinto County","state_id":"TX"},{"zip":"76463","fips":"48143","name":"Erath County","state_id":"TX"},{"zip":"76463","fips":"48363","name":"Palo Pinto County","state_id":"TX"},{"zip":"76464","fips":"48429","name":"Stephens County","state_id":"TX"},{"zip":"76464","fips":"48417","name":"Shackelford County","state_id":"TX"},{"zip":"76464","fips":"48133","name":"Eastland County","state_id":"TX"},{"zip":"76464","fips":"48059","name":"Callahan County","state_id":"TX"},{"zip":"76465","fips":"48143","name":"Erath County","state_id":"TX"},{"zip":"76466","fips":"48133","name":"Eastland County","state_id":"TX"},{"zip":"76467","fips":"48221","name":"Hood County","state_id":"TX"},{"zip":"76468","fips":"48093","name":"Comanche County","state_id":"TX"},{"zip":"76469","fips":"48059","name":"Callahan County","state_id":"TX"},{"zip":"76470","fips":"48143","name":"Erath County","state_id":"TX"},{"zip":"76470","fips":"48133","name":"Eastland County","state_id":"TX"},{"zip":"76470","fips":"48429","name":"Stephens County","state_id":"TX"},{"zip":"76471","fips":"48093","name":"Comanche County","state_id":"TX"},{"zip":"76471","fips":"48049","name":"Brown County","state_id":"TX"},{"zip":"76471","fips":"48133","name":"Eastland County","state_id":"TX"},{"zip":"76472","fips":"48363","name":"Palo Pinto County","state_id":"TX"},{"zip":"76474","fips":"48049","name":"Brown County","state_id":"TX"},{"zip":"76474","fips":"48093","name":"Comanche County","state_id":"TX"},{"zip":"76475","fips":"48363","name":"Palo Pinto County","state_id":"TX"},{"zip":"76476","fips":"48221","name":"Hood County","state_id":"TX"},{"zip":"76481","fips":"48429","name":"Stephens County","state_id":"TX"},{"zip":"76481","fips":"48503","name":"Young County","state_id":"TX"},{"zip":"76483","fips":"48447","name":"Throckmorton County","state_id":"TX"},{"zip":"76484","fips":"48363","name":"Palo Pinto County","state_id":"TX"},{"zip":"76485","fips":"48367","name":"Parker County","state_id":"TX"},{"zip":"76486","fips":"48237","name":"Jack County","state_id":"TX"},{"zip":"76486","fips":"48363","name":"Palo Pinto County","state_id":"TX"},{"zip":"76486","fips":"48367","name":"Parker County","state_id":"TX"},{"zip":"76487","fips":"48497","name":"Wise County","state_id":"TX"},{"zip":"76487","fips":"48237","name":"Jack County","state_id":"TX"},{"zip":"76487","fips":"48367","name":"Parker County","state_id":"TX"},{"zip":"76490","fips":"48367","name":"Parker County","state_id":"TX"},{"zip":"76491","fips":"48429","name":"Stephens County","state_id":"TX"},{"zip":"76491","fips":"48447","name":"Throckmorton County","state_id":"TX"},{"zip":"76491","fips":"48503","name":"Young County","state_id":"TX"}]
