[{"zip":"76501","fips":"48027","name":"Bell County","state_id":"TX"},{"zip":"76502","fips":"48027","name":"Bell County","state_id":"TX"},{"zip":"76503","fips":"48027","name":"Bell County","state_id":"TX"},{"zip":"76504","fips":"48027","name":"Bell County","state_id":"TX"},{"zip":"76508","fips":"48027","name":"Bell County","state_id":"TX"},{"zip":"76511","fips":"48027","name":"Bell County","state_id":"TX"},{"zip":"76511","fips":"48331","name":"Milam County","state_id":"TX"},{"zip":"76511","fips":"48491","name":"Williamson County","state_id":"TX"},{"zip":"76513","fips":"48027","name":"Bell County","state_id":"TX"},{"zip":"76518","fips":"48331","name":"Milam County","state_id":"TX"},{"zip":"76519","fips":"48331","name":"Milam County","state_id":"TX"},{"zip":"76519","fips":"48027","name":"Bell County","state_id":"TX"},{"zip":"76519","fips":"48145","name":"Falls County","state_id":"TX"},{"zip":"76520","fips":"48331","name":"Milam County","state_id":"TX"},{"zip":"76522","fips":"48281","name":"Lampasas County","state_id":"TX"},{"zip":"76522","fips":"48099","name":"Coryell County","state_id":"TX"},{"zip":"76523","fips":"48331","name":"Milam County","state_id":"TX"},{"zip":"76524","fips":"48309","name":"McLennan County","state_id":"TX"},{"zip":"76524","fips":"48145","name":"Falls County","state_id":"TX"},{"zip":"76525","fips":"48099","name":"Coryell County","state_id":"TX"},{"zip":"76525","fips":"48193","name":"Hamilton County","state_id":"TX"},{"zip":"76525","fips":"48281","name":"Lampasas County","state_id":"TX"},{"zip":"76526","fips":"48099","name":"Coryell County","state_id":"TX"},{"zip":"76527","fips":"48027","name":"Bell County","state_id":"TX"},{"zip":"76527","fips":"48491","name":"Williamson County","state_id":"TX"},{"zip":"76527","fips":"48053","name":"Burnet County","state_id":"TX"},{"zip":"76528","fips":"48099","name":"Coryell County","state_id":"TX"},{"zip":"76528","fips":"48281","name":"Lampasas County","state_id":"TX"},{"zip":"76528","fips":"48027","name":"Bell County","state_id":"TX"},{"zip":"76528","fips":"48035","name":"Bosque County","state_id":"TX"},{"zip":"76530","fips":"48331","name":"Milam County","state_id":"TX"},{"zip":"76530","fips":"48491","name":"Williamson County","state_id":"TX"},{"zip":"76531","fips":"48193","name":"Hamilton County","state_id":"TX"},{"zip":"76531","fips":"48333","name":"Mills County","state_id":"TX"},{"zip":"76533","fips":"48027","name":"Bell County","state_id":"TX"},{"zip":"76534","fips":"48331","name":"Milam County","state_id":"TX"},{"zip":"76534","fips":"48027","name":"Bell County","state_id":"TX"},{"zip":"76537","fips":"48491","name":"Williamson County","state_id":"TX"},{"zip":"76537","fips":"48027","name":"Bell County","state_id":"TX"},{"zip":"76538","fips":"48193","name":"Hamilton County","state_id":"TX"},{"zip":"76538","fips":"48099","name":"Coryell County","state_id":"TX"},{"zip":"76539","fips":"48027","name":"Bell County","state_id":"TX"},{"zip":"76539","fips":"48053","name":"Burnet County","state_id":"TX"},{"zip":"76539","fips":"48099","name":"Coryell County","state_id":"TX"},{"zip":"76539","fips":"48281","name":"Lampasas County","state_id":"TX"},{"zip":"76540","fips":"48027","name":"Bell County","state_id":"TX"},{"zip":"76541","fips":"48027","name":"Bell County","state_id":"TX"},{"zip":"76542","fips":"48027","name":"Bell County","state_id":"TX"},{"zip":"76543","fips":"48027","name":"Bell County","state_id":"TX"},{"zip":"76544","fips":"48027","name":"Bell County","state_id":"TX"},{"zip":"76544","fips":"48099","name":"Coryell County","state_id":"TX"},{"zip":"76547","fips":"48027","name":"Bell County","state_id":"TX"},{"zip":"76548","fips":"48027","name":"Bell County","state_id":"TX"},{"zip":"76549","fips":"48053","name":"Burnet County","state_id":"TX"},{"zip":"76549","fips":"48099","name":"Coryell County","state_id":"TX"},{"zip":"76549","fips":"48027","name":"Bell County","state_id":"TX"},{"zip":"76550","fips":"48281","name":"Lampasas County","state_id":"TX"},{"zip":"76550","fips":"48053","name":"Burnet County","state_id":"TX"},{"zip":"76554","fips":"48027","name":"Bell County","state_id":"TX"},{"zip":"76556","fips":"48331","name":"Milam County","state_id":"TX"},{"zip":"76556","fips":"48051","name":"Burleson County","state_id":"TX"},{"zip":"76557","fips":"48027","name":"Bell County","state_id":"TX"},{"zip":"76557","fips":"48309","name":"McLennan County","state_id":"TX"},{"zip":"76557","fips":"48099","name":"Coryell County","state_id":"TX"},{"zip":"76558","fips":"48099","name":"Coryell County","state_id":"TX"},{"zip":"76559","fips":"48027","name":"Bell County","state_id":"TX"},{"zip":"76561","fips":"48099","name":"Coryell County","state_id":"TX"},{"zip":"76561","fips":"48309","name":"McLennan County","state_id":"TX"},{"zip":"76564","fips":"48027","name":"Bell County","state_id":"TX"},{"zip":"76565","fips":"48193","name":"Hamilton County","state_id":"TX"},{"zip":"76566","fips":"48099","name":"Coryell County","state_id":"TX"},{"zip":"76567","fips":"48051","name":"Burleson County","state_id":"TX"},{"zip":"76567","fips":"48287","name":"Lee County","state_id":"TX"},{"zip":"76567","fips":"48331","name":"Milam County","state_id":"TX"},{"zip":"76569","fips":"48027","name":"Bell County","state_id":"TX"},{"zip":"76569","fips":"48331","name":"Milam County","state_id":"TX"},{"zip":"76570","fips":"48145","name":"Falls County","state_id":"TX"},{"zip":"76570","fips":"48027","name":"Bell County","state_id":"TX"},{"zip":"76570","fips":"48331","name":"Milam County","state_id":"TX"},{"zip":"76571","fips":"48027","name":"Bell County","state_id":"TX"},{"zip":"76571","fips":"48491","name":"Williamson County","state_id":"TX"},{"zip":"76573","fips":"48491","name":"Williamson County","state_id":"TX"},{"zip":"76574","fips":"48453","name":"Travis County","state_id":"TX"},{"zip":"76574","fips":"48491","name":"Williamson County","state_id":"TX"},{"zip":"76577","fips":"48331","name":"Milam County","state_id":"TX"},{"zip":"76577","fips":"48491","name":"Williamson County","state_id":"TX"},{"zip":"76578","fips":"48287","name":"Lee County","state_id":"TX"},{"zip":"76578","fips":"48331","name":"Milam County","state_id":"TX"},{"zip":"76578","fips":"48491","name":"Williamson County","state_id":"TX"},{"zip":"76579","fips":"48145","name":"Falls County","state_id":"TX"},{"zip":"76579","fips":"48027","name":"Bell County","state_id":"TX"},{"zip":"76596","fips":"48099","name":"Coryell County","state_id":"TX"},{"zip":"76597","fips":"48099","name":"Coryell County","state_id":"TX"},{"zip":"76598","fips":"48099","name":"Coryell County","state_id":"TX"},{"zip":"76599","fips":"48099","name":"Coryell County","state_id":"TX"}]
