[{"zip":"76621","fips":"48309","name":"McLennan County","state_id":"TX"},{"zip":"76621","fips":"48217","name":"Hill County","state_id":"TX"},{"zip":"76622","fips":"48217","name":"Hill County","state_id":"TX"},{"zip":"76622","fips":"48309","name":"McLennan County","state_id":"TX"},{"zip":"76623","fips":"48139","name":"Ellis County","state_id":"TX"},{"zip":"76624","fips":"48293","name":"Limestone County","state_id":"TX"},{"zip":"76624","fips":"48309","name":"McLennan County","state_id":"TX"},{"zip":"76626","fips":"48139","name":"Ellis County","state_id":"TX"},{"zip":"76626","fips":"48349","name":"Navarro County","state_id":"TX"},{"zip":"76627","fips":"48217","name":"Hill County","state_id":"TX"},{"zip":"76628","fips":"48217","name":"Hill County","state_id":"TX"},{"zip":"76629","fips":"48145","name":"Falls County","state_id":"TX"},{"zip":"76629","fips":"48395","name":"Robertson County","state_id":"TX"},{"zip":"76630","fips":"48145","name":"Falls County","state_id":"TX"},{"zip":"76630","fips":"48309","name":"McLennan County","state_id":"TX"},{"zip":"76631","fips":"48217","name":"Hill County","state_id":"TX"},{"zip":"76632","fips":"48145","name":"Falls County","state_id":"TX"},{"zip":"76633","fips":"48035","name":"Bosque County","state_id":"TX"},{"zip":"76633","fips":"48309","name":"McLennan County","state_id":"TX"},{"zip":"76634","fips":"48099","name":"Coryell County","state_id":"TX"},{"zip":"76634","fips":"48035","name":"Bosque County","state_id":"TX"},{"zip":"76635","fips":"48293","name":"Limestone County","state_id":"TX"},{"zip":"76636","fips":"48217","name":"Hill County","state_id":"TX"},{"zip":"76637","fips":"48035","name":"Bosque County","state_id":"TX"},{"zip":"76637","fips":"48193","name":"Hamilton County","state_id":"TX"},{"zip":"76638","fips":"48309","name":"McLennan County","state_id":"TX"},{"zip":"76638","fips":"48099","name":"Coryell County","state_id":"TX"},{"zip":"76639","fips":"48349","name":"Navarro County","state_id":"TX"},{"zip":"76640","fips":"48309","name":"McLennan County","state_id":"TX"},{"zip":"76641","fips":"48349","name":"Navarro County","state_id":"TX"},{"zip":"76641","fips":"48139","name":"Ellis County","state_id":"TX"},{"zip":"76642","fips":"48145","name":"Falls County","state_id":"TX"},{"zip":"76642","fips":"48293","name":"Limestone County","state_id":"TX"},{"zip":"76643","fips":"48309","name":"McLennan County","state_id":"TX"},{"zip":"76645","fips":"48217","name":"Hill County","state_id":"TX"},{"zip":"76648","fips":"48217","name":"Hill County","state_id":"TX"},{"zip":"76648","fips":"48293","name":"Limestone County","state_id":"TX"},{"zip":"76648","fips":"48349","name":"Navarro County","state_id":"TX"},{"zip":"76649","fips":"48143","name":"Erath County","state_id":"TX"},{"zip":"76649","fips":"48035","name":"Bosque County","state_id":"TX"},{"zip":"76649","fips":"48193","name":"Hamilton County","state_id":"TX"},{"zip":"76650","fips":"48217","name":"Hill County","state_id":"TX"},{"zip":"76651","fips":"48139","name":"Ellis County","state_id":"TX"},{"zip":"76652","fips":"48035","name":"Bosque County","state_id":"TX"},{"zip":"76653","fips":"48145","name":"Falls County","state_id":"TX"},{"zip":"76653","fips":"48395","name":"Robertson County","state_id":"TX"},{"zip":"76653","fips":"48293","name":"Limestone County","state_id":"TX"},{"zip":"76654","fips":"48309","name":"McLennan County","state_id":"TX"},{"zip":"76655","fips":"48145","name":"Falls County","state_id":"TX"},{"zip":"76655","fips":"48309","name":"McLennan County","state_id":"TX"},{"zip":"76656","fips":"48027","name":"Bell County","state_id":"TX"},{"zip":"76656","fips":"48145","name":"Falls County","state_id":"TX"},{"zip":"76657","fips":"48099","name":"Coryell County","state_id":"TX"},{"zip":"76657","fips":"48309","name":"McLennan County","state_id":"TX"},{"zip":"76660","fips":"48217","name":"Hill County","state_id":"TX"},{"zip":"76661","fips":"48145","name":"Falls County","state_id":"TX"},{"zip":"76664","fips":"48293","name":"Limestone County","state_id":"TX"},{"zip":"76664","fips":"48309","name":"McLennan County","state_id":"TX"},{"zip":"76664","fips":"48145","name":"Falls County","state_id":"TX"},{"zip":"76665","fips":"48035","name":"Bosque County","state_id":"TX"},{"zip":"76666","fips":"48217","name":"Hill County","state_id":"TX"},{"zip":"76667","fips":"48293","name":"Limestone County","state_id":"TX"},{"zip":"76667","fips":"48161","name":"Freestone County","state_id":"TX"},{"zip":"76670","fips":"48217","name":"Hill County","state_id":"TX"},{"zip":"76670","fips":"48349","name":"Navarro County","state_id":"TX"},{"zip":"76670","fips":"48139","name":"Ellis County","state_id":"TX"},{"zip":"76671","fips":"48035","name":"Bosque County","state_id":"TX"},{"zip":"76673","fips":"48309","name":"McLennan County","state_id":"TX"},{"zip":"76673","fips":"48293","name":"Limestone County","state_id":"TX"},{"zip":"76673","fips":"48217","name":"Hill County","state_id":"TX"},{"zip":"76676","fips":"48217","name":"Hill County","state_id":"TX"},{"zip":"76678","fips":"48309","name":"McLennan County","state_id":"TX"},{"zip":"76678","fips":"48293","name":"Limestone County","state_id":"TX"},{"zip":"76679","fips":"48349","name":"Navarro County","state_id":"TX"},{"zip":"76680","fips":"48145","name":"Falls County","state_id":"TX"},{"zip":"76681","fips":"48349","name":"Navarro County","state_id":"TX"},{"zip":"76682","fips":"48309","name":"McLennan County","state_id":"TX"},{"zip":"76682","fips":"48293","name":"Limestone County","state_id":"TX"},{"zip":"76682","fips":"48145","name":"Falls County","state_id":"TX"},{"zip":"76684","fips":"48309","name":"McLennan County","state_id":"TX"},{"zip":"76685","fips":"48145","name":"Falls County","state_id":"TX"},{"zip":"76686","fips":"48293","name":"Limestone County","state_id":"TX"},{"zip":"76687","fips":"48293","name":"Limestone County","state_id":"TX"},{"zip":"76687","fips":"48395","name":"Robertson County","state_id":"TX"},{"zip":"76689","fips":"48035","name":"Bosque County","state_id":"TX"},{"zip":"76689","fips":"48099","name":"Coryell County","state_id":"TX"},{"zip":"76689","fips":"48309","name":"McLennan County","state_id":"TX"},{"zip":"76690","fips":"48035","name":"Bosque County","state_id":"TX"},{"zip":"76690","fips":"48143","name":"Erath County","state_id":"TX"},{"zip":"76690","fips":"48425","name":"Somervell County","state_id":"TX"},{"zip":"76691","fips":"48217","name":"Hill County","state_id":"TX"},{"zip":"76691","fips":"48309","name":"McLennan County","state_id":"TX"},{"zip":"76692","fips":"48217","name":"Hill County","state_id":"TX"},{"zip":"76693","fips":"48349","name":"Navarro County","state_id":"TX"},{"zip":"76693","fips":"48293","name":"Limestone County","state_id":"TX"},{"zip":"76693","fips":"48161","name":"Freestone County","state_id":"TX"}]
