[{"zip":"76701","fips":"48309","name":"McLennan County","state_id":"TX"},{"zip":"76702","fips":"48309","name":"McLennan County","state_id":"TX"},{"zip":"76703","fips":"48309","name":"McLennan County","state_id":"TX"},{"zip":"76704","fips":"48309","name":"McLennan County","state_id":"TX"},{"zip":"76705","fips":"48309","name":"McLennan County","state_id":"TX"},{"zip":"76706","fips":"48145","name":"Falls County","state_id":"TX"},{"zip":"76706","fips":"48309","name":"McLennan County","state_id":"TX"},{"zip":"76707","fips":"48309","name":"McLennan County","state_id":"TX"},{"zip":"76708","fips":"48309","name":"McLennan County","state_id":"TX"},{"zip":"76710","fips":"48309","name":"McLennan County","state_id":"TX"},{"zip":"76711","fips":"48309","name":"McLennan County","state_id":"TX"},{"zip":"76712","fips":"48309","name":"McLennan County","state_id":"TX"},{"zip":"76714","fips":"48309","name":"McLennan County","state_id":"TX"},{"zip":"76716","fips":"48309","name":"McLennan County","state_id":"TX"},{"zip":"76797","fips":"48309","name":"McLennan County","state_id":"TX"},{"zip":"76798","fips":"48309","name":"McLennan County","state_id":"TX"},{"zip":"76799","fips":"48309","name":"McLennan County","state_id":"TX"}]
