[{"zip":"76801","fips":"48333","name":"Mills County","state_id":"TX"},{"zip":"76801","fips":"48049","name":"Brown County","state_id":"TX"},{"zip":"76802","fips":"48049","name":"Brown County","state_id":"TX"},{"zip":"76803","fips":"48049","name":"Brown County","state_id":"TX"},{"zip":"76804","fips":"48049","name":"Brown County","state_id":"TX"},{"zip":"76820","fips":"48319","name":"Mason County","state_id":"TX"},{"zip":"76821","fips":"48399","name":"Runnels County","state_id":"TX"},{"zip":"76823","fips":"48049","name":"Brown County","state_id":"TX"},{"zip":"76823","fips":"48083","name":"Coleman County","state_id":"TX"},{"zip":"76824","fips":"48281","name":"Lampasas County","state_id":"TX"},{"zip":"76825","fips":"48307","name":"McCulloch County","state_id":"TX"},{"zip":"76825","fips":"48327","name":"Menard County","state_id":"TX"},{"zip":"76825","fips":"48319","name":"Mason County","state_id":"TX"},{"zip":"76827","fips":"48049","name":"Brown County","state_id":"TX"},{"zip":"76828","fips":"48083","name":"Coleman County","state_id":"TX"},{"zip":"76831","fips":"48299","name":"Llano County","state_id":"TX"},{"zip":"76831","fips":"48319","name":"Mason County","state_id":"TX"},{"zip":"76832","fips":"48411","name":"San Saba County","state_id":"TX"},{"zip":"76834","fips":"48083","name":"Coleman County","state_id":"TX"},{"zip":"76836","fips":"48307","name":"McCulloch County","state_id":"TX"},{"zip":"76837","fips":"48095","name":"Concho County","state_id":"TX"},{"zip":"76841","fips":"48327","name":"Menard County","state_id":"TX"},{"zip":"76842","fips":"48319","name":"Mason County","state_id":"TX"},{"zip":"76844","fips":"48333","name":"Mills County","state_id":"TX"},{"zip":"76844","fips":"48193","name":"Hamilton County","state_id":"TX"},{"zip":"76845","fips":"48083","name":"Coleman County","state_id":"TX"},{"zip":"76848","fips":"48327","name":"Menard County","state_id":"TX"},{"zip":"76849","fips":"48267","name":"Kimble County","state_id":"TX"},{"zip":"76849","fips":"48265","name":"Kerr County","state_id":"TX"},{"zip":"76852","fips":"48095","name":"Concho County","state_id":"TX"},{"zip":"76852","fips":"48307","name":"McCulloch County","state_id":"TX"},{"zip":"76853","fips":"48411","name":"San Saba County","state_id":"TX"},{"zip":"76853","fips":"48281","name":"Lampasas County","state_id":"TX"},{"zip":"76854","fips":"48327","name":"Menard County","state_id":"TX"},{"zip":"76854","fips":"48267","name":"Kimble County","state_id":"TX"},{"zip":"76855","fips":"48095","name":"Concho County","state_id":"TX"},{"zip":"76856","fips":"48171","name":"Gillespie County","state_id":"TX"},{"zip":"76856","fips":"48267","name":"Kimble County","state_id":"TX"},{"zip":"76856","fips":"48319","name":"Mason County","state_id":"TX"},{"zip":"76857","fips":"48093","name":"Comanche County","state_id":"TX"},{"zip":"76857","fips":"48049","name":"Brown County","state_id":"TX"},{"zip":"76858","fips":"48095","name":"Concho County","state_id":"TX"},{"zip":"76858","fips":"48307","name":"McCulloch County","state_id":"TX"},{"zip":"76859","fips":"48267","name":"Kimble County","state_id":"TX"},{"zip":"76859","fips":"48327","name":"Menard County","state_id":"TX"},{"zip":"76861","fips":"48451","name":"Tom Green County","state_id":"TX"},{"zip":"76861","fips":"48095","name":"Concho County","state_id":"TX"},{"zip":"76861","fips":"48081","name":"Coke County","state_id":"TX"},{"zip":"76861","fips":"48399","name":"Runnels County","state_id":"TX"},{"zip":"76862","fips":"48095","name":"Concho County","state_id":"TX"},{"zip":"76864","fips":"48333","name":"Mills County","state_id":"TX"},{"zip":"76865","fips":"48399","name":"Runnels County","state_id":"TX"},{"zip":"76866","fips":"48095","name":"Concho County","state_id":"TX"},{"zip":"76869","fips":"48299","name":"Llano County","state_id":"TX"},{"zip":"76869","fips":"48411","name":"San Saba County","state_id":"TX"},{"zip":"76869","fips":"48319","name":"Mason County","state_id":"TX"},{"zip":"76870","fips":"48333","name":"Mills County","state_id":"TX"},{"zip":"76871","fips":"48411","name":"San Saba County","state_id":"TX"},{"zip":"76871","fips":"48307","name":"McCulloch County","state_id":"TX"},{"zip":"76872","fips":"48307","name":"McCulloch County","state_id":"TX"},{"zip":"76872","fips":"48411","name":"San Saba County","state_id":"TX"},{"zip":"76873","fips":"48083","name":"Coleman County","state_id":"TX"},{"zip":"76874","fips":"48267","name":"Kimble County","state_id":"TX"},{"zip":"76874","fips":"48435","name":"Sutton County","state_id":"TX"},{"zip":"76875","fips":"48095","name":"Concho County","state_id":"TX"},{"zip":"76875","fips":"48399","name":"Runnels County","state_id":"TX"},{"zip":"76877","fips":"48411","name":"San Saba County","state_id":"TX"},{"zip":"76878","fips":"48049","name":"Brown County","state_id":"TX"},{"zip":"76878","fips":"48083","name":"Coleman County","state_id":"TX"},{"zip":"76880","fips":"48333","name":"Mills County","state_id":"TX"},{"zip":"76882","fips":"48083","name":"Coleman County","state_id":"TX"},{"zip":"76882","fips":"48399","name":"Runnels County","state_id":"TX"},{"zip":"76883","fips":"48267","name":"Kimble County","state_id":"TX"},{"zip":"76884","fips":"48083","name":"Coleman County","state_id":"TX"},{"zip":"76885","fips":"48299","name":"Llano County","state_id":"TX"},{"zip":"76886","fips":"48451","name":"Tom Green County","state_id":"TX"},{"zip":"76887","fips":"48307","name":"McCulloch County","state_id":"TX"},{"zip":"76888","fips":"48083","name":"Coleman County","state_id":"TX"},{"zip":"76890","fips":"48049","name":"Brown County","state_id":"TX"},{"zip":"76890","fips":"48333","name":"Mills County","state_id":"TX"},{"zip":"76890","fips":"48093","name":"Comanche County","state_id":"TX"}]
