[{"zip":"76901","fips":"48451","name":"Tom Green County","state_id":"TX"},{"zip":"76901","fips":"48235","name":"Irion County","state_id":"TX"},{"zip":"76902","fips":"48451","name":"Tom Green County","state_id":"TX"},{"zip":"76903","fips":"48451","name":"Tom Green County","state_id":"TX"},{"zip":"76904","fips":"48235","name":"Irion County","state_id":"TX"},{"zip":"76904","fips":"48451","name":"Tom Green County","state_id":"TX"},{"zip":"76905","fips":"48451","name":"Tom Green County","state_id":"TX"},{"zip":"76905","fips":"48081","name":"Coke County","state_id":"TX"},{"zip":"76906","fips":"48451","name":"Tom Green County","state_id":"TX"},{"zip":"76908","fips":"48451","name":"Tom Green County","state_id":"TX"},{"zip":"76909","fips":"48451","name":"Tom Green County","state_id":"TX"},{"zip":"76930","fips":"48235","name":"Irion County","state_id":"TX"},{"zip":"76932","fips":"48383","name":"Reagan County","state_id":"TX"},{"zip":"76933","fips":"48081","name":"Coke County","state_id":"TX"},{"zip":"76933","fips":"48399","name":"Runnels County","state_id":"TX"},{"zip":"76934","fips":"48451","name":"Tom Green County","state_id":"TX"},{"zip":"76935","fips":"48451","name":"Tom Green County","state_id":"TX"},{"zip":"76935","fips":"48413","name":"Schleicher County","state_id":"TX"},{"zip":"76936","fips":"48413","name":"Schleicher County","state_id":"TX"},{"zip":"76937","fips":"48451","name":"Tom Green County","state_id":"TX"},{"zip":"76937","fips":"48095","name":"Concho County","state_id":"TX"},{"zip":"76939","fips":"48451","name":"Tom Green County","state_id":"TX"},{"zip":"76940","fips":"48095","name":"Concho County","state_id":"TX"},{"zip":"76940","fips":"48451","name":"Tom Green County","state_id":"TX"},{"zip":"76941","fips":"48235","name":"Irion County","state_id":"TX"},{"zip":"76943","fips":"48105","name":"Crockett County","state_id":"TX"},{"zip":"76945","fips":"48081","name":"Coke County","state_id":"TX"},{"zip":"76945","fips":"48451","name":"Tom Green County","state_id":"TX"},{"zip":"76949","fips":"48081","name":"Coke County","state_id":"TX"},{"zip":"76950","fips":"48465","name":"Val Verde County","state_id":"TX"},{"zip":"76950","fips":"48435","name":"Sutton County","state_id":"TX"},{"zip":"76951","fips":"48431","name":"Sterling County","state_id":"TX"},{"zip":"76953","fips":"48081","name":"Coke County","state_id":"TX"},{"zip":"76955","fips":"48451","name":"Tom Green County","state_id":"TX"},{"zip":"76955","fips":"48095","name":"Concho County","state_id":"TX"},{"zip":"76957","fips":"48451","name":"Tom Green County","state_id":"TX"},{"zip":"76958","fips":"48451","name":"Tom Green County","state_id":"TX"}]
