[{"zip":"77301","fips":"48339","name":"Montgomery County","state_id":"TX"},{"zip":"77302","fips":"48339","name":"Montgomery County","state_id":"TX"},{"zip":"77303","fips":"48339","name":"Montgomery County","state_id":"TX"},{"zip":"77304","fips":"48339","name":"Montgomery County","state_id":"TX"},{"zip":"77305","fips":"48339","name":"Montgomery County","state_id":"TX"},{"zip":"77306","fips":"48339","name":"Montgomery County","state_id":"TX"},{"zip":"77315","fips":"48201","name":"Harris County","state_id":"TX"},{"zip":"77316","fips":"48339","name":"Montgomery County","state_id":"TX"},{"zip":"77316","fips":"48185","name":"Grimes County","state_id":"TX"},{"zip":"77318","fips":"48471","name":"Walker County","state_id":"TX"},{"zip":"77318","fips":"48339","name":"Montgomery County","state_id":"TX"},{"zip":"77320","fips":"48407","name":"San Jacinto County","state_id":"TX"},{"zip":"77320","fips":"48471","name":"Walker County","state_id":"TX"},{"zip":"77325","fips":"48201","name":"Harris County","state_id":"TX"},{"zip":"77326","fips":"48373","name":"Polk County","state_id":"TX"},{"zip":"77327","fips":"48407","name":"San Jacinto County","state_id":"TX"},{"zip":"77327","fips":"48291","name":"Liberty County","state_id":"TX"},{"zip":"77327","fips":"48339","name":"Montgomery County","state_id":"TX"},{"zip":"77327","fips":"48373","name":"Polk County","state_id":"TX"},{"zip":"77328","fips":"48291","name":"Liberty County","state_id":"TX"},{"zip":"77328","fips":"48339","name":"Montgomery County","state_id":"TX"},{"zip":"77328","fips":"48407","name":"San Jacinto County","state_id":"TX"},{"zip":"77331","fips":"48407","name":"San Jacinto County","state_id":"TX"},{"zip":"77332","fips":"48373","name":"Polk County","state_id":"TX"},{"zip":"77333","fips":"48339","name":"Montgomery County","state_id":"TX"},{"zip":"77334","fips":"48471","name":"Walker County","state_id":"TX"},{"zip":"77335","fips":"48373","name":"Polk County","state_id":"TX"},{"zip":"77336","fips":"48201","name":"Harris County","state_id":"TX"},{"zip":"77338","fips":"48201","name":"Harris County","state_id":"TX"},{"zip":"77339","fips":"48201","name":"Harris County","state_id":"TX"},{"zip":"77339","fips":"48339","name":"Montgomery County","state_id":"TX"},{"zip":"77340","fips":"48471","name":"Walker County","state_id":"TX"},{"zip":"77341","fips":"48471","name":"Walker County","state_id":"TX"},{"zip":"77342","fips":"48471","name":"Walker County","state_id":"TX"},{"zip":"77345","fips":"48201","name":"Harris County","state_id":"TX"},{"zip":"77346","fips":"48201","name":"Harris County","state_id":"TX"},{"zip":"77347","fips":"48201","name":"Harris County","state_id":"TX"},{"zip":"77350","fips":"48373","name":"Polk County","state_id":"TX"},{"zip":"77351","fips":"48373","name":"Polk County","state_id":"TX"},{"zip":"77353","fips":"48339","name":"Montgomery County","state_id":"TX"},{"zip":"77354","fips":"48339","name":"Montgomery County","state_id":"TX"},{"zip":"77355","fips":"48339","name":"Montgomery County","state_id":"TX"},{"zip":"77355","fips":"48473","name":"Waller County","state_id":"TX"},{"zip":"77356","fips":"48339","name":"Montgomery County","state_id":"TX"},{"zip":"77356","fips":"48185","name":"Grimes County","state_id":"TX"},{"zip":"77357","fips":"48339","name":"Montgomery County","state_id":"TX"},{"zip":"77357","fips":"48201","name":"Harris County","state_id":"TX"},{"zip":"77357","fips":"48291","name":"Liberty County","state_id":"TX"},{"zip":"77358","fips":"48339","name":"Montgomery County","state_id":"TX"},{"zip":"77358","fips":"48471","name":"Walker County","state_id":"TX"},{"zip":"77358","fips":"48407","name":"San Jacinto County","state_id":"TX"},{"zip":"77359","fips":"48407","name":"San Jacinto County","state_id":"TX"},{"zip":"77360","fips":"48373","name":"Polk County","state_id":"TX"},{"zip":"77362","fips":"48339","name":"Montgomery County","state_id":"TX"},{"zip":"77363","fips":"48185","name":"Grimes County","state_id":"TX"},{"zip":"77363","fips":"48473","name":"Waller County","state_id":"TX"},{"zip":"77364","fips":"48407","name":"San Jacinto County","state_id":"TX"},{"zip":"77365","fips":"48339","name":"Montgomery County","state_id":"TX"},{"zip":"77365","fips":"48201","name":"Harris County","state_id":"TX"},{"zip":"77367","fips":"48471","name":"Walker County","state_id":"TX"},{"zip":"77368","fips":"48291","name":"Liberty County","state_id":"TX"},{"zip":"77369","fips":"48291","name":"Liberty County","state_id":"TX"},{"zip":"77371","fips":"48407","name":"San Jacinto County","state_id":"TX"},{"zip":"77371","fips":"48291","name":"Liberty County","state_id":"TX"},{"zip":"77372","fips":"48339","name":"Montgomery County","state_id":"TX"},{"zip":"77372","fips":"48291","name":"Liberty County","state_id":"TX"},{"zip":"77373","fips":"48201","name":"Harris County","state_id":"TX"},{"zip":"77374","fips":"48199","name":"Hardin County","state_id":"TX"},{"zip":"77375","fips":"48201","name":"Harris County","state_id":"TX"},{"zip":"77376","fips":"48199","name":"Hardin County","state_id":"TX"},{"zip":"77377","fips":"48201","name":"Harris County","state_id":"TX"},{"zip":"77378","fips":"48471","name":"Walker County","state_id":"TX"},{"zip":"77378","fips":"48407","name":"San Jacinto County","state_id":"TX"},{"zip":"77378","fips":"48339","name":"Montgomery County","state_id":"TX"},{"zip":"77379","fips":"48201","name":"Harris County","state_id":"TX"},{"zip":"77380","fips":"48339","name":"Montgomery County","state_id":"TX"},{"zip":"77381","fips":"48339","name":"Montgomery County","state_id":"TX"},{"zip":"77382","fips":"48339","name":"Montgomery County","state_id":"TX"},{"zip":"77383","fips":"48201","name":"Harris County","state_id":"TX"},{"zip":"77384","fips":"48339","name":"Montgomery County","state_id":"TX"},{"zip":"77385","fips":"48339","name":"Montgomery County","state_id":"TX"},{"zip":"77386","fips":"48339","name":"Montgomery County","state_id":"TX"},{"zip":"77387","fips":"48339","name":"Montgomery County","state_id":"TX"},{"zip":"77388","fips":"48201","name":"Harris County","state_id":"TX"},{"zip":"77389","fips":"48201","name":"Harris County","state_id":"TX"},{"zip":"77391","fips":"48201","name":"Harris County","state_id":"TX"},{"zip":"77393","fips":"48339","name":"Montgomery County","state_id":"TX"},{"zip":"77396","fips":"48201","name":"Harris County","state_id":"TX"},{"zip":"77399","fips":"48373","name":"Polk County","state_id":"TX"}]
