[{"zip":"77401","fips":"48201","name":"Harris County","state_id":"TX"},{"zip":"77402","fips":"48201","name":"Harris County","state_id":"TX"},{"zip":"77404","fips":"48321","name":"Matagorda County","state_id":"TX"},{"zip":"77406","fips":"48157","name":"Fort Bend County","state_id":"TX"},{"zip":"77407","fips":"48157","name":"Fort Bend County","state_id":"TX"},{"zip":"77410","fips":"48201","name":"Harris County","state_id":"TX"},{"zip":"77411","fips":"48201","name":"Harris County","state_id":"TX"},{"zip":"77412","fips":"48089","name":"Colorado County","state_id":"TX"},{"zip":"77413","fips":"48201","name":"Harris County","state_id":"TX"},{"zip":"77414","fips":"48321","name":"Matagorda County","state_id":"TX"},{"zip":"77415","fips":"48321","name":"Matagorda County","state_id":"TX"},{"zip":"77417","fips":"48157","name":"Fort Bend County","state_id":"TX"},{"zip":"77418","fips":"48015","name":"Austin County","state_id":"TX"},{"zip":"77419","fips":"48321","name":"Matagorda County","state_id":"TX"},{"zip":"77420","fips":"48481","name":"Wharton County","state_id":"TX"},{"zip":"77420","fips":"48157","name":"Fort Bend County","state_id":"TX"},{"zip":"77420","fips":"48321","name":"Matagorda County","state_id":"TX"},{"zip":"77422","fips":"48039","name":"Brazoria County","state_id":"TX"},{"zip":"77423","fips":"48157","name":"Fort Bend County","state_id":"TX"},{"zip":"77423","fips":"48473","name":"Waller County","state_id":"TX"},{"zip":"77426","fips":"48477","name":"Washington County","state_id":"TX"},{"zip":"77426","fips":"48015","name":"Austin County","state_id":"TX"},{"zip":"77428","fips":"48321","name":"Matagorda County","state_id":"TX"},{"zip":"77429","fips":"48201","name":"Harris County","state_id":"TX"},{"zip":"77430","fips":"48157","name":"Fort Bend County","state_id":"TX"},{"zip":"77430","fips":"48039","name":"Brazoria County","state_id":"TX"},{"zip":"77431","fips":"48039","name":"Brazoria County","state_id":"TX"},{"zip":"77432","fips":"48481","name":"Wharton County","state_id":"TX"},{"zip":"77433","fips":"48201","name":"Harris County","state_id":"TX"},{"zip":"77434","fips":"48089","name":"Colorado County","state_id":"TX"},{"zip":"77434","fips":"48481","name":"Wharton County","state_id":"TX"},{"zip":"77435","fips":"48481","name":"Wharton County","state_id":"TX"},{"zip":"77435","fips":"48157","name":"Fort Bend County","state_id":"TX"},{"zip":"77435","fips":"48089","name":"Colorado County","state_id":"TX"},{"zip":"77436","fips":"48481","name":"Wharton County","state_id":"TX"},{"zip":"77437","fips":"48481","name":"Wharton County","state_id":"TX"},{"zip":"77440","fips":"48321","name":"Matagorda County","state_id":"TX"},{"zip":"77441","fips":"48157","name":"Fort Bend County","state_id":"TX"},{"zip":"77442","fips":"48089","name":"Colorado County","state_id":"TX"},{"zip":"77443","fips":"48481","name":"Wharton County","state_id":"TX"},{"zip":"77444","fips":"48039","name":"Brazoria County","state_id":"TX"},{"zip":"77444","fips":"48157","name":"Fort Bend County","state_id":"TX"},{"zip":"77445","fips":"48473","name":"Waller County","state_id":"TX"},{"zip":"77445","fips":"48201","name":"Harris County","state_id":"TX"},{"zip":"77446","fips":"48473","name":"Waller County","state_id":"TX"},{"zip":"77447","fips":"48201","name":"Harris County","state_id":"TX"},{"zip":"77447","fips":"48339","name":"Montgomery County","state_id":"TX"},{"zip":"77447","fips":"48473","name":"Waller County","state_id":"TX"},{"zip":"77448","fips":"48481","name":"Wharton County","state_id":"TX"},{"zip":"77449","fips":"48201","name":"Harris County","state_id":"TX"},{"zip":"77450","fips":"48157","name":"Fort Bend County","state_id":"TX"},{"zip":"77450","fips":"48201","name":"Harris County","state_id":"TX"},{"zip":"77451","fips":"48157","name":"Fort Bend County","state_id":"TX"},{"zip":"77452","fips":"48015","name":"Austin County","state_id":"TX"},{"zip":"77453","fips":"48481","name":"Wharton County","state_id":"TX"},{"zip":"77454","fips":"48481","name":"Wharton County","state_id":"TX"},{"zip":"77455","fips":"48239","name":"Jackson County","state_id":"TX"},{"zip":"77455","fips":"48481","name":"Wharton County","state_id":"TX"},{"zip":"77456","fips":"48321","name":"Matagorda County","state_id":"TX"},{"zip":"77457","fips":"48321","name":"Matagorda County","state_id":"TX"},{"zip":"77458","fips":"48321","name":"Matagorda County","state_id":"TX"},{"zip":"77459","fips":"48157","name":"Fort Bend County","state_id":"TX"},{"zip":"77460","fips":"48089","name":"Colorado County","state_id":"TX"},{"zip":"77461","fips":"48157","name":"Fort Bend County","state_id":"TX"},{"zip":"77463","fips":"48039","name":"Brazoria County","state_id":"TX"},{"zip":"77464","fips":"48157","name":"Fort Bend County","state_id":"TX"},{"zip":"77465","fips":"48057","name":"Calhoun County","state_id":"TX"},{"zip":"77465","fips":"48321","name":"Matagorda County","state_id":"TX"},{"zip":"77465","fips":"48239","name":"Jackson County","state_id":"TX"},{"zip":"77466","fips":"48473","name":"Waller County","state_id":"TX"},{"zip":"77467","fips":"48481","name":"Wharton County","state_id":"TX"},{"zip":"77468","fips":"48321","name":"Matagorda County","state_id":"TX"},{"zip":"77469","fips":"48157","name":"Fort Bend County","state_id":"TX"},{"zip":"77470","fips":"48089","name":"Colorado County","state_id":"TX"},{"zip":"77471","fips":"48157","name":"Fort Bend County","state_id":"TX"},{"zip":"77473","fips":"48015","name":"Austin County","state_id":"TX"},{"zip":"77474","fips":"48089","name":"Colorado County","state_id":"TX"},{"zip":"77474","fips":"48015","name":"Austin County","state_id":"TX"},{"zip":"77475","fips":"48089","name":"Colorado County","state_id":"TX"},{"zip":"77476","fips":"48157","name":"Fort Bend County","state_id":"TX"},{"zip":"77477","fips":"48157","name":"Fort Bend County","state_id":"TX"},{"zip":"77477","fips":"48201","name":"Harris County","state_id":"TX"},{"zip":"77478","fips":"48157","name":"Fort Bend County","state_id":"TX"},{"zip":"77479","fips":"48157","name":"Fort Bend County","state_id":"TX"},{"zip":"77480","fips":"48321","name":"Matagorda County","state_id":"TX"},{"zip":"77480","fips":"48039","name":"Brazoria County","state_id":"TX"},{"zip":"77481","fips":"48157","name":"Fort Bend County","state_id":"TX"},{"zip":"77482","fips":"48321","name":"Matagorda County","state_id":"TX"},{"zip":"77483","fips":"48321","name":"Matagorda County","state_id":"TX"},{"zip":"77484","fips":"48473","name":"Waller County","state_id":"TX"},{"zip":"77484","fips":"48201","name":"Harris County","state_id":"TX"},{"zip":"77484","fips":"48185","name":"Grimes County","state_id":"TX"},{"zip":"77485","fips":"48015","name":"Austin County","state_id":"TX"},{"zip":"77485","fips":"48157","name":"Fort Bend County","state_id":"TX"},{"zip":"77485","fips":"48481","name":"Wharton County","state_id":"TX"},{"zip":"77486","fips":"48039","name":"Brazoria County","state_id":"TX"},{"zip":"77487","fips":"48157","name":"Fort Bend County","state_id":"TX"},{"zip":"77488","fips":"48481","name":"Wharton County","state_id":"TX"},{"zip":"77489","fips":"48157","name":"Fort Bend County","state_id":"TX"},{"zip":"77489","fips":"48201","name":"Harris County","state_id":"TX"},{"zip":"77491","fips":"48201","name":"Harris County","state_id":"TX"},{"zip":"77492","fips":"48201","name":"Harris County","state_id":"TX"},{"zip":"77493","fips":"48157","name":"Fort Bend County","state_id":"TX"},{"zip":"77493","fips":"48473","name":"Waller County","state_id":"TX"},{"zip":"77493","fips":"48201","name":"Harris County","state_id":"TX"},{"zip":"77494","fips":"48473","name":"Waller County","state_id":"TX"},{"zip":"77494","fips":"48201","name":"Harris County","state_id":"TX"},{"zip":"77494","fips":"48157","name":"Fort Bend County","state_id":"TX"},{"zip":"77496","fips":"48157","name":"Fort Bend County","state_id":"TX"},{"zip":"77497","fips":"48157","name":"Fort Bend County","state_id":"TX"},{"zip":"77498","fips":"48157","name":"Fort Bend County","state_id":"TX"}]
