[{"zip":"77501","fips":"48201","name":"Harris County","state_id":"TX"},{"zip":"77502","fips":"48201","name":"Harris County","state_id":"TX"},{"zip":"77503","fips":"48201","name":"Harris County","state_id":"TX"},{"zip":"77504","fips":"48201","name":"Harris County","state_id":"TX"},{"zip":"77505","fips":"48201","name":"Harris County","state_id":"TX"},{"zip":"77506","fips":"48201","name":"Harris County","state_id":"TX"},{"zip":"77507","fips":"48201","name":"Harris County","state_id":"TX"},{"zip":"77508","fips":"48201","name":"Harris County","state_id":"TX"},{"zip":"77510","fips":"48167","name":"Galveston County","state_id":"TX"},{"zip":"77510","fips":"48039","name":"Brazoria County","state_id":"TX"},{"zip":"77511","fips":"48167","name":"Galveston County","state_id":"TX"},{"zip":"77511","fips":"48039","name":"Brazoria County","state_id":"TX"},{"zip":"77512","fips":"48039","name":"Brazoria County","state_id":"TX"},{"zip":"77514","fips":"48071","name":"Chambers County","state_id":"TX"},{"zip":"77515","fips":"48039","name":"Brazoria County","state_id":"TX"},{"zip":"77516","fips":"48039","name":"Brazoria County","state_id":"TX"},{"zip":"77517","fips":"48039","name":"Brazoria County","state_id":"TX"},{"zip":"77517","fips":"48167","name":"Galveston County","state_id":"TX"},{"zip":"77518","fips":"48167","name":"Galveston County","state_id":"TX"},{"zip":"77519","fips":"48199","name":"Hardin County","state_id":"TX"},{"zip":"77520","fips":"48201","name":"Harris County","state_id":"TX"},{"zip":"77521","fips":"48071","name":"Chambers County","state_id":"TX"},{"zip":"77521","fips":"48201","name":"Harris County","state_id":"TX"},{"zip":"77522","fips":"48201","name":"Harris County","state_id":"TX"},{"zip":"77523","fips":"48201","name":"Harris County","state_id":"TX"},{"zip":"77523","fips":"48071","name":"Chambers County","state_id":"TX"},{"zip":"77530","fips":"48201","name":"Harris County","state_id":"TX"},{"zip":"77531","fips":"48039","name":"Brazoria County","state_id":"TX"},{"zip":"77532","fips":"48201","name":"Harris County","state_id":"TX"},{"zip":"77533","fips":"48291","name":"Liberty County","state_id":"TX"},{"zip":"77534","fips":"48039","name":"Brazoria County","state_id":"TX"},{"zip":"77535","fips":"48071","name":"Chambers County","state_id":"TX"},{"zip":"77535","fips":"48291","name":"Liberty County","state_id":"TX"},{"zip":"77536","fips":"48201","name":"Harris County","state_id":"TX"},{"zip":"77538","fips":"48291","name":"Liberty County","state_id":"TX"},{"zip":"77539","fips":"48167","name":"Galveston County","state_id":"TX"},{"zip":"77541","fips":"48039","name":"Brazoria County","state_id":"TX"},{"zip":"77542","fips":"48039","name":"Brazoria County","state_id":"TX"},{"zip":"77545","fips":"48039","name":"Brazoria County","state_id":"TX"},{"zip":"77545","fips":"48157","name":"Fort Bend County","state_id":"TX"},{"zip":"77546","fips":"48167","name":"Galveston County","state_id":"TX"},{"zip":"77546","fips":"48039","name":"Brazoria County","state_id":"TX"},{"zip":"77546","fips":"48201","name":"Harris County","state_id":"TX"},{"zip":"77547","fips":"48201","name":"Harris County","state_id":"TX"},{"zip":"77549","fips":"48167","name":"Galveston County","state_id":"TX"},{"zip":"77550","fips":"48167","name":"Galveston County","state_id":"TX"},{"zip":"77551","fips":"48167","name":"Galveston County","state_id":"TX"},{"zip":"77552","fips":"48167","name":"Galveston County","state_id":"TX"},{"zip":"77553","fips":"48167","name":"Galveston County","state_id":"TX"},{"zip":"77554","fips":"48167","name":"Galveston County","state_id":"TX"},{"zip":"77555","fips":"48167","name":"Galveston County","state_id":"TX"},{"zip":"77560","fips":"48071","name":"Chambers County","state_id":"TX"},{"zip":"77561","fips":"48291","name":"Liberty County","state_id":"TX"},{"zip":"77562","fips":"48201","name":"Harris County","state_id":"TX"},{"zip":"77563","fips":"48167","name":"Galveston County","state_id":"TX"},{"zip":"77564","fips":"48291","name":"Liberty County","state_id":"TX"},{"zip":"77564","fips":"48199","name":"Hardin County","state_id":"TX"},{"zip":"77565","fips":"48167","name":"Galveston County","state_id":"TX"},{"zip":"77566","fips":"48039","name":"Brazoria County","state_id":"TX"},{"zip":"77568","fips":"48167","name":"Galveston County","state_id":"TX"},{"zip":"77571","fips":"48201","name":"Harris County","state_id":"TX"},{"zip":"77572","fips":"48201","name":"Harris County","state_id":"TX"},{"zip":"77573","fips":"48167","name":"Galveston County","state_id":"TX"},{"zip":"77574","fips":"48167","name":"Galveston County","state_id":"TX"},{"zip":"77575","fips":"48071","name":"Chambers County","state_id":"TX"},{"zip":"77575","fips":"48291","name":"Liberty County","state_id":"TX"},{"zip":"77577","fips":"48039","name":"Brazoria County","state_id":"TX"},{"zip":"77578","fips":"48039","name":"Brazoria County","state_id":"TX"},{"zip":"77580","fips":"48071","name":"Chambers County","state_id":"TX"},{"zip":"77581","fips":"48167","name":"Galveston County","state_id":"TX"},{"zip":"77581","fips":"48039","name":"Brazoria County","state_id":"TX"},{"zip":"77581","fips":"48201","name":"Harris County","state_id":"TX"},{"zip":"77582","fips":"48291","name":"Liberty County","state_id":"TX"},{"zip":"77583","fips":"48039","name":"Brazoria County","state_id":"TX"},{"zip":"77583","fips":"48157","name":"Fort Bend County","state_id":"TX"},{"zip":"77584","fips":"48039","name":"Brazoria County","state_id":"TX"},{"zip":"77584","fips":"48157","name":"Fort Bend County","state_id":"TX"},{"zip":"77585","fips":"48199","name":"Hardin County","state_id":"TX"},{"zip":"77586","fips":"48201","name":"Harris County","state_id":"TX"},{"zip":"77587","fips":"48201","name":"Harris County","state_id":"TX"},{"zip":"77588","fips":"48039","name":"Brazoria County","state_id":"TX"},{"zip":"77590","fips":"48167","name":"Galveston County","state_id":"TX"},{"zip":"77591","fips":"48167","name":"Galveston County","state_id":"TX"},{"zip":"77597","fips":"48291","name":"Liberty County","state_id":"TX"},{"zip":"77597","fips":"48071","name":"Chambers County","state_id":"TX"},{"zip":"77598","fips":"48201","name":"Harris County","state_id":"TX"}]
