[{"zip":"77611","fips":"48361","name":"Orange County","state_id":"TX"},{"zip":"77612","fips":"48241","name":"Jasper County","state_id":"TX"},{"zip":"77612","fips":"48351","name":"Newton County","state_id":"TX"},{"zip":"77613","fips":"48245","name":"Jefferson County","state_id":"TX"},{"zip":"77614","fips":"48351","name":"Newton County","state_id":"TX"},{"zip":"77615","fips":"48241","name":"Jasper County","state_id":"TX"},{"zip":"77616","fips":"48457","name":"Tyler County","state_id":"TX"},{"zip":"77619","fips":"48245","name":"Jefferson County","state_id":"TX"},{"zip":"77622","fips":"48245","name":"Jefferson County","state_id":"TX"},{"zip":"77623","fips":"48167","name":"Galveston County","state_id":"TX"},{"zip":"77624","fips":"48457","name":"Tyler County","state_id":"TX"},{"zip":"77625","fips":"48199","name":"Hardin County","state_id":"TX"},{"zip":"77626","fips":"48361","name":"Orange County","state_id":"TX"},{"zip":"77627","fips":"48245","name":"Jefferson County","state_id":"TX"},{"zip":"77629","fips":"48245","name":"Jefferson County","state_id":"TX"},{"zip":"77630","fips":"48361","name":"Orange County","state_id":"TX"},{"zip":"77632","fips":"48241","name":"Jasper County","state_id":"TX"},{"zip":"77632","fips":"48361","name":"Orange County","state_id":"TX"},{"zip":"77632","fips":"48351","name":"Newton County","state_id":"TX"},{"zip":"77639","fips":"48361","name":"Orange County","state_id":"TX"},{"zip":"77640","fips":"48245","name":"Jefferson County","state_id":"TX"},{"zip":"77642","fips":"48245","name":"Jefferson County","state_id":"TX"},{"zip":"77650","fips":"48167","name":"Galveston County","state_id":"TX"},{"zip":"77651","fips":"48245","name":"Jefferson County","state_id":"TX"},{"zip":"77655","fips":"48245","name":"Jefferson County","state_id":"TX"},{"zip":"77656","fips":"48199","name":"Hardin County","state_id":"TX"},{"zip":"77657","fips":"48199","name":"Hardin County","state_id":"TX"},{"zip":"77659","fips":"48199","name":"Hardin County","state_id":"TX"},{"zip":"77660","fips":"48457","name":"Tyler County","state_id":"TX"},{"zip":"77661","fips":"48071","name":"Chambers County","state_id":"TX"},{"zip":"77662","fips":"48361","name":"Orange County","state_id":"TX"},{"zip":"77662","fips":"48241","name":"Jasper County","state_id":"TX"},{"zip":"77663","fips":"48199","name":"Hardin County","state_id":"TX"},{"zip":"77664","fips":"48457","name":"Tyler County","state_id":"TX"},{"zip":"77664","fips":"48199","name":"Hardin County","state_id":"TX"},{"zip":"77665","fips":"48245","name":"Jefferson County","state_id":"TX"},{"zip":"77665","fips":"48071","name":"Chambers County","state_id":"TX"},{"zip":"77670","fips":"48361","name":"Orange County","state_id":"TX"}]
