[{"zip":"77801","fips":"48041","name":"Brazos County","state_id":"TX"},{"zip":"77802","fips":"48041","name":"Brazos County","state_id":"TX"},{"zip":"77803","fips":"48041","name":"Brazos County","state_id":"TX"},{"zip":"77805","fips":"48041","name":"Brazos County","state_id":"TX"},{"zip":"77806","fips":"48041","name":"Brazos County","state_id":"TX"},{"zip":"77807","fips":"48041","name":"Brazos County","state_id":"TX"},{"zip":"77807","fips":"48395","name":"Robertson County","state_id":"TX"},{"zip":"77808","fips":"48395","name":"Robertson County","state_id":"TX"},{"zip":"77808","fips":"48041","name":"Brazos County","state_id":"TX"},{"zip":"77830","fips":"48185","name":"Grimes County","state_id":"TX"},{"zip":"77831","fips":"48185","name":"Grimes County","state_id":"TX"},{"zip":"77831","fips":"48471","name":"Walker County","state_id":"TX"},{"zip":"77831","fips":"48313","name":"Madison County","state_id":"TX"},{"zip":"77833","fips":"48477","name":"Washington County","state_id":"TX"},{"zip":"77833","fips":"48015","name":"Austin County","state_id":"TX"},{"zip":"77834","fips":"48477","name":"Washington County","state_id":"TX"},{"zip":"77835","fips":"48477","name":"Washington County","state_id":"TX"},{"zip":"77835","fips":"48015","name":"Austin County","state_id":"TX"},{"zip":"77835","fips":"48149","name":"Fayette County","state_id":"TX"},{"zip":"77836","fips":"48051","name":"Burleson County","state_id":"TX"},{"zip":"77836","fips":"48331","name":"Milam County","state_id":"TX"},{"zip":"77837","fips":"48395","name":"Robertson County","state_id":"TX"},{"zip":"77838","fips":"48051","name":"Burleson County","state_id":"TX"},{"zip":"77840","fips":"48041","name":"Brazos County","state_id":"TX"},{"zip":"77841","fips":"48041","name":"Brazos County","state_id":"TX"},{"zip":"77842","fips":"48041","name":"Brazos County","state_id":"TX"},{"zip":"77843","fips":"48041","name":"Brazos County","state_id":"TX"},{"zip":"77844","fips":"48041","name":"Brazos County","state_id":"TX"},{"zip":"77845","fips":"48041","name":"Brazos County","state_id":"TX"},{"zip":"77850","fips":"48289","name":"Leon County","state_id":"TX"},{"zip":"77852","fips":"48051","name":"Burleson County","state_id":"TX"},{"zip":"77853","fips":"48287","name":"Lee County","state_id":"TX"},{"zip":"77855","fips":"48289","name":"Leon County","state_id":"TX"},{"zip":"77856","fips":"48395","name":"Robertson County","state_id":"TX"},{"zip":"77856","fips":"48041","name":"Brazos County","state_id":"TX"},{"zip":"77857","fips":"48331","name":"Milam County","state_id":"TX"},{"zip":"77859","fips":"48395","name":"Robertson County","state_id":"TX"},{"zip":"77859","fips":"48041","name":"Brazos County","state_id":"TX"},{"zip":"77861","fips":"48313","name":"Madison County","state_id":"TX"},{"zip":"77861","fips":"48185","name":"Grimes County","state_id":"TX"},{"zip":"77862","fips":"48041","name":"Brazos County","state_id":"TX"},{"zip":"77863","fips":"48051","name":"Burleson County","state_id":"TX"},{"zip":"77864","fips":"48289","name":"Leon County","state_id":"TX"},{"zip":"77864","fips":"48313","name":"Madison County","state_id":"TX"},{"zip":"77865","fips":"48395","name":"Robertson County","state_id":"TX"},{"zip":"77865","fips":"48289","name":"Leon County","state_id":"TX"},{"zip":"77866","fips":"48041","name":"Brazos County","state_id":"TX"},{"zip":"77867","fips":"48395","name":"Robertson County","state_id":"TX"},{"zip":"77868","fips":"48185","name":"Grimes County","state_id":"TX"},{"zip":"77868","fips":"48041","name":"Brazos County","state_id":"TX"},{"zip":"77868","fips":"48477","name":"Washington County","state_id":"TX"},{"zip":"77868","fips":"48473","name":"Waller County","state_id":"TX"},{"zip":"77870","fips":"48395","name":"Robertson County","state_id":"TX"},{"zip":"77871","fips":"48313","name":"Madison County","state_id":"TX"},{"zip":"77871","fips":"48289","name":"Leon County","state_id":"TX"},{"zip":"77872","fips":"48185","name":"Grimes County","state_id":"TX"},{"zip":"77872","fips":"48313","name":"Madison County","state_id":"TX"},{"zip":"77873","fips":"48471","name":"Walker County","state_id":"TX"},{"zip":"77873","fips":"48185","name":"Grimes County","state_id":"TX"},{"zip":"77873","fips":"48339","name":"Montgomery County","state_id":"TX"},{"zip":"77875","fips":"48185","name":"Grimes County","state_id":"TX"},{"zip":"77876","fips":"48185","name":"Grimes County","state_id":"TX"},{"zip":"77878","fips":"48051","name":"Burleson County","state_id":"TX"},{"zip":"77879","fips":"48051","name":"Burleson County","state_id":"TX"},{"zip":"77880","fips":"48477","name":"Washington County","state_id":"TX"},{"zip":"77881","fips":"48041","name":"Brazos County","state_id":"TX"},{"zip":"77882","fips":"48395","name":"Robertson County","state_id":"TX"}]
