[{"zip":"77901","fips":"48469","name":"Victoria County","state_id":"TX"},{"zip":"77902","fips":"48469","name":"Victoria County","state_id":"TX"},{"zip":"77903","fips":"48469","name":"Victoria County","state_id":"TX"},{"zip":"77904","fips":"48469","name":"Victoria County","state_id":"TX"},{"zip":"77905","fips":"48469","name":"Victoria County","state_id":"TX"},{"zip":"77905","fips":"48175","name":"Goliad County","state_id":"TX"},{"zip":"77950","fips":"48391","name":"Refugio County","state_id":"TX"},{"zip":"77951","fips":"48469","name":"Victoria County","state_id":"TX"},{"zip":"77954","fips":"48177","name":"Gonzales County","state_id":"TX"},{"zip":"77954","fips":"48123","name":"DeWitt County","state_id":"TX"},{"zip":"77957","fips":"48239","name":"Jackson County","state_id":"TX"},{"zip":"77960","fips":"48175","name":"Goliad County","state_id":"TX"},{"zip":"77961","fips":"48239","name":"Jackson County","state_id":"TX"},{"zip":"77962","fips":"48239","name":"Jackson County","state_id":"TX"},{"zip":"77963","fips":"48175","name":"Goliad County","state_id":"TX"},{"zip":"77964","fips":"48089","name":"Colorado County","state_id":"TX"},{"zip":"77964","fips":"48285","name":"Lavaca County","state_id":"TX"},{"zip":"77967","fips":"48123","name":"DeWitt County","state_id":"TX"},{"zip":"77968","fips":"48469","name":"Victoria County","state_id":"TX"},{"zip":"77969","fips":"48239","name":"Jackson County","state_id":"TX"},{"zip":"77970","fips":"48239","name":"Jackson County","state_id":"TX"},{"zip":"77971","fips":"48239","name":"Jackson County","state_id":"TX"},{"zip":"77973","fips":"48469","name":"Victoria County","state_id":"TX"},{"zip":"77974","fips":"48123","name":"DeWitt County","state_id":"TX"},{"zip":"77974","fips":"48469","name":"Victoria County","state_id":"TX"},{"zip":"77975","fips":"48285","name":"Lavaca County","state_id":"TX"},{"zip":"77976","fips":"48469","name":"Victoria County","state_id":"TX"},{"zip":"77977","fips":"48469","name":"Victoria County","state_id":"TX"},{"zip":"77978","fips":"48057","name":"Calhoun County","state_id":"TX"},{"zip":"77979","fips":"48057","name":"Calhoun County","state_id":"TX"},{"zip":"77979","fips":"48239","name":"Jackson County","state_id":"TX"},{"zip":"77979","fips":"48469","name":"Victoria County","state_id":"TX"},{"zip":"77982","fips":"48057","name":"Calhoun County","state_id":"TX"},{"zip":"77983","fips":"48057","name":"Calhoun County","state_id":"TX"},{"zip":"77984","fips":"48285","name":"Lavaca County","state_id":"TX"},{"zip":"77984","fips":"48123","name":"DeWitt County","state_id":"TX"},{"zip":"77984","fips":"48177","name":"Gonzales County","state_id":"TX"},{"zip":"77986","fips":"48285","name":"Lavaca County","state_id":"TX"},{"zip":"77987","fips":"48285","name":"Lavaca County","state_id":"TX"},{"zip":"77988","fips":"48469","name":"Victoria County","state_id":"TX"},{"zip":"77989","fips":"48123","name":"DeWitt County","state_id":"TX"},{"zip":"77990","fips":"48391","name":"Refugio County","state_id":"TX"},{"zip":"77990","fips":"48057","name":"Calhoun County","state_id":"TX"},{"zip":"77991","fips":"48239","name":"Jackson County","state_id":"TX"},{"zip":"77993","fips":"48175","name":"Goliad County","state_id":"TX"},{"zip":"77994","fips":"48177","name":"Gonzales County","state_id":"TX"},{"zip":"77994","fips":"48123","name":"DeWitt County","state_id":"TX"},{"zip":"77995","fips":"48285","name":"Lavaca County","state_id":"TX"},{"zip":"77995","fips":"48123","name":"DeWitt County","state_id":"TX"},{"zip":"77995","fips":"48469","name":"Victoria County","state_id":"TX"}]
