[{"zip":"78001","fips":"48283","name":"La Salle County","state_id":"TX"},{"zip":"78002","fips":"48029","name":"Bexar County","state_id":"TX"},{"zip":"78002","fips":"48013","name":"Atascosa County","state_id":"TX"},{"zip":"78003","fips":"48325","name":"Medina County","state_id":"TX"},{"zip":"78003","fips":"48019","name":"Bandera County","state_id":"TX"},{"zip":"78003","fips":"48265","name":"Kerr County","state_id":"TX"},{"zip":"78004","fips":"48259","name":"Kendall County","state_id":"TX"},{"zip":"78005","fips":"48013","name":"Atascosa County","state_id":"TX"},{"zip":"78005","fips":"48163","name":"Frio County","state_id":"TX"},{"zip":"78006","fips":"48091","name":"Comal County","state_id":"TX"},{"zip":"78006","fips":"48029","name":"Bexar County","state_id":"TX"},{"zip":"78006","fips":"48259","name":"Kendall County","state_id":"TX"},{"zip":"78007","fips":"48311","name":"McMullen County","state_id":"TX"},{"zip":"78008","fips":"48013","name":"Atascosa County","state_id":"TX"},{"zip":"78008","fips":"48297","name":"Live Oak County","state_id":"TX"},{"zip":"78009","fips":"48029","name":"Bexar County","state_id":"TX"},{"zip":"78009","fips":"48325","name":"Medina County","state_id":"TX"},{"zip":"78010","fips":"48019","name":"Bandera County","state_id":"TX"},{"zip":"78010","fips":"48265","name":"Kerr County","state_id":"TX"},{"zip":"78011","fips":"48013","name":"Atascosa County","state_id":"TX"},{"zip":"78012","fips":"48013","name":"Atascosa County","state_id":"TX"},{"zip":"78013","fips":"48265","name":"Kerr County","state_id":"TX"},{"zip":"78013","fips":"48259","name":"Kendall County","state_id":"TX"},{"zip":"78014","fips":"48283","name":"La Salle County","state_id":"TX"},{"zip":"78015","fips":"48259","name":"Kendall County","state_id":"TX"},{"zip":"78015","fips":"48091","name":"Comal County","state_id":"TX"},{"zip":"78015","fips":"48029","name":"Bexar County","state_id":"TX"},{"zip":"78016","fips":"48163","name":"Frio County","state_id":"TX"},{"zip":"78016","fips":"48325","name":"Medina County","state_id":"TX"},{"zip":"78017","fips":"48163","name":"Frio County","state_id":"TX"},{"zip":"78019","fips":"48283","name":"La Salle County","state_id":"TX"},{"zip":"78021","fips":"48283","name":"La Salle County","state_id":"TX"},{"zip":"78022","fips":"48297","name":"Live Oak County","state_id":"TX"},{"zip":"78023","fips":"48029","name":"Bexar County","state_id":"TX"},{"zip":"78023","fips":"48325","name":"Medina County","state_id":"TX"},{"zip":"78023","fips":"48019","name":"Bandera County","state_id":"TX"},{"zip":"78024","fips":"48265","name":"Kerr County","state_id":"TX"},{"zip":"78025","fips":"48265","name":"Kerr County","state_id":"TX"},{"zip":"78026","fips":"48311","name":"McMullen County","state_id":"TX"},{"zip":"78026","fips":"48013","name":"Atascosa County","state_id":"TX"},{"zip":"78027","fips":"48259","name":"Kendall County","state_id":"TX"},{"zip":"78027","fips":"48031","name":"Blanco County","state_id":"TX"},{"zip":"78028","fips":"48171","name":"Gillespie County","state_id":"TX"},{"zip":"78028","fips":"48265","name":"Kerr County","state_id":"TX"},{"zip":"78029","fips":"48265","name":"Kerr County","state_id":"TX"},{"zip":"78039","fips":"48325","name":"Medina County","state_id":"TX"},{"zip":"78039","fips":"48029","name":"Bexar County","state_id":"TX"},{"zip":"78040","fips":"48479","name":"Webb County","state_id":"TX"},{"zip":"78041","fips":"48479","name":"Webb County","state_id":"TX"},{"zip":"78042","fips":"48479","name":"Webb County","state_id":"TX"},{"zip":"78043","fips":"48479","name":"Webb County","state_id":"TX"},{"zip":"78044","fips":"48479","name":"Webb County","state_id":"TX"},{"zip":"78045","fips":"48479","name":"Webb County","state_id":"TX"},{"zip":"78046","fips":"48479","name":"Webb County","state_id":"TX"},{"zip":"78050","fips":"48013","name":"Atascosa County","state_id":"TX"},{"zip":"78052","fips":"48325","name":"Medina County","state_id":"TX"},{"zip":"78052","fips":"48029","name":"Bexar County","state_id":"TX"},{"zip":"78052","fips":"48013","name":"Atascosa County","state_id":"TX"},{"zip":"78054","fips":"48029","name":"Bexar County","state_id":"TX"},{"zip":"78055","fips":"48265","name":"Kerr County","state_id":"TX"},{"zip":"78055","fips":"48019","name":"Bandera County","state_id":"TX"},{"zip":"78056","fips":"48325","name":"Medina County","state_id":"TX"},{"zip":"78057","fips":"48163","name":"Frio County","state_id":"TX"},{"zip":"78057","fips":"48325","name":"Medina County","state_id":"TX"},{"zip":"78058","fips":"48171","name":"Gillespie County","state_id":"TX"},{"zip":"78058","fips":"48265","name":"Kerr County","state_id":"TX"},{"zip":"78059","fips":"48325","name":"Medina County","state_id":"TX"},{"zip":"78060","fips":"48297","name":"Live Oak County","state_id":"TX"},{"zip":"78061","fips":"48507","name":"Zavala County","state_id":"TX"},{"zip":"78061","fips":"48163","name":"Frio County","state_id":"TX"},{"zip":"78062","fips":"48255","name":"Karnes County","state_id":"TX"},{"zip":"78063","fips":"48325","name":"Medina County","state_id":"TX"},{"zip":"78063","fips":"48265","name":"Kerr County","state_id":"TX"},{"zip":"78063","fips":"48019","name":"Bandera County","state_id":"TX"},{"zip":"78064","fips":"48013","name":"Atascosa County","state_id":"TX"},{"zip":"78064","fips":"48493","name":"Wilson County","state_id":"TX"},{"zip":"78065","fips":"48013","name":"Atascosa County","state_id":"TX"},{"zip":"78066","fips":"48325","name":"Medina County","state_id":"TX"},{"zip":"78067","fips":"48505","name":"Zapata County","state_id":"TX"},{"zip":"78069","fips":"48029","name":"Bexar County","state_id":"TX"},{"zip":"78069","fips":"48013","name":"Atascosa County","state_id":"TX"},{"zip":"78070","fips":"48031","name":"Blanco County","state_id":"TX"},{"zip":"78070","fips":"48259","name":"Kendall County","state_id":"TX"},{"zip":"78070","fips":"48091","name":"Comal County","state_id":"TX"},{"zip":"78071","fips":"48311","name":"McMullen County","state_id":"TX"},{"zip":"78071","fips":"48025","name":"Bee County","state_id":"TX"},{"zip":"78071","fips":"48297","name":"Live Oak County","state_id":"TX"},{"zip":"78072","fips":"48311","name":"McMullen County","state_id":"TX"},{"zip":"78073","fips":"48029","name":"Bexar County","state_id":"TX"},{"zip":"78073","fips":"48013","name":"Atascosa County","state_id":"TX"},{"zip":"78074","fips":"48259","name":"Kendall County","state_id":"TX"},{"zip":"78075","fips":"48297","name":"Live Oak County","state_id":"TX"},{"zip":"78076","fips":"48505","name":"Zapata County","state_id":"TX"}]
