[{"zip":"78101","fips":"48493","name":"Wilson County","state_id":"TX"},{"zip":"78101","fips":"48029","name":"Bexar County","state_id":"TX"},{"zip":"78102","fips":"48025","name":"Bee County","state_id":"TX"},{"zip":"78102","fips":"48297","name":"Live Oak County","state_id":"TX"},{"zip":"78104","fips":"48025","name":"Bee County","state_id":"TX"},{"zip":"78107","fips":"48175","name":"Goliad County","state_id":"TX"},{"zip":"78108","fips":"48187","name":"Guadalupe County","state_id":"TX"},{"zip":"78108","fips":"48091","name":"Comal County","state_id":"TX"},{"zip":"78108","fips":"48029","name":"Bexar County","state_id":"TX"},{"zip":"78109","fips":"48029","name":"Bexar County","state_id":"TX"},{"zip":"78111","fips":"48255","name":"Karnes County","state_id":"TX"},{"zip":"78112","fips":"48493","name":"Wilson County","state_id":"TX"},{"zip":"78112","fips":"48029","name":"Bexar County","state_id":"TX"},{"zip":"78113","fips":"48255","name":"Karnes County","state_id":"TX"},{"zip":"78113","fips":"48493","name":"Wilson County","state_id":"TX"},{"zip":"78113","fips":"48013","name":"Atascosa County","state_id":"TX"},{"zip":"78114","fips":"48493","name":"Wilson County","state_id":"TX"},{"zip":"78114","fips":"48013","name":"Atascosa County","state_id":"TX"},{"zip":"78115","fips":"48187","name":"Guadalupe County","state_id":"TX"},{"zip":"78116","fips":"48255","name":"Karnes County","state_id":"TX"},{"zip":"78117","fips":"48255","name":"Karnes County","state_id":"TX"},{"zip":"78118","fips":"48255","name":"Karnes County","state_id":"TX"},{"zip":"78118","fips":"48013","name":"Atascosa County","state_id":"TX"},{"zip":"78119","fips":"48175","name":"Goliad County","state_id":"TX"},{"zip":"78119","fips":"48255","name":"Karnes County","state_id":"TX"},{"zip":"78119","fips":"48297","name":"Live Oak County","state_id":"TX"},{"zip":"78119","fips":"48025","name":"Bee County","state_id":"TX"},{"zip":"78121","fips":"48187","name":"Guadalupe County","state_id":"TX"},{"zip":"78121","fips":"48493","name":"Wilson County","state_id":"TX"},{"zip":"78122","fips":"48177","name":"Gonzales County","state_id":"TX"},{"zip":"78123","fips":"48187","name":"Guadalupe County","state_id":"TX"},{"zip":"78124","fips":"48029","name":"Bexar County","state_id":"TX"},{"zip":"78124","fips":"48187","name":"Guadalupe County","state_id":"TX"},{"zip":"78125","fips":"48025","name":"Bee County","state_id":"TX"},{"zip":"78130","fips":"48091","name":"Comal County","state_id":"TX"},{"zip":"78130","fips":"48187","name":"Guadalupe County","state_id":"TX"},{"zip":"78130","fips":"48209","name":"Hays County","state_id":"TX"},{"zip":"78131","fips":"48091","name":"Comal County","state_id":"TX"},{"zip":"78132","fips":"48187","name":"Guadalupe County","state_id":"TX"},{"zip":"78132","fips":"48091","name":"Comal County","state_id":"TX"},{"zip":"78132","fips":"48209","name":"Hays County","state_id":"TX"},{"zip":"78133","fips":"48091","name":"Comal County","state_id":"TX"},{"zip":"78135","fips":"48091","name":"Comal County","state_id":"TX"},{"zip":"78140","fips":"48187","name":"Guadalupe County","state_id":"TX"},{"zip":"78140","fips":"48177","name":"Gonzales County","state_id":"TX"},{"zip":"78140","fips":"48493","name":"Wilson County","state_id":"TX"},{"zip":"78141","fips":"48123","name":"DeWitt County","state_id":"TX"},{"zip":"78141","fips":"48255","name":"Karnes County","state_id":"TX"},{"zip":"78142","fips":"48025","name":"Bee County","state_id":"TX"},{"zip":"78143","fips":"48493","name":"Wilson County","state_id":"TX"},{"zip":"78144","fips":"48255","name":"Karnes County","state_id":"TX"},{"zip":"78145","fips":"48025","name":"Bee County","state_id":"TX"},{"zip":"78146","fips":"48025","name":"Bee County","state_id":"TX"},{"zip":"78147","fips":"48493","name":"Wilson County","state_id":"TX"},{"zip":"78148","fips":"48187","name":"Guadalupe County","state_id":"TX"},{"zip":"78148","fips":"48029","name":"Bexar County","state_id":"TX"},{"zip":"78150","fips":"48029","name":"Bexar County","state_id":"TX"},{"zip":"78150","fips":"48187","name":"Guadalupe County","state_id":"TX"},{"zip":"78151","fips":"48123","name":"DeWitt County","state_id":"TX"},{"zip":"78151","fips":"48255","name":"Karnes County","state_id":"TX"},{"zip":"78152","fips":"48493","name":"Wilson County","state_id":"TX"},{"zip":"78152","fips":"48029","name":"Bexar County","state_id":"TX"},{"zip":"78154","fips":"48187","name":"Guadalupe County","state_id":"TX"},{"zip":"78154","fips":"48029","name":"Bexar County","state_id":"TX"},{"zip":"78154","fips":"48091","name":"Comal County","state_id":"TX"},{"zip":"78155","fips":"48187","name":"Guadalupe County","state_id":"TX"},{"zip":"78156","fips":"48187","name":"Guadalupe County","state_id":"TX"},{"zip":"78159","fips":"48177","name":"Gonzales County","state_id":"TX"},{"zip":"78160","fips":"48177","name":"Gonzales County","state_id":"TX"},{"zip":"78160","fips":"48493","name":"Wilson County","state_id":"TX"},{"zip":"78161","fips":"48493","name":"Wilson County","state_id":"TX"},{"zip":"78162","fips":"48025","name":"Bee County","state_id":"TX"},{"zip":"78163","fips":"48091","name":"Comal County","state_id":"TX"},{"zip":"78163","fips":"48029","name":"Bexar County","state_id":"TX"},{"zip":"78164","fips":"48175","name":"Goliad County","state_id":"TX"},{"zip":"78164","fips":"48123","name":"DeWitt County","state_id":"TX"}]
