[{"zip":"78201","fips":"48029","name":"Bexar County","state_id":"TX"},{"zip":"78202","fips":"48029","name":"Bexar County","state_id":"TX"},{"zip":"78203","fips":"48029","name":"Bexar County","state_id":"TX"},{"zip":"78204","fips":"48029","name":"Bexar County","state_id":"TX"},{"zip":"78205","fips":"48029","name":"Bexar County","state_id":"TX"},{"zip":"78206","fips":"48029","name":"Bexar County","state_id":"TX"},{"zip":"78207","fips":"48029","name":"Bexar County","state_id":"TX"},{"zip":"78208","fips":"48029","name":"Bexar County","state_id":"TX"},{"zip":"78209","fips":"48029","name":"Bexar County","state_id":"TX"},{"zip":"78210","fips":"48029","name":"Bexar County","state_id":"TX"},{"zip":"78211","fips":"48029","name":"Bexar County","state_id":"TX"},{"zip":"78212","fips":"48029","name":"Bexar County","state_id":"TX"},{"zip":"78213","fips":"48029","name":"Bexar County","state_id":"TX"},{"zip":"78214","fips":"48029","name":"Bexar County","state_id":"TX"},{"zip":"78215","fips":"48029","name":"Bexar County","state_id":"TX"},{"zip":"78216","fips":"48029","name":"Bexar County","state_id":"TX"},{"zip":"78217","fips":"48029","name":"Bexar County","state_id":"TX"},{"zip":"78218","fips":"48029","name":"Bexar County","state_id":"TX"},{"zip":"78219","fips":"48029","name":"Bexar County","state_id":"TX"},{"zip":"78220","fips":"48029","name":"Bexar County","state_id":"TX"},{"zip":"78221","fips":"48029","name":"Bexar County","state_id":"TX"},{"zip":"78222","fips":"48029","name":"Bexar County","state_id":"TX"},{"zip":"78223","fips":"48029","name":"Bexar County","state_id":"TX"},{"zip":"78223","fips":"48493","name":"Wilson County","state_id":"TX"},{"zip":"78224","fips":"48029","name":"Bexar County","state_id":"TX"},{"zip":"78225","fips":"48029","name":"Bexar County","state_id":"TX"},{"zip":"78226","fips":"48029","name":"Bexar County","state_id":"TX"},{"zip":"78227","fips":"48029","name":"Bexar County","state_id":"TX"},{"zip":"78228","fips":"48029","name":"Bexar County","state_id":"TX"},{"zip":"78229","fips":"48029","name":"Bexar County","state_id":"TX"},{"zip":"78230","fips":"48029","name":"Bexar County","state_id":"TX"},{"zip":"78231","fips":"48029","name":"Bexar County","state_id":"TX"},{"zip":"78232","fips":"48029","name":"Bexar County","state_id":"TX"},{"zip":"78233","fips":"48029","name":"Bexar County","state_id":"TX"},{"zip":"78234","fips":"48029","name":"Bexar County","state_id":"TX"},{"zip":"78235","fips":"48029","name":"Bexar County","state_id":"TX"},{"zip":"78236","fips":"48029","name":"Bexar County","state_id":"TX"},{"zip":"78237","fips":"48029","name":"Bexar County","state_id":"TX"},{"zip":"78238","fips":"48029","name":"Bexar County","state_id":"TX"},{"zip":"78239","fips":"48029","name":"Bexar County","state_id":"TX"},{"zip":"78240","fips":"48029","name":"Bexar County","state_id":"TX"},{"zip":"78241","fips":"48029","name":"Bexar County","state_id":"TX"},{"zip":"78242","fips":"48029","name":"Bexar County","state_id":"TX"},{"zip":"78243","fips":"48029","name":"Bexar County","state_id":"TX"},{"zip":"78244","fips":"48029","name":"Bexar County","state_id":"TX"},{"zip":"78245","fips":"48029","name":"Bexar County","state_id":"TX"},{"zip":"78246","fips":"48029","name":"Bexar County","state_id":"TX"},{"zip":"78247","fips":"48029","name":"Bexar County","state_id":"TX"},{"zip":"78248","fips":"48029","name":"Bexar County","state_id":"TX"},{"zip":"78249","fips":"48029","name":"Bexar County","state_id":"TX"},{"zip":"78250","fips":"48029","name":"Bexar County","state_id":"TX"},{"zip":"78251","fips":"48029","name":"Bexar County","state_id":"TX"},{"zip":"78252","fips":"48029","name":"Bexar County","state_id":"TX"},{"zip":"78253","fips":"48029","name":"Bexar County","state_id":"TX"},{"zip":"78253","fips":"48325","name":"Medina County","state_id":"TX"},{"zip":"78254","fips":"48325","name":"Medina County","state_id":"TX"},{"zip":"78254","fips":"48029","name":"Bexar County","state_id":"TX"},{"zip":"78255","fips":"48029","name":"Bexar County","state_id":"TX"},{"zip":"78256","fips":"48029","name":"Bexar County","state_id":"TX"},{"zip":"78257","fips":"48029","name":"Bexar County","state_id":"TX"},{"zip":"78258","fips":"48029","name":"Bexar County","state_id":"TX"},{"zip":"78259","fips":"48029","name":"Bexar County","state_id":"TX"},{"zip":"78260","fips":"48029","name":"Bexar County","state_id":"TX"},{"zip":"78261","fips":"48029","name":"Bexar County","state_id":"TX"},{"zip":"78263","fips":"48029","name":"Bexar County","state_id":"TX"},{"zip":"78264","fips":"48013","name":"Atascosa County","state_id":"TX"},{"zip":"78264","fips":"48029","name":"Bexar County","state_id":"TX"},{"zip":"78265","fips":"48029","name":"Bexar County","state_id":"TX"},{"zip":"78266","fips":"48029","name":"Bexar County","state_id":"TX"},{"zip":"78266","fips":"48091","name":"Comal County","state_id":"TX"},{"zip":"78268","fips":"48029","name":"Bexar County","state_id":"TX"},{"zip":"78269","fips":"48029","name":"Bexar County","state_id":"TX"},{"zip":"78270","fips":"48029","name":"Bexar County","state_id":"TX"},{"zip":"78278","fips":"48029","name":"Bexar County","state_id":"TX"},{"zip":"78279","fips":"48029","name":"Bexar County","state_id":"TX"},{"zip":"78280","fips":"48029","name":"Bexar County","state_id":"TX"},{"zip":"78283","fips":"48029","name":"Bexar County","state_id":"TX"},{"zip":"78284","fips":"48029","name":"Bexar County","state_id":"TX"},{"zip":"78285","fips":"48029","name":"Bexar County","state_id":"TX"},{"zip":"78288","fips":"48029","name":"Bexar County","state_id":"TX"},{"zip":"78291","fips":"48029","name":"Bexar County","state_id":"TX"},{"zip":"78292","fips":"48029","name":"Bexar County","state_id":"TX"},{"zip":"78293","fips":"48029","name":"Bexar County","state_id":"TX"},{"zip":"78294","fips":"48029","name":"Bexar County","state_id":"TX"},{"zip":"78295","fips":"48029","name":"Bexar County","state_id":"TX"},{"zip":"78296","fips":"48029","name":"Bexar County","state_id":"TX"},{"zip":"78297","fips":"48029","name":"Bexar County","state_id":"TX"},{"zip":"78298","fips":"48029","name":"Bexar County","state_id":"TX"},{"zip":"78299","fips":"48029","name":"Bexar County","state_id":"TX"}]
