[{"zip":"78330","fips":"48355","name":"Nueces County","state_id":"TX"},{"zip":"78332","fips":"48249","name":"Jim Wells County","state_id":"TX"},{"zip":"78332","fips":"48131","name":"Duval County","state_id":"TX"},{"zip":"78335","fips":"48409","name":"San Patricio County","state_id":"TX"},{"zip":"78336","fips":"48409","name":"San Patricio County","state_id":"TX"},{"zip":"78336","fips":"48355","name":"Nueces County","state_id":"TX"},{"zip":"78336","fips":"48007","name":"Aransas County","state_id":"TX"},{"zip":"78338","fips":"48261","name":"Kenedy County","state_id":"TX"},{"zip":"78339","fips":"48355","name":"Nueces County","state_id":"TX"},{"zip":"78340","fips":"48391","name":"Refugio County","state_id":"TX"},{"zip":"78341","fips":"48131","name":"Duval County","state_id":"TX"},{"zip":"78342","fips":"48249","name":"Jim Wells County","state_id":"TX"},{"zip":"78343","fips":"48355","name":"Nueces County","state_id":"TX"},{"zip":"78344","fips":"48479","name":"Webb County","state_id":"TX"},{"zip":"78347","fips":"48355","name":"Nueces County","state_id":"TX"},{"zip":"78349","fips":"48131","name":"Duval County","state_id":"TX"},{"zip":"78350","fips":"48297","name":"Live Oak County","state_id":"TX"},{"zip":"78351","fips":"48355","name":"Nueces County","state_id":"TX"},{"zip":"78352","fips":"48409","name":"San Patricio County","state_id":"TX"},{"zip":"78353","fips":"48047","name":"Brooks County","state_id":"TX"},{"zip":"78355","fips":"48047","name":"Brooks County","state_id":"TX"},{"zip":"78355","fips":"48249","name":"Jim Wells County","state_id":"TX"},{"zip":"78357","fips":"48131","name":"Duval County","state_id":"TX"},{"zip":"78358","fips":"48007","name":"Aransas County","state_id":"TX"},{"zip":"78359","fips":"48409","name":"San Patricio County","state_id":"TX"},{"zip":"78360","fips":"48247","name":"Jim Hogg County","state_id":"TX"},{"zip":"78360","fips":"48505","name":"Zapata County","state_id":"TX"},{"zip":"78361","fips":"48505","name":"Zapata County","state_id":"TX"},{"zip":"78361","fips":"48427","name":"Starr County","state_id":"TX"},{"zip":"78361","fips":"48247","name":"Jim Hogg County","state_id":"TX"},{"zip":"78362","fips":"48409","name":"San Patricio County","state_id":"TX"},{"zip":"78363","fips":"48273","name":"Kleberg County","state_id":"TX"},{"zip":"78363","fips":"48355","name":"Nueces County","state_id":"TX"},{"zip":"78368","fips":"48025","name":"Bee County","state_id":"TX"},{"zip":"78368","fips":"48409","name":"San Patricio County","state_id":"TX"},{"zip":"78368","fips":"48297","name":"Live Oak County","state_id":"TX"},{"zip":"78369","fips":"48479","name":"Webb County","state_id":"TX"},{"zip":"78370","fips":"48409","name":"San Patricio County","state_id":"TX"},{"zip":"78371","fips":"48479","name":"Webb County","state_id":"TX"},{"zip":"78372","fips":"48249","name":"Jim Wells County","state_id":"TX"},{"zip":"78372","fips":"48297","name":"Live Oak County","state_id":"TX"},{"zip":"78373","fips":"48355","name":"Nueces County","state_id":"TX"},{"zip":"78374","fips":"48409","name":"San Patricio County","state_id":"TX"},{"zip":"78375","fips":"48249","name":"Jim Wells County","state_id":"TX"},{"zip":"78376","fips":"48131","name":"Duval County","state_id":"TX"},{"zip":"78377","fips":"48391","name":"Refugio County","state_id":"TX"},{"zip":"78379","fips":"48273","name":"Kleberg County","state_id":"TX"},{"zip":"78380","fips":"48249","name":"Jim Wells County","state_id":"TX"},{"zip":"78380","fips":"48355","name":"Nueces County","state_id":"TX"},{"zip":"78381","fips":"48007","name":"Aransas County","state_id":"TX"},{"zip":"78382","fips":"48007","name":"Aransas County","state_id":"TX"},{"zip":"78383","fips":"48355","name":"Nueces County","state_id":"TX"},{"zip":"78383","fips":"48297","name":"Live Oak County","state_id":"TX"},{"zip":"78383","fips":"48249","name":"Jim Wells County","state_id":"TX"},{"zip":"78384","fips":"48131","name":"Duval County","state_id":"TX"},{"zip":"78384","fips":"48249","name":"Jim Wells County","state_id":"TX"},{"zip":"78385","fips":"48261","name":"Kenedy County","state_id":"TX"},{"zip":"78387","fips":"48025","name":"Bee County","state_id":"TX"},{"zip":"78387","fips":"48409","name":"San Patricio County","state_id":"TX"},{"zip":"78389","fips":"48297","name":"Live Oak County","state_id":"TX"},{"zip":"78389","fips":"48025","name":"Bee County","state_id":"TX"},{"zip":"78389","fips":"48409","name":"San Patricio County","state_id":"TX"},{"zip":"78390","fips":"48409","name":"San Patricio County","state_id":"TX"},{"zip":"78390","fips":"48007","name":"Aransas County","state_id":"TX"},{"zip":"78391","fips":"48025","name":"Bee County","state_id":"TX"},{"zip":"78393","fips":"48391","name":"Refugio County","state_id":"TX"}]
