[{"zip":"78501","fips":"48215","name":"Hidalgo County","state_id":"TX"},{"zip":"78502","fips":"48215","name":"Hidalgo County","state_id":"TX"},{"zip":"78503","fips":"48215","name":"Hidalgo County","state_id":"TX"},{"zip":"78504","fips":"48215","name":"Hidalgo County","state_id":"TX"},{"zip":"78505","fips":"48215","name":"Hidalgo County","state_id":"TX"},{"zip":"78516","fips":"48215","name":"Hidalgo County","state_id":"TX"},{"zip":"78520","fips":"48061","name":"Cameron County","state_id":"TX"},{"zip":"78521","fips":"48061","name":"Cameron County","state_id":"TX"},{"zip":"78522","fips":"48061","name":"Cameron County","state_id":"TX"},{"zip":"78523","fips":"48061","name":"Cameron County","state_id":"TX"},{"zip":"78526","fips":"48061","name":"Cameron County","state_id":"TX"},{"zip":"78535","fips":"48061","name":"Cameron County","state_id":"TX"},{"zip":"78536","fips":"48427","name":"Starr County","state_id":"TX"},{"zip":"78537","fips":"48215","name":"Hidalgo County","state_id":"TX"},{"zip":"78538","fips":"48215","name":"Hidalgo County","state_id":"TX"},{"zip":"78539","fips":"48215","name":"Hidalgo County","state_id":"TX"},{"zip":"78540","fips":"48215","name":"Hidalgo County","state_id":"TX"},{"zip":"78541","fips":"48215","name":"Hidalgo County","state_id":"TX"},{"zip":"78542","fips":"48215","name":"Hidalgo County","state_id":"TX"},{"zip":"78543","fips":"48215","name":"Hidalgo County","state_id":"TX"},{"zip":"78545","fips":"48427","name":"Starr County","state_id":"TX"},{"zip":"78547","fips":"48427","name":"Starr County","state_id":"TX"},{"zip":"78548","fips":"48427","name":"Starr County","state_id":"TX"},{"zip":"78548","fips":"48215","name":"Hidalgo County","state_id":"TX"},{"zip":"78549","fips":"48215","name":"Hidalgo County","state_id":"TX"},{"zip":"78550","fips":"48061","name":"Cameron County","state_id":"TX"},{"zip":"78551","fips":"48061","name":"Cameron County","state_id":"TX"},{"zip":"78552","fips":"48061","name":"Cameron County","state_id":"TX"},{"zip":"78553","fips":"48061","name":"Cameron County","state_id":"TX"},{"zip":"78557","fips":"48215","name":"Hidalgo County","state_id":"TX"},{"zip":"78558","fips":"48215","name":"Hidalgo County","state_id":"TX"},{"zip":"78559","fips":"48215","name":"Hidalgo County","state_id":"TX"},{"zip":"78559","fips":"48061","name":"Cameron County","state_id":"TX"},{"zip":"78560","fips":"48215","name":"Hidalgo County","state_id":"TX"},{"zip":"78561","fips":"48489","name":"Willacy County","state_id":"TX"},{"zip":"78562","fips":"48215","name":"Hidalgo County","state_id":"TX"},{"zip":"78563","fips":"48215","name":"Hidalgo County","state_id":"TX"},{"zip":"78563","fips":"48427","name":"Starr County","state_id":"TX"},{"zip":"78564","fips":"48505","name":"Zapata County","state_id":"TX"},{"zip":"78565","fips":"48215","name":"Hidalgo County","state_id":"TX"},{"zip":"78566","fips":"48061","name":"Cameron County","state_id":"TX"},{"zip":"78567","fips":"48061","name":"Cameron County","state_id":"TX"},{"zip":"78568","fips":"48061","name":"Cameron County","state_id":"TX"},{"zip":"78569","fips":"48489","name":"Willacy County","state_id":"TX"},{"zip":"78569","fips":"48215","name":"Hidalgo County","state_id":"TX"},{"zip":"78569","fips":"48061","name":"Cameron County","state_id":"TX"},{"zip":"78570","fips":"48061","name":"Cameron County","state_id":"TX"},{"zip":"78570","fips":"48215","name":"Hidalgo County","state_id":"TX"},{"zip":"78572","fips":"48215","name":"Hidalgo County","state_id":"TX"},{"zip":"78573","fips":"48215","name":"Hidalgo County","state_id":"TX"},{"zip":"78574","fips":"48215","name":"Hidalgo County","state_id":"TX"},{"zip":"78575","fips":"48061","name":"Cameron County","state_id":"TX"},{"zip":"78576","fips":"48215","name":"Hidalgo County","state_id":"TX"},{"zip":"78577","fips":"48215","name":"Hidalgo County","state_id":"TX"},{"zip":"78578","fips":"48061","name":"Cameron County","state_id":"TX"},{"zip":"78579","fips":"48215","name":"Hidalgo County","state_id":"TX"},{"zip":"78580","fips":"48489","name":"Willacy County","state_id":"TX"},{"zip":"78582","fips":"48215","name":"Hidalgo County","state_id":"TX"},{"zip":"78582","fips":"48247","name":"Jim Hogg County","state_id":"TX"},{"zip":"78582","fips":"48427","name":"Starr County","state_id":"TX"},{"zip":"78583","fips":"48061","name":"Cameron County","state_id":"TX"},{"zip":"78584","fips":"48505","name":"Zapata County","state_id":"TX"},{"zip":"78584","fips":"48427","name":"Starr County","state_id":"TX"},{"zip":"78585","fips":"48427","name":"Starr County","state_id":"TX"},{"zip":"78586","fips":"48061","name":"Cameron County","state_id":"TX"},{"zip":"78588","fips":"48427","name":"Starr County","state_id":"TX"},{"zip":"78589","fips":"48215","name":"Hidalgo County","state_id":"TX"},{"zip":"78590","fips":"48489","name":"Willacy County","state_id":"TX"},{"zip":"78591","fips":"48427","name":"Starr County","state_id":"TX"},{"zip":"78592","fips":"48061","name":"Cameron County","state_id":"TX"},{"zip":"78593","fips":"48061","name":"Cameron County","state_id":"TX"},{"zip":"78594","fips":"48489","name":"Willacy County","state_id":"TX"},{"zip":"78595","fips":"48215","name":"Hidalgo County","state_id":"TX"},{"zip":"78595","fips":"48427","name":"Starr County","state_id":"TX"},{"zip":"78596","fips":"48215","name":"Hidalgo County","state_id":"TX"},{"zip":"78597","fips":"48061","name":"Cameron County","state_id":"TX"},{"zip":"78598","fips":"48489","name":"Willacy County","state_id":"TX"},{"zip":"78599","fips":"48215","name":"Hidalgo County","state_id":"TX"}]
