[{"zip":"78602","fips":"48021","name":"Bastrop County","state_id":"TX"},{"zip":"78604","fips":"48177","name":"Gonzales County","state_id":"TX"},{"zip":"78605","fips":"48491","name":"Williamson County","state_id":"TX"},{"zip":"78605","fips":"48053","name":"Burnet County","state_id":"TX"},{"zip":"78606","fips":"48031","name":"Blanco County","state_id":"TX"},{"zip":"78606","fips":"48091","name":"Comal County","state_id":"TX"},{"zip":"78606","fips":"48209","name":"Hays County","state_id":"TX"},{"zip":"78606","fips":"48259","name":"Kendall County","state_id":"TX"},{"zip":"78607","fips":"48299","name":"Llano County","state_id":"TX"},{"zip":"78608","fips":"48053","name":"Burnet County","state_id":"TX"},{"zip":"78609","fips":"48299","name":"Llano County","state_id":"TX"},{"zip":"78610","fips":"48453","name":"Travis County","state_id":"TX"},{"zip":"78610","fips":"48209","name":"Hays County","state_id":"TX"},{"zip":"78610","fips":"48055","name":"Caldwell County","state_id":"TX"},{"zip":"78611","fips":"48053","name":"Burnet County","state_id":"TX"},{"zip":"78611","fips":"48299","name":"Llano County","state_id":"TX"},{"zip":"78612","fips":"48453","name":"Travis County","state_id":"TX"},{"zip":"78612","fips":"48021","name":"Bastrop County","state_id":"TX"},{"zip":"78613","fips":"48453","name":"Travis County","state_id":"TX"},{"zip":"78613","fips":"48491","name":"Williamson County","state_id":"TX"},{"zip":"78614","fips":"48177","name":"Gonzales County","state_id":"TX"},{"zip":"78615","fips":"48491","name":"Williamson County","state_id":"TX"},{"zip":"78615","fips":"48453","name":"Travis County","state_id":"TX"},{"zip":"78616","fips":"48021","name":"Bastrop County","state_id":"TX"},{"zip":"78616","fips":"48055","name":"Caldwell County","state_id":"TX"},{"zip":"78616","fips":"48453","name":"Travis County","state_id":"TX"},{"zip":"78617","fips":"48021","name":"Bastrop County","state_id":"TX"},{"zip":"78617","fips":"48453","name":"Travis County","state_id":"TX"},{"zip":"78618","fips":"48171","name":"Gillespie County","state_id":"TX"},{"zip":"78619","fips":"48209","name":"Hays County","state_id":"TX"},{"zip":"78620","fips":"48209","name":"Hays County","state_id":"TX"},{"zip":"78620","fips":"48453","name":"Travis County","state_id":"TX"},{"zip":"78620","fips":"48031","name":"Blanco County","state_id":"TX"},{"zip":"78621","fips":"48453","name":"Travis County","state_id":"TX"},{"zip":"78621","fips":"48287","name":"Lee County","state_id":"TX"},{"zip":"78621","fips":"48021","name":"Bastrop County","state_id":"TX"},{"zip":"78621","fips":"48491","name":"Williamson County","state_id":"TX"},{"zip":"78622","fips":"48055","name":"Caldwell County","state_id":"TX"},{"zip":"78623","fips":"48091","name":"Comal County","state_id":"TX"},{"zip":"78623","fips":"48209","name":"Hays County","state_id":"TX"},{"zip":"78624","fips":"48171","name":"Gillespie County","state_id":"TX"},{"zip":"78624","fips":"48299","name":"Llano County","state_id":"TX"},{"zip":"78624","fips":"48265","name":"Kerr County","state_id":"TX"},{"zip":"78624","fips":"48319","name":"Mason County","state_id":"TX"},{"zip":"78624","fips":"48259","name":"Kendall County","state_id":"TX"},{"zip":"78626","fips":"48491","name":"Williamson County","state_id":"TX"},{"zip":"78627","fips":"48491","name":"Williamson County","state_id":"TX"},{"zip":"78628","fips":"48491","name":"Williamson County","state_id":"TX"},{"zip":"78629","fips":"48123","name":"DeWitt County","state_id":"TX"},{"zip":"78629","fips":"48177","name":"Gonzales County","state_id":"TX"},{"zip":"78630","fips":"48491","name":"Williamson County","state_id":"TX"},{"zip":"78631","fips":"48265","name":"Kerr County","state_id":"TX"},{"zip":"78631","fips":"48171","name":"Gillespie County","state_id":"TX"},{"zip":"78631","fips":"48267","name":"Kimble County","state_id":"TX"},{"zip":"78632","fips":"48055","name":"Caldwell County","state_id":"TX"},{"zip":"78632","fips":"48177","name":"Gonzales County","state_id":"TX"},{"zip":"78633","fips":"48491","name":"Williamson County","state_id":"TX"},{"zip":"78634","fips":"48453","name":"Travis County","state_id":"TX"},{"zip":"78634","fips":"48491","name":"Williamson County","state_id":"TX"},{"zip":"78635","fips":"48031","name":"Blanco County","state_id":"TX"},{"zip":"78635","fips":"48171","name":"Gillespie County","state_id":"TX"},{"zip":"78636","fips":"48209","name":"Hays County","state_id":"TX"},{"zip":"78636","fips":"48031","name":"Blanco County","state_id":"TX"},{"zip":"78638","fips":"48187","name":"Guadalupe County","state_id":"TX"},{"zip":"78639","fips":"48053","name":"Burnet County","state_id":"TX"},{"zip":"78639","fips":"48299","name":"Llano County","state_id":"TX"},{"zip":"78640","fips":"48453","name":"Travis County","state_id":"TX"},{"zip":"78640","fips":"48055","name":"Caldwell County","state_id":"TX"},{"zip":"78640","fips":"48209","name":"Hays County","state_id":"TX"},{"zip":"78641","fips":"48491","name":"Williamson County","state_id":"TX"},{"zip":"78641","fips":"48453","name":"Travis County","state_id":"TX"},{"zip":"78642","fips":"48453","name":"Travis County","state_id":"TX"},{"zip":"78642","fips":"48053","name":"Burnet County","state_id":"TX"},{"zip":"78642","fips":"48491","name":"Williamson County","state_id":"TX"},{"zip":"78643","fips":"48299","name":"Llano County","state_id":"TX"},{"zip":"78644","fips":"48055","name":"Caldwell County","state_id":"TX"},{"zip":"78645","fips":"48453","name":"Travis County","state_id":"TX"},{"zip":"78646","fips":"48491","name":"Williamson County","state_id":"TX"},{"zip":"78648","fips":"48177","name":"Gonzales County","state_id":"TX"},{"zip":"78648","fips":"48055","name":"Caldwell County","state_id":"TX"},{"zip":"78648","fips":"48187","name":"Guadalupe County","state_id":"TX"},{"zip":"78650","fips":"48287","name":"Lee County","state_id":"TX"},{"zip":"78650","fips":"48021","name":"Bastrop County","state_id":"TX"},{"zip":"78651","fips":"48491","name":"Williamson County","state_id":"TX"},{"zip":"78652","fips":"48453","name":"Travis County","state_id":"TX"},{"zip":"78652","fips":"48209","name":"Hays County","state_id":"TX"},{"zip":"78653","fips":"48453","name":"Travis County","state_id":"TX"},{"zip":"78653","fips":"48021","name":"Bastrop County","state_id":"TX"},{"zip":"78654","fips":"48053","name":"Burnet County","state_id":"TX"},{"zip":"78654","fips":"48453","name":"Travis County","state_id":"TX"},{"zip":"78655","fips":"48055","name":"Caldwell County","state_id":"TX"},{"zip":"78655","fips":"48187","name":"Guadalupe County","state_id":"TX"},{"zip":"78656","fips":"48209","name":"Hays County","state_id":"TX"},{"zip":"78656","fips":"48055","name":"Caldwell County","state_id":"TX"},{"zip":"78657","fips":"48299","name":"Llano County","state_id":"TX"},{"zip":"78657","fips":"48053","name":"Burnet County","state_id":"TX"},{"zip":"78659","fips":"48287","name":"Lee County","state_id":"TX"},{"zip":"78659","fips":"48021","name":"Bastrop County","state_id":"TX"},{"zip":"78660","fips":"48491","name":"Williamson County","state_id":"TX"},{"zip":"78660","fips":"48453","name":"Travis County","state_id":"TX"},{"zip":"78661","fips":"48055","name":"Caldwell County","state_id":"TX"},{"zip":"78662","fips":"48021","name":"Bastrop County","state_id":"TX"},{"zip":"78662","fips":"48055","name":"Caldwell County","state_id":"TX"},{"zip":"78663","fips":"48453","name":"Travis County","state_id":"TX"},{"zip":"78663","fips":"48209","name":"Hays County","state_id":"TX"},{"zip":"78663","fips":"48053","name":"Burnet County","state_id":"TX"},{"zip":"78663","fips":"48031","name":"Blanco County","state_id":"TX"},{"zip":"78664","fips":"48491","name":"Williamson County","state_id":"TX"},{"zip":"78664","fips":"48453","name":"Travis County","state_id":"TX"},{"zip":"78665","fips":"48491","name":"Williamson County","state_id":"TX"},{"zip":"78666","fips":"48209","name":"Hays County","state_id":"TX"},{"zip":"78666","fips":"48187","name":"Guadalupe County","state_id":"TX"},{"zip":"78666","fips":"48055","name":"Caldwell County","state_id":"TX"},{"zip":"78666","fips":"48091","name":"Comal County","state_id":"TX"},{"zip":"78667","fips":"48209","name":"Hays County","state_id":"TX"},{"zip":"78669","fips":"48053","name":"Burnet County","state_id":"TX"},{"zip":"78669","fips":"48031","name":"Blanco County","state_id":"TX"},{"zip":"78669","fips":"48453","name":"Travis County","state_id":"TX"},{"zip":"78670","fips":"48187","name":"Guadalupe County","state_id":"TX"},{"zip":"78671","fips":"48031","name":"Blanco County","state_id":"TX"},{"zip":"78671","fips":"48171","name":"Gillespie County","state_id":"TX"},{"zip":"78672","fips":"48299","name":"Llano County","state_id":"TX"},{"zip":"78673","fips":"48491","name":"Williamson County","state_id":"TX"},{"zip":"78674","fips":"48491","name":"Williamson County","state_id":"TX"},{"zip":"78675","fips":"48171","name":"Gillespie County","state_id":"TX"},{"zip":"78676","fips":"48091","name":"Comal County","state_id":"TX"},{"zip":"78676","fips":"48031","name":"Blanco County","state_id":"TX"},{"zip":"78676","fips":"48209","name":"Hays County","state_id":"TX"},{"zip":"78677","fips":"48177","name":"Gonzales County","state_id":"TX"},{"zip":"78680","fips":"48491","name":"Williamson County","state_id":"TX"},{"zip":"78681","fips":"48491","name":"Williamson County","state_id":"TX"},{"zip":"78682","fips":"48491","name":"Williamson County","state_id":"TX"},{"zip":"78683","fips":"48491","name":"Williamson County","state_id":"TX"},{"zip":"78691","fips":"48453","name":"Travis County","state_id":"TX"}]
