[{"zip":"78701","fips":"48453","name":"Travis County","state_id":"TX"},{"zip":"78702","fips":"48453","name":"Travis County","state_id":"TX"},{"zip":"78703","fips":"48453","name":"Travis County","state_id":"TX"},{"zip":"78704","fips":"48453","name":"Travis County","state_id":"TX"},{"zip":"78705","fips":"48453","name":"Travis County","state_id":"TX"},{"zip":"78708","fips":"48453","name":"Travis County","state_id":"TX"},{"zip":"78709","fips":"48453","name":"Travis County","state_id":"TX"},{"zip":"78710","fips":"48453","name":"Travis County","state_id":"TX"},{"zip":"78711","fips":"48453","name":"Travis County","state_id":"TX"},{"zip":"78712","fips":"48453","name":"Travis County","state_id":"TX"},{"zip":"78713","fips":"48453","name":"Travis County","state_id":"TX"},{"zip":"78714","fips":"48453","name":"Travis County","state_id":"TX"},{"zip":"78715","fips":"48453","name":"Travis County","state_id":"TX"},{"zip":"78716","fips":"48453","name":"Travis County","state_id":"TX"},{"zip":"78717","fips":"48491","name":"Williamson County","state_id":"TX"},{"zip":"78718","fips":"48453","name":"Travis County","state_id":"TX"},{"zip":"78719","fips":"48453","name":"Travis County","state_id":"TX"},{"zip":"78720","fips":"48453","name":"Travis County","state_id":"TX"},{"zip":"78721","fips":"48453","name":"Travis County","state_id":"TX"},{"zip":"78722","fips":"48453","name":"Travis County","state_id":"TX"},{"zip":"78723","fips":"48453","name":"Travis County","state_id":"TX"},{"zip":"78724","fips":"48453","name":"Travis County","state_id":"TX"},{"zip":"78725","fips":"48453","name":"Travis County","state_id":"TX"},{"zip":"78726","fips":"48453","name":"Travis County","state_id":"TX"},{"zip":"78727","fips":"48453","name":"Travis County","state_id":"TX"},{"zip":"78727","fips":"48491","name":"Williamson County","state_id":"TX"},{"zip":"78728","fips":"48491","name":"Williamson County","state_id":"TX"},{"zip":"78728","fips":"48453","name":"Travis County","state_id":"TX"},{"zip":"78729","fips":"48453","name":"Travis County","state_id":"TX"},{"zip":"78729","fips":"48491","name":"Williamson County","state_id":"TX"},{"zip":"78730","fips":"48453","name":"Travis County","state_id":"TX"},{"zip":"78731","fips":"48453","name":"Travis County","state_id":"TX"},{"zip":"78732","fips":"48453","name":"Travis County","state_id":"TX"},{"zip":"78733","fips":"48453","name":"Travis County","state_id":"TX"},{"zip":"78734","fips":"48453","name":"Travis County","state_id":"TX"},{"zip":"78735","fips":"48453","name":"Travis County","state_id":"TX"},{"zip":"78736","fips":"48453","name":"Travis County","state_id":"TX"},{"zip":"78736","fips":"48209","name":"Hays County","state_id":"TX"},{"zip":"78737","fips":"48209","name":"Hays County","state_id":"TX"},{"zip":"78737","fips":"48453","name":"Travis County","state_id":"TX"},{"zip":"78738","fips":"48209","name":"Hays County","state_id":"TX"},{"zip":"78738","fips":"48453","name":"Travis County","state_id":"TX"},{"zip":"78739","fips":"48453","name":"Travis County","state_id":"TX"},{"zip":"78739","fips":"48209","name":"Hays County","state_id":"TX"},{"zip":"78741","fips":"48453","name":"Travis County","state_id":"TX"},{"zip":"78742","fips":"48453","name":"Travis County","state_id":"TX"},{"zip":"78744","fips":"48453","name":"Travis County","state_id":"TX"},{"zip":"78745","fips":"48453","name":"Travis County","state_id":"TX"},{"zip":"78746","fips":"48453","name":"Travis County","state_id":"TX"},{"zip":"78747","fips":"48453","name":"Travis County","state_id":"TX"},{"zip":"78748","fips":"48453","name":"Travis County","state_id":"TX"},{"zip":"78749","fips":"48453","name":"Travis County","state_id":"TX"},{"zip":"78750","fips":"48491","name":"Williamson County","state_id":"TX"},{"zip":"78750","fips":"48453","name":"Travis County","state_id":"TX"},{"zip":"78751","fips":"48453","name":"Travis County","state_id":"TX"},{"zip":"78752","fips":"48453","name":"Travis County","state_id":"TX"},{"zip":"78753","fips":"48453","name":"Travis County","state_id":"TX"},{"zip":"78754","fips":"48453","name":"Travis County","state_id":"TX"},{"zip":"78755","fips":"48453","name":"Travis County","state_id":"TX"},{"zip":"78756","fips":"48453","name":"Travis County","state_id":"TX"},{"zip":"78757","fips":"48453","name":"Travis County","state_id":"TX"},{"zip":"78758","fips":"48453","name":"Travis County","state_id":"TX"},{"zip":"78759","fips":"48453","name":"Travis County","state_id":"TX"},{"zip":"78759","fips":"48491","name":"Williamson County","state_id":"TX"},{"zip":"78760","fips":"48453","name":"Travis County","state_id":"TX"},{"zip":"78761","fips":"48453","name":"Travis County","state_id":"TX"},{"zip":"78762","fips":"48453","name":"Travis County","state_id":"TX"},{"zip":"78763","fips":"48453","name":"Travis County","state_id":"TX"},{"zip":"78764","fips":"48453","name":"Travis County","state_id":"TX"},{"zip":"78765","fips":"48453","name":"Travis County","state_id":"TX"},{"zip":"78766","fips":"48453","name":"Travis County","state_id":"TX"},{"zip":"78767","fips":"48453","name":"Travis County","state_id":"TX"},{"zip":"78768","fips":"48453","name":"Travis County","state_id":"TX"},{"zip":"78772","fips":"48453","name":"Travis County","state_id":"TX"},{"zip":"78774","fips":"48453","name":"Travis County","state_id":"TX"},{"zip":"78778","fips":"48453","name":"Travis County","state_id":"TX"},{"zip":"78779","fips":"48453","name":"Travis County","state_id":"TX"},{"zip":"78799","fips":"48453","name":"Travis County","state_id":"TX"}]
