[{"zip":"78801","fips":"48385","name":"Real County","state_id":"TX"},{"zip":"78801","fips":"48463","name":"Uvalde County","state_id":"TX"},{"zip":"78802","fips":"48463","name":"Uvalde County","state_id":"TX"},{"zip":"78827","fips":"48127","name":"Dimmit County","state_id":"TX"},{"zip":"78828","fips":"48385","name":"Real County","state_id":"TX"},{"zip":"78828","fips":"48137","name":"Edwards County","state_id":"TX"},{"zip":"78829","fips":"48507","name":"Zavala County","state_id":"TX"},{"zip":"78830","fips":"48127","name":"Dimmit County","state_id":"TX"},{"zip":"78832","fips":"48271","name":"Kinney County","state_id":"TX"},{"zip":"78833","fips":"48137","name":"Edwards County","state_id":"TX"},{"zip":"78833","fips":"48385","name":"Real County","state_id":"TX"},{"zip":"78833","fips":"48463","name":"Uvalde County","state_id":"TX"},{"zip":"78834","fips":"48507","name":"Zavala County","state_id":"TX"},{"zip":"78834","fips":"48127","name":"Dimmit County","state_id":"TX"},{"zip":"78836","fips":"48127","name":"Dimmit County","state_id":"TX"},{"zip":"78837","fips":"48465","name":"Val Verde County","state_id":"TX"},{"zip":"78838","fips":"48463","name":"Uvalde County","state_id":"TX"},{"zip":"78839","fips":"48507","name":"Zavala County","state_id":"TX"},{"zip":"78839","fips":"48127","name":"Dimmit County","state_id":"TX"},{"zip":"78840","fips":"48465","name":"Val Verde County","state_id":"TX"},{"zip":"78840","fips":"48137","name":"Edwards County","state_id":"TX"},{"zip":"78841","fips":"48465","name":"Val Verde County","state_id":"TX"},{"zip":"78842","fips":"48465","name":"Val Verde County","state_id":"TX"},{"zip":"78843","fips":"48465","name":"Val Verde County","state_id":"TX"},{"zip":"78847","fips":"48465","name":"Val Verde County","state_id":"TX"},{"zip":"78850","fips":"48325","name":"Medina County","state_id":"TX"},{"zip":"78851","fips":"48443","name":"Terrell County","state_id":"TX"},{"zip":"78852","fips":"48323","name":"Maverick County","state_id":"TX"},{"zip":"78853","fips":"48323","name":"Maverick County","state_id":"TX"},{"zip":"78860","fips":"48323","name":"Maverick County","state_id":"TX"},{"zip":"78861","fips":"48325","name":"Medina County","state_id":"TX"},{"zip":"78870","fips":"48463","name":"Uvalde County","state_id":"TX"},{"zip":"78871","fips":"48465","name":"Val Verde County","state_id":"TX"},{"zip":"78872","fips":"48507","name":"Zavala County","state_id":"TX"},{"zip":"78873","fips":"48385","name":"Real County","state_id":"TX"},{"zip":"78877","fips":"48323","name":"Maverick County","state_id":"TX"},{"zip":"78877","fips":"48271","name":"Kinney County","state_id":"TX"},{"zip":"78879","fips":"48385","name":"Real County","state_id":"TX"},{"zip":"78880","fips":"48137","name":"Edwards County","state_id":"TX"},{"zip":"78880","fips":"48385","name":"Real County","state_id":"TX"},{"zip":"78881","fips":"48463","name":"Uvalde County","state_id":"TX"},{"zip":"78883","fips":"48019","name":"Bandera County","state_id":"TX"},{"zip":"78884","fips":"48019","name":"Bandera County","state_id":"TX"},{"zip":"78884","fips":"48325","name":"Medina County","state_id":"TX"},{"zip":"78884","fips":"48463","name":"Uvalde County","state_id":"TX"},{"zip":"78885","fips":"48019","name":"Bandera County","state_id":"TX"},{"zip":"78886","fips":"48325","name":"Medina County","state_id":"TX"}]
