[{"zip":"78931","fips":"48015","name":"Austin County","state_id":"TX"},{"zip":"78932","fips":"48477","name":"Washington County","state_id":"TX"},{"zip":"78932","fips":"48149","name":"Fayette County","state_id":"TX"},{"zip":"78933","fips":"48089","name":"Colorado County","state_id":"TX"},{"zip":"78933","fips":"48015","name":"Austin County","state_id":"TX"},{"zip":"78934","fips":"48089","name":"Colorado County","state_id":"TX"},{"zip":"78934","fips":"48149","name":"Fayette County","state_id":"TX"},{"zip":"78935","fips":"48149","name":"Fayette County","state_id":"TX"},{"zip":"78935","fips":"48089","name":"Colorado County","state_id":"TX"},{"zip":"78938","fips":"48149","name":"Fayette County","state_id":"TX"},{"zip":"78940","fips":"48089","name":"Colorado County","state_id":"TX"},{"zip":"78940","fips":"48149","name":"Fayette County","state_id":"TX"},{"zip":"78940","fips":"48015","name":"Austin County","state_id":"TX"},{"zip":"78941","fips":"48149","name":"Fayette County","state_id":"TX"},{"zip":"78941","fips":"48285","name":"Lavaca County","state_id":"TX"},{"zip":"78941","fips":"48177","name":"Gonzales County","state_id":"TX"},{"zip":"78941","fips":"48021","name":"Bastrop County","state_id":"TX"},{"zip":"78942","fips":"48287","name":"Lee County","state_id":"TX"},{"zip":"78942","fips":"48149","name":"Fayette County","state_id":"TX"},{"zip":"78942","fips":"48021","name":"Bastrop County","state_id":"TX"},{"zip":"78943","fips":"48089","name":"Colorado County","state_id":"TX"},{"zip":"78944","fips":"48015","name":"Austin County","state_id":"TX"},{"zip":"78945","fips":"48287","name":"Lee County","state_id":"TX"},{"zip":"78945","fips":"48149","name":"Fayette County","state_id":"TX"},{"zip":"78946","fips":"48149","name":"Fayette County","state_id":"TX"},{"zip":"78946","fips":"48287","name":"Lee County","state_id":"TX"},{"zip":"78946","fips":"48477","name":"Washington County","state_id":"TX"},{"zip":"78947","fips":"48287","name":"Lee County","state_id":"TX"},{"zip":"78947","fips":"48331","name":"Milam County","state_id":"TX"},{"zip":"78948","fips":"48287","name":"Lee County","state_id":"TX"},{"zip":"78949","fips":"48149","name":"Fayette County","state_id":"TX"},{"zip":"78950","fips":"48089","name":"Colorado County","state_id":"TX"},{"zip":"78950","fips":"48149","name":"Fayette County","state_id":"TX"},{"zip":"78950","fips":"48015","name":"Austin County","state_id":"TX"},{"zip":"78951","fips":"48089","name":"Colorado County","state_id":"TX"},{"zip":"78952","fips":"48149","name":"Fayette County","state_id":"TX"},{"zip":"78953","fips":"48055","name":"Caldwell County","state_id":"TX"},{"zip":"78953","fips":"48021","name":"Bastrop County","state_id":"TX"},{"zip":"78954","fips":"48015","name":"Austin County","state_id":"TX"},{"zip":"78954","fips":"48149","name":"Fayette County","state_id":"TX"},{"zip":"78956","fips":"48285","name":"Lavaca County","state_id":"TX"},{"zip":"78956","fips":"48089","name":"Colorado County","state_id":"TX"},{"zip":"78956","fips":"48149","name":"Fayette County","state_id":"TX"},{"zip":"78957","fips":"48149","name":"Fayette County","state_id":"TX"},{"zip":"78957","fips":"48021","name":"Bastrop County","state_id":"TX"},{"zip":"78959","fips":"48021","name":"Bastrop County","state_id":"TX"},{"zip":"78959","fips":"48149","name":"Fayette County","state_id":"TX"},{"zip":"78959","fips":"48177","name":"Gonzales County","state_id":"TX"},{"zip":"78959","fips":"48055","name":"Caldwell County","state_id":"TX"},{"zip":"78960","fips":"48149","name":"Fayette County","state_id":"TX"},{"zip":"78962","fips":"48149","name":"Fayette County","state_id":"TX"},{"zip":"78962","fips":"48089","name":"Colorado County","state_id":"TX"},{"zip":"78963","fips":"48149","name":"Fayette County","state_id":"TX"}]
