[{"zip":"79001","fips":"48117","name":"Deaf Smith County","state_id":"TX"},{"zip":"79001","fips":"48359","name":"Oldham County","state_id":"TX"},{"zip":"79002","fips":"48179","name":"Gray County","state_id":"TX"},{"zip":"79003","fips":"48483","name":"Wheeler County","state_id":"TX"},{"zip":"79005","fips":"48357","name":"Ochiltree County","state_id":"TX"},{"zip":"79005","fips":"48295","name":"Lipscomb County","state_id":"TX"},{"zip":"79007","fips":"48233","name":"Hutchinson County","state_id":"TX"},{"zip":"79008","fips":"48233","name":"Hutchinson County","state_id":"TX"},{"zip":"79009","fips":"48369","name":"Parmer County","state_id":"TX"},{"zip":"79010","fips":"48359","name":"Oldham County","state_id":"TX"},{"zip":"79011","fips":"48483","name":"Wheeler County","state_id":"TX"},{"zip":"79011","fips":"48211","name":"Hemphill County","state_id":"TX"},{"zip":"79012","fips":"48375","name":"Potter County","state_id":"TX"},{"zip":"79013","fips":"48341","name":"Moore County","state_id":"TX"},{"zip":"79014","fips":"48483","name":"Wheeler County","state_id":"TX"},{"zip":"79014","fips":"48211","name":"Hemphill County","state_id":"TX"},{"zip":"79014","fips":"48295","name":"Lipscomb County","state_id":"TX"},{"zip":"79015","fips":"48381","name":"Randall County","state_id":"TX"},{"zip":"79015","fips":"48117","name":"Deaf Smith County","state_id":"TX"},{"zip":"79016","fips":"48381","name":"Randall County","state_id":"TX"},{"zip":"79018","fips":"48205","name":"Hartley County","state_id":"TX"},{"zip":"79018","fips":"48341","name":"Moore County","state_id":"TX"},{"zip":"79019","fips":"48011","name":"Armstrong County","state_id":"TX"},{"zip":"79019","fips":"48381","name":"Randall County","state_id":"TX"},{"zip":"79021","fips":"48189","name":"Hale County","state_id":"TX"},{"zip":"79022","fips":"48111","name":"Dallam County","state_id":"TX"},{"zip":"79022","fips":"48341","name":"Moore County","state_id":"TX"},{"zip":"79022","fips":"48421","name":"Sherman County","state_id":"TX"},{"zip":"79022","fips":"48205","name":"Hartley County","state_id":"TX"},{"zip":"79024","fips":"48295","name":"Lipscomb County","state_id":"TX"},{"zip":"79025","fips":"48117","name":"Deaf Smith County","state_id":"TX"},{"zip":"79027","fips":"48069","name":"Castro County","state_id":"TX"},{"zip":"79027","fips":"48279","name":"Lamb County","state_id":"TX"},{"zip":"79029","fips":"48421","name":"Sherman County","state_id":"TX"},{"zip":"79029","fips":"48341","name":"Moore County","state_id":"TX"},{"zip":"79029","fips":"48205","name":"Hartley County","state_id":"TX"},{"zip":"79031","fips":"48017","name":"Bailey County","state_id":"TX"},{"zip":"79031","fips":"48279","name":"Lamb County","state_id":"TX"},{"zip":"79031","fips":"48069","name":"Castro County","state_id":"TX"},{"zip":"79032","fips":"48189","name":"Hale County","state_id":"TX"},{"zip":"79033","fips":"48357","name":"Ochiltree County","state_id":"TX"},{"zip":"79034","fips":"48295","name":"Lipscomb County","state_id":"TX"},{"zip":"79035","fips":"48369","name":"Parmer County","state_id":"TX"},{"zip":"79035","fips":"48117","name":"Deaf Smith County","state_id":"TX"},{"zip":"79035","fips":"48069","name":"Castro County","state_id":"TX"},{"zip":"79036","fips":"48233","name":"Hutchinson County","state_id":"TX"},{"zip":"79036","fips":"48065","name":"Carson County","state_id":"TX"},{"zip":"79036","fips":"48341","name":"Moore County","state_id":"TX"},{"zip":"79039","fips":"48011","name":"Armstrong County","state_id":"TX"},{"zip":"79039","fips":"48065","name":"Carson County","state_id":"TX"},{"zip":"79039","fips":"48179","name":"Gray County","state_id":"TX"},{"zip":"79040","fips":"48421","name":"Sherman County","state_id":"TX"},{"zip":"79040","fips":"48195","name":"Hansford County","state_id":"TX"},{"zip":"79041","fips":"48189","name":"Hale County","state_id":"TX"},{"zip":"79042","fips":"48011","name":"Armstrong County","state_id":"TX"},{"zip":"79042","fips":"48437","name":"Swisher County","state_id":"TX"},{"zip":"79042","fips":"48069","name":"Castro County","state_id":"TX"},{"zip":"79042","fips":"48381","name":"Randall County","state_id":"TX"},{"zip":"79043","fips":"48279","name":"Lamb County","state_id":"TX"},{"zip":"79043","fips":"48189","name":"Hale County","state_id":"TX"},{"zip":"79043","fips":"48069","name":"Castro County","state_id":"TX"},{"zip":"79044","fips":"48205","name":"Hartley County","state_id":"TX"},{"zip":"79045","fips":"48117","name":"Deaf Smith County","state_id":"TX"},{"zip":"79045","fips":"48069","name":"Castro County","state_id":"TX"},{"zip":"79046","fips":"48295","name":"Lipscomb County","state_id":"TX"},{"zip":"79051","fips":"48111","name":"Dallam County","state_id":"TX"},{"zip":"79052","fips":"48069","name":"Castro County","state_id":"TX"},{"zip":"79052","fips":"48437","name":"Swisher County","state_id":"TX"},{"zip":"79053","fips":"48369","name":"Parmer County","state_id":"TX"},{"zip":"79054","fips":"48179","name":"Gray County","state_id":"TX"},{"zip":"79056","fips":"48295","name":"Lipscomb County","state_id":"TX"},{"zip":"79057","fips":"48129","name":"Donley County","state_id":"TX"},{"zip":"79057","fips":"48179","name":"Gray County","state_id":"TX"},{"zip":"79057","fips":"48483","name":"Wheeler County","state_id":"TX"},{"zip":"79057","fips":"48087","name":"Collingsworth County","state_id":"TX"},{"zip":"79058","fips":"48375","name":"Potter County","state_id":"TX"},{"zip":"79058","fips":"48341","name":"Moore County","state_id":"TX"},{"zip":"79059","fips":"48179","name":"Gray County","state_id":"TX"},{"zip":"79059","fips":"48393","name":"Roberts County","state_id":"TX"},{"zip":"79061","fips":"48179","name":"Gray County","state_id":"TX"},{"zip":"79061","fips":"48211","name":"Hemphill County","state_id":"TX"},{"zip":"79061","fips":"48483","name":"Wheeler County","state_id":"TX"},{"zip":"79062","fips":"48195","name":"Hansford County","state_id":"TX"},{"zip":"79062","fips":"48233","name":"Hutchinson County","state_id":"TX"},{"zip":"79063","fips":"48069","name":"Castro County","state_id":"TX"},{"zip":"79064","fips":"48279","name":"Lamb County","state_id":"TX"},{"zip":"79064","fips":"48189","name":"Hale County","state_id":"TX"},{"zip":"79065","fips":"48393","name":"Roberts County","state_id":"TX"},{"zip":"79065","fips":"48129","name":"Donley County","state_id":"TX"},{"zip":"79065","fips":"48179","name":"Gray County","state_id":"TX"},{"zip":"79066","fips":"48179","name":"Gray County","state_id":"TX"},{"zip":"79068","fips":"48065","name":"Carson County","state_id":"TX"},{"zip":"79068","fips":"48375","name":"Potter County","state_id":"TX"},{"zip":"79070","fips":"48393","name":"Roberts County","state_id":"TX"},{"zip":"79070","fips":"48357","name":"Ochiltree County","state_id":"TX"},{"zip":"79070","fips":"48295","name":"Lipscomb County","state_id":"TX"},{"zip":"79072","fips":"48189","name":"Hale County","state_id":"TX"},{"zip":"79073","fips":"48189","name":"Hale County","state_id":"TX"},{"zip":"79078","fips":"48233","name":"Hutchinson County","state_id":"TX"},{"zip":"79079","fips":"48087","name":"Collingsworth County","state_id":"TX"},{"zip":"79079","fips":"48483","name":"Wheeler County","state_id":"TX"},{"zip":"79080","fips":"48233","name":"Hutchinson County","state_id":"TX"},{"zip":"79080","fips":"48065","name":"Carson County","state_id":"TX"},{"zip":"79081","fips":"48393","name":"Roberts County","state_id":"TX"},{"zip":"79081","fips":"48195","name":"Hansford County","state_id":"TX"},{"zip":"79081","fips":"48233","name":"Hutchinson County","state_id":"TX"},{"zip":"79081","fips":"48357","name":"Ochiltree County","state_id":"TX"},{"zip":"79082","fips":"48279","name":"Lamb County","state_id":"TX"},{"zip":"79083","fips":"48341","name":"Moore County","state_id":"TX"},{"zip":"79083","fips":"48233","name":"Hutchinson County","state_id":"TX"},{"zip":"79083","fips":"48195","name":"Hansford County","state_id":"TX"},{"zip":"79084","fips":"48421","name":"Sherman County","state_id":"TX"},{"zip":"79084","fips":"48111","name":"Dallam County","state_id":"TX"},{"zip":"79085","fips":"48069","name":"Castro County","state_id":"TX"},{"zip":"79086","fips":"48341","name":"Moore County","state_id":"TX"},{"zip":"79086","fips":"48421","name":"Sherman County","state_id":"TX"},{"zip":"79087","fips":"48111","name":"Dallam County","state_id":"TX"},{"zip":"79088","fips":"48045","name":"Briscoe County","state_id":"TX"},{"zip":"79088","fips":"48437","name":"Swisher County","state_id":"TX"},{"zip":"79088","fips":"48069","name":"Castro County","state_id":"TX"},{"zip":"79091","fips":"48381","name":"Randall County","state_id":"TX"},{"zip":"79092","fips":"48117","name":"Deaf Smith County","state_id":"TX"},{"zip":"79092","fips":"48359","name":"Oldham County","state_id":"TX"},{"zip":"79093","fips":"48357","name":"Ochiltree County","state_id":"TX"},{"zip":"79094","fips":"48011","name":"Armstrong County","state_id":"TX"},{"zip":"79094","fips":"48437","name":"Swisher County","state_id":"TX"},{"zip":"79094","fips":"48381","name":"Randall County","state_id":"TX"},{"zip":"79095","fips":"48075","name":"Childress County","state_id":"TX"},{"zip":"79095","fips":"48087","name":"Collingsworth County","state_id":"TX"},{"zip":"79096","fips":"48483","name":"Wheeler County","state_id":"TX"},{"zip":"79097","fips":"48065","name":"Carson County","state_id":"TX"},{"zip":"79097","fips":"48179","name":"Gray County","state_id":"TX"},{"zip":"79098","fips":"48381","name":"Randall County","state_id":"TX"},{"zip":"79098","fips":"48359","name":"Oldham County","state_id":"TX"},{"zip":"79098","fips":"48117","name":"Deaf Smith County","state_id":"TX"},{"zip":"79098","fips":"48375","name":"Potter County","state_id":"TX"}]
