[{"zip":"79101","fips":"48375","name":"Potter County","state_id":"TX"},{"zip":"79102","fips":"48375","name":"Potter County","state_id":"TX"},{"zip":"79103","fips":"48375","name":"Potter County","state_id":"TX"},{"zip":"79103","fips":"48381","name":"Randall County","state_id":"TX"},{"zip":"79104","fips":"48375","name":"Potter County","state_id":"TX"},{"zip":"79105","fips":"48375","name":"Potter County","state_id":"TX"},{"zip":"79106","fips":"48375","name":"Potter County","state_id":"TX"},{"zip":"79106","fips":"48381","name":"Randall County","state_id":"TX"},{"zip":"79107","fips":"48375","name":"Potter County","state_id":"TX"},{"zip":"79108","fips":"48375","name":"Potter County","state_id":"TX"},{"zip":"79108","fips":"48065","name":"Carson County","state_id":"TX"},{"zip":"79109","fips":"48375","name":"Potter County","state_id":"TX"},{"zip":"79109","fips":"48381","name":"Randall County","state_id":"TX"},{"zip":"79110","fips":"48381","name":"Randall County","state_id":"TX"},{"zip":"79111","fips":"48375","name":"Potter County","state_id":"TX"},{"zip":"79114","fips":"48381","name":"Randall County","state_id":"TX"},{"zip":"79116","fips":"48375","name":"Potter County","state_id":"TX"},{"zip":"79117","fips":"48375","name":"Potter County","state_id":"TX"},{"zip":"79118","fips":"48011","name":"Armstrong County","state_id":"TX"},{"zip":"79118","fips":"48381","name":"Randall County","state_id":"TX"},{"zip":"79118","fips":"48375","name":"Potter County","state_id":"TX"},{"zip":"79119","fips":"48375","name":"Potter County","state_id":"TX"},{"zip":"79119","fips":"48381","name":"Randall County","state_id":"TX"},{"zip":"79120","fips":"48375","name":"Potter County","state_id":"TX"},{"zip":"79121","fips":"48381","name":"Randall County","state_id":"TX"},{"zip":"79121","fips":"48375","name":"Potter County","state_id":"TX"},{"zip":"79124","fips":"48381","name":"Randall County","state_id":"TX"},{"zip":"79124","fips":"48375","name":"Potter County","state_id":"TX"},{"zip":"79159","fips":"48375","name":"Potter County","state_id":"TX"}]
