[{"zip":"79201","fips":"48345","name":"Motley County","state_id":"TX"},{"zip":"79201","fips":"48075","name":"Childress County","state_id":"TX"},{"zip":"79201","fips":"48101","name":"Cottle County","state_id":"TX"},{"zip":"79201","fips":"48191","name":"Hall County","state_id":"TX"},{"zip":"79220","fips":"48125","name":"Dickens County","state_id":"TX"},{"zip":"79221","fips":"48153","name":"Floyd County","state_id":"TX"},{"zip":"79223","fips":"48101","name":"Cottle County","state_id":"TX"},{"zip":"79225","fips":"48197","name":"Hardeman County","state_id":"TX"},{"zip":"79225","fips":"48487","name":"Wilbarger County","state_id":"TX"},{"zip":"79226","fips":"48191","name":"Hall County","state_id":"TX"},{"zip":"79226","fips":"48045","name":"Briscoe County","state_id":"TX"},{"zip":"79226","fips":"48011","name":"Armstrong County","state_id":"TX"},{"zip":"79226","fips":"48129","name":"Donley County","state_id":"TX"},{"zip":"79227","fips":"48275","name":"Knox County","state_id":"TX"},{"zip":"79227","fips":"48155","name":"Foard County","state_id":"TX"},{"zip":"79229","fips":"48125","name":"Dickens County","state_id":"TX"},{"zip":"79230","fips":"48087","name":"Collingsworth County","state_id":"TX"},{"zip":"79230","fips":"48075","name":"Childress County","state_id":"TX"},{"zip":"79231","fips":"48153","name":"Floyd County","state_id":"TX"},{"zip":"79233","fips":"48191","name":"Hall County","state_id":"TX"},{"zip":"79234","fips":"48345","name":"Motley County","state_id":"TX"},{"zip":"79235","fips":"48345","name":"Motley County","state_id":"TX"},{"zip":"79235","fips":"48153","name":"Floyd County","state_id":"TX"},{"zip":"79235","fips":"48107","name":"Crosby County","state_id":"TX"},{"zip":"79236","fips":"48269","name":"King County","state_id":"TX"},{"zip":"79237","fips":"48129","name":"Donley County","state_id":"TX"},{"zip":"79239","fips":"48191","name":"Hall County","state_id":"TX"},{"zip":"79240","fips":"48129","name":"Donley County","state_id":"TX"},{"zip":"79241","fips":"48345","name":"Motley County","state_id":"TX"},{"zip":"79241","fips":"48153","name":"Floyd County","state_id":"TX"},{"zip":"79243","fips":"48125","name":"Dickens County","state_id":"TX"},{"zip":"79243","fips":"48107","name":"Crosby County","state_id":"TX"},{"zip":"79244","fips":"48345","name":"Motley County","state_id":"TX"},{"zip":"79245","fips":"48087","name":"Collingsworth County","state_id":"TX"},{"zip":"79245","fips":"48075","name":"Childress County","state_id":"TX"},{"zip":"79245","fips":"48191","name":"Hall County","state_id":"TX"},{"zip":"79247","fips":"48487","name":"Wilbarger County","state_id":"TX"},{"zip":"79247","fips":"48197","name":"Hardeman County","state_id":"TX"},{"zip":"79248","fips":"48101","name":"Cottle County","state_id":"TX"},{"zip":"79248","fips":"48269","name":"King County","state_id":"TX"},{"zip":"79248","fips":"48155","name":"Foard County","state_id":"TX"},{"zip":"79250","fips":"48189","name":"Hale County","state_id":"TX"},{"zip":"79251","fips":"48087","name":"Collingsworth County","state_id":"TX"},{"zip":"79252","fips":"48197","name":"Hardeman County","state_id":"TX"},{"zip":"79252","fips":"48101","name":"Cottle County","state_id":"TX"},{"zip":"79255","fips":"48345","name":"Motley County","state_id":"TX"},{"zip":"79255","fips":"48045","name":"Briscoe County","state_id":"TX"},{"zip":"79255","fips":"48191","name":"Hall County","state_id":"TX"},{"zip":"79256","fips":"48345","name":"Motley County","state_id":"TX"},{"zip":"79256","fips":"48125","name":"Dickens County","state_id":"TX"},{"zip":"79257","fips":"48045","name":"Briscoe County","state_id":"TX"},{"zip":"79258","fips":"48153","name":"Floyd County","state_id":"TX"},{"zip":"79259","fips":"48191","name":"Hall County","state_id":"TX"},{"zip":"79259","fips":"48075","name":"Childress County","state_id":"TX"},{"zip":"79261","fips":"48191","name":"Hall County","state_id":"TX"},{"zip":"79261","fips":"48045","name":"Briscoe County","state_id":"TX"}]
