[{"zip":"79311","fips":"48303","name":"Lubbock County","state_id":"TX"},{"zip":"79311","fips":"48189","name":"Hale County","state_id":"TX"},{"zip":"79312","fips":"48279","name":"Lamb County","state_id":"TX"},{"zip":"79313","fips":"48303","name":"Lubbock County","state_id":"TX"},{"zip":"79313","fips":"48219","name":"Hockley County","state_id":"TX"},{"zip":"79313","fips":"48279","name":"Lamb County","state_id":"TX"},{"zip":"79314","fips":"48079","name":"Cochran County","state_id":"TX"},{"zip":"79316","fips":"48445","name":"Terry County","state_id":"TX"},{"zip":"79322","fips":"48107","name":"Crosby County","state_id":"TX"},{"zip":"79323","fips":"48501","name":"Yoakum County","state_id":"TX"},{"zip":"79323","fips":"48165","name":"Gaines County","state_id":"TX"},{"zip":"79324","fips":"48017","name":"Bailey County","state_id":"TX"},{"zip":"79325","fips":"48369","name":"Parmer County","state_id":"TX"},{"zip":"79325","fips":"48017","name":"Bailey County","state_id":"TX"},{"zip":"79326","fips":"48279","name":"Lamb County","state_id":"TX"},{"zip":"79329","fips":"48303","name":"Lubbock County","state_id":"TX"},{"zip":"79330","fips":"48169","name":"Garza County","state_id":"TX"},{"zip":"79331","fips":"48305","name":"Lynn County","state_id":"TX"},{"zip":"79331","fips":"48317","name":"Martin County","state_id":"TX"},{"zip":"79331","fips":"48115","name":"Dawson County","state_id":"TX"},{"zip":"79336","fips":"48079","name":"Cochran County","state_id":"TX"},{"zip":"79336","fips":"48219","name":"Hockley County","state_id":"TX"},{"zip":"79339","fips":"48279","name":"Lamb County","state_id":"TX"},{"zip":"79339","fips":"48219","name":"Hockley County","state_id":"TX"},{"zip":"79342","fips":"48165","name":"Gaines County","state_id":"TX"},{"zip":"79343","fips":"48303","name":"Lubbock County","state_id":"TX"},{"zip":"79343","fips":"48107","name":"Crosby County","state_id":"TX"},{"zip":"79344","fips":"48017","name":"Bailey County","state_id":"TX"},{"zip":"79345","fips":"48305","name":"Lynn County","state_id":"TX"},{"zip":"79345","fips":"48445","name":"Terry County","state_id":"TX"},{"zip":"79346","fips":"48079","name":"Cochran County","state_id":"TX"},{"zip":"79346","fips":"48017","name":"Bailey County","state_id":"TX"},{"zip":"79347","fips":"48069","name":"Castro County","state_id":"TX"},{"zip":"79347","fips":"48369","name":"Parmer County","state_id":"TX"},{"zip":"79347","fips":"48017","name":"Bailey County","state_id":"TX"},{"zip":"79347","fips":"48279","name":"Lamb County","state_id":"TX"},{"zip":"79350","fips":"48303","name":"Lubbock County","state_id":"TX"},{"zip":"79351","fips":"48033","name":"Borden County","state_id":"TX"},{"zip":"79351","fips":"48115","name":"Dawson County","state_id":"TX"},{"zip":"79351","fips":"48305","name":"Lynn County","state_id":"TX"},{"zip":"79353","fips":"48219","name":"Hockley County","state_id":"TX"},{"zip":"79355","fips":"48445","name":"Terry County","state_id":"TX"},{"zip":"79355","fips":"48501","name":"Yoakum County","state_id":"TX"},{"zip":"79356","fips":"48169","name":"Garza County","state_id":"TX"},{"zip":"79356","fips":"48305","name":"Lynn County","state_id":"TX"},{"zip":"79356","fips":"48107","name":"Crosby County","state_id":"TX"},{"zip":"79356","fips":"48033","name":"Borden County","state_id":"TX"},{"zip":"79357","fips":"48107","name":"Crosby County","state_id":"TX"},{"zip":"79358","fips":"48219","name":"Hockley County","state_id":"TX"},{"zip":"79358","fips":"48303","name":"Lubbock County","state_id":"TX"},{"zip":"79359","fips":"48501","name":"Yoakum County","state_id":"TX"},{"zip":"79359","fips":"48445","name":"Terry County","state_id":"TX"},{"zip":"79359","fips":"48165","name":"Gaines County","state_id":"TX"},{"zip":"79360","fips":"48165","name":"Gaines County","state_id":"TX"},{"zip":"79360","fips":"48501","name":"Yoakum County","state_id":"TX"},{"zip":"79363","fips":"48303","name":"Lubbock County","state_id":"TX"},{"zip":"79363","fips":"48219","name":"Hockley County","state_id":"TX"},{"zip":"79364","fips":"48169","name":"Garza County","state_id":"TX"},{"zip":"79364","fips":"48303","name":"Lubbock County","state_id":"TX"},{"zip":"79364","fips":"48305","name":"Lynn County","state_id":"TX"},{"zip":"79364","fips":"48107","name":"Crosby County","state_id":"TX"},{"zip":"79366","fips":"48303","name":"Lubbock County","state_id":"TX"},{"zip":"79367","fips":"48219","name":"Hockley County","state_id":"TX"},{"zip":"79369","fips":"48279","name":"Lamb County","state_id":"TX"},{"zip":"79370","fips":"48125","name":"Dickens County","state_id":"TX"},{"zip":"79370","fips":"48107","name":"Crosby County","state_id":"TX"},{"zip":"79371","fips":"48279","name":"Lamb County","state_id":"TX"},{"zip":"79371","fips":"48017","name":"Bailey County","state_id":"TX"},{"zip":"79372","fips":"48219","name":"Hockley County","state_id":"TX"},{"zip":"79373","fips":"48305","name":"Lynn County","state_id":"TX"},{"zip":"79373","fips":"48445","name":"Terry County","state_id":"TX"},{"zip":"79376","fips":"48445","name":"Terry County","state_id":"TX"},{"zip":"79376","fips":"48501","name":"Yoakum County","state_id":"TX"},{"zip":"79377","fips":"48115","name":"Dawson County","state_id":"TX"},{"zip":"79378","fips":"48445","name":"Terry County","state_id":"TX"},{"zip":"79379","fips":"48079","name":"Cochran County","state_id":"TX"},{"zip":"79380","fips":"48219","name":"Hockley County","state_id":"TX"},{"zip":"79381","fips":"48305","name":"Lynn County","state_id":"TX"},{"zip":"79381","fips":"48303","name":"Lubbock County","state_id":"TX"},{"zip":"79382","fips":"48303","name":"Lubbock County","state_id":"TX"},{"zip":"79383","fips":"48305","name":"Lynn County","state_id":"TX"}]
