[{"zip":"79401","fips":"48303","name":"Lubbock County","state_id":"TX"},{"zip":"79402","fips":"48303","name":"Lubbock County","state_id":"TX"},{"zip":"79403","fips":"48303","name":"Lubbock County","state_id":"TX"},{"zip":"79404","fips":"48303","name":"Lubbock County","state_id":"TX"},{"zip":"79406","fips":"48303","name":"Lubbock County","state_id":"TX"},{"zip":"79407","fips":"48303","name":"Lubbock County","state_id":"TX"},{"zip":"79407","fips":"48219","name":"Hockley County","state_id":"TX"},{"zip":"79408","fips":"48303","name":"Lubbock County","state_id":"TX"},{"zip":"79409","fips":"48303","name":"Lubbock County","state_id":"TX"},{"zip":"79410","fips":"48303","name":"Lubbock County","state_id":"TX"},{"zip":"79411","fips":"48303","name":"Lubbock County","state_id":"TX"},{"zip":"79412","fips":"48303","name":"Lubbock County","state_id":"TX"},{"zip":"79413","fips":"48303","name":"Lubbock County","state_id":"TX"},{"zip":"79414","fips":"48303","name":"Lubbock County","state_id":"TX"},{"zip":"79415","fips":"48303","name":"Lubbock County","state_id":"TX"},{"zip":"79416","fips":"48303","name":"Lubbock County","state_id":"TX"},{"zip":"79423","fips":"48303","name":"Lubbock County","state_id":"TX"},{"zip":"79423","fips":"48305","name":"Lynn County","state_id":"TX"},{"zip":"79424","fips":"48303","name":"Lubbock County","state_id":"TX"},{"zip":"79430","fips":"48303","name":"Lubbock County","state_id":"TX"},{"zip":"79452","fips":"48303","name":"Lubbock County","state_id":"TX"},{"zip":"79453","fips":"48303","name":"Lubbock County","state_id":"TX"},{"zip":"79464","fips":"48303","name":"Lubbock County","state_id":"TX"},{"zip":"79490","fips":"48303","name":"Lubbock County","state_id":"TX"},{"zip":"79491","fips":"48303","name":"Lubbock County","state_id":"TX"},{"zip":"79493","fips":"48303","name":"Lubbock County","state_id":"TX"},{"zip":"79499","fips":"48303","name":"Lubbock County","state_id":"TX"}]
