[{"zip":"79501","fips":"48253","name":"Jones County","state_id":"TX"},{"zip":"79502","fips":"48433","name":"Stonewall County","state_id":"TX"},{"zip":"79503","fips":"48253","name":"Jones County","state_id":"TX"},{"zip":"79503","fips":"48207","name":"Haskell County","state_id":"TX"},{"zip":"79504","fips":"48417","name":"Shackelford County","state_id":"TX"},{"zip":"79504","fips":"48059","name":"Callahan County","state_id":"TX"},{"zip":"79505","fips":"48275","name":"Knox County","state_id":"TX"},{"zip":"79506","fips":"48353","name":"Nolan County","state_id":"TX"},{"zip":"79506","fips":"48081","name":"Coke County","state_id":"TX"},{"zip":"79508","fips":"48441","name":"Taylor County","state_id":"TX"},{"zip":"79510","fips":"48083","name":"Coleman County","state_id":"TX"},{"zip":"79510","fips":"48059","name":"Callahan County","state_id":"TX"},{"zip":"79511","fips":"48033","name":"Borden County","state_id":"TX"},{"zip":"79511","fips":"48227","name":"Howard County","state_id":"TX"},{"zip":"79512","fips":"48415","name":"Scurry County","state_id":"TX"},{"zip":"79512","fips":"48335","name":"Mitchell County","state_id":"TX"},{"zip":"79516","fips":"48415","name":"Scurry County","state_id":"TX"},{"zip":"79517","fips":"48415","name":"Scurry County","state_id":"TX"},{"zip":"79517","fips":"48033","name":"Borden County","state_id":"TX"},{"zip":"79518","fips":"48263","name":"Kent County","state_id":"TX"},{"zip":"79519","fips":"48399","name":"Runnels County","state_id":"TX"},{"zip":"79519","fips":"48441","name":"Taylor County","state_id":"TX"},{"zip":"79519","fips":"48083","name":"Coleman County","state_id":"TX"},{"zip":"79520","fips":"48151","name":"Fisher County","state_id":"TX"},{"zip":"79520","fips":"48253","name":"Jones County","state_id":"TX"},{"zip":"79521","fips":"48207","name":"Haskell County","state_id":"TX"},{"zip":"79521","fips":"48253","name":"Jones County","state_id":"TX"},{"zip":"79525","fips":"48253","name":"Jones County","state_id":"TX"},{"zip":"79526","fips":"48151","name":"Fisher County","state_id":"TX"},{"zip":"79526","fips":"48415","name":"Scurry County","state_id":"TX"},{"zip":"79527","fips":"48415","name":"Scurry County","state_id":"TX"},{"zip":"79527","fips":"48033","name":"Borden County","state_id":"TX"},{"zip":"79528","fips":"48263","name":"Kent County","state_id":"TX"},{"zip":"79528","fips":"48433","name":"Stonewall County","state_id":"TX"},{"zip":"79529","fips":"48275","name":"Knox County","state_id":"TX"},{"zip":"79530","fips":"48441","name":"Taylor County","state_id":"TX"},{"zip":"79530","fips":"48399","name":"Runnels County","state_id":"TX"},{"zip":"79532","fips":"48415","name":"Scurry County","state_id":"TX"},{"zip":"79532","fips":"48335","name":"Mitchell County","state_id":"TX"},{"zip":"79532","fips":"48353","name":"Nolan County","state_id":"TX"},{"zip":"79533","fips":"48207","name":"Haskell County","state_id":"TX"},{"zip":"79533","fips":"48253","name":"Jones County","state_id":"TX"},{"zip":"79533","fips":"48417","name":"Shackelford County","state_id":"TX"},{"zip":"79534","fips":"48151","name":"Fisher County","state_id":"TX"},{"zip":"79535","fips":"48353","name":"Nolan County","state_id":"TX"},{"zip":"79536","fips":"48253","name":"Jones County","state_id":"TX"},{"zip":"79536","fips":"48353","name":"Nolan County","state_id":"TX"},{"zip":"79536","fips":"48441","name":"Taylor County","state_id":"TX"},{"zip":"79537","fips":"48353","name":"Nolan County","state_id":"TX"},{"zip":"79538","fips":"48083","name":"Coleman County","state_id":"TX"},{"zip":"79538","fips":"48399","name":"Runnels County","state_id":"TX"},{"zip":"79539","fips":"48207","name":"Haskell County","state_id":"TX"},{"zip":"79540","fips":"48433","name":"Stonewall County","state_id":"TX"},{"zip":"79541","fips":"48059","name":"Callahan County","state_id":"TX"},{"zip":"79541","fips":"48441","name":"Taylor County","state_id":"TX"},{"zip":"79543","fips":"48151","name":"Fisher County","state_id":"TX"},{"zip":"79544","fips":"48207","name":"Haskell County","state_id":"TX"},{"zip":"79545","fips":"48151","name":"Fisher County","state_id":"TX"},{"zip":"79545","fips":"48353","name":"Nolan County","state_id":"TX"},{"zip":"79545","fips":"48335","name":"Mitchell County","state_id":"TX"},{"zip":"79545","fips":"48415","name":"Scurry County","state_id":"TX"},{"zip":"79546","fips":"48433","name":"Stonewall County","state_id":"TX"},{"zip":"79546","fips":"48151","name":"Fisher County","state_id":"TX"},{"zip":"79546","fips":"48415","name":"Scurry County","state_id":"TX"},{"zip":"79547","fips":"48207","name":"Haskell County","state_id":"TX"},{"zip":"79548","fips":"48207","name":"Haskell County","state_id":"TX"},{"zip":"79549","fips":"48415","name":"Scurry County","state_id":"TX"},{"zip":"79549","fips":"48263","name":"Kent County","state_id":"TX"},{"zip":"79553","fips":"48207","name":"Haskell County","state_id":"TX"},{"zip":"79553","fips":"48253","name":"Jones County","state_id":"TX"},{"zip":"79556","fips":"48353","name":"Nolan County","state_id":"TX"},{"zip":"79556","fips":"48151","name":"Fisher County","state_id":"TX"},{"zip":"79560","fips":"48253","name":"Jones County","state_id":"TX"},{"zip":"79560","fips":"48151","name":"Fisher County","state_id":"TX"},{"zip":"79561","fips":"48151","name":"Fisher County","state_id":"TX"},{"zip":"79561","fips":"48353","name":"Nolan County","state_id":"TX"},{"zip":"79561","fips":"48441","name":"Taylor County","state_id":"TX"},{"zip":"79561","fips":"48253","name":"Jones County","state_id":"TX"},{"zip":"79562","fips":"48441","name":"Taylor County","state_id":"TX"},{"zip":"79563","fips":"48441","name":"Taylor County","state_id":"TX"},{"zip":"79565","fips":"48335","name":"Mitchell County","state_id":"TX"},{"zip":"79566","fips":"48399","name":"Runnels County","state_id":"TX"},{"zip":"79566","fips":"48441","name":"Taylor County","state_id":"TX"},{"zip":"79567","fips":"48441","name":"Taylor County","state_id":"TX"},{"zip":"79567","fips":"48399","name":"Runnels County","state_id":"TX"}]
