[{"zip":"79601","fips":"48417","name":"Shackelford County","state_id":"TX"},{"zip":"79601","fips":"48441","name":"Taylor County","state_id":"TX"},{"zip":"79601","fips":"48059","name":"Callahan County","state_id":"TX"},{"zip":"79601","fips":"48253","name":"Jones County","state_id":"TX"},{"zip":"79602","fips":"48059","name":"Callahan County","state_id":"TX"},{"zip":"79602","fips":"48441","name":"Taylor County","state_id":"TX"},{"zip":"79603","fips":"48441","name":"Taylor County","state_id":"TX"},{"zip":"79604","fips":"48441","name":"Taylor County","state_id":"TX"},{"zip":"79605","fips":"48441","name":"Taylor County","state_id":"TX"},{"zip":"79606","fips":"48441","name":"Taylor County","state_id":"TX"},{"zip":"79607","fips":"48441","name":"Taylor County","state_id":"TX"},{"zip":"79608","fips":"48441","name":"Taylor County","state_id":"TX"},{"zip":"79697","fips":"48441","name":"Taylor County","state_id":"TX"},{"zip":"79698","fips":"48441","name":"Taylor County","state_id":"TX"},{"zip":"79699","fips":"48441","name":"Taylor County","state_id":"TX"}]
