[{"zip":"79701","fips":"48329","name":"Midland County","state_id":"TX"},{"zip":"79702","fips":"48329","name":"Midland County","state_id":"TX"},{"zip":"79703","fips":"48329","name":"Midland County","state_id":"TX"},{"zip":"79704","fips":"48329","name":"Midland County","state_id":"TX"},{"zip":"79705","fips":"48329","name":"Midland County","state_id":"TX"},{"zip":"79705","fips":"48317","name":"Martin County","state_id":"TX"},{"zip":"79706","fips":"48329","name":"Midland County","state_id":"TX"},{"zip":"79707","fips":"48329","name":"Midland County","state_id":"TX"},{"zip":"79707","fips":"48135","name":"Ector County","state_id":"TX"},{"zip":"79708","fips":"48329","name":"Midland County","state_id":"TX"},{"zip":"79710","fips":"48329","name":"Midland County","state_id":"TX"},{"zip":"79711","fips":"48329","name":"Midland County","state_id":"TX"},{"zip":"79712","fips":"48329","name":"Midland County","state_id":"TX"},{"zip":"79713","fips":"48033","name":"Borden County","state_id":"TX"},{"zip":"79713","fips":"48115","name":"Dawson County","state_id":"TX"},{"zip":"79714","fips":"48003","name":"Andrews County","state_id":"TX"},{"zip":"79718","fips":"48389","name":"Reeves County","state_id":"TX"},{"zip":"79719","fips":"48475","name":"Ward County","state_id":"TX"},{"zip":"79720","fips":"48227","name":"Howard County","state_id":"TX"},{"zip":"79720","fips":"48173","name":"Glasscock County","state_id":"TX"},{"zip":"79730","fips":"48371","name":"Pecos County","state_id":"TX"},{"zip":"79731","fips":"48103","name":"Crane County","state_id":"TX"},{"zip":"79733","fips":"48227","name":"Howard County","state_id":"TX"},{"zip":"79734","fips":"48243","name":"Jeff Davis County","state_id":"TX"},{"zip":"79735","fips":"48443","name":"Terrell County","state_id":"TX"},{"zip":"79735","fips":"48371","name":"Pecos County","state_id":"TX"},{"zip":"79738","fips":"48033","name":"Borden County","state_id":"TX"},{"zip":"79739","fips":"48173","name":"Glasscock County","state_id":"TX"},{"zip":"79739","fips":"48383","name":"Reagan County","state_id":"TX"},{"zip":"79740","fips":"48371","name":"Pecos County","state_id":"TX"},{"zip":"79741","fips":"48135","name":"Ector County","state_id":"TX"},{"zip":"79742","fips":"48475","name":"Ward County","state_id":"TX"},{"zip":"79743","fips":"48371","name":"Pecos County","state_id":"TX"},{"zip":"79744","fips":"48371","name":"Pecos County","state_id":"TX"},{"zip":"79745","fips":"48495","name":"Winkler County","state_id":"TX"},{"zip":"79748","fips":"48227","name":"Howard County","state_id":"TX"},{"zip":"79749","fips":"48317","name":"Martin County","state_id":"TX"},{"zip":"79752","fips":"48461","name":"Upton County","state_id":"TX"},{"zip":"79754","fips":"48301","name":"Loving County","state_id":"TX"},{"zip":"79755","fips":"48461","name":"Upton County","state_id":"TX"},{"zip":"79756","fips":"48475","name":"Ward County","state_id":"TX"},{"zip":"79758","fips":"48329","name":"Midland County","state_id":"TX"},{"zip":"79758","fips":"48135","name":"Ector County","state_id":"TX"},{"zip":"79759","fips":"48135","name":"Ector County","state_id":"TX"},{"zip":"79760","fips":"48135","name":"Ector County","state_id":"TX"},{"zip":"79761","fips":"48135","name":"Ector County","state_id":"TX"},{"zip":"79762","fips":"48135","name":"Ector County","state_id":"TX"},{"zip":"79763","fips":"48135","name":"Ector County","state_id":"TX"},{"zip":"79764","fips":"48135","name":"Ector County","state_id":"TX"},{"zip":"79765","fips":"48329","name":"Midland County","state_id":"TX"},{"zip":"79765","fips":"48135","name":"Ector County","state_id":"TX"},{"zip":"79766","fips":"48103","name":"Crane County","state_id":"TX"},{"zip":"79766","fips":"48135","name":"Ector County","state_id":"TX"},{"zip":"79766","fips":"48329","name":"Midland County","state_id":"TX"},{"zip":"79768","fips":"48135","name":"Ector County","state_id":"TX"},{"zip":"79769","fips":"48135","name":"Ector County","state_id":"TX"},{"zip":"79770","fips":"48389","name":"Reeves County","state_id":"TX"},{"zip":"79772","fips":"48389","name":"Reeves County","state_id":"TX"},{"zip":"79776","fips":"48135","name":"Ector County","state_id":"TX"},{"zip":"79777","fips":"48475","name":"Ward County","state_id":"TX"},{"zip":"79778","fips":"48461","name":"Upton County","state_id":"TX"},{"zip":"79780","fips":"48389","name":"Reeves County","state_id":"TX"},{"zip":"79781","fips":"48371","name":"Pecos County","state_id":"TX"},{"zip":"79782","fips":"48317","name":"Martin County","state_id":"TX"},{"zip":"79782","fips":"48329","name":"Midland County","state_id":"TX"},{"zip":"79783","fips":"48317","name":"Martin County","state_id":"TX"},{"zip":"79785","fips":"48389","name":"Reeves County","state_id":"TX"},{"zip":"79788","fips":"48475","name":"Ward County","state_id":"TX"},{"zip":"79789","fips":"48495","name":"Winkler County","state_id":"TX"}]
