[{"zip":"79821","fips":"48141","name":"El Paso County","state_id":"TX"},{"zip":"79830","fips":"48043","name":"Brewster County","state_id":"TX"},{"zip":"79832","fips":"48043","name":"Brewster County","state_id":"TX"},{"zip":"79834","fips":"48043","name":"Brewster County","state_id":"TX"},{"zip":"79835","fips":"48141","name":"El Paso County","state_id":"TX"},{"zip":"79836","fips":"48141","name":"El Paso County","state_id":"TX"},{"zip":"79837","fips":"48229","name":"Hudspeth County","state_id":"TX"},{"zip":"79838","fips":"48141","name":"El Paso County","state_id":"TX"},{"zip":"79839","fips":"48229","name":"Hudspeth County","state_id":"TX"},{"zip":"79842","fips":"48043","name":"Brewster County","state_id":"TX"},{"zip":"79843","fips":"48377","name":"Presidio County","state_id":"TX"},{"zip":"79845","fips":"48377","name":"Presidio County","state_id":"TX"},{"zip":"79846","fips":"48377","name":"Presidio County","state_id":"TX"},{"zip":"79847","fips":"48109","name":"Culberson County","state_id":"TX"},{"zip":"79847","fips":"48229","name":"Hudspeth County","state_id":"TX"},{"zip":"79848","fips":"48443","name":"Terrell County","state_id":"TX"},{"zip":"79849","fips":"48141","name":"El Paso County","state_id":"TX"},{"zip":"79851","fips":"48229","name":"Hudspeth County","state_id":"TX"},{"zip":"79852","fips":"48043","name":"Brewster County","state_id":"TX"},{"zip":"79853","fips":"48141","name":"El Paso County","state_id":"TX"},{"zip":"79854","fips":"48243","name":"Jeff Davis County","state_id":"TX"},{"zip":"79855","fips":"48109","name":"Culberson County","state_id":"TX"}]
