[{"zip":"79901","fips":"48141","name":"El Paso County","state_id":"TX"},{"zip":"79902","fips":"48141","name":"El Paso County","state_id":"TX"},{"zip":"79903","fips":"48141","name":"El Paso County","state_id":"TX"},{"zip":"79904","fips":"48141","name":"El Paso County","state_id":"TX"},{"zip":"79905","fips":"48141","name":"El Paso County","state_id":"TX"},{"zip":"79906","fips":"48141","name":"El Paso County","state_id":"TX"},{"zip":"79907","fips":"48141","name":"El Paso County","state_id":"TX"},{"zip":"79908","fips":"48141","name":"El Paso County","state_id":"TX"},{"zip":"79910","fips":"48141","name":"El Paso County","state_id":"TX"},{"zip":"79911","fips":"48141","name":"El Paso County","state_id":"TX"},{"zip":"79912","fips":"48141","name":"El Paso County","state_id":"TX"},{"zip":"79913","fips":"48141","name":"El Paso County","state_id":"TX"},{"zip":"79914","fips":"48141","name":"El Paso County","state_id":"TX"},{"zip":"79915","fips":"48141","name":"El Paso County","state_id":"TX"},{"zip":"79916","fips":"48141","name":"El Paso County","state_id":"TX"},{"zip":"79917","fips":"48141","name":"El Paso County","state_id":"TX"},{"zip":"79918","fips":"48141","name":"El Paso County","state_id":"TX"},{"zip":"79922","fips":"48141","name":"El Paso County","state_id":"TX"},{"zip":"79923","fips":"48141","name":"El Paso County","state_id":"TX"},{"zip":"79924","fips":"48141","name":"El Paso County","state_id":"TX"},{"zip":"79925","fips":"48141","name":"El Paso County","state_id":"TX"},{"zip":"79926","fips":"48141","name":"El Paso County","state_id":"TX"},{"zip":"79927","fips":"48141","name":"El Paso County","state_id":"TX"},{"zip":"79928","fips":"48141","name":"El Paso County","state_id":"TX"},{"zip":"79929","fips":"48141","name":"El Paso County","state_id":"TX"},{"zip":"79930","fips":"48141","name":"El Paso County","state_id":"TX"},{"zip":"79931","fips":"48141","name":"El Paso County","state_id":"TX"},{"zip":"79932","fips":"48141","name":"El Paso County","state_id":"TX"},{"zip":"79934","fips":"48141","name":"El Paso County","state_id":"TX"},{"zip":"79935","fips":"48141","name":"El Paso County","state_id":"TX"},{"zip":"79936","fips":"48141","name":"El Paso County","state_id":"TX"},{"zip":"79937","fips":"48141","name":"El Paso County","state_id":"TX"},{"zip":"79938","fips":"48141","name":"El Paso County","state_id":"TX"},{"zip":"79938","fips":"48229","name":"Hudspeth County","state_id":"TX"},{"zip":"79940","fips":"48141","name":"El Paso County","state_id":"TX"},{"zip":"79941","fips":"48141","name":"El Paso County","state_id":"TX"},{"zip":"79942","fips":"48141","name":"El Paso County","state_id":"TX"},{"zip":"79943","fips":"48141","name":"El Paso County","state_id":"TX"},{"zip":"79944","fips":"48141","name":"El Paso County","state_id":"TX"},{"zip":"79945","fips":"48141","name":"El Paso County","state_id":"TX"},{"zip":"79946","fips":"48141","name":"El Paso County","state_id":"TX"},{"zip":"79947","fips":"48141","name":"El Paso County","state_id":"TX"},{"zip":"79948","fips":"48141","name":"El Paso County","state_id":"TX"},{"zip":"79949","fips":"48141","name":"El Paso County","state_id":"TX"},{"zip":"79950","fips":"48141","name":"El Paso County","state_id":"TX"},{"zip":"79951","fips":"48141","name":"El Paso County","state_id":"TX"},{"zip":"79952","fips":"48141","name":"El Paso County","state_id":"TX"},{"zip":"79953","fips":"48141","name":"El Paso County","state_id":"TX"},{"zip":"79954","fips":"48141","name":"El Paso County","state_id":"TX"},{"zip":"79955","fips":"48141","name":"El Paso County","state_id":"TX"},{"zip":"79968","fips":"48141","name":"El Paso County","state_id":"TX"},{"zip":"79995","fips":"48141","name":"El Paso County","state_id":"TX"},{"zip":"79996","fips":"48141","name":"El Paso County","state_id":"TX"},{"zip":"79997","fips":"48141","name":"El Paso County","state_id":"TX"}]
