[{"zip":"90201","fips":"06037","name":"Los Angeles County","state_id":"CA"},{"zip":"90202","fips":"06037","name":"Los Angeles County","state_id":"CA"},{"zip":"90209","fips":"06037","name":"Los Angeles County","state_id":"CA"},{"zip":"90210","fips":"06037","name":"Los Angeles County","state_id":"CA"},{"zip":"90211","fips":"06037","name":"Los Angeles County","state_id":"CA"},{"zip":"90212","fips":"06037","name":"Los Angeles County","state_id":"CA"},{"zip":"90213","fips":"06037","name":"Los Angeles County","state_id":"CA"},{"zip":"90220","fips":"06037","name":"Los Angeles County","state_id":"CA"},{"zip":"90221","fips":"06037","name":"Los Angeles County","state_id":"CA"},{"zip":"90222","fips":"06037","name":"Los Angeles County","state_id":"CA"},{"zip":"90223","fips":"06037","name":"Los Angeles County","state_id":"CA"},{"zip":"90224","fips":"06037","name":"Los Angeles County","state_id":"CA"},{"zip":"90230","fips":"06037","name":"Los Angeles County","state_id":"CA"},{"zip":"90231","fips":"06037","name":"Los Angeles County","state_id":"CA"},{"zip":"90232","fips":"06037","name":"Los Angeles County","state_id":"CA"},{"zip":"90239","fips":"06037","name":"Los Angeles County","state_id":"CA"},{"zip":"90240","fips":"06037","name":"Los Angeles County","state_id":"CA"},{"zip":"90241","fips":"06037","name":"Los Angeles County","state_id":"CA"},{"zip":"90242","fips":"06037","name":"Los Angeles County","state_id":"CA"},{"zip":"90245","fips":"06037","name":"Los Angeles County","state_id":"CA"},{"zip":"90247","fips":"06037","name":"Los Angeles County","state_id":"CA"},{"zip":"90248","fips":"06037","name":"Los Angeles County","state_id":"CA"},{"zip":"90249","fips":"06037","name":"Los Angeles County","state_id":"CA"},{"zip":"90250","fips":"06037","name":"Los Angeles County","state_id":"CA"},{"zip":"90251","fips":"06037","name":"Los Angeles County","state_id":"CA"},{"zip":"90254","fips":"06037","name":"Los Angeles County","state_id":"CA"},{"zip":"90255","fips":"06037","name":"Los Angeles County","state_id":"CA"},{"zip":"90260","fips":"06037","name":"Los Angeles County","state_id":"CA"},{"zip":"90261","fips":"06037","name":"Los Angeles County","state_id":"CA"},{"zip":"90262","fips":"06037","name":"Los Angeles County","state_id":"CA"},{"zip":"90263","fips":"06037","name":"Los Angeles County","state_id":"CA"},{"zip":"90264","fips":"06037","name":"Los Angeles County","state_id":"CA"},{"zip":"90265","fips":"06037","name":"Los Angeles County","state_id":"CA"},{"zip":"90265","fips":"06111","name":"Ventura County","state_id":"CA"},{"zip":"90266","fips":"06037","name":"Los Angeles County","state_id":"CA"},{"zip":"90267","fips":"06037","name":"Los Angeles County","state_id":"CA"},{"zip":"90270","fips":"06037","name":"Los Angeles County","state_id":"CA"},{"zip":"90272","fips":"06037","name":"Los Angeles County","state_id":"CA"},{"zip":"90274","fips":"06037","name":"Los Angeles County","state_id":"CA"},{"zip":"90275","fips":"06037","name":"Los Angeles County","state_id":"CA"},{"zip":"90277","fips":"06037","name":"Los Angeles County","state_id":"CA"},{"zip":"90278","fips":"06037","name":"Los Angeles County","state_id":"CA"},{"zip":"90280","fips":"06037","name":"Los Angeles County","state_id":"CA"},{"zip":"90290","fips":"06037","name":"Los Angeles County","state_id":"CA"},{"zip":"90291","fips":"06037","name":"Los Angeles County","state_id":"CA"},{"zip":"90292","fips":"06037","name":"Los Angeles County","state_id":"CA"},{"zip":"90293","fips":"06037","name":"Los Angeles County","state_id":"CA"},{"zip":"90294","fips":"06037","name":"Los Angeles County","state_id":"CA"},{"zip":"90295","fips":"06037","name":"Los Angeles County","state_id":"CA"},{"zip":"90296","fips":"06037","name":"Los Angeles County","state_id":"CA"}]
