[{"zip":"90801","fips":"06037","name":"Los Angeles County","state_id":"CA"},{"zip":"90802","fips":"06037","name":"Los Angeles County","state_id":"CA"},{"zip":"90803","fips":"06037","name":"Los Angeles County","state_id":"CA"},{"zip":"90804","fips":"06037","name":"Los Angeles County","state_id":"CA"},{"zip":"90805","fips":"06037","name":"Los Angeles County","state_id":"CA"},{"zip":"90806","fips":"06037","name":"Los Angeles County","state_id":"CA"},{"zip":"90807","fips":"06037","name":"Los Angeles County","state_id":"CA"},{"zip":"90808","fips":"06059","name":"Orange County","state_id":"CA"},{"zip":"90808","fips":"06037","name":"Los Angeles County","state_id":"CA"},{"zip":"90809","fips":"06037","name":"Los Angeles County","state_id":"CA"},{"zip":"90810","fips":"06037","name":"Los Angeles County","state_id":"CA"},{"zip":"90813","fips":"06037","name":"Los Angeles County","state_id":"CA"},{"zip":"90814","fips":"06037","name":"Los Angeles County","state_id":"CA"},{"zip":"90815","fips":"06059","name":"Orange County","state_id":"CA"},{"zip":"90815","fips":"06037","name":"Los Angeles County","state_id":"CA"},{"zip":"90822","fips":"06037","name":"Los Angeles County","state_id":"CA"},{"zip":"90831","fips":"06037","name":"Los Angeles County","state_id":"CA"},{"zip":"90832","fips":"06037","name":"Los Angeles County","state_id":"CA"},{"zip":"90833","fips":"06037","name":"Los Angeles County","state_id":"CA"},{"zip":"90840","fips":"06037","name":"Los Angeles County","state_id":"CA"},{"zip":"90844","fips":"06037","name":"Los Angeles County","state_id":"CA"},{"zip":"90846","fips":"06037","name":"Los Angeles County","state_id":"CA"},{"zip":"90853","fips":"06037","name":"Los Angeles County","state_id":"CA"},{"zip":"90895","fips":"06037","name":"Los Angeles County","state_id":"CA"},{"zip":"90899","fips":"06037","name":"Los Angeles County","state_id":"CA"}]
