[{"zip":"91401","fips":"06037","name":"Los Angeles County","state_id":"CA"},{"zip":"91402","fips":"06037","name":"Los Angeles County","state_id":"CA"},{"zip":"91403","fips":"06037","name":"Los Angeles County","state_id":"CA"},{"zip":"91404","fips":"06037","name":"Los Angeles County","state_id":"CA"},{"zip":"91405","fips":"06037","name":"Los Angeles County","state_id":"CA"},{"zip":"91406","fips":"06037","name":"Los Angeles County","state_id":"CA"},{"zip":"91407","fips":"06037","name":"Los Angeles County","state_id":"CA"},{"zip":"91408","fips":"06037","name":"Los Angeles County","state_id":"CA"},{"zip":"91409","fips":"06037","name":"Los Angeles County","state_id":"CA"},{"zip":"91411","fips":"06037","name":"Los Angeles County","state_id":"CA"},{"zip":"91412","fips":"06037","name":"Los Angeles County","state_id":"CA"},{"zip":"91413","fips":"06037","name":"Los Angeles County","state_id":"CA"},{"zip":"91416","fips":"06037","name":"Los Angeles County","state_id":"CA"},{"zip":"91423","fips":"06037","name":"Los Angeles County","state_id":"CA"},{"zip":"91426","fips":"06037","name":"Los Angeles County","state_id":"CA"},{"zip":"91436","fips":"06037","name":"Los Angeles County","state_id":"CA"},{"zip":"91470","fips":"06037","name":"Los Angeles County","state_id":"CA"},{"zip":"91482","fips":"06037","name":"Los Angeles County","state_id":"CA"},{"zip":"91495","fips":"06037","name":"Los Angeles County","state_id":"CA"},{"zip":"91496","fips":"06037","name":"Los Angeles County","state_id":"CA"},{"zip":"91499","fips":"06037","name":"Los Angeles County","state_id":"CA"}]
