[{"zip":"92201","fips":"06065","name":"Riverside County","state_id":"CA"},{"zip":"92202","fips":"06065","name":"Riverside County","state_id":"CA"},{"zip":"92203","fips":"06065","name":"Riverside County","state_id":"CA"},{"zip":"92210","fips":"06065","name":"Riverside County","state_id":"CA"},{"zip":"92211","fips":"06065","name":"Riverside County","state_id":"CA"},{"zip":"92220","fips":"06065","name":"Riverside County","state_id":"CA"},{"zip":"92222","fips":"06025","name":"Imperial County","state_id":"CA"},{"zip":"92223","fips":"06071","name":"San Bernardino County","state_id":"CA"},{"zip":"92223","fips":"06065","name":"Riverside County","state_id":"CA"},{"zip":"92225","fips":"06065","name":"Riverside County","state_id":"CA"},{"zip":"92225","fips":"06071","name":"San Bernardino County","state_id":"CA"},{"zip":"92225","fips":"06025","name":"Imperial County","state_id":"CA"},{"zip":"92226","fips":"06065","name":"Riverside County","state_id":"CA"},{"zip":"92227","fips":"06025","name":"Imperial County","state_id":"CA"},{"zip":"92230","fips":"06065","name":"Riverside County","state_id":"CA"},{"zip":"92231","fips":"06025","name":"Imperial County","state_id":"CA"},{"zip":"92232","fips":"06025","name":"Imperial County","state_id":"CA"},{"zip":"92233","fips":"06025","name":"Imperial County","state_id":"CA"},{"zip":"92234","fips":"06065","name":"Riverside County","state_id":"CA"},{"zip":"92235","fips":"06065","name":"Riverside County","state_id":"CA"},{"zip":"92236","fips":"06065","name":"Riverside County","state_id":"CA"},{"zip":"92239","fips":"06065","name":"Riverside County","state_id":"CA"},{"zip":"92240","fips":"06065","name":"Riverside County","state_id":"CA"},{"zip":"92241","fips":"06065","name":"Riverside County","state_id":"CA"},{"zip":"92242","fips":"06071","name":"San Bernardino County","state_id":"CA"},{"zip":"92243","fips":"06025","name":"Imperial County","state_id":"CA"},{"zip":"92244","fips":"06025","name":"Imperial County","state_id":"CA"},{"zip":"92247","fips":"06065","name":"Riverside County","state_id":"CA"},{"zip":"92248","fips":"06065","name":"Riverside County","state_id":"CA"},{"zip":"92249","fips":"06025","name":"Imperial County","state_id":"CA"},{"zip":"92250","fips":"06025","name":"Imperial County","state_id":"CA"},{"zip":"92251","fips":"06025","name":"Imperial County","state_id":"CA"},{"zip":"92252","fips":"06071","name":"San Bernardino County","state_id":"CA"},{"zip":"92253","fips":"06065","name":"Riverside County","state_id":"CA"},{"zip":"92254","fips":"06065","name":"Riverside County","state_id":"CA"},{"zip":"92255","fips":"06065","name":"Riverside County","state_id":"CA"},{"zip":"92256","fips":"06071","name":"San Bernardino County","state_id":"CA"},{"zip":"92257","fips":"06025","name":"Imperial County","state_id":"CA"},{"zip":"92258","fips":"06065","name":"Riverside County","state_id":"CA"},{"zip":"92259","fips":"06025","name":"Imperial County","state_id":"CA"},{"zip":"92260","fips":"06065","name":"Riverside County","state_id":"CA"},{"zip":"92261","fips":"06065","name":"Riverside County","state_id":"CA"},{"zip":"92262","fips":"06065","name":"Riverside County","state_id":"CA"},{"zip":"92263","fips":"06065","name":"Riverside County","state_id":"CA"},{"zip":"92264","fips":"06065","name":"Riverside County","state_id":"CA"},{"zip":"92266","fips":"06025","name":"Imperial County","state_id":"CA"},{"zip":"92267","fips":"06071","name":"San Bernardino County","state_id":"CA"},{"zip":"92268","fips":"06071","name":"San Bernardino County","state_id":"CA"},{"zip":"92270","fips":"06065","name":"Riverside County","state_id":"CA"},{"zip":"92273","fips":"06025","name":"Imperial County","state_id":"CA"},{"zip":"92274","fips":"06065","name":"Riverside County","state_id":"CA"},{"zip":"92274","fips":"06025","name":"Imperial County","state_id":"CA"},{"zip":"92275","fips":"06025","name":"Imperial County","state_id":"CA"},{"zip":"92276","fips":"06065","name":"Riverside County","state_id":"CA"},{"zip":"92277","fips":"06071","name":"San Bernardino County","state_id":"CA"},{"zip":"92278","fips":"06071","name":"San Bernardino County","state_id":"CA"},{"zip":"92280","fips":"06071","name":"San Bernardino County","state_id":"CA"},{"zip":"92281","fips":"06025","name":"Imperial County","state_id":"CA"},{"zip":"92282","fips":"06065","name":"Riverside County","state_id":"CA"},{"zip":"92283","fips":"06025","name":"Imperial County","state_id":"CA"},{"zip":"92284","fips":"06071","name":"San Bernardino County","state_id":"CA"},{"zip":"92285","fips":"06071","name":"San Bernardino County","state_id":"CA"},{"zip":"92286","fips":"06071","name":"San Bernardino County","state_id":"CA"}]
