[{"zip":"92301","fips":"06037","name":"Los Angeles County","state_id":"CA"},{"zip":"92301","fips":"06071","name":"San Bernardino County","state_id":"CA"},{"zip":"92304","fips":"06071","name":"San Bernardino County","state_id":"CA"},{"zip":"92305","fips":"06071","name":"San Bernardino County","state_id":"CA"},{"zip":"92307","fips":"06071","name":"San Bernardino County","state_id":"CA"},{"zip":"92308","fips":"06071","name":"San Bernardino County","state_id":"CA"},{"zip":"92309","fips":"06071","name":"San Bernardino County","state_id":"CA"},{"zip":"92310","fips":"06071","name":"San Bernardino County","state_id":"CA"},{"zip":"92311","fips":"06071","name":"San Bernardino County","state_id":"CA"},{"zip":"92312","fips":"06071","name":"San Bernardino County","state_id":"CA"},{"zip":"92313","fips":"06071","name":"San Bernardino County","state_id":"CA"},{"zip":"92314","fips":"06071","name":"San Bernardino County","state_id":"CA"},{"zip":"92315","fips":"06071","name":"San Bernardino County","state_id":"CA"},{"zip":"92316","fips":"06071","name":"San Bernardino County","state_id":"CA"},{"zip":"92317","fips":"06071","name":"San Bernardino County","state_id":"CA"},{"zip":"92318","fips":"06071","name":"San Bernardino County","state_id":"CA"},{"zip":"92320","fips":"06071","name":"San Bernardino County","state_id":"CA"},{"zip":"92320","fips":"06065","name":"Riverside County","state_id":"CA"},{"zip":"92321","fips":"06071","name":"San Bernardino County","state_id":"CA"},{"zip":"92322","fips":"06071","name":"San Bernardino County","state_id":"CA"},{"zip":"92323","fips":"06071","name":"San Bernardino County","state_id":"CA"},{"zip":"92324","fips":"06065","name":"Riverside County","state_id":"CA"},{"zip":"92324","fips":"06071","name":"San Bernardino County","state_id":"CA"},{"zip":"92325","fips":"06071","name":"San Bernardino County","state_id":"CA"},{"zip":"92327","fips":"06071","name":"San Bernardino County","state_id":"CA"},{"zip":"92328","fips":"06027","name":"Inyo County","state_id":"CA"},{"zip":"92329","fips":"06071","name":"San Bernardino County","state_id":"CA"},{"zip":"92331","fips":"06071","name":"San Bernardino County","state_id":"CA"},{"zip":"92332","fips":"06071","name":"San Bernardino County","state_id":"CA"},{"zip":"92333","fips":"06071","name":"San Bernardino County","state_id":"CA"},{"zip":"92334","fips":"06071","name":"San Bernardino County","state_id":"CA"},{"zip":"92335","fips":"06071","name":"San Bernardino County","state_id":"CA"},{"zip":"92336","fips":"06071","name":"San Bernardino County","state_id":"CA"},{"zip":"92337","fips":"06071","name":"San Bernardino County","state_id":"CA"},{"zip":"92338","fips":"06071","name":"San Bernardino County","state_id":"CA"},{"zip":"92339","fips":"06071","name":"San Bernardino County","state_id":"CA"},{"zip":"92340","fips":"06071","name":"San Bernardino County","state_id":"CA"},{"zip":"92341","fips":"06071","name":"San Bernardino County","state_id":"CA"},{"zip":"92342","fips":"06071","name":"San Bernardino County","state_id":"CA"},{"zip":"92344","fips":"06071","name":"San Bernardino County","state_id":"CA"},{"zip":"92345","fips":"06071","name":"San Bernardino County","state_id":"CA"},{"zip":"92346","fips":"06071","name":"San Bernardino County","state_id":"CA"},{"zip":"92347","fips":"06071","name":"San Bernardino County","state_id":"CA"},{"zip":"92350","fips":"06071","name":"San Bernardino County","state_id":"CA"},{"zip":"92352","fips":"06071","name":"San Bernardino County","state_id":"CA"},{"zip":"92354","fips":"06071","name":"San Bernardino County","state_id":"CA"},{"zip":"92356","fips":"06071","name":"San Bernardino County","state_id":"CA"},{"zip":"92357","fips":"06071","name":"San Bernardino County","state_id":"CA"},{"zip":"92358","fips":"06071","name":"San Bernardino County","state_id":"CA"},{"zip":"92359","fips":"06071","name":"San Bernardino County","state_id":"CA"},{"zip":"92363","fips":"06071","name":"San Bernardino County","state_id":"CA"},{"zip":"92364","fips":"06071","name":"San Bernardino County","state_id":"CA"},{"zip":"92365","fips":"06071","name":"San Bernardino County","state_id":"CA"},{"zip":"92366","fips":"06071","name":"San Bernardino County","state_id":"CA"},{"zip":"92368","fips":"06071","name":"San Bernardino County","state_id":"CA"},{"zip":"92369","fips":"06071","name":"San Bernardino County","state_id":"CA"},{"zip":"92371","fips":"06071","name":"San Bernardino County","state_id":"CA"},{"zip":"92372","fips":"06071","name":"San Bernardino County","state_id":"CA"},{"zip":"92373","fips":"06071","name":"San Bernardino County","state_id":"CA"},{"zip":"92373","fips":"06065","name":"Riverside County","state_id":"CA"},{"zip":"92374","fips":"06071","name":"San Bernardino County","state_id":"CA"},{"zip":"92375","fips":"06071","name":"San Bernardino County","state_id":"CA"},{"zip":"92376","fips":"06071","name":"San Bernardino County","state_id":"CA"},{"zip":"92377","fips":"06071","name":"San Bernardino County","state_id":"CA"},{"zip":"92378","fips":"06071","name":"San Bernardino County","state_id":"CA"},{"zip":"92382","fips":"06071","name":"San Bernardino County","state_id":"CA"},{"zip":"92384","fips":"06027","name":"Inyo County","state_id":"CA"},{"zip":"92385","fips":"06071","name":"San Bernardino County","state_id":"CA"},{"zip":"92386","fips":"06071","name":"San Bernardino County","state_id":"CA"},{"zip":"92389","fips":"06027","name":"Inyo County","state_id":"CA"},{"zip":"92391","fips":"06071","name":"San Bernardino County","state_id":"CA"},{"zip":"92392","fips":"06071","name":"San Bernardino County","state_id":"CA"},{"zip":"92393","fips":"06071","name":"San Bernardino County","state_id":"CA"},{"zip":"92394","fips":"06071","name":"San Bernardino County","state_id":"CA"},{"zip":"92395","fips":"06071","name":"San Bernardino County","state_id":"CA"},{"zip":"92397","fips":"06071","name":"San Bernardino County","state_id":"CA"},{"zip":"92397","fips":"06037","name":"Los Angeles County","state_id":"CA"},{"zip":"92398","fips":"06071","name":"San Bernardino County","state_id":"CA"},{"zip":"92399","fips":"06065","name":"Riverside County","state_id":"CA"},{"zip":"92399","fips":"06071","name":"San Bernardino County","state_id":"CA"}]
