[{"zip":"92602","fips":"06059","name":"Orange County","state_id":"CA"},{"zip":"92603","fips":"06059","name":"Orange County","state_id":"CA"},{"zip":"92604","fips":"06059","name":"Orange County","state_id":"CA"},{"zip":"92605","fips":"06059","name":"Orange County","state_id":"CA"},{"zip":"92606","fips":"06059","name":"Orange County","state_id":"CA"},{"zip":"92607","fips":"06059","name":"Orange County","state_id":"CA"},{"zip":"92609","fips":"06059","name":"Orange County","state_id":"CA"},{"zip":"92610","fips":"06059","name":"Orange County","state_id":"CA"},{"zip":"92612","fips":"06059","name":"Orange County","state_id":"CA"},{"zip":"92614","fips":"06059","name":"Orange County","state_id":"CA"},{"zip":"92615","fips":"06059","name":"Orange County","state_id":"CA"},{"zip":"92616","fips":"06059","name":"Orange County","state_id":"CA"},{"zip":"92617","fips":"06059","name":"Orange County","state_id":"CA"},{"zip":"92618","fips":"06059","name":"Orange County","state_id":"CA"},{"zip":"92619","fips":"06059","name":"Orange County","state_id":"CA"},{"zip":"92620","fips":"06059","name":"Orange County","state_id":"CA"},{"zip":"92623","fips":"06059","name":"Orange County","state_id":"CA"},{"zip":"92624","fips":"06059","name":"Orange County","state_id":"CA"},{"zip":"92625","fips":"06059","name":"Orange County","state_id":"CA"},{"zip":"92626","fips":"06059","name":"Orange County","state_id":"CA"},{"zip":"92627","fips":"06059","name":"Orange County","state_id":"CA"},{"zip":"92628","fips":"06059","name":"Orange County","state_id":"CA"},{"zip":"92629","fips":"06059","name":"Orange County","state_id":"CA"},{"zip":"92630","fips":"06059","name":"Orange County","state_id":"CA"},{"zip":"92637","fips":"06059","name":"Orange County","state_id":"CA"},{"zip":"92646","fips":"06059","name":"Orange County","state_id":"CA"},{"zip":"92647","fips":"06059","name":"Orange County","state_id":"CA"},{"zip":"92648","fips":"06059","name":"Orange County","state_id":"CA"},{"zip":"92649","fips":"06059","name":"Orange County","state_id":"CA"},{"zip":"92650","fips":"06059","name":"Orange County","state_id":"CA"},{"zip":"92651","fips":"06059","name":"Orange County","state_id":"CA"},{"zip":"92652","fips":"06059","name":"Orange County","state_id":"CA"},{"zip":"92653","fips":"06059","name":"Orange County","state_id":"CA"},{"zip":"92654","fips":"06059","name":"Orange County","state_id":"CA"},{"zip":"92655","fips":"06059","name":"Orange County","state_id":"CA"},{"zip":"92656","fips":"06059","name":"Orange County","state_id":"CA"},{"zip":"92657","fips":"06059","name":"Orange County","state_id":"CA"},{"zip":"92658","fips":"06059","name":"Orange County","state_id":"CA"},{"zip":"92659","fips":"06059","name":"Orange County","state_id":"CA"},{"zip":"92660","fips":"06059","name":"Orange County","state_id":"CA"},{"zip":"92661","fips":"06059","name":"Orange County","state_id":"CA"},{"zip":"92662","fips":"06059","name":"Orange County","state_id":"CA"},{"zip":"92663","fips":"06059","name":"Orange County","state_id":"CA"},{"zip":"92672","fips":"06059","name":"Orange County","state_id":"CA"},{"zip":"92672","fips":"06073","name":"San Diego County","state_id":"CA"},{"zip":"92673","fips":"06059","name":"Orange County","state_id":"CA"},{"zip":"92674","fips":"06059","name":"Orange County","state_id":"CA"},{"zip":"92675","fips":"06059","name":"Orange County","state_id":"CA"},{"zip":"92676","fips":"06059","name":"Orange County","state_id":"CA"},{"zip":"92677","fips":"06059","name":"Orange County","state_id":"CA"},{"zip":"92678","fips":"06059","name":"Orange County","state_id":"CA"},{"zip":"92679","fips":"06059","name":"Orange County","state_id":"CA"},{"zip":"92683","fips":"06059","name":"Orange County","state_id":"CA"},{"zip":"92684","fips":"06059","name":"Orange County","state_id":"CA"},{"zip":"92685","fips":"06059","name":"Orange County","state_id":"CA"},{"zip":"92688","fips":"06059","name":"Orange County","state_id":"CA"},{"zip":"92690","fips":"06059","name":"Orange County","state_id":"CA"},{"zip":"92691","fips":"06059","name":"Orange County","state_id":"CA"},{"zip":"92692","fips":"06059","name":"Orange County","state_id":"CA"},{"zip":"92693","fips":"06059","name":"Orange County","state_id":"CA"},{"zip":"92694","fips":"06059","name":"Orange County","state_id":"CA"},{"zip":"92697","fips":"06059","name":"Orange County","state_id":"CA"},{"zip":"92698","fips":"06059","name":"Orange County","state_id":"CA"}]
