[{"zip":"92701","fips":"06059","name":"Orange County","state_id":"CA"},{"zip":"92702","fips":"06059","name":"Orange County","state_id":"CA"},{"zip":"92703","fips":"06059","name":"Orange County","state_id":"CA"},{"zip":"92704","fips":"06059","name":"Orange County","state_id":"CA"},{"zip":"92705","fips":"06059","name":"Orange County","state_id":"CA"},{"zip":"92706","fips":"06059","name":"Orange County","state_id":"CA"},{"zip":"92707","fips":"06059","name":"Orange County","state_id":"CA"},{"zip":"92708","fips":"06059","name":"Orange County","state_id":"CA"},{"zip":"92711","fips":"06059","name":"Orange County","state_id":"CA"},{"zip":"92728","fips":"06059","name":"Orange County","state_id":"CA"},{"zip":"92735","fips":"06059","name":"Orange County","state_id":"CA"},{"zip":"92780","fips":"06059","name":"Orange County","state_id":"CA"},{"zip":"92781","fips":"06059","name":"Orange County","state_id":"CA"},{"zip":"92782","fips":"06059","name":"Orange County","state_id":"CA"},{"zip":"92799","fips":"06059","name":"Orange County","state_id":"CA"}]
