[{"zip":"92801","fips":"06059","name":"Orange County","state_id":"CA"},{"zip":"92802","fips":"06059","name":"Orange County","state_id":"CA"},{"zip":"92803","fips":"06059","name":"Orange County","state_id":"CA"},{"zip":"92804","fips":"06059","name":"Orange County","state_id":"CA"},{"zip":"92805","fips":"06059","name":"Orange County","state_id":"CA"},{"zip":"92806","fips":"06059","name":"Orange County","state_id":"CA"},{"zip":"92807","fips":"06059","name":"Orange County","state_id":"CA"},{"zip":"92808","fips":"06059","name":"Orange County","state_id":"CA"},{"zip":"92809","fips":"06059","name":"Orange County","state_id":"CA"},{"zip":"92811","fips":"06059","name":"Orange County","state_id":"CA"},{"zip":"92812","fips":"06059","name":"Orange County","state_id":"CA"},{"zip":"92814","fips":"06059","name":"Orange County","state_id":"CA"},{"zip":"92815","fips":"06059","name":"Orange County","state_id":"CA"},{"zip":"92816","fips":"06059","name":"Orange County","state_id":"CA"},{"zip":"92817","fips":"06059","name":"Orange County","state_id":"CA"},{"zip":"92821","fips":"06059","name":"Orange County","state_id":"CA"},{"zip":"92822","fips":"06059","name":"Orange County","state_id":"CA"},{"zip":"92823","fips":"06059","name":"Orange County","state_id":"CA"},{"zip":"92825","fips":"06059","name":"Orange County","state_id":"CA"},{"zip":"92831","fips":"06059","name":"Orange County","state_id":"CA"},{"zip":"92832","fips":"06059","name":"Orange County","state_id":"CA"},{"zip":"92833","fips":"06059","name":"Orange County","state_id":"CA"},{"zip":"92834","fips":"06059","name":"Orange County","state_id":"CA"},{"zip":"92835","fips":"06059","name":"Orange County","state_id":"CA"},{"zip":"92836","fips":"06059","name":"Orange County","state_id":"CA"},{"zip":"92837","fips":"06059","name":"Orange County","state_id":"CA"},{"zip":"92838","fips":"06059","name":"Orange County","state_id":"CA"},{"zip":"92840","fips":"06059","name":"Orange County","state_id":"CA"},{"zip":"92841","fips":"06059","name":"Orange County","state_id":"CA"},{"zip":"92842","fips":"06059","name":"Orange County","state_id":"CA"},{"zip":"92843","fips":"06059","name":"Orange County","state_id":"CA"},{"zip":"92844","fips":"06059","name":"Orange County","state_id":"CA"},{"zip":"92845","fips":"06059","name":"Orange County","state_id":"CA"},{"zip":"92846","fips":"06059","name":"Orange County","state_id":"CA"},{"zip":"92856","fips":"06059","name":"Orange County","state_id":"CA"},{"zip":"92857","fips":"06059","name":"Orange County","state_id":"CA"},{"zip":"92859","fips":"06059","name":"Orange County","state_id":"CA"},{"zip":"92860","fips":"06065","name":"Riverside County","state_id":"CA"},{"zip":"92861","fips":"06059","name":"Orange County","state_id":"CA"},{"zip":"92862","fips":"06059","name":"Orange County","state_id":"CA"},{"zip":"92863","fips":"06059","name":"Orange County","state_id":"CA"},{"zip":"92864","fips":"06059","name":"Orange County","state_id":"CA"},{"zip":"92865","fips":"06059","name":"Orange County","state_id":"CA"},{"zip":"92866","fips":"06059","name":"Orange County","state_id":"CA"},{"zip":"92867","fips":"06059","name":"Orange County","state_id":"CA"},{"zip":"92868","fips":"06059","name":"Orange County","state_id":"CA"},{"zip":"92869","fips":"06059","name":"Orange County","state_id":"CA"},{"zip":"92870","fips":"06059","name":"Orange County","state_id":"CA"},{"zip":"92871","fips":"06059","name":"Orange County","state_id":"CA"},{"zip":"92877","fips":"06065","name":"Riverside County","state_id":"CA"},{"zip":"92878","fips":"06065","name":"Riverside County","state_id":"CA"},{"zip":"92879","fips":"06065","name":"Riverside County","state_id":"CA"},{"zip":"92880","fips":"06071","name":"San Bernardino County","state_id":"CA"},{"zip":"92880","fips":"06065","name":"Riverside County","state_id":"CA"},{"zip":"92881","fips":"06065","name":"Riverside County","state_id":"CA"},{"zip":"92882","fips":"06065","name":"Riverside County","state_id":"CA"},{"zip":"92883","fips":"06065","name":"Riverside County","state_id":"CA"},{"zip":"92885","fips":"06059","name":"Orange County","state_id":"CA"},{"zip":"92886","fips":"06059","name":"Orange County","state_id":"CA"},{"zip":"92887","fips":"06059","name":"Orange County","state_id":"CA"},{"zip":"92899","fips":"06059","name":"Orange County","state_id":"CA"}]
