[{"zip":"93001","fips":"06111","name":"Ventura County","state_id":"CA"},{"zip":"93002","fips":"06111","name":"Ventura County","state_id":"CA"},{"zip":"93003","fips":"06111","name":"Ventura County","state_id":"CA"},{"zip":"93004","fips":"06111","name":"Ventura County","state_id":"CA"},{"zip":"93005","fips":"06111","name":"Ventura County","state_id":"CA"},{"zip":"93006","fips":"06111","name":"Ventura County","state_id":"CA"},{"zip":"93007","fips":"06111","name":"Ventura County","state_id":"CA"},{"zip":"93009","fips":"06111","name":"Ventura County","state_id":"CA"},{"zip":"93010","fips":"06111","name":"Ventura County","state_id":"CA"},{"zip":"93011","fips":"06111","name":"Ventura County","state_id":"CA"},{"zip":"93012","fips":"06111","name":"Ventura County","state_id":"CA"},{"zip":"93013","fips":"06083","name":"Santa Barbara County","state_id":"CA"},{"zip":"93013","fips":"06111","name":"Ventura County","state_id":"CA"},{"zip":"93014","fips":"06083","name":"Santa Barbara County","state_id":"CA"},{"zip":"93015","fips":"06111","name":"Ventura County","state_id":"CA"},{"zip":"93016","fips":"06111","name":"Ventura County","state_id":"CA"},{"zip":"93020","fips":"06111","name":"Ventura County","state_id":"CA"},{"zip":"93021","fips":"06111","name":"Ventura County","state_id":"CA"},{"zip":"93022","fips":"06111","name":"Ventura County","state_id":"CA"},{"zip":"93023","fips":"06111","name":"Ventura County","state_id":"CA"},{"zip":"93024","fips":"06111","name":"Ventura County","state_id":"CA"},{"zip":"93030","fips":"06111","name":"Ventura County","state_id":"CA"},{"zip":"93031","fips":"06111","name":"Ventura County","state_id":"CA"},{"zip":"93032","fips":"06111","name":"Ventura County","state_id":"CA"},{"zip":"93033","fips":"06111","name":"Ventura County","state_id":"CA"},{"zip":"93034","fips":"06111","name":"Ventura County","state_id":"CA"},{"zip":"93035","fips":"06111","name":"Ventura County","state_id":"CA"},{"zip":"93036","fips":"06111","name":"Ventura County","state_id":"CA"},{"zip":"93040","fips":"06111","name":"Ventura County","state_id":"CA"},{"zip":"93041","fips":"06111","name":"Ventura County","state_id":"CA"},{"zip":"93042","fips":"06111","name":"Ventura County","state_id":"CA"},{"zip":"93043","fips":"06111","name":"Ventura County","state_id":"CA"},{"zip":"93044","fips":"06111","name":"Ventura County","state_id":"CA"},{"zip":"93060","fips":"06111","name":"Ventura County","state_id":"CA"},{"zip":"93061","fips":"06111","name":"Ventura County","state_id":"CA"},{"zip":"93062","fips":"06111","name":"Ventura County","state_id":"CA"},{"zip":"93063","fips":"06037","name":"Los Angeles County","state_id":"CA"},{"zip":"93063","fips":"06111","name":"Ventura County","state_id":"CA"},{"zip":"93064","fips":"06111","name":"Ventura County","state_id":"CA"},{"zip":"93065","fips":"06111","name":"Ventura County","state_id":"CA"},{"zip":"93066","fips":"06111","name":"Ventura County","state_id":"CA"},{"zip":"93067","fips":"06083","name":"Santa Barbara County","state_id":"CA"},{"zip":"93094","fips":"06111","name":"Ventura County","state_id":"CA"},{"zip":"93099","fips":"06111","name":"Ventura County","state_id":"CA"}]
