[{"zip":"93101","fips":"06083","name":"Santa Barbara County","state_id":"CA"},{"zip":"93102","fips":"06083","name":"Santa Barbara County","state_id":"CA"},{"zip":"93103","fips":"06083","name":"Santa Barbara County","state_id":"CA"},{"zip":"93105","fips":"06083","name":"Santa Barbara County","state_id":"CA"},{"zip":"93106","fips":"06083","name":"Santa Barbara County","state_id":"CA"},{"zip":"93108","fips":"06083","name":"Santa Barbara County","state_id":"CA"},{"zip":"93109","fips":"06083","name":"Santa Barbara County","state_id":"CA"},{"zip":"93110","fips":"06083","name":"Santa Barbara County","state_id":"CA"},{"zip":"93111","fips":"06083","name":"Santa Barbara County","state_id":"CA"},{"zip":"93116","fips":"06083","name":"Santa Barbara County","state_id":"CA"},{"zip":"93117","fips":"06083","name":"Santa Barbara County","state_id":"CA"},{"zip":"93118","fips":"06083","name":"Santa Barbara County","state_id":"CA"},{"zip":"93120","fips":"06083","name":"Santa Barbara County","state_id":"CA"},{"zip":"93121","fips":"06083","name":"Santa Barbara County","state_id":"CA"},{"zip":"93130","fips":"06083","name":"Santa Barbara County","state_id":"CA"},{"zip":"93140","fips":"06083","name":"Santa Barbara County","state_id":"CA"},{"zip":"93150","fips":"06083","name":"Santa Barbara County","state_id":"CA"},{"zip":"93160","fips":"06083","name":"Santa Barbara County","state_id":"CA"},{"zip":"93190","fips":"06083","name":"Santa Barbara County","state_id":"CA"},{"zip":"93199","fips":"06083","name":"Santa Barbara County","state_id":"CA"}]
