[{"zip":"93201","fips":"06107","name":"Tulare County","state_id":"CA"},{"zip":"93202","fips":"06031","name":"Kings County","state_id":"CA"},{"zip":"93203","fips":"06029","name":"Kern County","state_id":"CA"},{"zip":"93204","fips":"06031","name":"Kings County","state_id":"CA"},{"zip":"93204","fips":"06029","name":"Kern County","state_id":"CA"},{"zip":"93205","fips":"06029","name":"Kern County","state_id":"CA"},{"zip":"93206","fips":"06029","name":"Kern County","state_id":"CA"},{"zip":"93207","fips":"06107","name":"Tulare County","state_id":"CA"},{"zip":"93208","fips":"06107","name":"Tulare County","state_id":"CA"},{"zip":"93210","fips":"06053","name":"Monterey County","state_id":"CA"},{"zip":"93210","fips":"06019","name":"Fresno County","state_id":"CA"},{"zip":"93212","fips":"06031","name":"Kings County","state_id":"CA"},{"zip":"93212","fips":"06107","name":"Tulare County","state_id":"CA"},{"zip":"93215","fips":"06029","name":"Kern County","state_id":"CA"},{"zip":"93215","fips":"06107","name":"Tulare County","state_id":"CA"},{"zip":"93218","fips":"06107","name":"Tulare County","state_id":"CA"},{"zip":"93219","fips":"06107","name":"Tulare County","state_id":"CA"},{"zip":"93219","fips":"06029","name":"Kern County","state_id":"CA"},{"zip":"93220","fips":"06029","name":"Kern County","state_id":"CA"},{"zip":"93221","fips":"06107","name":"Tulare County","state_id":"CA"},{"zip":"93222","fips":"06029","name":"Kern County","state_id":"CA"},{"zip":"93223","fips":"06107","name":"Tulare County","state_id":"CA"},{"zip":"93224","fips":"06029","name":"Kern County","state_id":"CA"},{"zip":"93225","fips":"06029","name":"Kern County","state_id":"CA"},{"zip":"93225","fips":"06111","name":"Ventura County","state_id":"CA"},{"zip":"93226","fips":"06029","name":"Kern County","state_id":"CA"},{"zip":"93227","fips":"06107","name":"Tulare County","state_id":"CA"},{"zip":"93230","fips":"06031","name":"Kings County","state_id":"CA"},{"zip":"93230","fips":"06107","name":"Tulare County","state_id":"CA"},{"zip":"93232","fips":"06031","name":"Kings County","state_id":"CA"},{"zip":"93234","fips":"06019","name":"Fresno County","state_id":"CA"},{"zip":"93235","fips":"06107","name":"Tulare County","state_id":"CA"},{"zip":"93237","fips":"06107","name":"Tulare County","state_id":"CA"},{"zip":"93238","fips":"06029","name":"Kern County","state_id":"CA"},{"zip":"93239","fips":"06031","name":"Kings County","state_id":"CA"},{"zip":"93240","fips":"06029","name":"Kern County","state_id":"CA"},{"zip":"93241","fips":"06029","name":"Kern County","state_id":"CA"},{"zip":"93242","fips":"06019","name":"Fresno County","state_id":"CA"},{"zip":"93242","fips":"06031","name":"Kings County","state_id":"CA"},{"zip":"93243","fips":"06037","name":"Los Angeles County","state_id":"CA"},{"zip":"93243","fips":"06029","name":"Kern County","state_id":"CA"},{"zip":"93244","fips":"06107","name":"Tulare County","state_id":"CA"},{"zip":"93245","fips":"06031","name":"Kings County","state_id":"CA"},{"zip":"93246","fips":"06031","name":"Kings County","state_id":"CA"},{"zip":"93247","fips":"06107","name":"Tulare County","state_id":"CA"},{"zip":"93249","fips":"06029","name":"Kern County","state_id":"CA"},{"zip":"93250","fips":"06029","name":"Kern County","state_id":"CA"},{"zip":"93251","fips":"06029","name":"Kern County","state_id":"CA"},{"zip":"93252","fips":"06029","name":"Kern County","state_id":"CA"},{"zip":"93252","fips":"06111","name":"Ventura County","state_id":"CA"},{"zip":"93252","fips":"06079","name":"San Luis Obispo County","state_id":"CA"},{"zip":"93252","fips":"06083","name":"Santa Barbara County","state_id":"CA"},{"zip":"93254","fips":"06079","name":"San Luis Obispo County","state_id":"CA"},{"zip":"93254","fips":"06083","name":"Santa Barbara County","state_id":"CA"},{"zip":"93255","fips":"06029","name":"Kern County","state_id":"CA"},{"zip":"93256","fips":"06107","name":"Tulare County","state_id":"CA"},{"zip":"93257","fips":"06107","name":"Tulare County","state_id":"CA"},{"zip":"93258","fips":"06107","name":"Tulare County","state_id":"CA"},{"zip":"93260","fips":"06107","name":"Tulare County","state_id":"CA"},{"zip":"93261","fips":"06107","name":"Tulare County","state_id":"CA"},{"zip":"93262","fips":"06107","name":"Tulare County","state_id":"CA"},{"zip":"93263","fips":"06029","name":"Kern County","state_id":"CA"},{"zip":"93265","fips":"06107","name":"Tulare County","state_id":"CA"},{"zip":"93266","fips":"06031","name":"Kings County","state_id":"CA"},{"zip":"93267","fips":"06107","name":"Tulare County","state_id":"CA"},{"zip":"93268","fips":"06029","name":"Kern County","state_id":"CA"},{"zip":"93270","fips":"06107","name":"Tulare County","state_id":"CA"},{"zip":"93271","fips":"06107","name":"Tulare County","state_id":"CA"},{"zip":"93272","fips":"06107","name":"Tulare County","state_id":"CA"},{"zip":"93274","fips":"06107","name":"Tulare County","state_id":"CA"},{"zip":"93274","fips":"06031","name":"Kings County","state_id":"CA"},{"zip":"93275","fips":"06107","name":"Tulare County","state_id":"CA"},{"zip":"93276","fips":"06029","name":"Kern County","state_id":"CA"},{"zip":"93277","fips":"06107","name":"Tulare County","state_id":"CA"},{"zip":"93278","fips":"06107","name":"Tulare County","state_id":"CA"},{"zip":"93279","fips":"06107","name":"Tulare County","state_id":"CA"},{"zip":"93280","fips":"06029","name":"Kern County","state_id":"CA"},{"zip":"93283","fips":"06029","name":"Kern County","state_id":"CA"},{"zip":"93285","fips":"06029","name":"Kern County","state_id":"CA"},{"zip":"93286","fips":"06107","name":"Tulare County","state_id":"CA"},{"zip":"93287","fips":"06029","name":"Kern County","state_id":"CA"},{"zip":"93290","fips":"06107","name":"Tulare County","state_id":"CA"},{"zip":"93291","fips":"06107","name":"Tulare County","state_id":"CA"},{"zip":"93292","fips":"06107","name":"Tulare County","state_id":"CA"}]
