[{"zip":"93301","fips":"06029","name":"Kern County","state_id":"CA"},{"zip":"93302","fips":"06029","name":"Kern County","state_id":"CA"},{"zip":"93303","fips":"06029","name":"Kern County","state_id":"CA"},{"zip":"93304","fips":"06029","name":"Kern County","state_id":"CA"},{"zip":"93305","fips":"06029","name":"Kern County","state_id":"CA"},{"zip":"93306","fips":"06029","name":"Kern County","state_id":"CA"},{"zip":"93307","fips":"06029","name":"Kern County","state_id":"CA"},{"zip":"93308","fips":"06029","name":"Kern County","state_id":"CA"},{"zip":"93309","fips":"06029","name":"Kern County","state_id":"CA"},{"zip":"93311","fips":"06029","name":"Kern County","state_id":"CA"},{"zip":"93312","fips":"06029","name":"Kern County","state_id":"CA"},{"zip":"93313","fips":"06029","name":"Kern County","state_id":"CA"},{"zip":"93314","fips":"06029","name":"Kern County","state_id":"CA"},{"zip":"93380","fips":"06029","name":"Kern County","state_id":"CA"},{"zip":"93384","fips":"06029","name":"Kern County","state_id":"CA"},{"zip":"93385","fips":"06029","name":"Kern County","state_id":"CA"},{"zip":"93386","fips":"06029","name":"Kern County","state_id":"CA"},{"zip":"93387","fips":"06029","name":"Kern County","state_id":"CA"},{"zip":"93388","fips":"06029","name":"Kern County","state_id":"CA"},{"zip":"93389","fips":"06029","name":"Kern County","state_id":"CA"},{"zip":"93390","fips":"06029","name":"Kern County","state_id":"CA"}]
