[{"zip":"93401","fips":"06079","name":"San Luis Obispo County","state_id":"CA"},{"zip":"93402","fips":"06079","name":"San Luis Obispo County","state_id":"CA"},{"zip":"93403","fips":"06079","name":"San Luis Obispo County","state_id":"CA"},{"zip":"93405","fips":"06079","name":"San Luis Obispo County","state_id":"CA"},{"zip":"93406","fips":"06079","name":"San Luis Obispo County","state_id":"CA"},{"zip":"93407","fips":"06079","name":"San Luis Obispo County","state_id":"CA"},{"zip":"93408","fips":"06079","name":"San Luis Obispo County","state_id":"CA"},{"zip":"93409","fips":"06079","name":"San Luis Obispo County","state_id":"CA"},{"zip":"93410","fips":"06079","name":"San Luis Obispo County","state_id":"CA"},{"zip":"93412","fips":"06079","name":"San Luis Obispo County","state_id":"CA"},{"zip":"93420","fips":"06079","name":"San Luis Obispo County","state_id":"CA"},{"zip":"93421","fips":"06079","name":"San Luis Obispo County","state_id":"CA"},{"zip":"93422","fips":"06079","name":"San Luis Obispo County","state_id":"CA"},{"zip":"93423","fips":"06079","name":"San Luis Obispo County","state_id":"CA"},{"zip":"93424","fips":"06079","name":"San Luis Obispo County","state_id":"CA"},{"zip":"93426","fips":"06079","name":"San Luis Obispo County","state_id":"CA"},{"zip":"93426","fips":"06053","name":"Monterey County","state_id":"CA"},{"zip":"93427","fips":"06083","name":"Santa Barbara County","state_id":"CA"},{"zip":"93428","fips":"06079","name":"San Luis Obispo County","state_id":"CA"},{"zip":"93429","fips":"06083","name":"Santa Barbara County","state_id":"CA"},{"zip":"93430","fips":"06079","name":"San Luis Obispo County","state_id":"CA"},{"zip":"93432","fips":"06079","name":"San Luis Obispo County","state_id":"CA"},{"zip":"93433","fips":"06079","name":"San Luis Obispo County","state_id":"CA"},{"zip":"93434","fips":"06083","name":"Santa Barbara County","state_id":"CA"},{"zip":"93435","fips":"06079","name":"San Luis Obispo County","state_id":"CA"},{"zip":"93436","fips":"06083","name":"Santa Barbara County","state_id":"CA"},{"zip":"93437","fips":"06083","name":"Santa Barbara County","state_id":"CA"},{"zip":"93438","fips":"06083","name":"Santa Barbara County","state_id":"CA"},{"zip":"93440","fips":"06083","name":"Santa Barbara County","state_id":"CA"},{"zip":"93441","fips":"06083","name":"Santa Barbara County","state_id":"CA"},{"zip":"93442","fips":"06079","name":"San Luis Obispo County","state_id":"CA"},{"zip":"93443","fips":"06079","name":"San Luis Obispo County","state_id":"CA"},{"zip":"93444","fips":"06079","name":"San Luis Obispo County","state_id":"CA"},{"zip":"93445","fips":"06079","name":"San Luis Obispo County","state_id":"CA"},{"zip":"93446","fips":"06079","name":"San Luis Obispo County","state_id":"CA"},{"zip":"93447","fips":"06079","name":"San Luis Obispo County","state_id":"CA"},{"zip":"93448","fips":"06079","name":"San Luis Obispo County","state_id":"CA"},{"zip":"93449","fips":"06079","name":"San Luis Obispo County","state_id":"CA"},{"zip":"93450","fips":"06053","name":"Monterey County","state_id":"CA"},{"zip":"93451","fips":"06079","name":"San Luis Obispo County","state_id":"CA"},{"zip":"93451","fips":"06053","name":"Monterey County","state_id":"CA"},{"zip":"93452","fips":"06079","name":"San Luis Obispo County","state_id":"CA"},{"zip":"93453","fips":"06079","name":"San Luis Obispo County","state_id":"CA"},{"zip":"93454","fips":"06079","name":"San Luis Obispo County","state_id":"CA"},{"zip":"93454","fips":"06083","name":"Santa Barbara County","state_id":"CA"},{"zip":"93455","fips":"06083","name":"Santa Barbara County","state_id":"CA"},{"zip":"93456","fips":"06083","name":"Santa Barbara County","state_id":"CA"},{"zip":"93457","fips":"06083","name":"Santa Barbara County","state_id":"CA"},{"zip":"93458","fips":"06083","name":"Santa Barbara County","state_id":"CA"},{"zip":"93458","fips":"06079","name":"San Luis Obispo County","state_id":"CA"},{"zip":"93460","fips":"06083","name":"Santa Barbara County","state_id":"CA"},{"zip":"93461","fips":"06029","name":"Kern County","state_id":"CA"},{"zip":"93461","fips":"06079","name":"San Luis Obispo County","state_id":"CA"},{"zip":"93463","fips":"06083","name":"Santa Barbara County","state_id":"CA"},{"zip":"93464","fips":"06083","name":"Santa Barbara County","state_id":"CA"},{"zip":"93465","fips":"06079","name":"San Luis Obispo County","state_id":"CA"},{"zip":"93475","fips":"06079","name":"San Luis Obispo County","state_id":"CA"},{"zip":"93483","fips":"06079","name":"San Luis Obispo County","state_id":"CA"}]
