[{"zip":"93601","fips":"06039","name":"Madera County","state_id":"CA"},{"zip":"93601","fips":"06043","name":"Mariposa County","state_id":"CA"},{"zip":"93602","fips":"06039","name":"Madera County","state_id":"CA"},{"zip":"93602","fips":"06019","name":"Fresno County","state_id":"CA"},{"zip":"93603","fips":"06107","name":"Tulare County","state_id":"CA"},{"zip":"93603","fips":"06019","name":"Fresno County","state_id":"CA"},{"zip":"93604","fips":"06039","name":"Madera County","state_id":"CA"},{"zip":"93605","fips":"06019","name":"Fresno County","state_id":"CA"},{"zip":"93606","fips":"06019","name":"Fresno County","state_id":"CA"},{"zip":"93608","fips":"06019","name":"Fresno County","state_id":"CA"},{"zip":"93609","fips":"06019","name":"Fresno County","state_id":"CA"},{"zip":"93610","fips":"06047","name":"Merced County","state_id":"CA"},{"zip":"93610","fips":"06039","name":"Madera County","state_id":"CA"},{"zip":"93611","fips":"06019","name":"Fresno County","state_id":"CA"},{"zip":"93612","fips":"06019","name":"Fresno County","state_id":"CA"},{"zip":"93613","fips":"06019","name":"Fresno County","state_id":"CA"},{"zip":"93614","fips":"06039","name":"Madera County","state_id":"CA"},{"zip":"93615","fips":"06107","name":"Tulare County","state_id":"CA"},{"zip":"93616","fips":"06019","name":"Fresno County","state_id":"CA"},{"zip":"93618","fips":"06107","name":"Tulare County","state_id":"CA"},{"zip":"93618","fips":"06019","name":"Fresno County","state_id":"CA"},{"zip":"93619","fips":"06019","name":"Fresno County","state_id":"CA"},{"zip":"93620","fips":"06039","name":"Madera County","state_id":"CA"},{"zip":"93620","fips":"06047","name":"Merced County","state_id":"CA"},{"zip":"93620","fips":"06019","name":"Fresno County","state_id":"CA"},{"zip":"93621","fips":"06019","name":"Fresno County","state_id":"CA"},{"zip":"93622","fips":"06019","name":"Fresno County","state_id":"CA"},{"zip":"93622","fips":"06039","name":"Madera County","state_id":"CA"},{"zip":"93622","fips":"06047","name":"Merced County","state_id":"CA"},{"zip":"93623","fips":"06043","name":"Mariposa County","state_id":"CA"},{"zip":"93624","fips":"06019","name":"Fresno County","state_id":"CA"},{"zip":"93625","fips":"06019","name":"Fresno County","state_id":"CA"},{"zip":"93626","fips":"06019","name":"Fresno County","state_id":"CA"},{"zip":"93626","fips":"06039","name":"Madera County","state_id":"CA"},{"zip":"93627","fips":"06019","name":"Fresno County","state_id":"CA"},{"zip":"93628","fips":"06019","name":"Fresno County","state_id":"CA"},{"zip":"93630","fips":"06039","name":"Madera County","state_id":"CA"},{"zip":"93630","fips":"06019","name":"Fresno County","state_id":"CA"},{"zip":"93631","fips":"06031","name":"Kings County","state_id":"CA"},{"zip":"93631","fips":"06019","name":"Fresno County","state_id":"CA"},{"zip":"93631","fips":"06107","name":"Tulare County","state_id":"CA"},{"zip":"93633","fips":"06107","name":"Tulare County","state_id":"CA"},{"zip":"93634","fips":"06019","name":"Fresno County","state_id":"CA"},{"zip":"93635","fips":"06047","name":"Merced County","state_id":"CA"},{"zip":"93636","fips":"06039","name":"Madera County","state_id":"CA"},{"zip":"93637","fips":"06039","name":"Madera County","state_id":"CA"},{"zip":"93638","fips":"06039","name":"Madera County","state_id":"CA"},{"zip":"93639","fips":"06039","name":"Madera County","state_id":"CA"},{"zip":"93640","fips":"06019","name":"Fresno County","state_id":"CA"},{"zip":"93641","fips":"06019","name":"Fresno County","state_id":"CA"},{"zip":"93641","fips":"06107","name":"Tulare County","state_id":"CA"},{"zip":"93642","fips":"06019","name":"Fresno County","state_id":"CA"},{"zip":"93643","fips":"06039","name":"Madera County","state_id":"CA"},{"zip":"93644","fips":"06039","name":"Madera County","state_id":"CA"},{"zip":"93645","fips":"06039","name":"Madera County","state_id":"CA"},{"zip":"93646","fips":"06019","name":"Fresno County","state_id":"CA"},{"zip":"93646","fips":"06107","name":"Tulare County","state_id":"CA"},{"zip":"93647","fips":"06019","name":"Fresno County","state_id":"CA"},{"zip":"93647","fips":"06107","name":"Tulare County","state_id":"CA"},{"zip":"93648","fips":"06019","name":"Fresno County","state_id":"CA"},{"zip":"93649","fips":"06019","name":"Fresno County","state_id":"CA"},{"zip":"93650","fips":"06019","name":"Fresno County","state_id":"CA"},{"zip":"93651","fips":"06019","name":"Fresno County","state_id":"CA"},{"zip":"93652","fips":"06019","name":"Fresno County","state_id":"CA"},{"zip":"93653","fips":"06043","name":"Mariposa County","state_id":"CA"},{"zip":"93653","fips":"06039","name":"Madera County","state_id":"CA"},{"zip":"93654","fips":"06107","name":"Tulare County","state_id":"CA"},{"zip":"93654","fips":"06019","name":"Fresno County","state_id":"CA"},{"zip":"93656","fips":"06019","name":"Fresno County","state_id":"CA"},{"zip":"93656","fips":"06031","name":"Kings County","state_id":"CA"},{"zip":"93657","fips":"06019","name":"Fresno County","state_id":"CA"},{"zip":"93660","fips":"06019","name":"Fresno County","state_id":"CA"},{"zip":"93661","fips":"06047","name":"Merced County","state_id":"CA"},{"zip":"93662","fips":"06019","name":"Fresno County","state_id":"CA"},{"zip":"93664","fips":"06019","name":"Fresno County","state_id":"CA"},{"zip":"93665","fips":"06047","name":"Merced County","state_id":"CA"},{"zip":"93666","fips":"06107","name":"Tulare County","state_id":"CA"},{"zip":"93667","fips":"06019","name":"Fresno County","state_id":"CA"},{"zip":"93668","fips":"06019","name":"Fresno County","state_id":"CA"},{"zip":"93669","fips":"06039","name":"Madera County","state_id":"CA"},{"zip":"93670","fips":"06107","name":"Tulare County","state_id":"CA"},{"zip":"93673","fips":"06107","name":"Tulare County","state_id":"CA"},{"zip":"93675","fips":"06107","name":"Tulare County","state_id":"CA"},{"zip":"93675","fips":"06019","name":"Fresno County","state_id":"CA"}]
