[{"zip":"93701","fips":"06019","name":"Fresno County","state_id":"CA"},{"zip":"93702","fips":"06019","name":"Fresno County","state_id":"CA"},{"zip":"93703","fips":"06019","name":"Fresno County","state_id":"CA"},{"zip":"93704","fips":"06019","name":"Fresno County","state_id":"CA"},{"zip":"93705","fips":"06019","name":"Fresno County","state_id":"CA"},{"zip":"93706","fips":"06019","name":"Fresno County","state_id":"CA"},{"zip":"93707","fips":"06019","name":"Fresno County","state_id":"CA"},{"zip":"93708","fips":"06019","name":"Fresno County","state_id":"CA"},{"zip":"93709","fips":"06019","name":"Fresno County","state_id":"CA"},{"zip":"93710","fips":"06019","name":"Fresno County","state_id":"CA"},{"zip":"93711","fips":"06019","name":"Fresno County","state_id":"CA"},{"zip":"93712","fips":"06019","name":"Fresno County","state_id":"CA"},{"zip":"93714","fips":"06019","name":"Fresno County","state_id":"CA"},{"zip":"93715","fips":"06019","name":"Fresno County","state_id":"CA"},{"zip":"93716","fips":"06019","name":"Fresno County","state_id":"CA"},{"zip":"93717","fips":"06019","name":"Fresno County","state_id":"CA"},{"zip":"93718","fips":"06019","name":"Fresno County","state_id":"CA"},{"zip":"93720","fips":"06019","name":"Fresno County","state_id":"CA"},{"zip":"93720","fips":"06039","name":"Madera County","state_id":"CA"},{"zip":"93721","fips":"06019","name":"Fresno County","state_id":"CA"},{"zip":"93722","fips":"06019","name":"Fresno County","state_id":"CA"},{"zip":"93723","fips":"06019","name":"Fresno County","state_id":"CA"},{"zip":"93724","fips":"06019","name":"Fresno County","state_id":"CA"},{"zip":"93725","fips":"06019","name":"Fresno County","state_id":"CA"},{"zip":"93726","fips":"06019","name":"Fresno County","state_id":"CA"},{"zip":"93727","fips":"06019","name":"Fresno County","state_id":"CA"},{"zip":"93728","fips":"06019","name":"Fresno County","state_id":"CA"},{"zip":"93729","fips":"06019","name":"Fresno County","state_id":"CA"},{"zip":"93730","fips":"06019","name":"Fresno County","state_id":"CA"},{"zip":"93737","fips":"06019","name":"Fresno County","state_id":"CA"},{"zip":"93740","fips":"06019","name":"Fresno County","state_id":"CA"},{"zip":"93741","fips":"06019","name":"Fresno County","state_id":"CA"},{"zip":"93744","fips":"06019","name":"Fresno County","state_id":"CA"},{"zip":"93745","fips":"06019","name":"Fresno County","state_id":"CA"},{"zip":"93747","fips":"06019","name":"Fresno County","state_id":"CA"},{"zip":"93750","fips":"06019","name":"Fresno County","state_id":"CA"},{"zip":"93755","fips":"06019","name":"Fresno County","state_id":"CA"},{"zip":"93760","fips":"06019","name":"Fresno County","state_id":"CA"},{"zip":"93761","fips":"06019","name":"Fresno County","state_id":"CA"},{"zip":"93764","fips":"06019","name":"Fresno County","state_id":"CA"},{"zip":"93765","fips":"06019","name":"Fresno County","state_id":"CA"},{"zip":"93771","fips":"06019","name":"Fresno County","state_id":"CA"},{"zip":"93772","fips":"06019","name":"Fresno County","state_id":"CA"},{"zip":"93773","fips":"06019","name":"Fresno County","state_id":"CA"},{"zip":"93774","fips":"06019","name":"Fresno County","state_id":"CA"},{"zip":"93775","fips":"06019","name":"Fresno County","state_id":"CA"},{"zip":"93776","fips":"06019","name":"Fresno County","state_id":"CA"},{"zip":"93777","fips":"06019","name":"Fresno County","state_id":"CA"},{"zip":"93778","fips":"06019","name":"Fresno County","state_id":"CA"},{"zip":"93779","fips":"06019","name":"Fresno County","state_id":"CA"},{"zip":"93786","fips":"06019","name":"Fresno County","state_id":"CA"},{"zip":"93790","fips":"06019","name":"Fresno County","state_id":"CA"},{"zip":"93791","fips":"06019","name":"Fresno County","state_id":"CA"},{"zip":"93792","fips":"06019","name":"Fresno County","state_id":"CA"},{"zip":"93793","fips":"06019","name":"Fresno County","state_id":"CA"},{"zip":"93794","fips":"06019","name":"Fresno County","state_id":"CA"}]
