[{"zip":"93901","fips":"06053","name":"Monterey County","state_id":"CA"},{"zip":"93902","fips":"06053","name":"Monterey County","state_id":"CA"},{"zip":"93905","fips":"06053","name":"Monterey County","state_id":"CA"},{"zip":"93906","fips":"06053","name":"Monterey County","state_id":"CA"},{"zip":"93907","fips":"06053","name":"Monterey County","state_id":"CA"},{"zip":"93908","fips":"06053","name":"Monterey County","state_id":"CA"},{"zip":"93912","fips":"06053","name":"Monterey County","state_id":"CA"},{"zip":"93915","fips":"06053","name":"Monterey County","state_id":"CA"},{"zip":"93920","fips":"06053","name":"Monterey County","state_id":"CA"},{"zip":"93921","fips":"06053","name":"Monterey County","state_id":"CA"},{"zip":"93922","fips":"06053","name":"Monterey County","state_id":"CA"},{"zip":"93923","fips":"06053","name":"Monterey County","state_id":"CA"},{"zip":"93924","fips":"06053","name":"Monterey County","state_id":"CA"},{"zip":"93925","fips":"06053","name":"Monterey County","state_id":"CA"},{"zip":"93925","fips":"06069","name":"San Benito County","state_id":"CA"},{"zip":"93926","fips":"06053","name":"Monterey County","state_id":"CA"},{"zip":"93927","fips":"06053","name":"Monterey County","state_id":"CA"},{"zip":"93928","fips":"06053","name":"Monterey County","state_id":"CA"},{"zip":"93930","fips":"06053","name":"Monterey County","state_id":"CA"},{"zip":"93932","fips":"06053","name":"Monterey County","state_id":"CA"},{"zip":"93933","fips":"06053","name":"Monterey County","state_id":"CA"},{"zip":"93940","fips":"06053","name":"Monterey County","state_id":"CA"},{"zip":"93942","fips":"06053","name":"Monterey County","state_id":"CA"},{"zip":"93943","fips":"06053","name":"Monterey County","state_id":"CA"},{"zip":"93944","fips":"06053","name":"Monterey County","state_id":"CA"},{"zip":"93950","fips":"06053","name":"Monterey County","state_id":"CA"},{"zip":"93953","fips":"06053","name":"Monterey County","state_id":"CA"},{"zip":"93954","fips":"06053","name":"Monterey County","state_id":"CA"},{"zip":"93955","fips":"06053","name":"Monterey County","state_id":"CA"},{"zip":"93960","fips":"06053","name":"Monterey County","state_id":"CA"},{"zip":"93962","fips":"06053","name":"Monterey County","state_id":"CA"}]
