[{"zip":"94002","fips":"06081","name":"San Mateo County","state_id":"CA"},{"zip":"94005","fips":"06081","name":"San Mateo County","state_id":"CA"},{"zip":"94010","fips":"06081","name":"San Mateo County","state_id":"CA"},{"zip":"94011","fips":"06081","name":"San Mateo County","state_id":"CA"},{"zip":"94014","fips":"06075","name":"San Francisco County","state_id":"CA"},{"zip":"94014","fips":"06081","name":"San Mateo County","state_id":"CA"},{"zip":"94015","fips":"06081","name":"San Mateo County","state_id":"CA"},{"zip":"94017","fips":"06081","name":"San Mateo County","state_id":"CA"},{"zip":"94018","fips":"06081","name":"San Mateo County","state_id":"CA"},{"zip":"94019","fips":"06081","name":"San Mateo County","state_id":"CA"},{"zip":"94020","fips":"06085","name":"Santa Clara County","state_id":"CA"},{"zip":"94020","fips":"06081","name":"San Mateo County","state_id":"CA"},{"zip":"94021","fips":"06081","name":"San Mateo County","state_id":"CA"},{"zip":"94022","fips":"06085","name":"Santa Clara County","state_id":"CA"},{"zip":"94023","fips":"06085","name":"Santa Clara County","state_id":"CA"},{"zip":"94024","fips":"06085","name":"Santa Clara County","state_id":"CA"},{"zip":"94025","fips":"06081","name":"San Mateo County","state_id":"CA"},{"zip":"94026","fips":"06081","name":"San Mateo County","state_id":"CA"},{"zip":"94027","fips":"06081","name":"San Mateo County","state_id":"CA"},{"zip":"94028","fips":"06081","name":"San Mateo County","state_id":"CA"},{"zip":"94028","fips":"06085","name":"Santa Clara County","state_id":"CA"},{"zip":"94030","fips":"06081","name":"San Mateo County","state_id":"CA"},{"zip":"94035","fips":"06085","name":"Santa Clara County","state_id":"CA"},{"zip":"94037","fips":"06081","name":"San Mateo County","state_id":"CA"},{"zip":"94038","fips":"06081","name":"San Mateo County","state_id":"CA"},{"zip":"94039","fips":"06085","name":"Santa Clara County","state_id":"CA"},{"zip":"94040","fips":"06085","name":"Santa Clara County","state_id":"CA"},{"zip":"94041","fips":"06085","name":"Santa Clara County","state_id":"CA"},{"zip":"94042","fips":"06085","name":"Santa Clara County","state_id":"CA"},{"zip":"94043","fips":"06085","name":"Santa Clara County","state_id":"CA"},{"zip":"94044","fips":"06081","name":"San Mateo County","state_id":"CA"},{"zip":"94060","fips":"06081","name":"San Mateo County","state_id":"CA"},{"zip":"94060","fips":"06087","name":"Santa Cruz County","state_id":"CA"},{"zip":"94061","fips":"06081","name":"San Mateo County","state_id":"CA"},{"zip":"94062","fips":"06081","name":"San Mateo County","state_id":"CA"},{"zip":"94063","fips":"06081","name":"San Mateo County","state_id":"CA"},{"zip":"94064","fips":"06081","name":"San Mateo County","state_id":"CA"},{"zip":"94065","fips":"06081","name":"San Mateo County","state_id":"CA"},{"zip":"94066","fips":"06081","name":"San Mateo County","state_id":"CA"},{"zip":"94070","fips":"06081","name":"San Mateo County","state_id":"CA"},{"zip":"94074","fips":"06081","name":"San Mateo County","state_id":"CA"},{"zip":"94080","fips":"06081","name":"San Mateo County","state_id":"CA"},{"zip":"94083","fips":"06081","name":"San Mateo County","state_id":"CA"},{"zip":"94085","fips":"06085","name":"Santa Clara County","state_id":"CA"},{"zip":"94086","fips":"06085","name":"Santa Clara County","state_id":"CA"},{"zip":"94087","fips":"06085","name":"Santa Clara County","state_id":"CA"},{"zip":"94088","fips":"06085","name":"Santa Clara County","state_id":"CA"},{"zip":"94089","fips":"06085","name":"Santa Clara County","state_id":"CA"}]
