[{"zip":"94102","fips":"06075","name":"San Francisco County","state_id":"CA"},{"zip":"94103","fips":"06075","name":"San Francisco County","state_id":"CA"},{"zip":"94104","fips":"06075","name":"San Francisco County","state_id":"CA"},{"zip":"94105","fips":"06075","name":"San Francisco County","state_id":"CA"},{"zip":"94107","fips":"06075","name":"San Francisco County","state_id":"CA"},{"zip":"94108","fips":"06075","name":"San Francisco County","state_id":"CA"},{"zip":"94109","fips":"06075","name":"San Francisco County","state_id":"CA"},{"zip":"94110","fips":"06075","name":"San Francisco County","state_id":"CA"},{"zip":"94111","fips":"06075","name":"San Francisco County","state_id":"CA"},{"zip":"94112","fips":"06081","name":"San Mateo County","state_id":"CA"},{"zip":"94112","fips":"06075","name":"San Francisco County","state_id":"CA"},{"zip":"94114","fips":"06075","name":"San Francisco County","state_id":"CA"},{"zip":"94115","fips":"06075","name":"San Francisco County","state_id":"CA"},{"zip":"94116","fips":"06075","name":"San Francisco County","state_id":"CA"},{"zip":"94117","fips":"06075","name":"San Francisco County","state_id":"CA"},{"zip":"94118","fips":"06075","name":"San Francisco County","state_id":"CA"},{"zip":"94119","fips":"06075","name":"San Francisco County","state_id":"CA"},{"zip":"94121","fips":"06075","name":"San Francisco County","state_id":"CA"},{"zip":"94122","fips":"06075","name":"San Francisco County","state_id":"CA"},{"zip":"94123","fips":"06075","name":"San Francisco County","state_id":"CA"},{"zip":"94124","fips":"06075","name":"San Francisco County","state_id":"CA"},{"zip":"94125","fips":"06081","name":"San Mateo County","state_id":"CA"},{"zip":"94126","fips":"06075","name":"San Francisco County","state_id":"CA"},{"zip":"94127","fips":"06075","name":"San Francisco County","state_id":"CA"},{"zip":"94128","fips":"06081","name":"San Mateo County","state_id":"CA"},{"zip":"94129","fips":"06075","name":"San Francisco County","state_id":"CA"},{"zip":"94130","fips":"06075","name":"San Francisco County","state_id":"CA"},{"zip":"94131","fips":"06075","name":"San Francisco County","state_id":"CA"},{"zip":"94132","fips":"06075","name":"San Francisco County","state_id":"CA"},{"zip":"94133","fips":"06075","name":"San Francisco County","state_id":"CA"},{"zip":"94134","fips":"06081","name":"San Mateo County","state_id":"CA"},{"zip":"94134","fips":"06075","name":"San Francisco County","state_id":"CA"},{"zip":"94140","fips":"06075","name":"San Francisco County","state_id":"CA"},{"zip":"94141","fips":"06075","name":"San Francisco County","state_id":"CA"},{"zip":"94143","fips":"06075","name":"San Francisco County","state_id":"CA"},{"zip":"94146","fips":"06075","name":"San Francisco County","state_id":"CA"},{"zip":"94147","fips":"06075","name":"San Francisco County","state_id":"CA"},{"zip":"94158","fips":"06075","name":"San Francisco County","state_id":"CA"},{"zip":"94159","fips":"06075","name":"San Francisco County","state_id":"CA"},{"zip":"94164","fips":"06075","name":"San Francisco County","state_id":"CA"},{"zip":"94188","fips":"06075","name":"San Francisco County","state_id":"CA"}]
