[{"zip":"94501","fips":"06001","name":"Alameda County","state_id":"CA"},{"zip":"94502","fips":"06001","name":"Alameda County","state_id":"CA"},{"zip":"94503","fips":"06095","name":"Solano County","state_id":"CA"},{"zip":"94503","fips":"06055","name":"Napa County","state_id":"CA"},{"zip":"94505","fips":"06013","name":"Contra Costa County","state_id":"CA"},{"zip":"94505","fips":"06001","name":"Alameda County","state_id":"CA"},{"zip":"94506","fips":"06013","name":"Contra Costa County","state_id":"CA"},{"zip":"94507","fips":"06013","name":"Contra Costa County","state_id":"CA"},{"zip":"94508","fips":"06055","name":"Napa County","state_id":"CA"},{"zip":"94509","fips":"06013","name":"Contra Costa County","state_id":"CA"},{"zip":"94510","fips":"06095","name":"Solano County","state_id":"CA"},{"zip":"94511","fips":"06013","name":"Contra Costa County","state_id":"CA"},{"zip":"94512","fips":"06095","name":"Solano County","state_id":"CA"},{"zip":"94513","fips":"06013","name":"Contra Costa County","state_id":"CA"},{"zip":"94514","fips":"06013","name":"Contra Costa County","state_id":"CA"},{"zip":"94514","fips":"06001","name":"Alameda County","state_id":"CA"},{"zip":"94515","fips":"06055","name":"Napa County","state_id":"CA"},{"zip":"94515","fips":"06097","name":"Sonoma County","state_id":"CA"},{"zip":"94516","fips":"06013","name":"Contra Costa County","state_id":"CA"},{"zip":"94517","fips":"06013","name":"Contra Costa County","state_id":"CA"},{"zip":"94518","fips":"06013","name":"Contra Costa County","state_id":"CA"},{"zip":"94519","fips":"06013","name":"Contra Costa County","state_id":"CA"},{"zip":"94520","fips":"06013","name":"Contra Costa County","state_id":"CA"},{"zip":"94521","fips":"06013","name":"Contra Costa County","state_id":"CA"},{"zip":"94522","fips":"06013","name":"Contra Costa County","state_id":"CA"},{"zip":"94523","fips":"06013","name":"Contra Costa County","state_id":"CA"},{"zip":"94524","fips":"06013","name":"Contra Costa County","state_id":"CA"},{"zip":"94525","fips":"06013","name":"Contra Costa County","state_id":"CA"},{"zip":"94526","fips":"06013","name":"Contra Costa County","state_id":"CA"},{"zip":"94528","fips":"06013","name":"Contra Costa County","state_id":"CA"},{"zip":"94530","fips":"06013","name":"Contra Costa County","state_id":"CA"},{"zip":"94531","fips":"06013","name":"Contra Costa County","state_id":"CA"},{"zip":"94533","fips":"06095","name":"Solano County","state_id":"CA"},{"zip":"94534","fips":"06095","name":"Solano County","state_id":"CA"},{"zip":"94534","fips":"06055","name":"Napa County","state_id":"CA"},{"zip":"94535","fips":"06095","name":"Solano County","state_id":"CA"},{"zip":"94536","fips":"06001","name":"Alameda County","state_id":"CA"},{"zip":"94537","fips":"06001","name":"Alameda County","state_id":"CA"},{"zip":"94538","fips":"06001","name":"Alameda County","state_id":"CA"},{"zip":"94539","fips":"06001","name":"Alameda County","state_id":"CA"},{"zip":"94540","fips":"06001","name":"Alameda County","state_id":"CA"},{"zip":"94541","fips":"06001","name":"Alameda County","state_id":"CA"},{"zip":"94542","fips":"06001","name":"Alameda County","state_id":"CA"},{"zip":"94543","fips":"06001","name":"Alameda County","state_id":"CA"},{"zip":"94544","fips":"06001","name":"Alameda County","state_id":"CA"},{"zip":"94545","fips":"06001","name":"Alameda County","state_id":"CA"},{"zip":"94546","fips":"06001","name":"Alameda County","state_id":"CA"},{"zip":"94547","fips":"06013","name":"Contra Costa County","state_id":"CA"},{"zip":"94548","fips":"06013","name":"Contra Costa County","state_id":"CA"},{"zip":"94549","fips":"06013","name":"Contra Costa County","state_id":"CA"},{"zip":"94550","fips":"06001","name":"Alameda County","state_id":"CA"},{"zip":"94550","fips":"06085","name":"Santa Clara County","state_id":"CA"},{"zip":"94550","fips":"06099","name":"Stanislaus County","state_id":"CA"},{"zip":"94551","fips":"06001","name":"Alameda County","state_id":"CA"},{"zip":"94551","fips":"06013","name":"Contra Costa County","state_id":"CA"},{"zip":"94552","fips":"06001","name":"Alameda County","state_id":"CA"},{"zip":"94553","fips":"06013","name":"Contra Costa County","state_id":"CA"},{"zip":"94555","fips":"06001","name":"Alameda County","state_id":"CA"},{"zip":"94556","fips":"06013","name":"Contra Costa County","state_id":"CA"},{"zip":"94557","fips":"06001","name":"Alameda County","state_id":"CA"},{"zip":"94558","fips":"06095","name":"Solano County","state_id":"CA"},{"zip":"94558","fips":"06055","name":"Napa County","state_id":"CA"},{"zip":"94558","fips":"06097","name":"Sonoma County","state_id":"CA"},{"zip":"94559","fips":"06055","name":"Napa County","state_id":"CA"},{"zip":"94560","fips":"06001","name":"Alameda County","state_id":"CA"},{"zip":"94561","fips":"06013","name":"Contra Costa County","state_id":"CA"},{"zip":"94562","fips":"06055","name":"Napa County","state_id":"CA"},{"zip":"94563","fips":"06013","name":"Contra Costa County","state_id":"CA"},{"zip":"94563","fips":"06001","name":"Alameda County","state_id":"CA"},{"zip":"94564","fips":"06013","name":"Contra Costa County","state_id":"CA"},{"zip":"94565","fips":"06013","name":"Contra Costa County","state_id":"CA"},{"zip":"94566","fips":"06001","name":"Alameda County","state_id":"CA"},{"zip":"94567","fips":"06055","name":"Napa County","state_id":"CA"},{"zip":"94568","fips":"06013","name":"Contra Costa County","state_id":"CA"},{"zip":"94568","fips":"06001","name":"Alameda County","state_id":"CA"},{"zip":"94569","fips":"06013","name":"Contra Costa County","state_id":"CA"},{"zip":"94570","fips":"06013","name":"Contra Costa County","state_id":"CA"},{"zip":"94571","fips":"06067","name":"Sacramento County","state_id":"CA"},{"zip":"94571","fips":"06095","name":"Solano County","state_id":"CA"},{"zip":"94572","fips":"06013","name":"Contra Costa County","state_id":"CA"},{"zip":"94573","fips":"06055","name":"Napa County","state_id":"CA"},{"zip":"94574","fips":"06055","name":"Napa County","state_id":"CA"},{"zip":"94574","fips":"06097","name":"Sonoma County","state_id":"CA"},{"zip":"94575","fips":"06013","name":"Contra Costa County","state_id":"CA"},{"zip":"94576","fips":"06055","name":"Napa County","state_id":"CA"},{"zip":"94577","fips":"06001","name":"Alameda County","state_id":"CA"},{"zip":"94578","fips":"06001","name":"Alameda County","state_id":"CA"},{"zip":"94579","fips":"06001","name":"Alameda County","state_id":"CA"},{"zip":"94580","fips":"06001","name":"Alameda County","state_id":"CA"},{"zip":"94581","fips":"06055","name":"Napa County","state_id":"CA"},{"zip":"94582","fips":"06013","name":"Contra Costa County","state_id":"CA"},{"zip":"94583","fips":"06013","name":"Contra Costa County","state_id":"CA"},{"zip":"94585","fips":"06095","name":"Solano County","state_id":"CA"},{"zip":"94586","fips":"06001","name":"Alameda County","state_id":"CA"},{"zip":"94587","fips":"06001","name":"Alameda County","state_id":"CA"},{"zip":"94588","fips":"06001","name":"Alameda County","state_id":"CA"},{"zip":"94588","fips":"06013","name":"Contra Costa County","state_id":"CA"},{"zip":"94589","fips":"06095","name":"Solano County","state_id":"CA"},{"zip":"94590","fips":"06095","name":"Solano County","state_id":"CA"},{"zip":"94591","fips":"06055","name":"Napa County","state_id":"CA"},{"zip":"94591","fips":"06095","name":"Solano County","state_id":"CA"},{"zip":"94592","fips":"06095","name":"Solano County","state_id":"CA"},{"zip":"94595","fips":"06013","name":"Contra Costa County","state_id":"CA"},{"zip":"94596","fips":"06013","name":"Contra Costa County","state_id":"CA"},{"zip":"94597","fips":"06013","name":"Contra Costa County","state_id":"CA"},{"zip":"94598","fips":"06013","name":"Contra Costa County","state_id":"CA"},{"zip":"94599","fips":"06055","name":"Napa County","state_id":"CA"}]
