[{"zip":"94701","fips":"06001","name":"Alameda County","state_id":"CA"},{"zip":"94702","fips":"06001","name":"Alameda County","state_id":"CA"},{"zip":"94703","fips":"06001","name":"Alameda County","state_id":"CA"},{"zip":"94704","fips":"06001","name":"Alameda County","state_id":"CA"},{"zip":"94705","fips":"06001","name":"Alameda County","state_id":"CA"},{"zip":"94706","fips":"06001","name":"Alameda County","state_id":"CA"},{"zip":"94706","fips":"06013","name":"Contra Costa County","state_id":"CA"},{"zip":"94707","fips":"06001","name":"Alameda County","state_id":"CA"},{"zip":"94707","fips":"06013","name":"Contra Costa County","state_id":"CA"},{"zip":"94708","fips":"06001","name":"Alameda County","state_id":"CA"},{"zip":"94708","fips":"06013","name":"Contra Costa County","state_id":"CA"},{"zip":"94709","fips":"06001","name":"Alameda County","state_id":"CA"},{"zip":"94710","fips":"06001","name":"Alameda County","state_id":"CA"},{"zip":"94712","fips":"06001","name":"Alameda County","state_id":"CA"},{"zip":"94720","fips":"06001","name":"Alameda County","state_id":"CA"}]
