[{"zip":"95001","fips":"06087","name":"Santa Cruz County","state_id":"CA"},{"zip":"95002","fips":"06085","name":"Santa Clara County","state_id":"CA"},{"zip":"95003","fips":"06087","name":"Santa Cruz County","state_id":"CA"},{"zip":"95004","fips":"06069","name":"San Benito County","state_id":"CA"},{"zip":"95004","fips":"06053","name":"Monterey County","state_id":"CA"},{"zip":"95005","fips":"06087","name":"Santa Cruz County","state_id":"CA"},{"zip":"95006","fips":"06087","name":"Santa Cruz County","state_id":"CA"},{"zip":"95007","fips":"06087","name":"Santa Cruz County","state_id":"CA"},{"zip":"95008","fips":"06085","name":"Santa Clara County","state_id":"CA"},{"zip":"95009","fips":"06085","name":"Santa Clara County","state_id":"CA"},{"zip":"95010","fips":"06087","name":"Santa Cruz County","state_id":"CA"},{"zip":"95011","fips":"06085","name":"Santa Clara County","state_id":"CA"},{"zip":"95012","fips":"06053","name":"Monterey County","state_id":"CA"},{"zip":"95013","fips":"06085","name":"Santa Clara County","state_id":"CA"},{"zip":"95014","fips":"06085","name":"Santa Clara County","state_id":"CA"},{"zip":"95015","fips":"06085","name":"Santa Clara County","state_id":"CA"},{"zip":"95017","fips":"06087","name":"Santa Cruz County","state_id":"CA"},{"zip":"95018","fips":"06087","name":"Santa Cruz County","state_id":"CA"},{"zip":"95019","fips":"06087","name":"Santa Cruz County","state_id":"CA"},{"zip":"95020","fips":"06085","name":"Santa Clara County","state_id":"CA"},{"zip":"95021","fips":"06085","name":"Santa Clara County","state_id":"CA"},{"zip":"95023","fips":"06069","name":"San Benito County","state_id":"CA"},{"zip":"95023","fips":"06085","name":"Santa Clara County","state_id":"CA"},{"zip":"95024","fips":"06069","name":"San Benito County","state_id":"CA"},{"zip":"95026","fips":"06085","name":"Santa Clara County","state_id":"CA"},{"zip":"95030","fips":"06085","name":"Santa Clara County","state_id":"CA"},{"zip":"95031","fips":"06085","name":"Santa Clara County","state_id":"CA"},{"zip":"95032","fips":"06085","name":"Santa Clara County","state_id":"CA"},{"zip":"95033","fips":"06085","name":"Santa Clara County","state_id":"CA"},{"zip":"95033","fips":"06087","name":"Santa Cruz County","state_id":"CA"},{"zip":"95035","fips":"06001","name":"Alameda County","state_id":"CA"},{"zip":"95035","fips":"06085","name":"Santa Clara County","state_id":"CA"},{"zip":"95036","fips":"06085","name":"Santa Clara County","state_id":"CA"},{"zip":"95037","fips":"06085","name":"Santa Clara County","state_id":"CA"},{"zip":"95038","fips":"06085","name":"Santa Clara County","state_id":"CA"},{"zip":"95039","fips":"06053","name":"Monterey County","state_id":"CA"},{"zip":"95041","fips":"06087","name":"Santa Cruz County","state_id":"CA"},{"zip":"95043","fips":"06069","name":"San Benito County","state_id":"CA"},{"zip":"95044","fips":"06085","name":"Santa Clara County","state_id":"CA"},{"zip":"95045","fips":"06069","name":"San Benito County","state_id":"CA"},{"zip":"95046","fips":"06085","name":"Santa Clara County","state_id":"CA"},{"zip":"95050","fips":"06085","name":"Santa Clara County","state_id":"CA"},{"zip":"95051","fips":"06085","name":"Santa Clara County","state_id":"CA"},{"zip":"95052","fips":"06085","name":"Santa Clara County","state_id":"CA"},{"zip":"95053","fips":"06085","name":"Santa Clara County","state_id":"CA"},{"zip":"95054","fips":"06085","name":"Santa Clara County","state_id":"CA"},{"zip":"95055","fips":"06085","name":"Santa Clara County","state_id":"CA"},{"zip":"95056","fips":"06085","name":"Santa Clara County","state_id":"CA"},{"zip":"95060","fips":"06087","name":"Santa Cruz County","state_id":"CA"},{"zip":"95061","fips":"06087","name":"Santa Cruz County","state_id":"CA"},{"zip":"95062","fips":"06087","name":"Santa Cruz County","state_id":"CA"},{"zip":"95063","fips":"06087","name":"Santa Cruz County","state_id":"CA"},{"zip":"95064","fips":"06087","name":"Santa Cruz County","state_id":"CA"},{"zip":"95065","fips":"06087","name":"Santa Cruz County","state_id":"CA"},{"zip":"95066","fips":"06087","name":"Santa Cruz County","state_id":"CA"},{"zip":"95067","fips":"06087","name":"Santa Cruz County","state_id":"CA"},{"zip":"95070","fips":"06085","name":"Santa Clara County","state_id":"CA"},{"zip":"95071","fips":"06085","name":"Santa Clara County","state_id":"CA"},{"zip":"95073","fips":"06087","name":"Santa Cruz County","state_id":"CA"},{"zip":"95075","fips":"06069","name":"San Benito County","state_id":"CA"},{"zip":"95076","fips":"06053","name":"Monterey County","state_id":"CA"},{"zip":"95076","fips":"06085","name":"Santa Clara County","state_id":"CA"},{"zip":"95076","fips":"06087","name":"Santa Cruz County","state_id":"CA"},{"zip":"95077","fips":"06087","name":"Santa Cruz County","state_id":"CA"}]
