[{"zip":"95201","fips":"06077","name":"San Joaquin County","state_id":"CA"},{"zip":"95202","fips":"06077","name":"San Joaquin County","state_id":"CA"},{"zip":"95203","fips":"06077","name":"San Joaquin County","state_id":"CA"},{"zip":"95204","fips":"06077","name":"San Joaquin County","state_id":"CA"},{"zip":"95205","fips":"06077","name":"San Joaquin County","state_id":"CA"},{"zip":"95206","fips":"06077","name":"San Joaquin County","state_id":"CA"},{"zip":"95207","fips":"06077","name":"San Joaquin County","state_id":"CA"},{"zip":"95208","fips":"06077","name":"San Joaquin County","state_id":"CA"},{"zip":"95209","fips":"06077","name":"San Joaquin County","state_id":"CA"},{"zip":"95210","fips":"06077","name":"San Joaquin County","state_id":"CA"},{"zip":"95211","fips":"06077","name":"San Joaquin County","state_id":"CA"},{"zip":"95212","fips":"06077","name":"San Joaquin County","state_id":"CA"},{"zip":"95213","fips":"06077","name":"San Joaquin County","state_id":"CA"},{"zip":"95215","fips":"06077","name":"San Joaquin County","state_id":"CA"},{"zip":"95219","fips":"06077","name":"San Joaquin County","state_id":"CA"},{"zip":"95220","fips":"06077","name":"San Joaquin County","state_id":"CA"},{"zip":"95221","fips":"06009","name":"Calaveras County","state_id":"CA"},{"zip":"95222","fips":"06009","name":"Calaveras County","state_id":"CA"},{"zip":"95223","fips":"06003","name":"Alpine County","state_id":"CA"},{"zip":"95223","fips":"06009","name":"Calaveras County","state_id":"CA"},{"zip":"95224","fips":"06009","name":"Calaveras County","state_id":"CA"},{"zip":"95225","fips":"06009","name":"Calaveras County","state_id":"CA"},{"zip":"95226","fips":"06009","name":"Calaveras County","state_id":"CA"},{"zip":"95227","fips":"06077","name":"San Joaquin County","state_id":"CA"},{"zip":"95228","fips":"06009","name":"Calaveras County","state_id":"CA"},{"zip":"95228","fips":"06109","name":"Tuolumne County","state_id":"CA"},{"zip":"95229","fips":"06009","name":"Calaveras County","state_id":"CA"},{"zip":"95230","fips":"06009","name":"Calaveras County","state_id":"CA"},{"zip":"95230","fips":"06099","name":"Stanislaus County","state_id":"CA"},{"zip":"95230","fips":"06077","name":"San Joaquin County","state_id":"CA"},{"zip":"95231","fips":"06077","name":"San Joaquin County","state_id":"CA"},{"zip":"95232","fips":"06009","name":"Calaveras County","state_id":"CA"},{"zip":"95233","fips":"06009","name":"Calaveras County","state_id":"CA"},{"zip":"95234","fips":"06077","name":"San Joaquin County","state_id":"CA"},{"zip":"95236","fips":"06009","name":"Calaveras County","state_id":"CA"},{"zip":"95236","fips":"06077","name":"San Joaquin County","state_id":"CA"},{"zip":"95237","fips":"06077","name":"San Joaquin County","state_id":"CA"},{"zip":"95240","fips":"06077","name":"San Joaquin County","state_id":"CA"},{"zip":"95241","fips":"06077","name":"San Joaquin County","state_id":"CA"},{"zip":"95242","fips":"06077","name":"San Joaquin County","state_id":"CA"},{"zip":"95245","fips":"06009","name":"Calaveras County","state_id":"CA"},{"zip":"95246","fips":"06009","name":"Calaveras County","state_id":"CA"},{"zip":"95247","fips":"06009","name":"Calaveras County","state_id":"CA"},{"zip":"95248","fips":"06009","name":"Calaveras County","state_id":"CA"},{"zip":"95249","fips":"06009","name":"Calaveras County","state_id":"CA"},{"zip":"95251","fips":"06009","name":"Calaveras County","state_id":"CA"},{"zip":"95252","fips":"06009","name":"Calaveras County","state_id":"CA"},{"zip":"95253","fips":"06077","name":"San Joaquin County","state_id":"CA"},{"zip":"95254","fips":"06009","name":"Calaveras County","state_id":"CA"},{"zip":"95255","fips":"06009","name":"Calaveras County","state_id":"CA"},{"zip":"95257","fips":"06009","name":"Calaveras County","state_id":"CA"},{"zip":"95258","fips":"06077","name":"San Joaquin County","state_id":"CA"},{"zip":"95267","fips":"06077","name":"San Joaquin County","state_id":"CA"},{"zip":"95269","fips":"06077","name":"San Joaquin County","state_id":"CA"}]
