[{"zip":"95301","fips":"06047","name":"Merced County","state_id":"CA"},{"zip":"95303","fips":"06047","name":"Merced County","state_id":"CA"},{"zip":"95304","fips":"06077","name":"San Joaquin County","state_id":"CA"},{"zip":"95305","fips":"06109","name":"Tuolumne County","state_id":"CA"},{"zip":"95306","fips":"06043","name":"Mariposa County","state_id":"CA"},{"zip":"95307","fips":"06099","name":"Stanislaus County","state_id":"CA"},{"zip":"95309","fips":"06109","name":"Tuolumne County","state_id":"CA"},{"zip":"95310","fips":"06109","name":"Tuolumne County","state_id":"CA"},{"zip":"95311","fips":"06043","name":"Mariposa County","state_id":"CA"},{"zip":"95311","fips":"06109","name":"Tuolumne County","state_id":"CA"},{"zip":"95312","fips":"06047","name":"Merced County","state_id":"CA"},{"zip":"95313","fips":"06099","name":"Stanislaus County","state_id":"CA"},{"zip":"95315","fips":"06047","name":"Merced County","state_id":"CA"},{"zip":"95316","fips":"06047","name":"Merced County","state_id":"CA"},{"zip":"95316","fips":"06099","name":"Stanislaus County","state_id":"CA"},{"zip":"95317","fips":"06047","name":"Merced County","state_id":"CA"},{"zip":"95318","fips":"06043","name":"Mariposa County","state_id":"CA"},{"zip":"95319","fips":"06099","name":"Stanislaus County","state_id":"CA"},{"zip":"95320","fips":"06077","name":"San Joaquin County","state_id":"CA"},{"zip":"95321","fips":"06109","name":"Tuolumne County","state_id":"CA"},{"zip":"95321","fips":"06043","name":"Mariposa County","state_id":"CA"},{"zip":"95322","fips":"06047","name":"Merced County","state_id":"CA"},{"zip":"95322","fips":"06099","name":"Stanislaus County","state_id":"CA"},{"zip":"95323","fips":"06099","name":"Stanislaus County","state_id":"CA"},{"zip":"95324","fips":"06047","name":"Merced County","state_id":"CA"},{"zip":"95324","fips":"06099","name":"Stanislaus County","state_id":"CA"},{"zip":"95325","fips":"06043","name":"Mariposa County","state_id":"CA"},{"zip":"95326","fips":"06099","name":"Stanislaus County","state_id":"CA"},{"zip":"95327","fips":"06109","name":"Tuolumne County","state_id":"CA"},{"zip":"95328","fips":"06099","name":"Stanislaus County","state_id":"CA"},{"zip":"95329","fips":"06099","name":"Stanislaus County","state_id":"CA"},{"zip":"95329","fips":"06109","name":"Tuolumne County","state_id":"CA"},{"zip":"95329","fips":"06043","name":"Mariposa County","state_id":"CA"},{"zip":"95330","fips":"06077","name":"San Joaquin County","state_id":"CA"},{"zip":"95333","fips":"06047","name":"Merced County","state_id":"CA"},{"zip":"95334","fips":"06047","name":"Merced County","state_id":"CA"},{"zip":"95335","fips":"06109","name":"Tuolumne County","state_id":"CA"},{"zip":"95336","fips":"06077","name":"San Joaquin County","state_id":"CA"},{"zip":"95337","fips":"06077","name":"San Joaquin County","state_id":"CA"},{"zip":"95338","fips":"06043","name":"Mariposa County","state_id":"CA"},{"zip":"95340","fips":"06047","name":"Merced County","state_id":"CA"},{"zip":"95341","fips":"06047","name":"Merced County","state_id":"CA"},{"zip":"95343","fips":"06047","name":"Merced County","state_id":"CA"},{"zip":"95344","fips":"06047","name":"Merced County","state_id":"CA"},{"zip":"95345","fips":"06043","name":"Mariposa County","state_id":"CA"},{"zip":"95346","fips":"06109","name":"Tuolumne County","state_id":"CA"},{"zip":"95347","fips":"06109","name":"Tuolumne County","state_id":"CA"},{"zip":"95348","fips":"06047","name":"Merced County","state_id":"CA"},{"zip":"95350","fips":"06099","name":"Stanislaus County","state_id":"CA"},{"zip":"95351","fips":"06099","name":"Stanislaus County","state_id":"CA"},{"zip":"95352","fips":"06099","name":"Stanislaus County","state_id":"CA"},{"zip":"95353","fips":"06099","name":"Stanislaus County","state_id":"CA"},{"zip":"95354","fips":"06099","name":"Stanislaus County","state_id":"CA"},{"zip":"95355","fips":"06099","name":"Stanislaus County","state_id":"CA"},{"zip":"95356","fips":"06099","name":"Stanislaus County","state_id":"CA"},{"zip":"95357","fips":"06099","name":"Stanislaus County","state_id":"CA"},{"zip":"95358","fips":"06099","name":"Stanislaus County","state_id":"CA"},{"zip":"95360","fips":"06099","name":"Stanislaus County","state_id":"CA"},{"zip":"95360","fips":"06047","name":"Merced County","state_id":"CA"},{"zip":"95361","fips":"06077","name":"San Joaquin County","state_id":"CA"},{"zip":"95361","fips":"06099","name":"Stanislaus County","state_id":"CA"},{"zip":"95363","fips":"06099","name":"Stanislaus County","state_id":"CA"},{"zip":"95364","fips":"06109","name":"Tuolumne County","state_id":"CA"},{"zip":"95365","fips":"06047","name":"Merced County","state_id":"CA"},{"zip":"95366","fips":"06077","name":"San Joaquin County","state_id":"CA"},{"zip":"95367","fips":"06077","name":"San Joaquin County","state_id":"CA"},{"zip":"95367","fips":"06099","name":"Stanislaus County","state_id":"CA"},{"zip":"95368","fips":"06099","name":"Stanislaus County","state_id":"CA"},{"zip":"95369","fips":"06043","name":"Mariposa County","state_id":"CA"},{"zip":"95369","fips":"06047","name":"Merced County","state_id":"CA"},{"zip":"95370","fips":"06109","name":"Tuolumne County","state_id":"CA"},{"zip":"95372","fips":"06109","name":"Tuolumne County","state_id":"CA"},{"zip":"95373","fips":"06109","name":"Tuolumne County","state_id":"CA"},{"zip":"95374","fips":"06047","name":"Merced County","state_id":"CA"},{"zip":"95375","fips":"06109","name":"Tuolumne County","state_id":"CA"},{"zip":"95376","fips":"06077","name":"San Joaquin County","state_id":"CA"},{"zip":"95377","fips":"06077","name":"San Joaquin County","state_id":"CA"},{"zip":"95377","fips":"06001","name":"Alameda County","state_id":"CA"},{"zip":"95378","fips":"06077","name":"San Joaquin County","state_id":"CA"},{"zip":"95379","fips":"06109","name":"Tuolumne County","state_id":"CA"},{"zip":"95380","fips":"06047","name":"Merced County","state_id":"CA"},{"zip":"95380","fips":"06099","name":"Stanislaus County","state_id":"CA"},{"zip":"95381","fips":"06099","name":"Stanislaus County","state_id":"CA"},{"zip":"95382","fips":"06099","name":"Stanislaus County","state_id":"CA"},{"zip":"95383","fips":"06109","name":"Tuolumne County","state_id":"CA"},{"zip":"95385","fips":"06099","name":"Stanislaus County","state_id":"CA"},{"zip":"95385","fips":"06077","name":"San Joaquin County","state_id":"CA"},{"zip":"95386","fips":"06099","name":"Stanislaus County","state_id":"CA"},{"zip":"95387","fips":"06099","name":"Stanislaus County","state_id":"CA"},{"zip":"95388","fips":"06047","name":"Merced County","state_id":"CA"},{"zip":"95389","fips":"06043","name":"Mariposa County","state_id":"CA"},{"zip":"95391","fips":"06001","name":"Alameda County","state_id":"CA"},{"zip":"95391","fips":"06077","name":"San Joaquin County","state_id":"CA"},{"zip":"95397","fips":"06099","name":"Stanislaus County","state_id":"CA"}]
