[{"zip":"95401","fips":"06097","name":"Sonoma County","state_id":"CA"},{"zip":"95402","fips":"06097","name":"Sonoma County","state_id":"CA"},{"zip":"95403","fips":"06097","name":"Sonoma County","state_id":"CA"},{"zip":"95404","fips":"06097","name":"Sonoma County","state_id":"CA"},{"zip":"95405","fips":"06097","name":"Sonoma County","state_id":"CA"},{"zip":"95406","fips":"06097","name":"Sonoma County","state_id":"CA"},{"zip":"95407","fips":"06097","name":"Sonoma County","state_id":"CA"},{"zip":"95409","fips":"06097","name":"Sonoma County","state_id":"CA"},{"zip":"95410","fips":"06045","name":"Mendocino County","state_id":"CA"},{"zip":"95412","fips":"06097","name":"Sonoma County","state_id":"CA"},{"zip":"95415","fips":"06045","name":"Mendocino County","state_id":"CA"},{"zip":"95416","fips":"06097","name":"Sonoma County","state_id":"CA"},{"zip":"95417","fips":"06045","name":"Mendocino County","state_id":"CA"},{"zip":"95418","fips":"06045","name":"Mendocino County","state_id":"CA"},{"zip":"95419","fips":"06097","name":"Sonoma County","state_id":"CA"},{"zip":"95420","fips":"06045","name":"Mendocino County","state_id":"CA"},{"zip":"95421","fips":"06097","name":"Sonoma County","state_id":"CA"},{"zip":"95422","fips":"06033","name":"Lake County","state_id":"CA"},{"zip":"95423","fips":"06033","name":"Lake County","state_id":"CA"},{"zip":"95424","fips":"06033","name":"Lake County","state_id":"CA"},{"zip":"95425","fips":"06097","name":"Sonoma County","state_id":"CA"},{"zip":"95426","fips":"06033","name":"Lake County","state_id":"CA"},{"zip":"95427","fips":"06045","name":"Mendocino County","state_id":"CA"},{"zip":"95428","fips":"06045","name":"Mendocino County","state_id":"CA"},{"zip":"95429","fips":"06045","name":"Mendocino County","state_id":"CA"},{"zip":"95430","fips":"06097","name":"Sonoma County","state_id":"CA"},{"zip":"95431","fips":"06097","name":"Sonoma County","state_id":"CA"},{"zip":"95432","fips":"06045","name":"Mendocino County","state_id":"CA"},{"zip":"95433","fips":"06097","name":"Sonoma County","state_id":"CA"},{"zip":"95435","fips":"06033","name":"Lake County","state_id":"CA"},{"zip":"95436","fips":"06097","name":"Sonoma County","state_id":"CA"},{"zip":"95437","fips":"06045","name":"Mendocino County","state_id":"CA"},{"zip":"95439","fips":"06097","name":"Sonoma County","state_id":"CA"},{"zip":"95441","fips":"06097","name":"Sonoma County","state_id":"CA"},{"zip":"95442","fips":"06097","name":"Sonoma County","state_id":"CA"},{"zip":"95443","fips":"06033","name":"Lake County","state_id":"CA"},{"zip":"95444","fips":"06097","name":"Sonoma County","state_id":"CA"},{"zip":"95445","fips":"06045","name":"Mendocino County","state_id":"CA"},{"zip":"95445","fips":"06097","name":"Sonoma County","state_id":"CA"},{"zip":"95446","fips":"06097","name":"Sonoma County","state_id":"CA"},{"zip":"95448","fips":"06097","name":"Sonoma County","state_id":"CA"},{"zip":"95449","fips":"06045","name":"Mendocino County","state_id":"CA"},{"zip":"95450","fips":"06097","name":"Sonoma County","state_id":"CA"},{"zip":"95451","fips":"06033","name":"Lake County","state_id":"CA"},{"zip":"95452","fips":"06097","name":"Sonoma County","state_id":"CA"},{"zip":"95453","fips":"06033","name":"Lake County","state_id":"CA"},{"zip":"95454","fips":"06045","name":"Mendocino County","state_id":"CA"},{"zip":"95456","fips":"06045","name":"Mendocino County","state_id":"CA"},{"zip":"95457","fips":"06033","name":"Lake County","state_id":"CA"},{"zip":"95458","fips":"06033","name":"Lake County","state_id":"CA"},{"zip":"95459","fips":"06045","name":"Mendocino County","state_id":"CA"},{"zip":"95460","fips":"06045","name":"Mendocino County","state_id":"CA"},{"zip":"95461","fips":"06097","name":"Sonoma County","state_id":"CA"},{"zip":"95461","fips":"06055","name":"Napa County","state_id":"CA"},{"zip":"95461","fips":"06033","name":"Lake County","state_id":"CA"},{"zip":"95462","fips":"06097","name":"Sonoma County","state_id":"CA"},{"zip":"95463","fips":"06045","name":"Mendocino County","state_id":"CA"},{"zip":"95464","fips":"06033","name":"Lake County","state_id":"CA"},{"zip":"95465","fips":"06097","name":"Sonoma County","state_id":"CA"},{"zip":"95466","fips":"06045","name":"Mendocino County","state_id":"CA"},{"zip":"95467","fips":"06033","name":"Lake County","state_id":"CA"},{"zip":"95468","fips":"06045","name":"Mendocino County","state_id":"CA"},{"zip":"95469","fips":"06033","name":"Lake County","state_id":"CA"},{"zip":"95469","fips":"06045","name":"Mendocino County","state_id":"CA"},{"zip":"95470","fips":"06045","name":"Mendocino County","state_id":"CA"},{"zip":"95471","fips":"06097","name":"Sonoma County","state_id":"CA"},{"zip":"95472","fips":"06097","name":"Sonoma County","state_id":"CA"},{"zip":"95473","fips":"06097","name":"Sonoma County","state_id":"CA"},{"zip":"95476","fips":"06097","name":"Sonoma County","state_id":"CA"},{"zip":"95476","fips":"06055","name":"Napa County","state_id":"CA"},{"zip":"95480","fips":"06097","name":"Sonoma County","state_id":"CA"},{"zip":"95481","fips":"06045","name":"Mendocino County","state_id":"CA"},{"zip":"95482","fips":"06045","name":"Mendocino County","state_id":"CA"},{"zip":"95485","fips":"06033","name":"Lake County","state_id":"CA"},{"zip":"95486","fips":"06097","name":"Sonoma County","state_id":"CA"},{"zip":"95487","fips":"06097","name":"Sonoma County","state_id":"CA"},{"zip":"95488","fips":"06045","name":"Mendocino County","state_id":"CA"},{"zip":"95490","fips":"06045","name":"Mendocino County","state_id":"CA"},{"zip":"95492","fips":"06097","name":"Sonoma County","state_id":"CA"},{"zip":"95493","fips":"06033","name":"Lake County","state_id":"CA"},{"zip":"95494","fips":"06045","name":"Mendocino County","state_id":"CA"},{"zip":"95497","fips":"06097","name":"Sonoma County","state_id":"CA"}]
