[{"zip":"95501","fips":"06023","name":"Humboldt County","state_id":"CA"},{"zip":"95502","fips":"06023","name":"Humboldt County","state_id":"CA"},{"zip":"95503","fips":"06023","name":"Humboldt County","state_id":"CA"},{"zip":"95511","fips":"06023","name":"Humboldt County","state_id":"CA"},{"zip":"95514","fips":"06023","name":"Humboldt County","state_id":"CA"},{"zip":"95518","fips":"06023","name":"Humboldt County","state_id":"CA"},{"zip":"95519","fips":"06023","name":"Humboldt County","state_id":"CA"},{"zip":"95521","fips":"06023","name":"Humboldt County","state_id":"CA"},{"zip":"95524","fips":"06023","name":"Humboldt County","state_id":"CA"},{"zip":"95525","fips":"06023","name":"Humboldt County","state_id":"CA"},{"zip":"95526","fips":"06105","name":"Trinity County","state_id":"CA"},{"zip":"95526","fips":"06023","name":"Humboldt County","state_id":"CA"},{"zip":"95527","fips":"06105","name":"Trinity County","state_id":"CA"},{"zip":"95528","fips":"06023","name":"Humboldt County","state_id":"CA"},{"zip":"95531","fips":"06015","name":"Del Norte County","state_id":"CA"},{"zip":"95532","fips":"06015","name":"Del Norte County","state_id":"CA"},{"zip":"95534","fips":"06023","name":"Humboldt County","state_id":"CA"},{"zip":"95536","fips":"06023","name":"Humboldt County","state_id":"CA"},{"zip":"95537","fips":"06023","name":"Humboldt County","state_id":"CA"},{"zip":"95538","fips":"06015","name":"Del Norte County","state_id":"CA"},{"zip":"95540","fips":"06023","name":"Humboldt County","state_id":"CA"},{"zip":"95542","fips":"06045","name":"Mendocino County","state_id":"CA"},{"zip":"95542","fips":"06023","name":"Humboldt County","state_id":"CA"},{"zip":"95543","fips":"06015","name":"Del Norte County","state_id":"CA"},{"zip":"95545","fips":"06023","name":"Humboldt County","state_id":"CA"},{"zip":"95546","fips":"06023","name":"Humboldt County","state_id":"CA"},{"zip":"95547","fips":"06023","name":"Humboldt County","state_id":"CA"},{"zip":"95548","fips":"06015","name":"Del Norte County","state_id":"CA"},{"zip":"95549","fips":"06023","name":"Humboldt County","state_id":"CA"},{"zip":"95550","fips":"06023","name":"Humboldt County","state_id":"CA"},{"zip":"95551","fips":"06023","name":"Humboldt County","state_id":"CA"},{"zip":"95552","fips":"06105","name":"Trinity County","state_id":"CA"},{"zip":"95553","fips":"06023","name":"Humboldt County","state_id":"CA"},{"zip":"95554","fips":"06023","name":"Humboldt County","state_id":"CA"},{"zip":"95555","fips":"06023","name":"Humboldt County","state_id":"CA"},{"zip":"95556","fips":"06023","name":"Humboldt County","state_id":"CA"},{"zip":"95558","fips":"06023","name":"Humboldt County","state_id":"CA"},{"zip":"95559","fips":"06023","name":"Humboldt County","state_id":"CA"},{"zip":"95560","fips":"06023","name":"Humboldt County","state_id":"CA"},{"zip":"95562","fips":"06023","name":"Humboldt County","state_id":"CA"},{"zip":"95563","fips":"06105","name":"Trinity County","state_id":"CA"},{"zip":"95564","fips":"06023","name":"Humboldt County","state_id":"CA"},{"zip":"95565","fips":"06023","name":"Humboldt County","state_id":"CA"},{"zip":"95567","fips":"06015","name":"Del Norte County","state_id":"CA"},{"zip":"95568","fips":"06023","name":"Humboldt County","state_id":"CA"},{"zip":"95568","fips":"06093","name":"Siskiyou County","state_id":"CA"},{"zip":"95569","fips":"06023","name":"Humboldt County","state_id":"CA"},{"zip":"95570","fips":"06023","name":"Humboldt County","state_id":"CA"},{"zip":"95571","fips":"06023","name":"Humboldt County","state_id":"CA"},{"zip":"95573","fips":"06023","name":"Humboldt County","state_id":"CA"},{"zip":"95585","fips":"06045","name":"Mendocino County","state_id":"CA"},{"zip":"95587","fips":"06023","name":"Humboldt County","state_id":"CA"},{"zip":"95587","fips":"06045","name":"Mendocino County","state_id":"CA"},{"zip":"95589","fips":"06045","name":"Mendocino County","state_id":"CA"},{"zip":"95589","fips":"06023","name":"Humboldt County","state_id":"CA"},{"zip":"95595","fips":"06105","name":"Trinity County","state_id":"CA"}]
