[{"zip":"95601","fips":"06005","name":"Amador County","state_id":"CA"},{"zip":"95602","fips":"06057","name":"Nevada County","state_id":"CA"},{"zip":"95602","fips":"06061","name":"Placer County","state_id":"CA"},{"zip":"95603","fips":"06061","name":"Placer County","state_id":"CA"},{"zip":"95604","fips":"06061","name":"Placer County","state_id":"CA"},{"zip":"95605","fips":"06113","name":"Yolo County","state_id":"CA"},{"zip":"95606","fips":"06113","name":"Yolo County","state_id":"CA"},{"zip":"95607","fips":"06113","name":"Yolo County","state_id":"CA"},{"zip":"95608","fips":"06067","name":"Sacramento County","state_id":"CA"},{"zip":"95609","fips":"06067","name":"Sacramento County","state_id":"CA"},{"zip":"95610","fips":"06067","name":"Sacramento County","state_id":"CA"},{"zip":"95610","fips":"06061","name":"Placer County","state_id":"CA"},{"zip":"95611","fips":"06067","name":"Sacramento County","state_id":"CA"},{"zip":"95612","fips":"06113","name":"Yolo County","state_id":"CA"},{"zip":"95613","fips":"06017","name":"El Dorado County","state_id":"CA"},{"zip":"95614","fips":"06017","name":"El Dorado County","state_id":"CA"},{"zip":"95615","fips":"06067","name":"Sacramento County","state_id":"CA"},{"zip":"95615","fips":"06113","name":"Yolo County","state_id":"CA"},{"zip":"95616","fips":"06095","name":"Solano County","state_id":"CA"},{"zip":"95616","fips":"06113","name":"Yolo County","state_id":"CA"},{"zip":"95617","fips":"06113","name":"Yolo County","state_id":"CA"},{"zip":"95618","fips":"06095","name":"Solano County","state_id":"CA"},{"zip":"95618","fips":"06113","name":"Yolo County","state_id":"CA"},{"zip":"95619","fips":"06017","name":"El Dorado County","state_id":"CA"},{"zip":"95620","fips":"06095","name":"Solano County","state_id":"CA"},{"zip":"95620","fips":"06113","name":"Yolo County","state_id":"CA"},{"zip":"95621","fips":"06067","name":"Sacramento County","state_id":"CA"},{"zip":"95623","fips":"06017","name":"El Dorado County","state_id":"CA"},{"zip":"95624","fips":"06067","name":"Sacramento County","state_id":"CA"},{"zip":"95625","fips":"06095","name":"Solano County","state_id":"CA"},{"zip":"95626","fips":"06067","name":"Sacramento County","state_id":"CA"},{"zip":"95626","fips":"06061","name":"Placer County","state_id":"CA"},{"zip":"95626","fips":"06101","name":"Sutter County","state_id":"CA"},{"zip":"95627","fips":"06113","name":"Yolo County","state_id":"CA"},{"zip":"95628","fips":"06067","name":"Sacramento County","state_id":"CA"},{"zip":"95629","fips":"06017","name":"El Dorado County","state_id":"CA"},{"zip":"95629","fips":"06005","name":"Amador County","state_id":"CA"},{"zip":"95630","fips":"06067","name":"Sacramento County","state_id":"CA"},{"zip":"95631","fips":"06061","name":"Placer County","state_id":"CA"},{"zip":"95632","fips":"06067","name":"Sacramento County","state_id":"CA"},{"zip":"95632","fips":"06077","name":"San Joaquin County","state_id":"CA"},{"zip":"95633","fips":"06017","name":"El Dorado County","state_id":"CA"},{"zip":"95634","fips":"06017","name":"El Dorado County","state_id":"CA"},{"zip":"95635","fips":"06017","name":"El Dorado County","state_id":"CA"},{"zip":"95636","fips":"06017","name":"El Dorado County","state_id":"CA"},{"zip":"95637","fips":"06113","name":"Yolo County","state_id":"CA"},{"zip":"95638","fips":"06067","name":"Sacramento County","state_id":"CA"},{"zip":"95639","fips":"06067","name":"Sacramento County","state_id":"CA"},{"zip":"95640","fips":"06005","name":"Amador County","state_id":"CA"},{"zip":"95641","fips":"06067","name":"Sacramento County","state_id":"CA"},{"zip":"95642","fips":"06005","name":"Amador County","state_id":"CA"},{"zip":"95645","fips":"06011","name":"Colusa County","state_id":"CA"},{"zip":"95645","fips":"06101","name":"Sutter County","state_id":"CA"},{"zip":"95645","fips":"06113","name":"Yolo County","state_id":"CA"},{"zip":"95646","fips":"06005","name":"Amador County","state_id":"CA"},{"zip":"95648","fips":"06061","name":"Placer County","state_id":"CA"},{"zip":"95650","fips":"06061","name":"Placer County","state_id":"CA"},{"zip":"95651","fips":"06017","name":"El Dorado County","state_id":"CA"},{"zip":"95652","fips":"06067","name":"Sacramento County","state_id":"CA"},{"zip":"95653","fips":"06113","name":"Yolo County","state_id":"CA"},{"zip":"95654","fips":"06005","name":"Amador County","state_id":"CA"},{"zip":"95655","fips":"06067","name":"Sacramento County","state_id":"CA"},{"zip":"95656","fips":"06017","name":"El Dorado County","state_id":"CA"},{"zip":"95658","fips":"06061","name":"Placer County","state_id":"CA"},{"zip":"95659","fips":"06101","name":"Sutter County","state_id":"CA"},{"zip":"95660","fips":"06067","name":"Sacramento County","state_id":"CA"},{"zip":"95661","fips":"06061","name":"Placer County","state_id":"CA"},{"zip":"95662","fips":"06067","name":"Sacramento County","state_id":"CA"},{"zip":"95663","fips":"06061","name":"Placer County","state_id":"CA"},{"zip":"95664","fips":"06017","name":"El Dorado County","state_id":"CA"},{"zip":"95665","fips":"06005","name":"Amador County","state_id":"CA"},{"zip":"95666","fips":"06005","name":"Amador County","state_id":"CA"},{"zip":"95666","fips":"06017","name":"El Dorado County","state_id":"CA"},{"zip":"95667","fips":"06017","name":"El Dorado County","state_id":"CA"},{"zip":"95668","fips":"06101","name":"Sutter County","state_id":"CA"},{"zip":"95668","fips":"06061","name":"Placer County","state_id":"CA"},{"zip":"95669","fips":"06005","name":"Amador County","state_id":"CA"},{"zip":"95670","fips":"06067","name":"Sacramento County","state_id":"CA"},{"zip":"95671","fips":"06067","name":"Sacramento County","state_id":"CA"},{"zip":"95672","fips":"06017","name":"El Dorado County","state_id":"CA"},{"zip":"95673","fips":"06067","name":"Sacramento County","state_id":"CA"},{"zip":"95674","fips":"06101","name":"Sutter County","state_id":"CA"},{"zip":"95675","fips":"06005","name":"Amador County","state_id":"CA"},{"zip":"95676","fips":"06101","name":"Sutter County","state_id":"CA"},{"zip":"95677","fips":"06061","name":"Placer County","state_id":"CA"},{"zip":"95678","fips":"06061","name":"Placer County","state_id":"CA"},{"zip":"95678","fips":"06067","name":"Sacramento County","state_id":"CA"},{"zip":"95679","fips":"06113","name":"Yolo County","state_id":"CA"},{"zip":"95680","fips":"06067","name":"Sacramento County","state_id":"CA"},{"zip":"95681","fips":"06061","name":"Placer County","state_id":"CA"},{"zip":"95682","fips":"06017","name":"El Dorado County","state_id":"CA"},{"zip":"95683","fips":"06067","name":"Sacramento County","state_id":"CA"},{"zip":"95684","fips":"06017","name":"El Dorado County","state_id":"CA"},{"zip":"95685","fips":"06005","name":"Amador County","state_id":"CA"},{"zip":"95686","fips":"06077","name":"San Joaquin County","state_id":"CA"},{"zip":"95687","fips":"06095","name":"Solano County","state_id":"CA"},{"zip":"95688","fips":"06095","name":"Solano County","state_id":"CA"},{"zip":"95689","fips":"06005","name":"Amador County","state_id":"CA"},{"zip":"95690","fips":"06095","name":"Solano County","state_id":"CA"},{"zip":"95690","fips":"06077","name":"San Joaquin County","state_id":"CA"},{"zip":"95690","fips":"06067","name":"Sacramento County","state_id":"CA"},{"zip":"95691","fips":"06113","name":"Yolo County","state_id":"CA"},{"zip":"95692","fips":"06115","name":"Yuba County","state_id":"CA"},{"zip":"95692","fips":"06101","name":"Sutter County","state_id":"CA"},{"zip":"95693","fips":"06067","name":"Sacramento County","state_id":"CA"},{"zip":"95694","fips":"06095","name":"Solano County","state_id":"CA"},{"zip":"95694","fips":"06113","name":"Yolo County","state_id":"CA"},{"zip":"95695","fips":"06113","name":"Yolo County","state_id":"CA"},{"zip":"95696","fips":"06095","name":"Solano County","state_id":"CA"},{"zip":"95697","fips":"06113","name":"Yolo County","state_id":"CA"},{"zip":"95698","fips":"06113","name":"Yolo County","state_id":"CA"},{"zip":"95699","fips":"06005","name":"Amador County","state_id":"CA"}]
