[{"zip":"95701","fips":"06061","name":"Placer County","state_id":"CA"},{"zip":"95703","fips":"06061","name":"Placer County","state_id":"CA"},{"zip":"95709","fips":"06017","name":"El Dorado County","state_id":"CA"},{"zip":"95712","fips":"06057","name":"Nevada County","state_id":"CA"},{"zip":"95713","fips":"06061","name":"Placer County","state_id":"CA"},{"zip":"95714","fips":"06061","name":"Placer County","state_id":"CA"},{"zip":"95715","fips":"06061","name":"Placer County","state_id":"CA"},{"zip":"95717","fips":"06061","name":"Placer County","state_id":"CA"},{"zip":"95720","fips":"06017","name":"El Dorado County","state_id":"CA"},{"zip":"95721","fips":"06017","name":"El Dorado County","state_id":"CA"},{"zip":"95722","fips":"06061","name":"Placer County","state_id":"CA"},{"zip":"95724","fips":"06057","name":"Nevada County","state_id":"CA"},{"zip":"95726","fips":"06017","name":"El Dorado County","state_id":"CA"},{"zip":"95728","fips":"06057","name":"Nevada County","state_id":"CA"},{"zip":"95735","fips":"06017","name":"El Dorado County","state_id":"CA"},{"zip":"95736","fips":"06061","name":"Placer County","state_id":"CA"},{"zip":"95741","fips":"06067","name":"Sacramento County","state_id":"CA"},{"zip":"95742","fips":"06067","name":"Sacramento County","state_id":"CA"},{"zip":"95746","fips":"06061","name":"Placer County","state_id":"CA"},{"zip":"95747","fips":"06061","name":"Placer County","state_id":"CA"},{"zip":"95757","fips":"06067","name":"Sacramento County","state_id":"CA"},{"zip":"95758","fips":"06067","name":"Sacramento County","state_id":"CA"},{"zip":"95759","fips":"06067","name":"Sacramento County","state_id":"CA"},{"zip":"95762","fips":"06017","name":"El Dorado County","state_id":"CA"},{"zip":"95763","fips":"06067","name":"Sacramento County","state_id":"CA"},{"zip":"95765","fips":"06061","name":"Placer County","state_id":"CA"},{"zip":"95776","fips":"06113","name":"Yolo County","state_id":"CA"},{"zip":"95798","fips":"06113","name":"Yolo County","state_id":"CA"},{"zip":"95799","fips":"06113","name":"Yolo County","state_id":"CA"}]
