[{"zip":"95811","fips":"06067","name":"Sacramento County","state_id":"CA"},{"zip":"95812","fips":"06067","name":"Sacramento County","state_id":"CA"},{"zip":"95813","fips":"06067","name":"Sacramento County","state_id":"CA"},{"zip":"95814","fips":"06067","name":"Sacramento County","state_id":"CA"},{"zip":"95815","fips":"06067","name":"Sacramento County","state_id":"CA"},{"zip":"95816","fips":"06067","name":"Sacramento County","state_id":"CA"},{"zip":"95817","fips":"06067","name":"Sacramento County","state_id":"CA"},{"zip":"95818","fips":"06067","name":"Sacramento County","state_id":"CA"},{"zip":"95819","fips":"06067","name":"Sacramento County","state_id":"CA"},{"zip":"95820","fips":"06067","name":"Sacramento County","state_id":"CA"},{"zip":"95821","fips":"06067","name":"Sacramento County","state_id":"CA"},{"zip":"95822","fips":"06067","name":"Sacramento County","state_id":"CA"},{"zip":"95823","fips":"06067","name":"Sacramento County","state_id":"CA"},{"zip":"95824","fips":"06067","name":"Sacramento County","state_id":"CA"},{"zip":"95825","fips":"06067","name":"Sacramento County","state_id":"CA"},{"zip":"95826","fips":"06067","name":"Sacramento County","state_id":"CA"},{"zip":"95827","fips":"06067","name":"Sacramento County","state_id":"CA"},{"zip":"95828","fips":"06067","name":"Sacramento County","state_id":"CA"},{"zip":"95829","fips":"06067","name":"Sacramento County","state_id":"CA"},{"zip":"95830","fips":"06067","name":"Sacramento County","state_id":"CA"},{"zip":"95831","fips":"06067","name":"Sacramento County","state_id":"CA"},{"zip":"95832","fips":"06067","name":"Sacramento County","state_id":"CA"},{"zip":"95833","fips":"06067","name":"Sacramento County","state_id":"CA"},{"zip":"95834","fips":"06067","name":"Sacramento County","state_id":"CA"},{"zip":"95835","fips":"06067","name":"Sacramento County","state_id":"CA"},{"zip":"95836","fips":"06101","name":"Sutter County","state_id":"CA"},{"zip":"95836","fips":"06067","name":"Sacramento County","state_id":"CA"},{"zip":"95837","fips":"06067","name":"Sacramento County","state_id":"CA"},{"zip":"95837","fips":"06101","name":"Sutter County","state_id":"CA"},{"zip":"95838","fips":"06067","name":"Sacramento County","state_id":"CA"},{"zip":"95840","fips":"06067","name":"Sacramento County","state_id":"CA"},{"zip":"95841","fips":"06067","name":"Sacramento County","state_id":"CA"},{"zip":"95842","fips":"06067","name":"Sacramento County","state_id":"CA"},{"zip":"95843","fips":"06067","name":"Sacramento County","state_id":"CA"},{"zip":"95851","fips":"06067","name":"Sacramento County","state_id":"CA"},{"zip":"95852","fips":"06067","name":"Sacramento County","state_id":"CA"},{"zip":"95853","fips":"06067","name":"Sacramento County","state_id":"CA"},{"zip":"95860","fips":"06067","name":"Sacramento County","state_id":"CA"},{"zip":"95864","fips":"06067","name":"Sacramento County","state_id":"CA"},{"zip":"95865","fips":"06067","name":"Sacramento County","state_id":"CA"},{"zip":"95866","fips":"06067","name":"Sacramento County","state_id":"CA"},{"zip":"95867","fips":"06067","name":"Sacramento County","state_id":"CA"},{"zip":"95894","fips":"06067","name":"Sacramento County","state_id":"CA"}]
