[{"zip":"95901","fips":"06007","name":"Butte County","state_id":"CA"},{"zip":"95901","fips":"06115","name":"Yuba County","state_id":"CA"},{"zip":"95903","fips":"06115","name":"Yuba County","state_id":"CA"},{"zip":"95910","fips":"06091","name":"Sierra County","state_id":"CA"},{"zip":"95912","fips":"06113","name":"Yolo County","state_id":"CA"},{"zip":"95912","fips":"06011","name":"Colusa County","state_id":"CA"},{"zip":"95913","fips":"06021","name":"Glenn County","state_id":"CA"},{"zip":"95914","fips":"06115","name":"Yuba County","state_id":"CA"},{"zip":"95914","fips":"06007","name":"Butte County","state_id":"CA"},{"zip":"95915","fips":"06063","name":"Plumas County","state_id":"CA"},{"zip":"95916","fips":"06007","name":"Butte County","state_id":"CA"},{"zip":"95917","fips":"06007","name":"Butte County","state_id":"CA"},{"zip":"95918","fips":"06115","name":"Yuba County","state_id":"CA"},{"zip":"95919","fips":"06115","name":"Yuba County","state_id":"CA"},{"zip":"95920","fips":"06021","name":"Glenn County","state_id":"CA"},{"zip":"95922","fips":"06091","name":"Sierra County","state_id":"CA"},{"zip":"95922","fips":"06115","name":"Yuba County","state_id":"CA"},{"zip":"95923","fips":"06063","name":"Plumas County","state_id":"CA"},{"zip":"95924","fips":"06057","name":"Nevada County","state_id":"CA"},{"zip":"95925","fips":"06115","name":"Yuba County","state_id":"CA"},{"zip":"95926","fips":"06007","name":"Butte County","state_id":"CA"},{"zip":"95927","fips":"06007","name":"Butte County","state_id":"CA"},{"zip":"95928","fips":"06007","name":"Butte County","state_id":"CA"},{"zip":"95929","fips":"06007","name":"Butte County","state_id":"CA"},{"zip":"95930","fips":"06063","name":"Plumas County","state_id":"CA"},{"zip":"95930","fips":"06007","name":"Butte County","state_id":"CA"},{"zip":"95932","fips":"06011","name":"Colusa County","state_id":"CA"},{"zip":"95934","fips":"06063","name":"Plumas County","state_id":"CA"},{"zip":"95935","fips":"06115","name":"Yuba County","state_id":"CA"},{"zip":"95936","fips":"06091","name":"Sierra County","state_id":"CA"},{"zip":"95937","fips":"06113","name":"Yolo County","state_id":"CA"},{"zip":"95938","fips":"06007","name":"Butte County","state_id":"CA"},{"zip":"95939","fips":"06011","name":"Colusa County","state_id":"CA"},{"zip":"95939","fips":"06021","name":"Glenn County","state_id":"CA"},{"zip":"95940","fips":"06007","name":"Butte County","state_id":"CA"},{"zip":"95941","fips":"06115","name":"Yuba County","state_id":"CA"},{"zip":"95941","fips":"06007","name":"Butte County","state_id":"CA"},{"zip":"95942","fips":"06007","name":"Butte County","state_id":"CA"},{"zip":"95943","fips":"06021","name":"Glenn County","state_id":"CA"},{"zip":"95944","fips":"06091","name":"Sierra County","state_id":"CA"},{"zip":"95945","fips":"06057","name":"Nevada County","state_id":"CA"},{"zip":"95946","fips":"06057","name":"Nevada County","state_id":"CA"},{"zip":"95947","fips":"06063","name":"Plumas County","state_id":"CA"},{"zip":"95948","fips":"06007","name":"Butte County","state_id":"CA"},{"zip":"95948","fips":"06101","name":"Sutter County","state_id":"CA"},{"zip":"95949","fips":"06057","name":"Nevada County","state_id":"CA"},{"zip":"95950","fips":"06011","name":"Colusa County","state_id":"CA"},{"zip":"95951","fips":"06021","name":"Glenn County","state_id":"CA"},{"zip":"95953","fips":"06101","name":"Sutter County","state_id":"CA"},{"zip":"95954","fips":"06007","name":"Butte County","state_id":"CA"},{"zip":"95955","fips":"06011","name":"Colusa County","state_id":"CA"},{"zip":"95956","fips":"06063","name":"Plumas County","state_id":"CA"},{"zip":"95957","fips":"06011","name":"Colusa County","state_id":"CA"},{"zip":"95957","fips":"06101","name":"Sutter County","state_id":"CA"},{"zip":"95958","fips":"06007","name":"Butte County","state_id":"CA"},{"zip":"95959","fips":"06057","name":"Nevada County","state_id":"CA"},{"zip":"95960","fips":"06115","name":"Yuba County","state_id":"CA"},{"zip":"95960","fips":"06091","name":"Sierra County","state_id":"CA"},{"zip":"95960","fips":"06057","name":"Nevada County","state_id":"CA"},{"zip":"95961","fips":"06115","name":"Yuba County","state_id":"CA"},{"zip":"95962","fips":"06115","name":"Yuba County","state_id":"CA"},{"zip":"95963","fips":"06021","name":"Glenn County","state_id":"CA"},{"zip":"95963","fips":"06103","name":"Tehama County","state_id":"CA"},{"zip":"95965","fips":"06007","name":"Butte County","state_id":"CA"},{"zip":"95966","fips":"06115","name":"Yuba County","state_id":"CA"},{"zip":"95966","fips":"06007","name":"Butte County","state_id":"CA"},{"zip":"95967","fips":"06007","name":"Butte County","state_id":"CA"},{"zip":"95968","fips":"06007","name":"Butte County","state_id":"CA"},{"zip":"95969","fips":"06007","name":"Butte County","state_id":"CA"},{"zip":"95970","fips":"06011","name":"Colusa County","state_id":"CA"},{"zip":"95970","fips":"06021","name":"Glenn County","state_id":"CA"},{"zip":"95971","fips":"06063","name":"Plumas County","state_id":"CA"},{"zip":"95972","fips":"06115","name":"Yuba County","state_id":"CA"},{"zip":"95973","fips":"06007","name":"Butte County","state_id":"CA"},{"zip":"95973","fips":"06103","name":"Tehama County","state_id":"CA"},{"zip":"95974","fips":"06007","name":"Butte County","state_id":"CA"},{"zip":"95975","fips":"06057","name":"Nevada County","state_id":"CA"},{"zip":"95976","fips":"06007","name":"Butte County","state_id":"CA"},{"zip":"95977","fips":"06057","name":"Nevada County","state_id":"CA"},{"zip":"95977","fips":"06115","name":"Yuba County","state_id":"CA"},{"zip":"95978","fips":"06007","name":"Butte County","state_id":"CA"},{"zip":"95979","fips":"06011","name":"Colusa County","state_id":"CA"},{"zip":"95980","fips":"06063","name":"Plumas County","state_id":"CA"},{"zip":"95981","fips":"06115","name":"Yuba County","state_id":"CA"},{"zip":"95981","fips":"06063","name":"Plumas County","state_id":"CA"},{"zip":"95982","fips":"06101","name":"Sutter County","state_id":"CA"},{"zip":"95983","fips":"06063","name":"Plumas County","state_id":"CA"},{"zip":"95984","fips":"06063","name":"Plumas County","state_id":"CA"},{"zip":"95986","fips":"06057","name":"Nevada County","state_id":"CA"},{"zip":"95987","fips":"06011","name":"Colusa County","state_id":"CA"},{"zip":"95988","fips":"06021","name":"Glenn County","state_id":"CA"},{"zip":"95988","fips":"06011","name":"Colusa County","state_id":"CA"},{"zip":"95991","fips":"06101","name":"Sutter County","state_id":"CA"},{"zip":"95992","fips":"06101","name":"Sutter County","state_id":"CA"},{"zip":"95993","fips":"06101","name":"Sutter County","state_id":"CA"}]
