[{"zip":"96001","fips":"06089","name":"Shasta County","state_id":"CA"},{"zip":"96002","fips":"06089","name":"Shasta County","state_id":"CA"},{"zip":"96003","fips":"06089","name":"Shasta County","state_id":"CA"},{"zip":"96006","fips":"06049","name":"Modoc County","state_id":"CA"},{"zip":"96007","fips":"06089","name":"Shasta County","state_id":"CA"},{"zip":"96007","fips":"06103","name":"Tehama County","state_id":"CA"},{"zip":"96008","fips":"06089","name":"Shasta County","state_id":"CA"},{"zip":"96009","fips":"06035","name":"Lassen County","state_id":"CA"},{"zip":"96010","fips":"06105","name":"Trinity County","state_id":"CA"},{"zip":"96011","fips":"06089","name":"Shasta County","state_id":"CA"},{"zip":"96013","fips":"06089","name":"Shasta County","state_id":"CA"},{"zip":"96014","fips":"06093","name":"Siskiyou County","state_id":"CA"},{"zip":"96015","fips":"06049","name":"Modoc County","state_id":"CA"},{"zip":"96016","fips":"06089","name":"Shasta County","state_id":"CA"},{"zip":"96017","fips":"06089","name":"Shasta County","state_id":"CA"},{"zip":"96019","fips":"06089","name":"Shasta County","state_id":"CA"},{"zip":"96020","fips":"06063","name":"Plumas County","state_id":"CA"},{"zip":"96021","fips":"06103","name":"Tehama County","state_id":"CA"},{"zip":"96022","fips":"06103","name":"Tehama County","state_id":"CA"},{"zip":"96022","fips":"06089","name":"Shasta County","state_id":"CA"},{"zip":"96023","fips":"06093","name":"Siskiyou County","state_id":"CA"},{"zip":"96024","fips":"06105","name":"Trinity County","state_id":"CA"},{"zip":"96025","fips":"06093","name":"Siskiyou County","state_id":"CA"},{"zip":"96025","fips":"06089","name":"Shasta County","state_id":"CA"},{"zip":"96027","fips":"06093","name":"Siskiyou County","state_id":"CA"},{"zip":"96028","fips":"06089","name":"Shasta County","state_id":"CA"},{"zip":"96029","fips":"06103","name":"Tehama County","state_id":"CA"},{"zip":"96031","fips":"06093","name":"Siskiyou County","state_id":"CA"},{"zip":"96032","fips":"06093","name":"Siskiyou County","state_id":"CA"},{"zip":"96033","fips":"06089","name":"Shasta County","state_id":"CA"},{"zip":"96034","fips":"06093","name":"Siskiyou County","state_id":"CA"},{"zip":"96035","fips":"06103","name":"Tehama County","state_id":"CA"},{"zip":"96037","fips":"06093","name":"Siskiyou County","state_id":"CA"},{"zip":"96038","fips":"06093","name":"Siskiyou County","state_id":"CA"},{"zip":"96039","fips":"06093","name":"Siskiyou County","state_id":"CA"},{"zip":"96040","fips":"06089","name":"Shasta County","state_id":"CA"},{"zip":"96041","fips":"06105","name":"Trinity County","state_id":"CA"},{"zip":"96044","fips":"06093","name":"Siskiyou County","state_id":"CA"},{"zip":"96046","fips":"06105","name":"Trinity County","state_id":"CA"},{"zip":"96047","fips":"06089","name":"Shasta County","state_id":"CA"},{"zip":"96048","fips":"06105","name":"Trinity County","state_id":"CA"},{"zip":"96049","fips":"06089","name":"Shasta County","state_id":"CA"},{"zip":"96050","fips":"06093","name":"Siskiyou County","state_id":"CA"},{"zip":"96051","fips":"06089","name":"Shasta County","state_id":"CA"},{"zip":"96052","fips":"06105","name":"Trinity County","state_id":"CA"},{"zip":"96054","fips":"06049","name":"Modoc County","state_id":"CA"},{"zip":"96055","fips":"06103","name":"Tehama County","state_id":"CA"},{"zip":"96056","fips":"06035","name":"Lassen County","state_id":"CA"},{"zip":"96056","fips":"06049","name":"Modoc County","state_id":"CA"},{"zip":"96056","fips":"06089","name":"Shasta County","state_id":"CA"},{"zip":"96057","fips":"06093","name":"Siskiyou County","state_id":"CA"},{"zip":"96058","fips":"06093","name":"Siskiyou County","state_id":"CA"},{"zip":"96059","fips":"06103","name":"Tehama County","state_id":"CA"},{"zip":"96059","fips":"06089","name":"Shasta County","state_id":"CA"},{"zip":"96061","fips":"06103","name":"Tehama County","state_id":"CA"},{"zip":"96062","fips":"06089","name":"Shasta County","state_id":"CA"},{"zip":"96063","fips":"06103","name":"Tehama County","state_id":"CA"},{"zip":"96064","fips":"06093","name":"Siskiyou County","state_id":"CA"},{"zip":"96065","fips":"06089","name":"Shasta County","state_id":"CA"},{"zip":"96067","fips":"06093","name":"Siskiyou County","state_id":"CA"},{"zip":"96068","fips":"06035","name":"Lassen County","state_id":"CA"},{"zip":"96069","fips":"06089","name":"Shasta County","state_id":"CA"},{"zip":"96071","fips":"06089","name":"Shasta County","state_id":"CA"},{"zip":"96073","fips":"06089","name":"Shasta County","state_id":"CA"},{"zip":"96074","fips":"06103","name":"Tehama County","state_id":"CA"},{"zip":"96075","fips":"06103","name":"Tehama County","state_id":"CA"},{"zip":"96076","fips":"06105","name":"Trinity County","state_id":"CA"},{"zip":"96076","fips":"06103","name":"Tehama County","state_id":"CA"},{"zip":"96076","fips":"06089","name":"Shasta County","state_id":"CA"},{"zip":"96078","fips":"06103","name":"Tehama County","state_id":"CA"},{"zip":"96080","fips":"06103","name":"Tehama County","state_id":"CA"},{"zip":"96084","fips":"06089","name":"Shasta County","state_id":"CA"},{"zip":"96085","fips":"06093","name":"Siskiyou County","state_id":"CA"},{"zip":"96086","fips":"06093","name":"Siskiyou County","state_id":"CA"},{"zip":"96087","fips":"06089","name":"Shasta County","state_id":"CA"},{"zip":"96088","fips":"06089","name":"Shasta County","state_id":"CA"},{"zip":"96089","fips":"06089","name":"Shasta County","state_id":"CA"},{"zip":"96090","fips":"06103","name":"Tehama County","state_id":"CA"},{"zip":"96091","fips":"06105","name":"Trinity County","state_id":"CA"},{"zip":"96092","fips":"06103","name":"Tehama County","state_id":"CA"},{"zip":"96093","fips":"06105","name":"Trinity County","state_id":"CA"},{"zip":"96094","fips":"06093","name":"Siskiyou County","state_id":"CA"},{"zip":"96095","fips":"06089","name":"Shasta County","state_id":"CA"},{"zip":"96096","fips":"06089","name":"Shasta County","state_id":"CA"},{"zip":"96097","fips":"06093","name":"Siskiyou County","state_id":"CA"},{"zip":"96099","fips":"06089","name":"Shasta County","state_id":"CA"}]
