[{"zip":"96101","fips":"06049","name":"Modoc County","state_id":"CA"},{"zip":"96103","fips":"06063","name":"Plumas County","state_id":"CA"},{"zip":"96104","fips":"06049","name":"Modoc County","state_id":"CA"},{"zip":"96105","fips":"06063","name":"Plumas County","state_id":"CA"},{"zip":"96106","fips":"06063","name":"Plumas County","state_id":"CA"},{"zip":"96107","fips":"06051","name":"Mono County","state_id":"CA"},{"zip":"96108","fips":"06049","name":"Modoc County","state_id":"CA"},{"zip":"96109","fips":"06035","name":"Lassen County","state_id":"CA"},{"zip":"96110","fips":"06049","name":"Modoc County","state_id":"CA"},{"zip":"96111","fips":"06057","name":"Nevada County","state_id":"CA"},{"zip":"96112","fips":"06049","name":"Modoc County","state_id":"CA"},{"zip":"96113","fips":"06035","name":"Lassen County","state_id":"CA"},{"zip":"96114","fips":"06035","name":"Lassen County","state_id":"CA"},{"zip":"96115","fips":"06049","name":"Modoc County","state_id":"CA"},{"zip":"96116","fips":"06049","name":"Modoc County","state_id":"CA"},{"zip":"96117","fips":"06035","name":"Lassen County","state_id":"CA"},{"zip":"96118","fips":"06091","name":"Sierra County","state_id":"CA"},{"zip":"96119","fips":"06035","name":"Lassen County","state_id":"CA"},{"zip":"96120","fips":"06003","name":"Alpine County","state_id":"CA"},{"zip":"96121","fips":"06035","name":"Lassen County","state_id":"CA"},{"zip":"96122","fips":"06063","name":"Plumas County","state_id":"CA"},{"zip":"96123","fips":"06035","name":"Lassen County","state_id":"CA"},{"zip":"96124","fips":"06091","name":"Sierra County","state_id":"CA"},{"zip":"96125","fips":"06091","name":"Sierra County","state_id":"CA"},{"zip":"96126","fips":"06091","name":"Sierra County","state_id":"CA"},{"zip":"96127","fips":"06035","name":"Lassen County","state_id":"CA"},{"zip":"96128","fips":"06035","name":"Lassen County","state_id":"CA"},{"zip":"96129","fips":"06063","name":"Plumas County","state_id":"CA"},{"zip":"96130","fips":"06035","name":"Lassen County","state_id":"CA"},{"zip":"96132","fips":"06035","name":"Lassen County","state_id":"CA"},{"zip":"96133","fips":"06051","name":"Mono County","state_id":"CA"},{"zip":"96134","fips":"06049","name":"Modoc County","state_id":"CA"},{"zip":"96134","fips":"06093","name":"Siskiyou County","state_id":"CA"},{"zip":"96135","fips":"06063","name":"Plumas County","state_id":"CA"},{"zip":"96136","fips":"06035","name":"Lassen County","state_id":"CA"},{"zip":"96137","fips":"06063","name":"Plumas County","state_id":"CA"},{"zip":"96137","fips":"06035","name":"Lassen County","state_id":"CA"},{"zip":"96140","fips":"06061","name":"Placer County","state_id":"CA"},{"zip":"96141","fips":"06061","name":"Placer County","state_id":"CA"},{"zip":"96142","fips":"06017","name":"El Dorado County","state_id":"CA"},{"zip":"96142","fips":"06061","name":"Placer County","state_id":"CA"},{"zip":"96143","fips":"06061","name":"Placer County","state_id":"CA"},{"zip":"96145","fips":"06061","name":"Placer County","state_id":"CA"},{"zip":"96146","fips":"06061","name":"Placer County","state_id":"CA"},{"zip":"96148","fips":"06061","name":"Placer County","state_id":"CA"},{"zip":"96150","fips":"06017","name":"El Dorado County","state_id":"CA"},{"zip":"96151","fips":"06017","name":"El Dorado County","state_id":"CA"},{"zip":"96155","fips":"06017","name":"El Dorado County","state_id":"CA"},{"zip":"96158","fips":"06017","name":"El Dorado County","state_id":"CA"},{"zip":"96160","fips":"06057","name":"Nevada County","state_id":"CA"},{"zip":"96161","fips":"06061","name":"Placer County","state_id":"CA"},{"zip":"96161","fips":"06057","name":"Nevada County","state_id":"CA"},{"zip":"96162","fips":"06057","name":"Nevada County","state_id":"CA"}]
