[{"zip":"96801","fips":"15003","name":"Honolulu County","state_id":"HI"},{"zip":"96802","fips":"15003","name":"Honolulu County","state_id":"HI"},{"zip":"96803","fips":"15003","name":"Honolulu County","state_id":"HI"},{"zip":"96804","fips":"15003","name":"Honolulu County","state_id":"HI"},{"zip":"96805","fips":"15003","name":"Honolulu County","state_id":"HI"},{"zip":"96806","fips":"15003","name":"Honolulu County","state_id":"HI"},{"zip":"96807","fips":"15003","name":"Honolulu County","state_id":"HI"},{"zip":"96808","fips":"15003","name":"Honolulu County","state_id":"HI"},{"zip":"96809","fips":"15003","name":"Honolulu County","state_id":"HI"},{"zip":"96810","fips":"15003","name":"Honolulu County","state_id":"HI"},{"zip":"96811","fips":"15003","name":"Honolulu County","state_id":"HI"},{"zip":"96812","fips":"15003","name":"Honolulu County","state_id":"HI"},{"zip":"96813","fips":"15003","name":"Honolulu County","state_id":"HI"},{"zip":"96814","fips":"15003","name":"Honolulu County","state_id":"HI"},{"zip":"96815","fips":"15003","name":"Honolulu County","state_id":"HI"},{"zip":"96816","fips":"15003","name":"Honolulu County","state_id":"HI"},{"zip":"96817","fips":"15003","name":"Honolulu County","state_id":"HI"},{"zip":"96818","fips":"15003","name":"Honolulu County","state_id":"HI"},{"zip":"96819","fips":"15003","name":"Honolulu County","state_id":"HI"},{"zip":"96820","fips":"15003","name":"Honolulu County","state_id":"HI"},{"zip":"96821","fips":"15003","name":"Honolulu County","state_id":"HI"},{"zip":"96822","fips":"15003","name":"Honolulu County","state_id":"HI"},{"zip":"96823","fips":"15003","name":"Honolulu County","state_id":"HI"},{"zip":"96824","fips":"15003","name":"Honolulu County","state_id":"HI"},{"zip":"96825","fips":"15003","name":"Honolulu County","state_id":"HI"},{"zip":"96826","fips":"15003","name":"Honolulu County","state_id":"HI"},{"zip":"96828","fips":"15003","name":"Honolulu County","state_id":"HI"},{"zip":"96830","fips":"15003","name":"Honolulu County","state_id":"HI"},{"zip":"96836","fips":"15003","name":"Honolulu County","state_id":"HI"},{"zip":"96837","fips":"15003","name":"Honolulu County","state_id":"HI"},{"zip":"96839","fips":"15003","name":"Honolulu County","state_id":"HI"},{"zip":"96848","fips":"15003","name":"Honolulu County","state_id":"HI"},{"zip":"96850","fips":"15003","name":"Honolulu County","state_id":"HI"},{"zip":"96853","fips":"15003","name":"Honolulu County","state_id":"HI"},{"zip":"96854","fips":"15003","name":"Honolulu County","state_id":"HI"},{"zip":"96857","fips":"15003","name":"Honolulu County","state_id":"HI"},{"zip":"96858","fips":"15003","name":"Honolulu County","state_id":"HI"},{"zip":"96859","fips":"15003","name":"Honolulu County","state_id":"HI"},{"zip":"96860","fips":"15003","name":"Honolulu County","state_id":"HI"},{"zip":"96861","fips":"15003","name":"Honolulu County","state_id":"HI"},{"zip":"96863","fips":"15003","name":"Honolulu County","state_id":"HI"},{"zip":"96898","fips":"15003","name":"Honolulu County","state_id":"HI"}]
