[{"zip":"97001","fips":"41065","name":"Wasco County","state_id":"OR"},{"zip":"97002","fips":"41005","name":"Clackamas County","state_id":"OR"},{"zip":"97002","fips":"41047","name":"Marion County","state_id":"OR"},{"zip":"97003","fips":"41067","name":"Washington County","state_id":"OR"},{"zip":"97004","fips":"41005","name":"Clackamas County","state_id":"OR"},{"zip":"97005","fips":"41067","name":"Washington County","state_id":"OR"},{"zip":"97006","fips":"41067","name":"Washington County","state_id":"OR"},{"zip":"97007","fips":"41067","name":"Washington County","state_id":"OR"},{"zip":"97008","fips":"41067","name":"Washington County","state_id":"OR"},{"zip":"97009","fips":"41051","name":"Multnomah County","state_id":"OR"},{"zip":"97009","fips":"41005","name":"Clackamas County","state_id":"OR"},{"zip":"97010","fips":"41051","name":"Multnomah County","state_id":"OR"},{"zip":"97011","fips":"41005","name":"Clackamas County","state_id":"OR"},{"zip":"97013","fips":"41005","name":"Clackamas County","state_id":"OR"},{"zip":"97014","fips":"41027","name":"Hood River County","state_id":"OR"},{"zip":"97014","fips":"41051","name":"Multnomah County","state_id":"OR"},{"zip":"97015","fips":"41005","name":"Clackamas County","state_id":"OR"},{"zip":"97016","fips":"41007","name":"Clatsop County","state_id":"OR"},{"zip":"97016","fips":"41009","name":"Columbia County","state_id":"OR"},{"zip":"97017","fips":"41005","name":"Clackamas County","state_id":"OR"},{"zip":"97018","fips":"41009","name":"Columbia County","state_id":"OR"},{"zip":"97019","fips":"41051","name":"Multnomah County","state_id":"OR"},{"zip":"97019","fips":"41005","name":"Clackamas County","state_id":"OR"},{"zip":"97020","fips":"41047","name":"Marion County","state_id":"OR"},{"zip":"97021","fips":"41065","name":"Wasco County","state_id":"OR"},{"zip":"97022","fips":"41005","name":"Clackamas County","state_id":"OR"},{"zip":"97023","fips":"41005","name":"Clackamas County","state_id":"OR"},{"zip":"97024","fips":"41051","name":"Multnomah County","state_id":"OR"},{"zip":"97026","fips":"41047","name":"Marion County","state_id":"OR"},{"zip":"97027","fips":"41005","name":"Clackamas County","state_id":"OR"},{"zip":"97028","fips":"41005","name":"Clackamas County","state_id":"OR"},{"zip":"97029","fips":"41055","name":"Sherman County","state_id":"OR"},{"zip":"97030","fips":"41051","name":"Multnomah County","state_id":"OR"},{"zip":"97031","fips":"41027","name":"Hood River County","state_id":"OR"},{"zip":"97032","fips":"41047","name":"Marion County","state_id":"OR"},{"zip":"97032","fips":"41005","name":"Clackamas County","state_id":"OR"},{"zip":"97033","fips":"41055","name":"Sherman County","state_id":"OR"},{"zip":"97034","fips":"41051","name":"Multnomah County","state_id":"OR"},{"zip":"97034","fips":"41005","name":"Clackamas County","state_id":"OR"},{"zip":"97035","fips":"41067","name":"Washington County","state_id":"OR"},{"zip":"97035","fips":"41051","name":"Multnomah County","state_id":"OR"},{"zip":"97035","fips":"41005","name":"Clackamas County","state_id":"OR"},{"zip":"97036","fips":"41005","name":"Clackamas County","state_id":"OR"},{"zip":"97037","fips":"41065","name":"Wasco County","state_id":"OR"},{"zip":"97038","fips":"41005","name":"Clackamas County","state_id":"OR"},{"zip":"97039","fips":"41055","name":"Sherman County","state_id":"OR"},{"zip":"97040","fips":"41065","name":"Wasco County","state_id":"OR"},{"zip":"97041","fips":"41027","name":"Hood River County","state_id":"OR"},{"zip":"97042","fips":"41005","name":"Clackamas County","state_id":"OR"},{"zip":"97044","fips":"41027","name":"Hood River County","state_id":"OR"},{"zip":"97045","fips":"41005","name":"Clackamas County","state_id":"OR"},{"zip":"97048","fips":"41009","name":"Columbia County","state_id":"OR"},{"zip":"97049","fips":"41005","name":"Clackamas County","state_id":"OR"},{"zip":"97050","fips":"41055","name":"Sherman County","state_id":"OR"},{"zip":"97051","fips":"41009","name":"Columbia County","state_id":"OR"},{"zip":"97053","fips":"41009","name":"Columbia County","state_id":"OR"},{"zip":"97054","fips":"41009","name":"Columbia County","state_id":"OR"},{"zip":"97055","fips":"41005","name":"Clackamas County","state_id":"OR"},{"zip":"97056","fips":"41067","name":"Washington County","state_id":"OR"},{"zip":"97056","fips":"41009","name":"Columbia County","state_id":"OR"},{"zip":"97056","fips":"41051","name":"Multnomah County","state_id":"OR"},{"zip":"97057","fips":"41065","name":"Wasco County","state_id":"OR"},{"zip":"97058","fips":"41065","name":"Wasco County","state_id":"OR"},{"zip":"97060","fips":"41051","name":"Multnomah County","state_id":"OR"},{"zip":"97062","fips":"41005","name":"Clackamas County","state_id":"OR"},{"zip":"97062","fips":"41067","name":"Washington County","state_id":"OR"},{"zip":"97063","fips":"41065","name":"Wasco County","state_id":"OR"},{"zip":"97064","fips":"41009","name":"Columbia County","state_id":"OR"},{"zip":"97064","fips":"41067","name":"Washington County","state_id":"OR"},{"zip":"97065","fips":"41055","name":"Sherman County","state_id":"OR"},{"zip":"97067","fips":"41005","name":"Clackamas County","state_id":"OR"},{"zip":"97068","fips":"41005","name":"Clackamas County","state_id":"OR"},{"zip":"97070","fips":"41005","name":"Clackamas County","state_id":"OR"},{"zip":"97070","fips":"41067","name":"Washington County","state_id":"OR"},{"zip":"97071","fips":"41005","name":"Clackamas County","state_id":"OR"},{"zip":"97071","fips":"41047","name":"Marion County","state_id":"OR"},{"zip":"97075","fips":"41067","name":"Washington County","state_id":"OR"},{"zip":"97078","fips":"41067","name":"Washington County","state_id":"OR"},{"zip":"97079","fips":"41067","name":"Washington County","state_id":"OR"},{"zip":"97080","fips":"41005","name":"Clackamas County","state_id":"OR"},{"zip":"97080","fips":"41051","name":"Multnomah County","state_id":"OR"},{"zip":"97086","fips":"41005","name":"Clackamas County","state_id":"OR"},{"zip":"97089","fips":"41005","name":"Clackamas County","state_id":"OR"}]
