[{"zip":"97101","fips":"41071","name":"Yamhill County","state_id":"OR"},{"zip":"97101","fips":"41053","name":"Polk County","state_id":"OR"},{"zip":"97102","fips":"41007","name":"Clatsop County","state_id":"OR"},{"zip":"97102","fips":"41057","name":"Tillamook County","state_id":"OR"},{"zip":"97103","fips":"41007","name":"Clatsop County","state_id":"OR"},{"zip":"97106","fips":"41067","name":"Washington County","state_id":"OR"},{"zip":"97107","fips":"41057","name":"Tillamook County","state_id":"OR"},{"zip":"97108","fips":"41057","name":"Tillamook County","state_id":"OR"},{"zip":"97109","fips":"41067","name":"Washington County","state_id":"OR"},{"zip":"97110","fips":"41007","name":"Clatsop County","state_id":"OR"},{"zip":"97111","fips":"41071","name":"Yamhill County","state_id":"OR"},{"zip":"97112","fips":"41057","name":"Tillamook County","state_id":"OR"},{"zip":"97113","fips":"41067","name":"Washington County","state_id":"OR"},{"zip":"97114","fips":"41071","name":"Yamhill County","state_id":"OR"},{"zip":"97115","fips":"41071","name":"Yamhill County","state_id":"OR"},{"zip":"97116","fips":"41067","name":"Washington County","state_id":"OR"},{"zip":"97117","fips":"41067","name":"Washington County","state_id":"OR"},{"zip":"97118","fips":"41057","name":"Tillamook County","state_id":"OR"},{"zip":"97119","fips":"41067","name":"Washington County","state_id":"OR"},{"zip":"97119","fips":"41071","name":"Yamhill County","state_id":"OR"},{"zip":"97121","fips":"41007","name":"Clatsop County","state_id":"OR"},{"zip":"97122","fips":"41057","name":"Tillamook County","state_id":"OR"},{"zip":"97123","fips":"41071","name":"Yamhill County","state_id":"OR"},{"zip":"97123","fips":"41067","name":"Washington County","state_id":"OR"},{"zip":"97124","fips":"41051","name":"Multnomah County","state_id":"OR"},{"zip":"97124","fips":"41067","name":"Washington County","state_id":"OR"},{"zip":"97125","fips":"41067","name":"Washington County","state_id":"OR"},{"zip":"97127","fips":"41071","name":"Yamhill County","state_id":"OR"},{"zip":"97128","fips":"41071","name":"Yamhill County","state_id":"OR"},{"zip":"97129","fips":"41067","name":"Washington County","state_id":"OR"},{"zip":"97130","fips":"41057","name":"Tillamook County","state_id":"OR"},{"zip":"97131","fips":"41057","name":"Tillamook County","state_id":"OR"},{"zip":"97131","fips":"41007","name":"Clatsop County","state_id":"OR"},{"zip":"97132","fips":"41071","name":"Yamhill County","state_id":"OR"},{"zip":"97132","fips":"41067","name":"Washington County","state_id":"OR"},{"zip":"97132","fips":"41005","name":"Clackamas County","state_id":"OR"},{"zip":"97133","fips":"41067","name":"Washington County","state_id":"OR"},{"zip":"97133","fips":"41051","name":"Multnomah County","state_id":"OR"},{"zip":"97134","fips":"41057","name":"Tillamook County","state_id":"OR"},{"zip":"97135","fips":"41057","name":"Tillamook County","state_id":"OR"},{"zip":"97136","fips":"41057","name":"Tillamook County","state_id":"OR"},{"zip":"97137","fips":"41047","name":"Marion County","state_id":"OR"},{"zip":"97138","fips":"41007","name":"Clatsop County","state_id":"OR"},{"zip":"97140","fips":"41005","name":"Clackamas County","state_id":"OR"},{"zip":"97140","fips":"41071","name":"Yamhill County","state_id":"OR"},{"zip":"97140","fips":"41067","name":"Washington County","state_id":"OR"},{"zip":"97141","fips":"41057","name":"Tillamook County","state_id":"OR"},{"zip":"97144","fips":"41067","name":"Washington County","state_id":"OR"},{"zip":"97145","fips":"41007","name":"Clatsop County","state_id":"OR"},{"zip":"97146","fips":"41007","name":"Clatsop County","state_id":"OR"},{"zip":"97147","fips":"41057","name":"Tillamook County","state_id":"OR"},{"zip":"97148","fips":"41071","name":"Yamhill County","state_id":"OR"},{"zip":"97149","fips":"41057","name":"Tillamook County","state_id":"OR"}]
