[{"zip":"97301","fips":"41047","name":"Marion County","state_id":"OR"},{"zip":"97302","fips":"41047","name":"Marion County","state_id":"OR"},{"zip":"97303","fips":"41047","name":"Marion County","state_id":"OR"},{"zip":"97304","fips":"41053","name":"Polk County","state_id":"OR"},{"zip":"97304","fips":"41071","name":"Yamhill County","state_id":"OR"},{"zip":"97305","fips":"41047","name":"Marion County","state_id":"OR"},{"zip":"97306","fips":"41047","name":"Marion County","state_id":"OR"},{"zip":"97307","fips":"41047","name":"Marion County","state_id":"OR"},{"zip":"97308","fips":"41047","name":"Marion County","state_id":"OR"},{"zip":"97309","fips":"41047","name":"Marion County","state_id":"OR"},{"zip":"97310","fips":"41047","name":"Marion County","state_id":"OR"},{"zip":"97311","fips":"41047","name":"Marion County","state_id":"OR"},{"zip":"97312","fips":"41047","name":"Marion County","state_id":"OR"},{"zip":"97314","fips":"41047","name":"Marion County","state_id":"OR"},{"zip":"97317","fips":"41047","name":"Marion County","state_id":"OR"},{"zip":"97321","fips":"41003","name":"Benton County","state_id":"OR"},{"zip":"97321","fips":"41043","name":"Linn County","state_id":"OR"},{"zip":"97322","fips":"41043","name":"Linn County","state_id":"OR"},{"zip":"97324","fips":"41041","name":"Lincoln County","state_id":"OR"},{"zip":"97324","fips":"41039","name":"Lane County","state_id":"OR"},{"zip":"97324","fips":"41003","name":"Benton County","state_id":"OR"},{"zip":"97325","fips":"41047","name":"Marion County","state_id":"OR"},{"zip":"97326","fips":"41003","name":"Benton County","state_id":"OR"},{"zip":"97326","fips":"41041","name":"Lincoln County","state_id":"OR"},{"zip":"97326","fips":"41053","name":"Polk County","state_id":"OR"},{"zip":"97327","fips":"41043","name":"Linn County","state_id":"OR"},{"zip":"97329","fips":"41043","name":"Linn County","state_id":"OR"},{"zip":"97330","fips":"41003","name":"Benton County","state_id":"OR"},{"zip":"97331","fips":"41003","name":"Benton County","state_id":"OR"},{"zip":"97333","fips":"41043","name":"Linn County","state_id":"OR"},{"zip":"97333","fips":"41003","name":"Benton County","state_id":"OR"},{"zip":"97335","fips":"41043","name":"Linn County","state_id":"OR"},{"zip":"97336","fips":"41043","name":"Linn County","state_id":"OR"},{"zip":"97338","fips":"41053","name":"Polk County","state_id":"OR"},{"zip":"97339","fips":"41003","name":"Benton County","state_id":"OR"},{"zip":"97341","fips":"41041","name":"Lincoln County","state_id":"OR"},{"zip":"97342","fips":"41047","name":"Marion County","state_id":"OR"},{"zip":"97343","fips":"41041","name":"Lincoln County","state_id":"OR"},{"zip":"97344","fips":"41053","name":"Polk County","state_id":"OR"},{"zip":"97345","fips":"41043","name":"Linn County","state_id":"OR"},{"zip":"97346","fips":"41047","name":"Marion County","state_id":"OR"},{"zip":"97346","fips":"41043","name":"Linn County","state_id":"OR"},{"zip":"97347","fips":"41053","name":"Polk County","state_id":"OR"},{"zip":"97347","fips":"41071","name":"Yamhill County","state_id":"OR"},{"zip":"97348","fips":"41043","name":"Linn County","state_id":"OR"},{"zip":"97350","fips":"41043","name":"Linn County","state_id":"OR"},{"zip":"97350","fips":"41047","name":"Marion County","state_id":"OR"},{"zip":"97351","fips":"41053","name":"Polk County","state_id":"OR"},{"zip":"97352","fips":"41047","name":"Marion County","state_id":"OR"},{"zip":"97352","fips":"41043","name":"Linn County","state_id":"OR"},{"zip":"97355","fips":"41043","name":"Linn County","state_id":"OR"},{"zip":"97357","fips":"41041","name":"Lincoln County","state_id":"OR"},{"zip":"97358","fips":"41047","name":"Marion County","state_id":"OR"},{"zip":"97358","fips":"41043","name":"Linn County","state_id":"OR"},{"zip":"97360","fips":"41047","name":"Marion County","state_id":"OR"},{"zip":"97360","fips":"41043","name":"Linn County","state_id":"OR"},{"zip":"97361","fips":"41003","name":"Benton County","state_id":"OR"},{"zip":"97361","fips":"41053","name":"Polk County","state_id":"OR"},{"zip":"97362","fips":"41047","name":"Marion County","state_id":"OR"},{"zip":"97362","fips":"41005","name":"Clackamas County","state_id":"OR"},{"zip":"97364","fips":"41041","name":"Lincoln County","state_id":"OR"},{"zip":"97365","fips":"41041","name":"Lincoln County","state_id":"OR"},{"zip":"97366","fips":"41041","name":"Lincoln County","state_id":"OR"},{"zip":"97367","fips":"41041","name":"Lincoln County","state_id":"OR"},{"zip":"97368","fips":"41057","name":"Tillamook County","state_id":"OR"},{"zip":"97368","fips":"41041","name":"Lincoln County","state_id":"OR"},{"zip":"97369","fips":"41041","name":"Lincoln County","state_id":"OR"},{"zip":"97370","fips":"41053","name":"Polk County","state_id":"OR"},{"zip":"97370","fips":"41003","name":"Benton County","state_id":"OR"},{"zip":"97371","fips":"41053","name":"Polk County","state_id":"OR"},{"zip":"97373","fips":"41047","name":"Marion County","state_id":"OR"},{"zip":"97374","fips":"41043","name":"Linn County","state_id":"OR"},{"zip":"97375","fips":"41047","name":"Marion County","state_id":"OR"},{"zip":"97375","fips":"41005","name":"Clackamas County","state_id":"OR"},{"zip":"97376","fips":"41041","name":"Lincoln County","state_id":"OR"},{"zip":"97377","fips":"41043","name":"Linn County","state_id":"OR"},{"zip":"97378","fips":"41071","name":"Yamhill County","state_id":"OR"},{"zip":"97378","fips":"41053","name":"Polk County","state_id":"OR"},{"zip":"97380","fips":"41041","name":"Lincoln County","state_id":"OR"},{"zip":"97381","fips":"41047","name":"Marion County","state_id":"OR"},{"zip":"97383","fips":"41043","name":"Linn County","state_id":"OR"},{"zip":"97383","fips":"41047","name":"Marion County","state_id":"OR"},{"zip":"97384","fips":"41047","name":"Marion County","state_id":"OR"},{"zip":"97385","fips":"41047","name":"Marion County","state_id":"OR"},{"zip":"97386","fips":"41043","name":"Linn County","state_id":"OR"},{"zip":"97388","fips":"41041","name":"Lincoln County","state_id":"OR"},{"zip":"97389","fips":"41043","name":"Linn County","state_id":"OR"},{"zip":"97390","fips":"41041","name":"Lincoln County","state_id":"OR"},{"zip":"97390","fips":"41039","name":"Lane County","state_id":"OR"},{"zip":"97391","fips":"41041","name":"Lincoln County","state_id":"OR"},{"zip":"97392","fips":"41047","name":"Marion County","state_id":"OR"},{"zip":"97394","fips":"41041","name":"Lincoln County","state_id":"OR"},{"zip":"97396","fips":"41071","name":"Yamhill County","state_id":"OR"},{"zip":"97396","fips":"41053","name":"Polk County","state_id":"OR"}]
