[{"zip":"97401","fips":"41039","name":"Lane County","state_id":"OR"},{"zip":"97402","fips":"41039","name":"Lane County","state_id":"OR"},{"zip":"97403","fips":"41039","name":"Lane County","state_id":"OR"},{"zip":"97404","fips":"41039","name":"Lane County","state_id":"OR"},{"zip":"97405","fips":"41039","name":"Lane County","state_id":"OR"},{"zip":"97406","fips":"41015","name":"Curry County","state_id":"OR"},{"zip":"97407","fips":"41011","name":"Coos County","state_id":"OR"},{"zip":"97408","fips":"41039","name":"Lane County","state_id":"OR"},{"zip":"97409","fips":"41039","name":"Lane County","state_id":"OR"},{"zip":"97410","fips":"41019","name":"Douglas County","state_id":"OR"},{"zip":"97411","fips":"41011","name":"Coos County","state_id":"OR"},{"zip":"97412","fips":"41039","name":"Lane County","state_id":"OR"},{"zip":"97413","fips":"41039","name":"Lane County","state_id":"OR"},{"zip":"97414","fips":"41011","name":"Coos County","state_id":"OR"},{"zip":"97415","fips":"41015","name":"Curry County","state_id":"OR"},{"zip":"97416","fips":"41019","name":"Douglas County","state_id":"OR"},{"zip":"97417","fips":"41019","name":"Douglas County","state_id":"OR"},{"zip":"97419","fips":"41039","name":"Lane County","state_id":"OR"},{"zip":"97420","fips":"41011","name":"Coos County","state_id":"OR"},{"zip":"97423","fips":"41011","name":"Coos County","state_id":"OR"},{"zip":"97424","fips":"41039","name":"Lane County","state_id":"OR"},{"zip":"97424","fips":"41019","name":"Douglas County","state_id":"OR"},{"zip":"97426","fips":"41039","name":"Lane County","state_id":"OR"},{"zip":"97429","fips":"41019","name":"Douglas County","state_id":"OR"},{"zip":"97430","fips":"41039","name":"Lane County","state_id":"OR"},{"zip":"97431","fips":"41039","name":"Lane County","state_id":"OR"},{"zip":"97432","fips":"41019","name":"Douglas County","state_id":"OR"},{"zip":"97434","fips":"41039","name":"Lane County","state_id":"OR"},{"zip":"97435","fips":"41019","name":"Douglas County","state_id":"OR"},{"zip":"97436","fips":"41019","name":"Douglas County","state_id":"OR"},{"zip":"97437","fips":"41039","name":"Lane County","state_id":"OR"},{"zip":"97438","fips":"41039","name":"Lane County","state_id":"OR"},{"zip":"97439","fips":"41039","name":"Lane County","state_id":"OR"},{"zip":"97440","fips":"41039","name":"Lane County","state_id":"OR"},{"zip":"97441","fips":"41019","name":"Douglas County","state_id":"OR"},{"zip":"97442","fips":"41019","name":"Douglas County","state_id":"OR"},{"zip":"97443","fips":"41019","name":"Douglas County","state_id":"OR"},{"zip":"97444","fips":"41015","name":"Curry County","state_id":"OR"},{"zip":"97446","fips":"41043","name":"Linn County","state_id":"OR"},{"zip":"97446","fips":"41039","name":"Lane County","state_id":"OR"},{"zip":"97447","fips":"41019","name":"Douglas County","state_id":"OR"},{"zip":"97448","fips":"41003","name":"Benton County","state_id":"OR"},{"zip":"97448","fips":"41039","name":"Lane County","state_id":"OR"},{"zip":"97449","fips":"41011","name":"Coos County","state_id":"OR"},{"zip":"97450","fips":"41015","name":"Curry County","state_id":"OR"},{"zip":"97450","fips":"41011","name":"Coos County","state_id":"OR"},{"zip":"97451","fips":"41039","name":"Lane County","state_id":"OR"},{"zip":"97452","fips":"41039","name":"Lane County","state_id":"OR"},{"zip":"97453","fips":"41039","name":"Lane County","state_id":"OR"},{"zip":"97454","fips":"41039","name":"Lane County","state_id":"OR"},{"zip":"97455","fips":"41039","name":"Lane County","state_id":"OR"},{"zip":"97456","fips":"41039","name":"Lane County","state_id":"OR"},{"zip":"97456","fips":"41003","name":"Benton County","state_id":"OR"},{"zip":"97457","fips":"41019","name":"Douglas County","state_id":"OR"},{"zip":"97458","fips":"41011","name":"Coos County","state_id":"OR"},{"zip":"97459","fips":"41011","name":"Coos County","state_id":"OR"},{"zip":"97459","fips":"41019","name":"Douglas County","state_id":"OR"},{"zip":"97461","fips":"41039","name":"Lane County","state_id":"OR"},{"zip":"97462","fips":"41019","name":"Douglas County","state_id":"OR"},{"zip":"97463","fips":"41039","name":"Lane County","state_id":"OR"},{"zip":"97464","fips":"41015","name":"Curry County","state_id":"OR"},{"zip":"97465","fips":"41015","name":"Curry County","state_id":"OR"},{"zip":"97466","fips":"41011","name":"Coos County","state_id":"OR"},{"zip":"97467","fips":"41019","name":"Douglas County","state_id":"OR"},{"zip":"97469","fips":"41019","name":"Douglas County","state_id":"OR"},{"zip":"97470","fips":"41019","name":"Douglas County","state_id":"OR"},{"zip":"97471","fips":"41019","name":"Douglas County","state_id":"OR"},{"zip":"97473","fips":"41019","name":"Douglas County","state_id":"OR"},{"zip":"97475","fips":"41039","name":"Lane County","state_id":"OR"},{"zip":"97476","fips":"41015","name":"Curry County","state_id":"OR"},{"zip":"97477","fips":"41039","name":"Lane County","state_id":"OR"},{"zip":"97478","fips":"41039","name":"Lane County","state_id":"OR"},{"zip":"97479","fips":"41019","name":"Douglas County","state_id":"OR"},{"zip":"97480","fips":"41039","name":"Lane County","state_id":"OR"},{"zip":"97481","fips":"41019","name":"Douglas County","state_id":"OR"},{"zip":"97484","fips":"41019","name":"Douglas County","state_id":"OR"},{"zip":"97486","fips":"41019","name":"Douglas County","state_id":"OR"},{"zip":"97487","fips":"41039","name":"Lane County","state_id":"OR"},{"zip":"97488","fips":"41039","name":"Lane County","state_id":"OR"},{"zip":"97489","fips":"41039","name":"Lane County","state_id":"OR"},{"zip":"97490","fips":"41039","name":"Lane County","state_id":"OR"},{"zip":"97491","fips":"41015","name":"Curry County","state_id":"OR"},{"zip":"97492","fips":"41039","name":"Lane County","state_id":"OR"},{"zip":"97493","fips":"41039","name":"Lane County","state_id":"OR"},{"zip":"97493","fips":"41019","name":"Douglas County","state_id":"OR"},{"zip":"97494","fips":"41019","name":"Douglas County","state_id":"OR"},{"zip":"97495","fips":"41019","name":"Douglas County","state_id":"OR"},{"zip":"97496","fips":"41019","name":"Douglas County","state_id":"OR"},{"zip":"97497","fips":"41033","name":"Josephine County","state_id":"OR"},{"zip":"97497","fips":"41029","name":"Jackson County","state_id":"OR"},{"zip":"97498","fips":"41041","name":"Lincoln County","state_id":"OR"},{"zip":"97498","fips":"41039","name":"Lane County","state_id":"OR"},{"zip":"97499","fips":"41019","name":"Douglas County","state_id":"OR"}]
