[{"zip":"97701","fips":"41017","name":"Deschutes County","state_id":"OR"},{"zip":"97701","fips":"41013","name":"Crook County","state_id":"OR"},{"zip":"97702","fips":"41017","name":"Deschutes County","state_id":"OR"},{"zip":"97703","fips":"41017","name":"Deschutes County","state_id":"OR"},{"zip":"97707","fips":"41017","name":"Deschutes County","state_id":"OR"},{"zip":"97708","fips":"41017","name":"Deschutes County","state_id":"OR"},{"zip":"97709","fips":"41017","name":"Deschutes County","state_id":"OR"},{"zip":"97710","fips":"41025","name":"Harney County","state_id":"OR"},{"zip":"97711","fips":"41031","name":"Jefferson County","state_id":"OR"},{"zip":"97712","fips":"41017","name":"Deschutes County","state_id":"OR"},{"zip":"97720","fips":"41025","name":"Harney County","state_id":"OR"},{"zip":"97721","fips":"41025","name":"Harney County","state_id":"OR"},{"zip":"97722","fips":"41025","name":"Harney County","state_id":"OR"},{"zip":"97730","fips":"41031","name":"Jefferson County","state_id":"OR"},{"zip":"97731","fips":"41019","name":"Douglas County","state_id":"OR"},{"zip":"97731","fips":"41035","name":"Klamath County","state_id":"OR"},{"zip":"97732","fips":"41025","name":"Harney County","state_id":"OR"},{"zip":"97733","fips":"41035","name":"Klamath County","state_id":"OR"},{"zip":"97734","fips":"41031","name":"Jefferson County","state_id":"OR"},{"zip":"97735","fips":"41037","name":"Lake County","state_id":"OR"},{"zip":"97736","fips":"41025","name":"Harney County","state_id":"OR"},{"zip":"97737","fips":"41035","name":"Klamath County","state_id":"OR"},{"zip":"97738","fips":"41025","name":"Harney County","state_id":"OR"},{"zip":"97739","fips":"41035","name":"Klamath County","state_id":"OR"},{"zip":"97739","fips":"41017","name":"Deschutes County","state_id":"OR"},{"zip":"97741","fips":"41031","name":"Jefferson County","state_id":"OR"},{"zip":"97750","fips":"41069","name":"Wheeler County","state_id":"OR"},{"zip":"97751","fips":"41013","name":"Crook County","state_id":"OR"},{"zip":"97752","fips":"41013","name":"Crook County","state_id":"OR"},{"zip":"97753","fips":"41013","name":"Crook County","state_id":"OR"},{"zip":"97754","fips":"41013","name":"Crook County","state_id":"OR"},{"zip":"97756","fips":"41017","name":"Deschutes County","state_id":"OR"},{"zip":"97756","fips":"41013","name":"Crook County","state_id":"OR"},{"zip":"97758","fips":"41025","name":"Harney County","state_id":"OR"},{"zip":"97759","fips":"41031","name":"Jefferson County","state_id":"OR"},{"zip":"97759","fips":"41017","name":"Deschutes County","state_id":"OR"},{"zip":"97760","fips":"41013","name":"Crook County","state_id":"OR"},{"zip":"97760","fips":"41017","name":"Deschutes County","state_id":"OR"},{"zip":"97760","fips":"41031","name":"Jefferson County","state_id":"OR"},{"zip":"97761","fips":"41031","name":"Jefferson County","state_id":"OR"}]
