[{"zip":"97801","fips":"41059","name":"Umatilla County","state_id":"OR"},{"zip":"97810","fips":"41059","name":"Umatilla County","state_id":"OR"},{"zip":"97812","fips":"41021","name":"Gilliam County","state_id":"OR"},{"zip":"97813","fips":"41059","name":"Umatilla County","state_id":"OR"},{"zip":"97814","fips":"41061","name":"Union County","state_id":"OR"},{"zip":"97814","fips":"41001","name":"Baker County","state_id":"OR"},{"zip":"97817","fips":"41023","name":"Grant County","state_id":"OR"},{"zip":"97818","fips":"41049","name":"Morrow County","state_id":"OR"},{"zip":"97819","fips":"41001","name":"Baker County","state_id":"OR"},{"zip":"97820","fips":"41023","name":"Grant County","state_id":"OR"},{"zip":"97823","fips":"41069","name":"Wheeler County","state_id":"OR"},{"zip":"97823","fips":"41049","name":"Morrow County","state_id":"OR"},{"zip":"97823","fips":"41021","name":"Gilliam County","state_id":"OR"},{"zip":"97824","fips":"41061","name":"Union County","state_id":"OR"},{"zip":"97825","fips":"41023","name":"Grant County","state_id":"OR"},{"zip":"97826","fips":"41059","name":"Umatilla County","state_id":"OR"},{"zip":"97826","fips":"41049","name":"Morrow County","state_id":"OR"},{"zip":"97827","fips":"41061","name":"Union County","state_id":"OR"},{"zip":"97828","fips":"41063","name":"Wallowa County","state_id":"OR"},{"zip":"97830","fips":"41021","name":"Gilliam County","state_id":"OR"},{"zip":"97830","fips":"41069","name":"Wheeler County","state_id":"OR"},{"zip":"97833","fips":"41001","name":"Baker County","state_id":"OR"},{"zip":"97834","fips":"41001","name":"Baker County","state_id":"OR"},{"zip":"97835","fips":"41059","name":"Umatilla County","state_id":"OR"},{"zip":"97836","fips":"41049","name":"Morrow County","state_id":"OR"},{"zip":"97837","fips":"41001","name":"Baker County","state_id":"OR"},{"zip":"97838","fips":"41049","name":"Morrow County","state_id":"OR"},{"zip":"97838","fips":"41059","name":"Umatilla County","state_id":"OR"},{"zip":"97839","fips":"41049","name":"Morrow County","state_id":"OR"},{"zip":"97840","fips":"41001","name":"Baker County","state_id":"OR"},{"zip":"97841","fips":"41061","name":"Union County","state_id":"OR"},{"zip":"97842","fips":"41063","name":"Wallowa County","state_id":"OR"},{"zip":"97843","fips":"41021","name":"Gilliam County","state_id":"OR"},{"zip":"97843","fips":"41049","name":"Morrow County","state_id":"OR"},{"zip":"97844","fips":"41049","name":"Morrow County","state_id":"OR"},{"zip":"97845","fips":"41023","name":"Grant County","state_id":"OR"},{"zip":"97846","fips":"41063","name":"Wallowa County","state_id":"OR"},{"zip":"97848","fips":"41023","name":"Grant County","state_id":"OR"},{"zip":"97850","fips":"41061","name":"Union County","state_id":"OR"},{"zip":"97856","fips":"41023","name":"Grant County","state_id":"OR"},{"zip":"97857","fips":"41063","name":"Wallowa County","state_id":"OR"},{"zip":"97859","fips":"41059","name":"Umatilla County","state_id":"OR"},{"zip":"97862","fips":"41059","name":"Umatilla County","state_id":"OR"},{"zip":"97864","fips":"41023","name":"Grant County","state_id":"OR"},{"zip":"97865","fips":"41023","name":"Grant County","state_id":"OR"},{"zip":"97867","fips":"41001","name":"Baker County","state_id":"OR"},{"zip":"97867","fips":"41061","name":"Union County","state_id":"OR"},{"zip":"97868","fips":"41059","name":"Umatilla County","state_id":"OR"},{"zip":"97869","fips":"41023","name":"Grant County","state_id":"OR"},{"zip":"97870","fips":"41001","name":"Baker County","state_id":"OR"},{"zip":"97873","fips":"41023","name":"Grant County","state_id":"OR"},{"zip":"97874","fips":"41069","name":"Wheeler County","state_id":"OR"},{"zip":"97875","fips":"41059","name":"Umatilla County","state_id":"OR"},{"zip":"97876","fips":"41061","name":"Union County","state_id":"OR"},{"zip":"97877","fips":"41023","name":"Grant County","state_id":"OR"},{"zip":"97877","fips":"41001","name":"Baker County","state_id":"OR"},{"zip":"97880","fips":"41059","name":"Umatilla County","state_id":"OR"},{"zip":"97882","fips":"41059","name":"Umatilla County","state_id":"OR"},{"zip":"97882","fips":"41049","name":"Morrow County","state_id":"OR"},{"zip":"97883","fips":"41061","name":"Union County","state_id":"OR"},{"zip":"97883","fips":"41001","name":"Baker County","state_id":"OR"},{"zip":"97884","fips":"41001","name":"Baker County","state_id":"OR"},{"zip":"97885","fips":"41063","name":"Wallowa County","state_id":"OR"},{"zip":"97886","fips":"41059","name":"Umatilla County","state_id":"OR"},{"zip":"97886","fips":"41061","name":"Union County","state_id":"OR"}]
