[{"zip":"97901","fips":"41045","name":"Malheur County","state_id":"OR"},{"zip":"97902","fips":"41045","name":"Malheur County","state_id":"OR"},{"zip":"97903","fips":"41045","name":"Malheur County","state_id":"OR"},{"zip":"97904","fips":"41025","name":"Harney County","state_id":"OR"},{"zip":"97905","fips":"41001","name":"Baker County","state_id":"OR"},{"zip":"97906","fips":"41045","name":"Malheur County","state_id":"OR"},{"zip":"97907","fips":"41045","name":"Malheur County","state_id":"OR"},{"zip":"97907","fips":"41001","name":"Baker County","state_id":"OR"},{"zip":"97908","fips":"41045","name":"Malheur County","state_id":"OR"},{"zip":"97909","fips":"41045","name":"Malheur County","state_id":"OR"},{"zip":"97910","fips":"41045","name":"Malheur County","state_id":"OR"},{"zip":"97911","fips":"41045","name":"Malheur County","state_id":"OR"},{"zip":"97913","fips":"41045","name":"Malheur County","state_id":"OR"},{"zip":"97914","fips":"41045","name":"Malheur County","state_id":"OR"},{"zip":"97917","fips":"41045","name":"Malheur County","state_id":"OR"},{"zip":"97918","fips":"41045","name":"Malheur County","state_id":"OR"},{"zip":"97920","fips":"41045","name":"Malheur County","state_id":"OR"}]
