[{"zip":"98001","fips":"53033","name":"King County","state_id":"WA"},{"zip":"98002","fips":"53033","name":"King County","state_id":"WA"},{"zip":"98003","fips":"53033","name":"King County","state_id":"WA"},{"zip":"98004","fips":"53033","name":"King County","state_id":"WA"},{"zip":"98005","fips":"53033","name":"King County","state_id":"WA"},{"zip":"98006","fips":"53033","name":"King County","state_id":"WA"},{"zip":"98007","fips":"53033","name":"King County","state_id":"WA"},{"zip":"98008","fips":"53033","name":"King County","state_id":"WA"},{"zip":"98009","fips":"53033","name":"King County","state_id":"WA"},{"zip":"98010","fips":"53033","name":"King County","state_id":"WA"},{"zip":"98011","fips":"53033","name":"King County","state_id":"WA"},{"zip":"98011","fips":"53061","name":"Snohomish County","state_id":"WA"},{"zip":"98012","fips":"53061","name":"Snohomish County","state_id":"WA"},{"zip":"98014","fips":"53033","name":"King County","state_id":"WA"},{"zip":"98015","fips":"53033","name":"King County","state_id":"WA"},{"zip":"98019","fips":"53061","name":"Snohomish County","state_id":"WA"},{"zip":"98019","fips":"53033","name":"King County","state_id":"WA"},{"zip":"98020","fips":"53061","name":"Snohomish County","state_id":"WA"},{"zip":"98021","fips":"53061","name":"Snohomish County","state_id":"WA"},{"zip":"98022","fips":"53033","name":"King County","state_id":"WA"},{"zip":"98022","fips":"53053","name":"Pierce County","state_id":"WA"},{"zip":"98023","fips":"53033","name":"King County","state_id":"WA"},{"zip":"98023","fips":"53053","name":"Pierce County","state_id":"WA"},{"zip":"98024","fips":"53033","name":"King County","state_id":"WA"},{"zip":"98025","fips":"53033","name":"King County","state_id":"WA"},{"zip":"98026","fips":"53061","name":"Snohomish County","state_id":"WA"},{"zip":"98027","fips":"53033","name":"King County","state_id":"WA"},{"zip":"98028","fips":"53061","name":"Snohomish County","state_id":"WA"},{"zip":"98028","fips":"53033","name":"King County","state_id":"WA"},{"zip":"98029","fips":"53033","name":"King County","state_id":"WA"},{"zip":"98030","fips":"53033","name":"King County","state_id":"WA"},{"zip":"98031","fips":"53033","name":"King County","state_id":"WA"},{"zip":"98032","fips":"53033","name":"King County","state_id":"WA"},{"zip":"98033","fips":"53033","name":"King County","state_id":"WA"},{"zip":"98034","fips":"53033","name":"King County","state_id":"WA"},{"zip":"98035","fips":"53033","name":"King County","state_id":"WA"},{"zip":"98036","fips":"53061","name":"Snohomish County","state_id":"WA"},{"zip":"98037","fips":"53061","name":"Snohomish County","state_id":"WA"},{"zip":"98038","fips":"53033","name":"King County","state_id":"WA"},{"zip":"98039","fips":"53033","name":"King County","state_id":"WA"},{"zip":"98040","fips":"53033","name":"King County","state_id":"WA"},{"zip":"98041","fips":"53033","name":"King County","state_id":"WA"},{"zip":"98042","fips":"53033","name":"King County","state_id":"WA"},{"zip":"98043","fips":"53061","name":"Snohomish County","state_id":"WA"},{"zip":"98045","fips":"53033","name":"King County","state_id":"WA"},{"zip":"98046","fips":"53061","name":"Snohomish County","state_id":"WA"},{"zip":"98047","fips":"53033","name":"King County","state_id":"WA"},{"zip":"98047","fips":"53053","name":"Pierce County","state_id":"WA"},{"zip":"98050","fips":"53033","name":"King County","state_id":"WA"},{"zip":"98051","fips":"53033","name":"King County","state_id":"WA"},{"zip":"98052","fips":"53033","name":"King County","state_id":"WA"},{"zip":"98053","fips":"53033","name":"King County","state_id":"WA"},{"zip":"98055","fips":"53033","name":"King County","state_id":"WA"},{"zip":"98056","fips":"53033","name":"King County","state_id":"WA"},{"zip":"98057","fips":"53033","name":"King County","state_id":"WA"},{"zip":"98058","fips":"53033","name":"King County","state_id":"WA"},{"zip":"98059","fips":"53033","name":"King County","state_id":"WA"},{"zip":"98061","fips":"53035","name":"Kitsap County","state_id":"WA"},{"zip":"98062","fips":"53033","name":"King County","state_id":"WA"},{"zip":"98063","fips":"53033","name":"King County","state_id":"WA"},{"zip":"98064","fips":"53033","name":"King County","state_id":"WA"},{"zip":"98065","fips":"53033","name":"King County","state_id":"WA"},{"zip":"98068","fips":"53033","name":"King County","state_id":"WA"},{"zip":"98068","fips":"53037","name":"Kittitas County","state_id":"WA"},{"zip":"98070","fips":"53033","name":"King County","state_id":"WA"},{"zip":"98071","fips":"53033","name":"King County","state_id":"WA"},{"zip":"98072","fips":"53033","name":"King County","state_id":"WA"},{"zip":"98072","fips":"53061","name":"Snohomish County","state_id":"WA"},{"zip":"98073","fips":"53033","name":"King County","state_id":"WA"},{"zip":"98074","fips":"53033","name":"King County","state_id":"WA"},{"zip":"98075","fips":"53033","name":"King County","state_id":"WA"},{"zip":"98077","fips":"53061","name":"Snohomish County","state_id":"WA"},{"zip":"98077","fips":"53033","name":"King County","state_id":"WA"},{"zip":"98082","fips":"53061","name":"Snohomish County","state_id":"WA"},{"zip":"98083","fips":"53033","name":"King County","state_id":"WA"},{"zip":"98087","fips":"53061","name":"Snohomish County","state_id":"WA"},{"zip":"98089","fips":"53033","name":"King County","state_id":"WA"},{"zip":"98092","fips":"53053","name":"Pierce County","state_id":"WA"},{"zip":"98092","fips":"53033","name":"King County","state_id":"WA"},{"zip":"98093","fips":"53033","name":"King County","state_id":"WA"}]
