[{"zip":"98101","fips":"53033","name":"King County","state_id":"WA"},{"zip":"98102","fips":"53033","name":"King County","state_id":"WA"},{"zip":"98103","fips":"53033","name":"King County","state_id":"WA"},{"zip":"98104","fips":"53033","name":"King County","state_id":"WA"},{"zip":"98105","fips":"53033","name":"King County","state_id":"WA"},{"zip":"98106","fips":"53033","name":"King County","state_id":"WA"},{"zip":"98107","fips":"53033","name":"King County","state_id":"WA"},{"zip":"98108","fips":"53033","name":"King County","state_id":"WA"},{"zip":"98109","fips":"53033","name":"King County","state_id":"WA"},{"zip":"98110","fips":"53035","name":"Kitsap County","state_id":"WA"},{"zip":"98110","fips":"53033","name":"King County","state_id":"WA"},{"zip":"98111","fips":"53033","name":"King County","state_id":"WA"},{"zip":"98112","fips":"53033","name":"King County","state_id":"WA"},{"zip":"98113","fips":"53033","name":"King County","state_id":"WA"},{"zip":"98114","fips":"53033","name":"King County","state_id":"WA"},{"zip":"98115","fips":"53033","name":"King County","state_id":"WA"},{"zip":"98116","fips":"53033","name":"King County","state_id":"WA"},{"zip":"98117","fips":"53033","name":"King County","state_id":"WA"},{"zip":"98118","fips":"53033","name":"King County","state_id":"WA"},{"zip":"98119","fips":"53033","name":"King County","state_id":"WA"},{"zip":"98121","fips":"53033","name":"King County","state_id":"WA"},{"zip":"98122","fips":"53033","name":"King County","state_id":"WA"},{"zip":"98124","fips":"53033","name":"King County","state_id":"WA"},{"zip":"98125","fips":"53033","name":"King County","state_id":"WA"},{"zip":"98126","fips":"53033","name":"King County","state_id":"WA"},{"zip":"98127","fips":"53033","name":"King County","state_id":"WA"},{"zip":"98129","fips":"53033","name":"King County","state_id":"WA"},{"zip":"98131","fips":"53033","name":"King County","state_id":"WA"},{"zip":"98133","fips":"53033","name":"King County","state_id":"WA"},{"zip":"98134","fips":"53033","name":"King County","state_id":"WA"},{"zip":"98136","fips":"53033","name":"King County","state_id":"WA"},{"zip":"98138","fips":"53033","name":"King County","state_id":"WA"},{"zip":"98139","fips":"53033","name":"King County","state_id":"WA"},{"zip":"98144","fips":"53033","name":"King County","state_id":"WA"},{"zip":"98145","fips":"53033","name":"King County","state_id":"WA"},{"zip":"98146","fips":"53033","name":"King County","state_id":"WA"},{"zip":"98148","fips":"53033","name":"King County","state_id":"WA"},{"zip":"98154","fips":"53033","name":"King County","state_id":"WA"},{"zip":"98155","fips":"53033","name":"King County","state_id":"WA"},{"zip":"98158","fips":"53033","name":"King County","state_id":"WA"},{"zip":"98161","fips":"53033","name":"King County","state_id":"WA"},{"zip":"98164","fips":"53033","name":"King County","state_id":"WA"},{"zip":"98165","fips":"53033","name":"King County","state_id":"WA"},{"zip":"98166","fips":"53033","name":"King County","state_id":"WA"},{"zip":"98168","fips":"53033","name":"King County","state_id":"WA"},{"zip":"98170","fips":"53033","name":"King County","state_id":"WA"},{"zip":"98174","fips":"53033","name":"King County","state_id":"WA"},{"zip":"98175","fips":"53033","name":"King County","state_id":"WA"},{"zip":"98177","fips":"53033","name":"King County","state_id":"WA"},{"zip":"98177","fips":"53061","name":"Snohomish County","state_id":"WA"},{"zip":"98178","fips":"53033","name":"King County","state_id":"WA"},{"zip":"98181","fips":"53033","name":"King County","state_id":"WA"},{"zip":"98185","fips":"53033","name":"King County","state_id":"WA"},{"zip":"98188","fips":"53033","name":"King County","state_id":"WA"},{"zip":"98191","fips":"53033","name":"King County","state_id":"WA"},{"zip":"98194","fips":"53033","name":"King County","state_id":"WA"},{"zip":"98195","fips":"53033","name":"King County","state_id":"WA"},{"zip":"98198","fips":"53033","name":"King County","state_id":"WA"},{"zip":"98199","fips":"53033","name":"King County","state_id":"WA"}]
