[{"zip":"98201","fips":"53061","name":"Snohomish County","state_id":"WA"},{"zip":"98203","fips":"53061","name":"Snohomish County","state_id":"WA"},{"zip":"98204","fips":"53061","name":"Snohomish County","state_id":"WA"},{"zip":"98206","fips":"53061","name":"Snohomish County","state_id":"WA"},{"zip":"98207","fips":"53061","name":"Snohomish County","state_id":"WA"},{"zip":"98208","fips":"53061","name":"Snohomish County","state_id":"WA"},{"zip":"98213","fips":"53061","name":"Snohomish County","state_id":"WA"},{"zip":"98220","fips":"53073","name":"Whatcom County","state_id":"WA"},{"zip":"98221","fips":"53055","name":"San Juan County","state_id":"WA"},{"zip":"98221","fips":"53057","name":"Skagit County","state_id":"WA"},{"zip":"98222","fips":"53055","name":"San Juan County","state_id":"WA"},{"zip":"98223","fips":"53061","name":"Snohomish County","state_id":"WA"},{"zip":"98224","fips":"53033","name":"King County","state_id":"WA"},{"zip":"98225","fips":"53073","name":"Whatcom County","state_id":"WA"},{"zip":"98226","fips":"53073","name":"Whatcom County","state_id":"WA"},{"zip":"98227","fips":"53073","name":"Whatcom County","state_id":"WA"},{"zip":"98228","fips":"53073","name":"Whatcom County","state_id":"WA"},{"zip":"98229","fips":"53057","name":"Skagit County","state_id":"WA"},{"zip":"98229","fips":"53073","name":"Whatcom County","state_id":"WA"},{"zip":"98230","fips":"53073","name":"Whatcom County","state_id":"WA"},{"zip":"98231","fips":"53073","name":"Whatcom County","state_id":"WA"},{"zip":"98232","fips":"53057","name":"Skagit County","state_id":"WA"},{"zip":"98233","fips":"53057","name":"Skagit County","state_id":"WA"},{"zip":"98235","fips":"53057","name":"Skagit County","state_id":"WA"},{"zip":"98236","fips":"53029","name":"Island County","state_id":"WA"},{"zip":"98237","fips":"53057","name":"Skagit County","state_id":"WA"},{"zip":"98237","fips":"53073","name":"Whatcom County","state_id":"WA"},{"zip":"98238","fips":"53057","name":"Skagit County","state_id":"WA"},{"zip":"98239","fips":"53029","name":"Island County","state_id":"WA"},{"zip":"98240","fips":"53073","name":"Whatcom County","state_id":"WA"},{"zip":"98241","fips":"53061","name":"Snohomish County","state_id":"WA"},{"zip":"98241","fips":"53057","name":"Skagit County","state_id":"WA"},{"zip":"98243","fips":"53055","name":"San Juan County","state_id":"WA"},{"zip":"98244","fips":"53073","name":"Whatcom County","state_id":"WA"},{"zip":"98245","fips":"53055","name":"San Juan County","state_id":"WA"},{"zip":"98247","fips":"53073","name":"Whatcom County","state_id":"WA"},{"zip":"98248","fips":"53073","name":"Whatcom County","state_id":"WA"},{"zip":"98249","fips":"53029","name":"Island County","state_id":"WA"},{"zip":"98250","fips":"53055","name":"San Juan County","state_id":"WA"},{"zip":"98251","fips":"53061","name":"Snohomish County","state_id":"WA"},{"zip":"98251","fips":"53033","name":"King County","state_id":"WA"},{"zip":"98252","fips":"53061","name":"Snohomish County","state_id":"WA"},{"zip":"98253","fips":"53029","name":"Island County","state_id":"WA"},{"zip":"98255","fips":"53057","name":"Skagit County","state_id":"WA"},{"zip":"98256","fips":"53061","name":"Snohomish County","state_id":"WA"},{"zip":"98257","fips":"53057","name":"Skagit County","state_id":"WA"},{"zip":"98258","fips":"53061","name":"Snohomish County","state_id":"WA"},{"zip":"98259","fips":"53061","name":"Snohomish County","state_id":"WA"},{"zip":"98260","fips":"53029","name":"Island County","state_id":"WA"},{"zip":"98261","fips":"53055","name":"San Juan County","state_id":"WA"},{"zip":"98262","fips":"53073","name":"Whatcom County","state_id":"WA"},{"zip":"98263","fips":"53057","name":"Skagit County","state_id":"WA"},{"zip":"98264","fips":"53073","name":"Whatcom County","state_id":"WA"},{"zip":"98266","fips":"53073","name":"Whatcom County","state_id":"WA"},{"zip":"98267","fips":"53057","name":"Skagit County","state_id":"WA"},{"zip":"98270","fips":"53061","name":"Snohomish County","state_id":"WA"},{"zip":"98271","fips":"53061","name":"Snohomish County","state_id":"WA"},{"zip":"98272","fips":"53061","name":"Snohomish County","state_id":"WA"},{"zip":"98273","fips":"53057","name":"Skagit County","state_id":"WA"},{"zip":"98274","fips":"53057","name":"Skagit County","state_id":"WA"},{"zip":"98275","fips":"53061","name":"Snohomish County","state_id":"WA"},{"zip":"98276","fips":"53073","name":"Whatcom County","state_id":"WA"},{"zip":"98277","fips":"53029","name":"Island County","state_id":"WA"},{"zip":"98278","fips":"53029","name":"Island County","state_id":"WA"},{"zip":"98279","fips":"53055","name":"San Juan County","state_id":"WA"},{"zip":"98280","fips":"53055","name":"San Juan County","state_id":"WA"},{"zip":"98281","fips":"53073","name":"Whatcom County","state_id":"WA"},{"zip":"98282","fips":"53061","name":"Snohomish County","state_id":"WA"},{"zip":"98282","fips":"53029","name":"Island County","state_id":"WA"},{"zip":"98283","fips":"53073","name":"Whatcom County","state_id":"WA"},{"zip":"98283","fips":"53057","name":"Skagit County","state_id":"WA"},{"zip":"98284","fips":"53073","name":"Whatcom County","state_id":"WA"},{"zip":"98284","fips":"53057","name":"Skagit County","state_id":"WA"},{"zip":"98286","fips":"53055","name":"San Juan County","state_id":"WA"},{"zip":"98287","fips":"53061","name":"Snohomish County","state_id":"WA"},{"zip":"98288","fips":"53033","name":"King County","state_id":"WA"},{"zip":"98290","fips":"53061","name":"Snohomish County","state_id":"WA"},{"zip":"98291","fips":"53061","name":"Snohomish County","state_id":"WA"},{"zip":"98292","fips":"53061","name":"Snohomish County","state_id":"WA"},{"zip":"98292","fips":"53057","name":"Skagit County","state_id":"WA"},{"zip":"98293","fips":"53061","name":"Snohomish County","state_id":"WA"},{"zip":"98294","fips":"53061","name":"Snohomish County","state_id":"WA"},{"zip":"98295","fips":"53073","name":"Whatcom County","state_id":"WA"},{"zip":"98296","fips":"53061","name":"Snohomish County","state_id":"WA"},{"zip":"98297","fips":"53055","name":"San Juan County","state_id":"WA"}]
