[{"zip":"98303","fips":"53053","name":"Pierce County","state_id":"WA"},{"zip":"98304","fips":"53041","name":"Lewis County","state_id":"WA"},{"zip":"98304","fips":"53053","name":"Pierce County","state_id":"WA"},{"zip":"98305","fips":"53009","name":"Clallam County","state_id":"WA"},{"zip":"98310","fips":"53035","name":"Kitsap County","state_id":"WA"},{"zip":"98311","fips":"53035","name":"Kitsap County","state_id":"WA"},{"zip":"98312","fips":"53045","name":"Mason County","state_id":"WA"},{"zip":"98312","fips":"53035","name":"Kitsap County","state_id":"WA"},{"zip":"98314","fips":"53035","name":"Kitsap County","state_id":"WA"},{"zip":"98315","fips":"53035","name":"Kitsap County","state_id":"WA"},{"zip":"98320","fips":"53031","name":"Jefferson County","state_id":"WA"},{"zip":"98321","fips":"53053","name":"Pierce County","state_id":"WA"},{"zip":"98322","fips":"53035","name":"Kitsap County","state_id":"WA"},{"zip":"98323","fips":"53053","name":"Pierce County","state_id":"WA"},{"zip":"98324","fips":"53009","name":"Clallam County","state_id":"WA"},{"zip":"98325","fips":"53031","name":"Jefferson County","state_id":"WA"},{"zip":"98326","fips":"53009","name":"Clallam County","state_id":"WA"},{"zip":"98327","fips":"53053","name":"Pierce County","state_id":"WA"},{"zip":"98328","fips":"53053","name":"Pierce County","state_id":"WA"},{"zip":"98329","fips":"53053","name":"Pierce County","state_id":"WA"},{"zip":"98329","fips":"53035","name":"Kitsap County","state_id":"WA"},{"zip":"98330","fips":"53041","name":"Lewis County","state_id":"WA"},{"zip":"98330","fips":"53053","name":"Pierce County","state_id":"WA"},{"zip":"98331","fips":"53009","name":"Clallam County","state_id":"WA"},{"zip":"98331","fips":"53031","name":"Jefferson County","state_id":"WA"},{"zip":"98332","fips":"53053","name":"Pierce County","state_id":"WA"},{"zip":"98333","fips":"53053","name":"Pierce County","state_id":"WA"},{"zip":"98335","fips":"53053","name":"Pierce County","state_id":"WA"},{"zip":"98336","fips":"53041","name":"Lewis County","state_id":"WA"},{"zip":"98337","fips":"53035","name":"Kitsap County","state_id":"WA"},{"zip":"98338","fips":"53053","name":"Pierce County","state_id":"WA"},{"zip":"98339","fips":"53031","name":"Jefferson County","state_id":"WA"},{"zip":"98340","fips":"53035","name":"Kitsap County","state_id":"WA"},{"zip":"98342","fips":"53035","name":"Kitsap County","state_id":"WA"},{"zip":"98343","fips":"53009","name":"Clallam County","state_id":"WA"},{"zip":"98344","fips":"53053","name":"Pierce County","state_id":"WA"},{"zip":"98345","fips":"53035","name":"Kitsap County","state_id":"WA"},{"zip":"98346","fips":"53035","name":"Kitsap County","state_id":"WA"},{"zip":"98348","fips":"53053","name":"Pierce County","state_id":"WA"},{"zip":"98349","fips":"53053","name":"Pierce County","state_id":"WA"},{"zip":"98350","fips":"53009","name":"Clallam County","state_id":"WA"},{"zip":"98351","fips":"53053","name":"Pierce County","state_id":"WA"},{"zip":"98352","fips":"53053","name":"Pierce County","state_id":"WA"},{"zip":"98353","fips":"53035","name":"Kitsap County","state_id":"WA"},{"zip":"98354","fips":"53033","name":"King County","state_id":"WA"},{"zip":"98354","fips":"53053","name":"Pierce County","state_id":"WA"},{"zip":"98355","fips":"53041","name":"Lewis County","state_id":"WA"},{"zip":"98356","fips":"53041","name":"Lewis County","state_id":"WA"},{"zip":"98357","fips":"53009","name":"Clallam County","state_id":"WA"},{"zip":"98358","fips":"53031","name":"Jefferson County","state_id":"WA"},{"zip":"98359","fips":"53053","name":"Pierce County","state_id":"WA"},{"zip":"98359","fips":"53035","name":"Kitsap County","state_id":"WA"},{"zip":"98360","fips":"53053","name":"Pierce County","state_id":"WA"},{"zip":"98361","fips":"53041","name":"Lewis County","state_id":"WA"},{"zip":"98362","fips":"53009","name":"Clallam County","state_id":"WA"},{"zip":"98363","fips":"53009","name":"Clallam County","state_id":"WA"},{"zip":"98364","fips":"53035","name":"Kitsap County","state_id":"WA"},{"zip":"98365","fips":"53031","name":"Jefferson County","state_id":"WA"},{"zip":"98366","fips":"53035","name":"Kitsap County","state_id":"WA"},{"zip":"98367","fips":"53035","name":"Kitsap County","state_id":"WA"},{"zip":"98368","fips":"53031","name":"Jefferson County","state_id":"WA"},{"zip":"98370","fips":"53035","name":"Kitsap County","state_id":"WA"},{"zip":"98371","fips":"53053","name":"Pierce County","state_id":"WA"},{"zip":"98372","fips":"53053","name":"Pierce County","state_id":"WA"},{"zip":"98373","fips":"53053","name":"Pierce County","state_id":"WA"},{"zip":"98374","fips":"53053","name":"Pierce County","state_id":"WA"},{"zip":"98375","fips":"53053","name":"Pierce County","state_id":"WA"},{"zip":"98376","fips":"53031","name":"Jefferson County","state_id":"WA"},{"zip":"98377","fips":"53041","name":"Lewis County","state_id":"WA"},{"zip":"98380","fips":"53035","name":"Kitsap County","state_id":"WA"},{"zip":"98380","fips":"53045","name":"Mason County","state_id":"WA"},{"zip":"98381","fips":"53009","name":"Clallam County","state_id":"WA"},{"zip":"98382","fips":"53009","name":"Clallam County","state_id":"WA"},{"zip":"98382","fips":"53031","name":"Jefferson County","state_id":"WA"},{"zip":"98383","fips":"53035","name":"Kitsap County","state_id":"WA"},{"zip":"98384","fips":"53035","name":"Kitsap County","state_id":"WA"},{"zip":"98385","fips":"53053","name":"Pierce County","state_id":"WA"},{"zip":"98386","fips":"53035","name":"Kitsap County","state_id":"WA"},{"zip":"98387","fips":"53053","name":"Pierce County","state_id":"WA"},{"zip":"98388","fips":"53053","name":"Pierce County","state_id":"WA"},{"zip":"98390","fips":"53053","name":"Pierce County","state_id":"WA"},{"zip":"98391","fips":"53053","name":"Pierce County","state_id":"WA"},{"zip":"98392","fips":"53035","name":"Kitsap County","state_id":"WA"},{"zip":"98393","fips":"53035","name":"Kitsap County","state_id":"WA"},{"zip":"98394","fips":"53053","name":"Pierce County","state_id":"WA"},{"zip":"98395","fips":"53053","name":"Pierce County","state_id":"WA"},{"zip":"98396","fips":"53053","name":"Pierce County","state_id":"WA"},{"zip":"98397","fips":"53053","name":"Pierce County","state_id":"WA"},{"zip":"98398","fips":"53053","name":"Pierce County","state_id":"WA"}]
