[{"zip":"98501","fips":"53067","name":"Thurston County","state_id":"WA"},{"zip":"98502","fips":"53067","name":"Thurston County","state_id":"WA"},{"zip":"98502","fips":"53045","name":"Mason County","state_id":"WA"},{"zip":"98503","fips":"53067","name":"Thurston County","state_id":"WA"},{"zip":"98505","fips":"53067","name":"Thurston County","state_id":"WA"},{"zip":"98506","fips":"53067","name":"Thurston County","state_id":"WA"},{"zip":"98507","fips":"53067","name":"Thurston County","state_id":"WA"},{"zip":"98508","fips":"53067","name":"Thurston County","state_id":"WA"},{"zip":"98509","fips":"53067","name":"Thurston County","state_id":"WA"},{"zip":"98511","fips":"53067","name":"Thurston County","state_id":"WA"},{"zip":"98512","fips":"53067","name":"Thurston County","state_id":"WA"},{"zip":"98513","fips":"53067","name":"Thurston County","state_id":"WA"},{"zip":"98516","fips":"53067","name":"Thurston County","state_id":"WA"},{"zip":"98520","fips":"53027","name":"Grays Harbor County","state_id":"WA"},{"zip":"98522","fips":"53041","name":"Lewis County","state_id":"WA"},{"zip":"98524","fips":"53045","name":"Mason County","state_id":"WA"},{"zip":"98526","fips":"53027","name":"Grays Harbor County","state_id":"WA"},{"zip":"98527","fips":"53049","name":"Pacific County","state_id":"WA"},{"zip":"98528","fips":"53035","name":"Kitsap County","state_id":"WA"},{"zip":"98528","fips":"53053","name":"Pierce County","state_id":"WA"},{"zip":"98528","fips":"53045","name":"Mason County","state_id":"WA"},{"zip":"98530","fips":"53067","name":"Thurston County","state_id":"WA"},{"zip":"98531","fips":"53067","name":"Thurston County","state_id":"WA"},{"zip":"98531","fips":"53041","name":"Lewis County","state_id":"WA"},{"zip":"98532","fips":"53041","name":"Lewis County","state_id":"WA"},{"zip":"98533","fips":"53041","name":"Lewis County","state_id":"WA"},{"zip":"98535","fips":"53027","name":"Grays Harbor County","state_id":"WA"},{"zip":"98536","fips":"53027","name":"Grays Harbor County","state_id":"WA"},{"zip":"98537","fips":"53049","name":"Pacific County","state_id":"WA"},{"zip":"98537","fips":"53027","name":"Grays Harbor County","state_id":"WA"},{"zip":"98538","fips":"53041","name":"Lewis County","state_id":"WA"},{"zip":"98539","fips":"53041","name":"Lewis County","state_id":"WA"},{"zip":"98540","fips":"53067","name":"Thurston County","state_id":"WA"},{"zip":"98541","fips":"53027","name":"Grays Harbor County","state_id":"WA"},{"zip":"98541","fips":"53045","name":"Mason County","state_id":"WA"},{"zip":"98542","fips":"53041","name":"Lewis County","state_id":"WA"},{"zip":"98544","fips":"53041","name":"Lewis County","state_id":"WA"},{"zip":"98546","fips":"53045","name":"Mason County","state_id":"WA"},{"zip":"98547","fips":"53027","name":"Grays Harbor County","state_id":"WA"},{"zip":"98547","fips":"53049","name":"Pacific County","state_id":"WA"},{"zip":"98548","fips":"53045","name":"Mason County","state_id":"WA"},{"zip":"98550","fips":"53027","name":"Grays Harbor County","state_id":"WA"},{"zip":"98552","fips":"53027","name":"Grays Harbor County","state_id":"WA"},{"zip":"98554","fips":"53049","name":"Pacific County","state_id":"WA"},{"zip":"98555","fips":"53045","name":"Mason County","state_id":"WA"},{"zip":"98556","fips":"53067","name":"Thurston County","state_id":"WA"},{"zip":"98557","fips":"53027","name":"Grays Harbor County","state_id":"WA"},{"zip":"98557","fips":"53045","name":"Mason County","state_id":"WA"},{"zip":"98558","fips":"53053","name":"Pierce County","state_id":"WA"},{"zip":"98559","fips":"53027","name":"Grays Harbor County","state_id":"WA"},{"zip":"98560","fips":"53045","name":"Mason County","state_id":"WA"},{"zip":"98561","fips":"53049","name":"Pacific County","state_id":"WA"},{"zip":"98562","fips":"53027","name":"Grays Harbor County","state_id":"WA"},{"zip":"98563","fips":"53045","name":"Mason County","state_id":"WA"},{"zip":"98563","fips":"53027","name":"Grays Harbor County","state_id":"WA"},{"zip":"98564","fips":"53041","name":"Lewis County","state_id":"WA"},{"zip":"98565","fips":"53041","name":"Lewis County","state_id":"WA"},{"zip":"98566","fips":"53027","name":"Grays Harbor County","state_id":"WA"},{"zip":"98568","fips":"53041","name":"Lewis County","state_id":"WA"},{"zip":"98568","fips":"53027","name":"Grays Harbor County","state_id":"WA"},{"zip":"98568","fips":"53067","name":"Thurston County","state_id":"WA"},{"zip":"98569","fips":"53027","name":"Grays Harbor County","state_id":"WA"},{"zip":"98570","fips":"53041","name":"Lewis County","state_id":"WA"},{"zip":"98571","fips":"53027","name":"Grays Harbor County","state_id":"WA"},{"zip":"98572","fips":"53041","name":"Lewis County","state_id":"WA"},{"zip":"98572","fips":"53049","name":"Pacific County","state_id":"WA"},{"zip":"98575","fips":"53027","name":"Grays Harbor County","state_id":"WA"},{"zip":"98576","fips":"53067","name":"Thurston County","state_id":"WA"},{"zip":"98577","fips":"53049","name":"Pacific County","state_id":"WA"},{"zip":"98579","fips":"53067","name":"Thurston County","state_id":"WA"},{"zip":"98579","fips":"53027","name":"Grays Harbor County","state_id":"WA"},{"zip":"98579","fips":"53041","name":"Lewis County","state_id":"WA"},{"zip":"98580","fips":"53053","name":"Pierce County","state_id":"WA"},{"zip":"98581","fips":"53015","name":"Cowlitz County","state_id":"WA"},{"zip":"98582","fips":"53041","name":"Lewis County","state_id":"WA"},{"zip":"98583","fips":"53027","name":"Grays Harbor County","state_id":"WA"},{"zip":"98584","fips":"53045","name":"Mason County","state_id":"WA"},{"zip":"98585","fips":"53041","name":"Lewis County","state_id":"WA"},{"zip":"98586","fips":"53049","name":"Pacific County","state_id":"WA"},{"zip":"98587","fips":"53027","name":"Grays Harbor County","state_id":"WA"},{"zip":"98588","fips":"53045","name":"Mason County","state_id":"WA"},{"zip":"98589","fips":"53067","name":"Thurston County","state_id":"WA"},{"zip":"98590","fips":"53049","name":"Pacific County","state_id":"WA"},{"zip":"98591","fips":"53041","name":"Lewis County","state_id":"WA"},{"zip":"98592","fips":"53045","name":"Mason County","state_id":"WA"},{"zip":"98593","fips":"53041","name":"Lewis County","state_id":"WA"},{"zip":"98595","fips":"53027","name":"Grays Harbor County","state_id":"WA"},{"zip":"98596","fips":"53041","name":"Lewis County","state_id":"WA"},{"zip":"98597","fips":"53067","name":"Thurston County","state_id":"WA"}]
