[{"zip":"98601","fips":"53011","name":"Clark County","state_id":"WA"},{"zip":"98601","fips":"53015","name":"Cowlitz County","state_id":"WA"},{"zip":"98602","fips":"53039","name":"Klickitat County","state_id":"WA"},{"zip":"98603","fips":"53015","name":"Cowlitz County","state_id":"WA"},{"zip":"98604","fips":"53011","name":"Clark County","state_id":"WA"},{"zip":"98605","fips":"53039","name":"Klickitat County","state_id":"WA"},{"zip":"98605","fips":"53059","name":"Skamania County","state_id":"WA"},{"zip":"98606","fips":"53011","name":"Clark County","state_id":"WA"},{"zip":"98607","fips":"53011","name":"Clark County","state_id":"WA"},{"zip":"98609","fips":"53015","name":"Cowlitz County","state_id":"WA"},{"zip":"98610","fips":"53059","name":"Skamania County","state_id":"WA"},{"zip":"98611","fips":"53015","name":"Cowlitz County","state_id":"WA"},{"zip":"98612","fips":"53069","name":"Wahkiakum County","state_id":"WA"},{"zip":"98613","fips":"53039","name":"Klickitat County","state_id":"WA"},{"zip":"98614","fips":"53049","name":"Pacific County","state_id":"WA"},{"zip":"98616","fips":"53015","name":"Cowlitz County","state_id":"WA"},{"zip":"98616","fips":"53059","name":"Skamania County","state_id":"WA"},{"zip":"98617","fips":"53039","name":"Klickitat County","state_id":"WA"},{"zip":"98619","fips":"53039","name":"Klickitat County","state_id":"WA"},{"zip":"98620","fips":"53039","name":"Klickitat County","state_id":"WA"},{"zip":"98621","fips":"53069","name":"Wahkiakum County","state_id":"WA"},{"zip":"98622","fips":"53011","name":"Clark County","state_id":"WA"},{"zip":"98623","fips":"53039","name":"Klickitat County","state_id":"WA"},{"zip":"98624","fips":"53049","name":"Pacific County","state_id":"WA"},{"zip":"98625","fips":"53015","name":"Cowlitz County","state_id":"WA"},{"zip":"98626","fips":"53015","name":"Cowlitz County","state_id":"WA"},{"zip":"98628","fips":"53039","name":"Klickitat County","state_id":"WA"},{"zip":"98629","fips":"53011","name":"Clark County","state_id":"WA"},{"zip":"98631","fips":"53049","name":"Pacific County","state_id":"WA"},{"zip":"98632","fips":"53015","name":"Cowlitz County","state_id":"WA"},{"zip":"98632","fips":"53069","name":"Wahkiakum County","state_id":"WA"},{"zip":"98635","fips":"53039","name":"Klickitat County","state_id":"WA"},{"zip":"98637","fips":"53049","name":"Pacific County","state_id":"WA"},{"zip":"98638","fips":"53049","name":"Pacific County","state_id":"WA"},{"zip":"98638","fips":"53069","name":"Wahkiakum County","state_id":"WA"},{"zip":"98639","fips":"53059","name":"Skamania County","state_id":"WA"},{"zip":"98640","fips":"53049","name":"Pacific County","state_id":"WA"},{"zip":"98641","fips":"53049","name":"Pacific County","state_id":"WA"},{"zip":"98642","fips":"53011","name":"Clark County","state_id":"WA"},{"zip":"98643","fips":"53069","name":"Wahkiakum County","state_id":"WA"},{"zip":"98644","fips":"53049","name":"Pacific County","state_id":"WA"},{"zip":"98645","fips":"53015","name":"Cowlitz County","state_id":"WA"},{"zip":"98647","fips":"53069","name":"Wahkiakum County","state_id":"WA"},{"zip":"98648","fips":"53059","name":"Skamania County","state_id":"WA"},{"zip":"98649","fips":"53015","name":"Cowlitz County","state_id":"WA"},{"zip":"98650","fips":"53039","name":"Klickitat County","state_id":"WA"},{"zip":"98651","fips":"53039","name":"Klickitat County","state_id":"WA"},{"zip":"98651","fips":"53059","name":"Skamania County","state_id":"WA"},{"zip":"98660","fips":"53011","name":"Clark County","state_id":"WA"},{"zip":"98661","fips":"53011","name":"Clark County","state_id":"WA"},{"zip":"98662","fips":"53011","name":"Clark County","state_id":"WA"},{"zip":"98663","fips":"53011","name":"Clark County","state_id":"WA"},{"zip":"98664","fips":"53011","name":"Clark County","state_id":"WA"},{"zip":"98665","fips":"53011","name":"Clark County","state_id":"WA"},{"zip":"98666","fips":"53011","name":"Clark County","state_id":"WA"},{"zip":"98668","fips":"53011","name":"Clark County","state_id":"WA"},{"zip":"98670","fips":"53039","name":"Klickitat County","state_id":"WA"},{"zip":"98671","fips":"53059","name":"Skamania County","state_id":"WA"},{"zip":"98671","fips":"53011","name":"Clark County","state_id":"WA"},{"zip":"98672","fips":"53039","name":"Klickitat County","state_id":"WA"},{"zip":"98672","fips":"53059","name":"Skamania County","state_id":"WA"},{"zip":"98673","fips":"53039","name":"Klickitat County","state_id":"WA"},{"zip":"98674","fips":"53015","name":"Cowlitz County","state_id":"WA"},{"zip":"98674","fips":"53011","name":"Clark County","state_id":"WA"},{"zip":"98675","fips":"53011","name":"Clark County","state_id":"WA"},{"zip":"98682","fips":"53011","name":"Clark County","state_id":"WA"},{"zip":"98683","fips":"53011","name":"Clark County","state_id":"WA"},{"zip":"98684","fips":"53011","name":"Clark County","state_id":"WA"},{"zip":"98685","fips":"53011","name":"Clark County","state_id":"WA"},{"zip":"98686","fips":"53011","name":"Clark County","state_id":"WA"},{"zip":"98687","fips":"53011","name":"Clark County","state_id":"WA"}]
