[{"zip":"98801","fips":"53007","name":"Chelan County","state_id":"WA"},{"zip":"98802","fips":"53017","name":"Douglas County","state_id":"WA"},{"zip":"98807","fips":"53007","name":"Chelan County","state_id":"WA"},{"zip":"98811","fips":"53007","name":"Chelan County","state_id":"WA"},{"zip":"98812","fips":"53047","name":"Okanogan County","state_id":"WA"},{"zip":"98812","fips":"53017","name":"Douglas County","state_id":"WA"},{"zip":"98812","fips":"53037","name":"Kittitas County","state_id":"WA"},{"zip":"98813","fips":"53047","name":"Okanogan County","state_id":"WA"},{"zip":"98813","fips":"53017","name":"Douglas County","state_id":"WA"},{"zip":"98814","fips":"53047","name":"Okanogan County","state_id":"WA"},{"zip":"98815","fips":"53007","name":"Chelan County","state_id":"WA"},{"zip":"98816","fips":"53007","name":"Chelan County","state_id":"WA"},{"zip":"98816","fips":"53047","name":"Okanogan County","state_id":"WA"},{"zip":"98817","fips":"53007","name":"Chelan County","state_id":"WA"},{"zip":"98819","fips":"53047","name":"Okanogan County","state_id":"WA"},{"zip":"98821","fips":"53007","name":"Chelan County","state_id":"WA"},{"zip":"98822","fips":"53007","name":"Chelan County","state_id":"WA"},{"zip":"98823","fips":"53017","name":"Douglas County","state_id":"WA"},{"zip":"98823","fips":"53025","name":"Grant County","state_id":"WA"},{"zip":"98824","fips":"53025","name":"Grant County","state_id":"WA"},{"zip":"98826","fips":"53007","name":"Chelan County","state_id":"WA"},{"zip":"98827","fips":"53047","name":"Okanogan County","state_id":"WA"},{"zip":"98828","fips":"53007","name":"Chelan County","state_id":"WA"},{"zip":"98828","fips":"53037","name":"Kittitas County","state_id":"WA"},{"zip":"98829","fips":"53047","name":"Okanogan County","state_id":"WA"},{"zip":"98830","fips":"53017","name":"Douglas County","state_id":"WA"},{"zip":"98831","fips":"53007","name":"Chelan County","state_id":"WA"},{"zip":"98832","fips":"53043","name":"Lincoln County","state_id":"WA"},{"zip":"98832","fips":"53025","name":"Grant County","state_id":"WA"},{"zip":"98833","fips":"53047","name":"Okanogan County","state_id":"WA"},{"zip":"98834","fips":"53047","name":"Okanogan County","state_id":"WA"},{"zip":"98836","fips":"53007","name":"Chelan County","state_id":"WA"},{"zip":"98837","fips":"53025","name":"Grant County","state_id":"WA"},{"zip":"98840","fips":"53047","name":"Okanogan County","state_id":"WA"},{"zip":"98841","fips":"53047","name":"Okanogan County","state_id":"WA"},{"zip":"98843","fips":"53017","name":"Douglas County","state_id":"WA"},{"zip":"98844","fips":"53047","name":"Okanogan County","state_id":"WA"},{"zip":"98845","fips":"53017","name":"Douglas County","state_id":"WA"},{"zip":"98846","fips":"53007","name":"Chelan County","state_id":"WA"},{"zip":"98846","fips":"53047","name":"Okanogan County","state_id":"WA"},{"zip":"98847","fips":"53007","name":"Chelan County","state_id":"WA"},{"zip":"98848","fips":"53025","name":"Grant County","state_id":"WA"},{"zip":"98848","fips":"53017","name":"Douglas County","state_id":"WA"},{"zip":"98849","fips":"53047","name":"Okanogan County","state_id":"WA"},{"zip":"98850","fips":"53017","name":"Douglas County","state_id":"WA"},{"zip":"98851","fips":"53025","name":"Grant County","state_id":"WA"},{"zip":"98852","fips":"53007","name":"Chelan County","state_id":"WA"},{"zip":"98853","fips":"53025","name":"Grant County","state_id":"WA"},{"zip":"98855","fips":"53047","name":"Okanogan County","state_id":"WA"},{"zip":"98856","fips":"53047","name":"Okanogan County","state_id":"WA"},{"zip":"98857","fips":"53025","name":"Grant County","state_id":"WA"},{"zip":"98857","fips":"53001","name":"Adams County","state_id":"WA"},{"zip":"98858","fips":"53017","name":"Douglas County","state_id":"WA"},{"zip":"98858","fips":"53025","name":"Grant County","state_id":"WA"},{"zip":"98859","fips":"53047","name":"Okanogan County","state_id":"WA"},{"zip":"98860","fips":"53025","name":"Grant County","state_id":"WA"},{"zip":"98862","fips":"53047","name":"Okanogan County","state_id":"WA"}]
