[{"zip":"98901","fips":"53037","name":"Kittitas County","state_id":"WA"},{"zip":"98901","fips":"53077","name":"Yakima County","state_id":"WA"},{"zip":"98902","fips":"53077","name":"Yakima County","state_id":"WA"},{"zip":"98903","fips":"53077","name":"Yakima County","state_id":"WA"},{"zip":"98907","fips":"53077","name":"Yakima County","state_id":"WA"},{"zip":"98908","fips":"53077","name":"Yakima County","state_id":"WA"},{"zip":"98909","fips":"53077","name":"Yakima County","state_id":"WA"},{"zip":"98920","fips":"53077","name":"Yakima County","state_id":"WA"},{"zip":"98921","fips":"53077","name":"Yakima County","state_id":"WA"},{"zip":"98922","fips":"53037","name":"Kittitas County","state_id":"WA"},{"zip":"98923","fips":"53077","name":"Yakima County","state_id":"WA"},{"zip":"98925","fips":"53037","name":"Kittitas County","state_id":"WA"},{"zip":"98926","fips":"53037","name":"Kittitas County","state_id":"WA"},{"zip":"98930","fips":"53077","name":"Yakima County","state_id":"WA"},{"zip":"98930","fips":"53005","name":"Benton County","state_id":"WA"},{"zip":"98932","fips":"53077","name":"Yakima County","state_id":"WA"},{"zip":"98933","fips":"53077","name":"Yakima County","state_id":"WA"},{"zip":"98934","fips":"53037","name":"Kittitas County","state_id":"WA"},{"zip":"98935","fips":"53039","name":"Klickitat County","state_id":"WA"},{"zip":"98935","fips":"53077","name":"Yakima County","state_id":"WA"},{"zip":"98936","fips":"53077","name":"Yakima County","state_id":"WA"},{"zip":"98937","fips":"53077","name":"Yakima County","state_id":"WA"},{"zip":"98938","fips":"53077","name":"Yakima County","state_id":"WA"},{"zip":"98939","fips":"53077","name":"Yakima County","state_id":"WA"},{"zip":"98940","fips":"53037","name":"Kittitas County","state_id":"WA"},{"zip":"98941","fips":"53037","name":"Kittitas County","state_id":"WA"},{"zip":"98942","fips":"53077","name":"Yakima County","state_id":"WA"},{"zip":"98943","fips":"53037","name":"Kittitas County","state_id":"WA"},{"zip":"98944","fips":"53077","name":"Yakima County","state_id":"WA"},{"zip":"98944","fips":"53005","name":"Benton County","state_id":"WA"},{"zip":"98946","fips":"53037","name":"Kittitas County","state_id":"WA"},{"zip":"98947","fips":"53077","name":"Yakima County","state_id":"WA"},{"zip":"98948","fips":"53077","name":"Yakima County","state_id":"WA"},{"zip":"98950","fips":"53037","name":"Kittitas County","state_id":"WA"},{"zip":"98951","fips":"53077","name":"Yakima County","state_id":"WA"},{"zip":"98952","fips":"53077","name":"Yakima County","state_id":"WA"},{"zip":"98953","fips":"53077","name":"Yakima County","state_id":"WA"}]
