[{"zip":"99001","fips":"53063","name":"Spokane County","state_id":"WA"},{"zip":"99003","fips":"53063","name":"Spokane County","state_id":"WA"},{"zip":"99004","fips":"53075","name":"Whitman County","state_id":"WA"},{"zip":"99004","fips":"53063","name":"Spokane County","state_id":"WA"},{"zip":"99005","fips":"53063","name":"Spokane County","state_id":"WA"},{"zip":"99006","fips":"53065","name":"Stevens County","state_id":"WA"},{"zip":"99006","fips":"53051","name":"Pend Oreille County","state_id":"WA"},{"zip":"99006","fips":"53063","name":"Spokane County","state_id":"WA"},{"zip":"99008","fips":"53043","name":"Lincoln County","state_id":"WA"},{"zip":"99008","fips":"53063","name":"Spokane County","state_id":"WA"},{"zip":"99009","fips":"53063","name":"Spokane County","state_id":"WA"},{"zip":"99009","fips":"53051","name":"Pend Oreille County","state_id":"WA"},{"zip":"99011","fips":"53063","name":"Spokane County","state_id":"WA"},{"zip":"99012","fips":"53063","name":"Spokane County","state_id":"WA"},{"zip":"99013","fips":"53043","name":"Lincoln County","state_id":"WA"},{"zip":"99013","fips":"53065","name":"Stevens County","state_id":"WA"},{"zip":"99013","fips":"53063","name":"Spokane County","state_id":"WA"},{"zip":"99014","fips":"53063","name":"Spokane County","state_id":"WA"},{"zip":"99016","fips":"53063","name":"Spokane County","state_id":"WA"},{"zip":"99017","fips":"53001","name":"Adams County","state_id":"WA"},{"zip":"99017","fips":"53075","name":"Whitman County","state_id":"WA"},{"zip":"99018","fips":"53063","name":"Spokane County","state_id":"WA"},{"zip":"99019","fips":"53063","name":"Spokane County","state_id":"WA"},{"zip":"99020","fips":"53063","name":"Spokane County","state_id":"WA"},{"zip":"99021","fips":"53063","name":"Spokane County","state_id":"WA"},{"zip":"99022","fips":"53063","name":"Spokane County","state_id":"WA"},{"zip":"99023","fips":"53063","name":"Spokane County","state_id":"WA"},{"zip":"99025","fips":"53063","name":"Spokane County","state_id":"WA"},{"zip":"99026","fips":"53063","name":"Spokane County","state_id":"WA"},{"zip":"99026","fips":"53065","name":"Stevens County","state_id":"WA"},{"zip":"99027","fips":"53063","name":"Spokane County","state_id":"WA"},{"zip":"99029","fips":"53063","name":"Spokane County","state_id":"WA"},{"zip":"99029","fips":"53043","name":"Lincoln County","state_id":"WA"},{"zip":"99030","fips":"53063","name":"Spokane County","state_id":"WA"},{"zip":"99031","fips":"53063","name":"Spokane County","state_id":"WA"},{"zip":"99032","fips":"53063","name":"Spokane County","state_id":"WA"},{"zip":"99032","fips":"53043","name":"Lincoln County","state_id":"WA"},{"zip":"99032","fips":"53001","name":"Adams County","state_id":"WA"},{"zip":"99033","fips":"53063","name":"Spokane County","state_id":"WA"},{"zip":"99033","fips":"53075","name":"Whitman County","state_id":"WA"},{"zip":"99034","fips":"53065","name":"Stevens County","state_id":"WA"},{"zip":"99036","fips":"53063","name":"Spokane County","state_id":"WA"},{"zip":"99037","fips":"53063","name":"Spokane County","state_id":"WA"},{"zip":"99039","fips":"53063","name":"Spokane County","state_id":"WA"},{"zip":"99040","fips":"53065","name":"Stevens County","state_id":"WA"}]
