[{"zip":"99101","fips":"53065","name":"Stevens County","state_id":"WA"},{"zip":"99102","fips":"53075","name":"Whitman County","state_id":"WA"},{"zip":"99103","fips":"53043","name":"Lincoln County","state_id":"WA"},{"zip":"99103","fips":"53025","name":"Grant County","state_id":"WA"},{"zip":"99104","fips":"53075","name":"Whitman County","state_id":"WA"},{"zip":"99105","fips":"53001","name":"Adams County","state_id":"WA"},{"zip":"99109","fips":"53065","name":"Stevens County","state_id":"WA"},{"zip":"99110","fips":"53063","name":"Spokane County","state_id":"WA"},{"zip":"99110","fips":"53065","name":"Stevens County","state_id":"WA"},{"zip":"99111","fips":"53075","name":"Whitman County","state_id":"WA"},{"zip":"99113","fips":"53075","name":"Whitman County","state_id":"WA"},{"zip":"99114","fips":"53065","name":"Stevens County","state_id":"WA"},{"zip":"99115","fips":"53025","name":"Grant County","state_id":"WA"},{"zip":"99115","fips":"53017","name":"Douglas County","state_id":"WA"},{"zip":"99116","fips":"53047","name":"Okanogan County","state_id":"WA"},{"zip":"99116","fips":"53017","name":"Douglas County","state_id":"WA"},{"zip":"99116","fips":"53025","name":"Grant County","state_id":"WA"},{"zip":"99117","fips":"53043","name":"Lincoln County","state_id":"WA"},{"zip":"99118","fips":"53019","name":"Ferry County","state_id":"WA"},{"zip":"99119","fips":"53051","name":"Pend Oreille County","state_id":"WA"},{"zip":"99121","fips":"53019","name":"Ferry County","state_id":"WA"},{"zip":"99122","fips":"53043","name":"Lincoln County","state_id":"WA"},{"zip":"99122","fips":"53065","name":"Stevens County","state_id":"WA"},{"zip":"99123","fips":"53025","name":"Grant County","state_id":"WA"},{"zip":"99124","fips":"53047","name":"Okanogan County","state_id":"WA"},{"zip":"99125","fips":"53001","name":"Adams County","state_id":"WA"},{"zip":"99125","fips":"53075","name":"Whitman County","state_id":"WA"},{"zip":"99126","fips":"53065","name":"Stevens County","state_id":"WA"},{"zip":"99128","fips":"53075","name":"Whitman County","state_id":"WA"},{"zip":"99129","fips":"53065","name":"Stevens County","state_id":"WA"},{"zip":"99130","fips":"53075","name":"Whitman County","state_id":"WA"},{"zip":"99131","fips":"53065","name":"Stevens County","state_id":"WA"},{"zip":"99133","fips":"53025","name":"Grant County","state_id":"WA"},{"zip":"99133","fips":"53043","name":"Lincoln County","state_id":"WA"},{"zip":"99133","fips":"53017","name":"Douglas County","state_id":"WA"},{"zip":"99134","fips":"53043","name":"Lincoln County","state_id":"WA"},{"zip":"99135","fips":"53025","name":"Grant County","state_id":"WA"},{"zip":"99136","fips":"53075","name":"Whitman County","state_id":"WA"},{"zip":"99137","fips":"53065","name":"Stevens County","state_id":"WA"},{"zip":"99138","fips":"53019","name":"Ferry County","state_id":"WA"},{"zip":"99139","fips":"53051","name":"Pend Oreille County","state_id":"WA"},{"zip":"99140","fips":"53019","name":"Ferry County","state_id":"WA"},{"zip":"99141","fips":"53065","name":"Stevens County","state_id":"WA"},{"zip":"99141","fips":"53019","name":"Ferry County","state_id":"WA"},{"zip":"99143","fips":"53075","name":"Whitman County","state_id":"WA"},{"zip":"99143","fips":"53013","name":"Columbia County","state_id":"WA"},{"zip":"99144","fips":"53043","name":"Lincoln County","state_id":"WA"},{"zip":"99146","fips":"53019","name":"Ferry County","state_id":"WA"},{"zip":"99147","fips":"53043","name":"Lincoln County","state_id":"WA"},{"zip":"99148","fips":"53065","name":"Stevens County","state_id":"WA"},{"zip":"99149","fips":"53075","name":"Whitman County","state_id":"WA"},{"zip":"99150","fips":"53019","name":"Ferry County","state_id":"WA"},{"zip":"99151","fips":"53065","name":"Stevens County","state_id":"WA"},{"zip":"99152","fips":"53051","name":"Pend Oreille County","state_id":"WA"},{"zip":"99153","fips":"53051","name":"Pend Oreille County","state_id":"WA"},{"zip":"99154","fips":"53043","name":"Lincoln County","state_id":"WA"},{"zip":"99155","fips":"53047","name":"Okanogan County","state_id":"WA"},{"zip":"99156","fips":"53063","name":"Spokane County","state_id":"WA"},{"zip":"99156","fips":"53051","name":"Pend Oreille County","state_id":"WA"},{"zip":"99157","fips":"53065","name":"Stevens County","state_id":"WA"},{"zip":"99158","fips":"53075","name":"Whitman County","state_id":"WA"},{"zip":"99159","fips":"53043","name":"Lincoln County","state_id":"WA"},{"zip":"99159","fips":"53001","name":"Adams County","state_id":"WA"},{"zip":"99160","fips":"53019","name":"Ferry County","state_id":"WA"},{"zip":"99160","fips":"53065","name":"Stevens County","state_id":"WA"},{"zip":"99161","fips":"53075","name":"Whitman County","state_id":"WA"},{"zip":"99163","fips":"53075","name":"Whitman County","state_id":"WA"},{"zip":"99164","fips":"53075","name":"Whitman County","state_id":"WA"},{"zip":"99166","fips":"53019","name":"Ferry County","state_id":"WA"},{"zip":"99166","fips":"53047","name":"Okanogan County","state_id":"WA"},{"zip":"99167","fips":"53065","name":"Stevens County","state_id":"WA"},{"zip":"99169","fips":"53043","name":"Lincoln County","state_id":"WA"},{"zip":"99169","fips":"53001","name":"Adams County","state_id":"WA"},{"zip":"99170","fips":"53075","name":"Whitman County","state_id":"WA"},{"zip":"99170","fips":"53063","name":"Spokane County","state_id":"WA"},{"zip":"99171","fips":"53075","name":"Whitman County","state_id":"WA"},{"zip":"99173","fips":"53065","name":"Stevens County","state_id":"WA"},{"zip":"99174","fips":"53075","name":"Whitman County","state_id":"WA"},{"zip":"99176","fips":"53075","name":"Whitman County","state_id":"WA"},{"zip":"99179","fips":"53075","name":"Whitman County","state_id":"WA"},{"zip":"99180","fips":"53051","name":"Pend Oreille County","state_id":"WA"},{"zip":"99181","fips":"53065","name":"Stevens County","state_id":"WA"},{"zip":"99185","fips":"53043","name":"Lincoln County","state_id":"WA"}]
