[{"zip":"99301","fips":"53021","name":"Franklin County","state_id":"WA"},{"zip":"99302","fips":"53021","name":"Franklin County","state_id":"WA"},{"zip":"99320","fips":"53005","name":"Benton County","state_id":"WA"},{"zip":"99321","fips":"53025","name":"Grant County","state_id":"WA"},{"zip":"99322","fips":"53077","name":"Yakima County","state_id":"WA"},{"zip":"99322","fips":"53039","name":"Klickitat County","state_id":"WA"},{"zip":"99323","fips":"53071","name":"Walla Walla County","state_id":"WA"},{"zip":"99324","fips":"53071","name":"Walla Walla County","state_id":"WA"},{"zip":"99326","fips":"53001","name":"Adams County","state_id":"WA"},{"zip":"99326","fips":"53021","name":"Franklin County","state_id":"WA"},{"zip":"99328","fips":"53071","name":"Walla Walla County","state_id":"WA"},{"zip":"99328","fips":"53023","name":"Garfield County","state_id":"WA"},{"zip":"99328","fips":"53013","name":"Columbia County","state_id":"WA"},{"zip":"99329","fips":"53071","name":"Walla Walla County","state_id":"WA"},{"zip":"99330","fips":"53021","name":"Franklin County","state_id":"WA"},{"zip":"99333","fips":"53075","name":"Whitman County","state_id":"WA"},{"zip":"99335","fips":"53021","name":"Franklin County","state_id":"WA"},{"zip":"99336","fips":"53005","name":"Benton County","state_id":"WA"},{"zip":"99337","fips":"53005","name":"Benton County","state_id":"WA"},{"zip":"99338","fips":"53005","name":"Benton County","state_id":"WA"},{"zip":"99341","fips":"53001","name":"Adams County","state_id":"WA"},{"zip":"99343","fips":"53021","name":"Franklin County","state_id":"WA"},{"zip":"99344","fips":"53025","name":"Grant County","state_id":"WA"},{"zip":"99344","fips":"53021","name":"Franklin County","state_id":"WA"},{"zip":"99344","fips":"53001","name":"Adams County","state_id":"WA"},{"zip":"99345","fips":"53005","name":"Benton County","state_id":"WA"},{"zip":"99346","fips":"53005","name":"Benton County","state_id":"WA"},{"zip":"99347","fips":"53023","name":"Garfield County","state_id":"WA"},{"zip":"99347","fips":"53003","name":"Asotin County","state_id":"WA"},{"zip":"99347","fips":"53013","name":"Columbia County","state_id":"WA"},{"zip":"99348","fips":"53013","name":"Columbia County","state_id":"WA"},{"zip":"99348","fips":"53071","name":"Walla Walla County","state_id":"WA"},{"zip":"99349","fips":"53025","name":"Grant County","state_id":"WA"},{"zip":"99350","fips":"53005","name":"Benton County","state_id":"WA"},{"zip":"99350","fips":"53039","name":"Klickitat County","state_id":"WA"},{"zip":"99350","fips":"53077","name":"Yakima County","state_id":"WA"},{"zip":"99352","fips":"53005","name":"Benton County","state_id":"WA"},{"zip":"99353","fips":"53005","name":"Benton County","state_id":"WA"},{"zip":"99354","fips":"53005","name":"Benton County","state_id":"WA"},{"zip":"99356","fips":"53039","name":"Klickitat County","state_id":"WA"},{"zip":"99357","fips":"53025","name":"Grant County","state_id":"WA"},{"zip":"99359","fips":"53013","name":"Columbia County","state_id":"WA"},{"zip":"99360","fips":"53071","name":"Walla Walla County","state_id":"WA"},{"zip":"99361","fips":"53071","name":"Walla Walla County","state_id":"WA"},{"zip":"99361","fips":"53013","name":"Columbia County","state_id":"WA"},{"zip":"99362","fips":"53071","name":"Walla Walla County","state_id":"WA"},{"zip":"99363","fips":"53071","name":"Walla Walla County","state_id":"WA"},{"zip":"99371","fips":"53001","name":"Adams County","state_id":"WA"},{"zip":"99371","fips":"53021","name":"Franklin County","state_id":"WA"}]
