[{"zip":"99501","fips":"02020","name":"Anchorage Municipality","state_id":"AK"},{"zip":"99502","fips":"02020","name":"Anchorage Municipality","state_id":"AK"},{"zip":"99503","fips":"02020","name":"Anchorage Municipality","state_id":"AK"},{"zip":"99504","fips":"02020","name":"Anchorage Municipality","state_id":"AK"},{"zip":"99505","fips":"02020","name":"Anchorage Municipality","state_id":"AK"},{"zip":"99506","fips":"02020","name":"Anchorage Municipality","state_id":"AK"},{"zip":"99507","fips":"02020","name":"Anchorage Municipality","state_id":"AK"},{"zip":"99508","fips":"02020","name":"Anchorage Municipality","state_id":"AK"},{"zip":"99509","fips":"02020","name":"Anchorage Municipality","state_id":"AK"},{"zip":"99510","fips":"02020","name":"Anchorage Municipality","state_id":"AK"},{"zip":"99511","fips":"02020","name":"Anchorage Municipality","state_id":"AK"},{"zip":"99513","fips":"02020","name":"Anchorage Municipality","state_id":"AK"},{"zip":"99514","fips":"02020","name":"Anchorage Municipality","state_id":"AK"},{"zip":"99515","fips":"02020","name":"Anchorage Municipality","state_id":"AK"},{"zip":"99516","fips":"02020","name":"Anchorage Municipality","state_id":"AK"},{"zip":"99517","fips":"02020","name":"Anchorage Municipality","state_id":"AK"},{"zip":"99518","fips":"02020","name":"Anchorage Municipality","state_id":"AK"},{"zip":"99519","fips":"02020","name":"Anchorage Municipality","state_id":"AK"},{"zip":"99520","fips":"02020","name":"Anchorage Municipality","state_id":"AK"},{"zip":"99521","fips":"02020","name":"Anchorage Municipality","state_id":"AK"},{"zip":"99522","fips":"02020","name":"Anchorage Municipality","state_id":"AK"},{"zip":"99523","fips":"02020","name":"Anchorage Municipality","state_id":"AK"},{"zip":"99524","fips":"02020","name":"Anchorage Municipality","state_id":"AK"},{"zip":"99529","fips":"02020","name":"Anchorage Municipality","state_id":"AK"},{"zip":"99530","fips":"02020","name":"Anchorage Municipality","state_id":"AK"},{"zip":"99540","fips":"02020","name":"Anchorage Municipality","state_id":"AK"},{"zip":"99545","fips":"02050","name":"Bethel Census Area","state_id":"AK"},{"zip":"99546","fips":"02016","name":"Aleutians West Census Area","state_id":"AK"},{"zip":"99547","fips":"02016","name":"Aleutians West Census Area","state_id":"AK"},{"zip":"99548","fips":"02164","name":"Lake and Peninsula Borough","state_id":"AK"},{"zip":"99549","fips":"02164","name":"Lake and Peninsula Borough","state_id":"AK"},{"zip":"99550","fips":"02150","name":"Kodiak Island Borough","state_id":"AK"},{"zip":"99551","fips":"02050","name":"Bethel Census Area","state_id":"AK"},{"zip":"99552","fips":"02050","name":"Bethel Census Area","state_id":"AK"},{"zip":"99553","fips":"02013","name":"Aleutians East Borough","state_id":"AK"},{"zip":"99555","fips":"02070","name":"Dillingham Census Area","state_id":"AK"},{"zip":"99556","fips":"02122","name":"Kenai Peninsula Borough","state_id":"AK"},{"zip":"99557","fips":"02050","name":"Bethel Census Area","state_id":"AK"},{"zip":"99558","fips":"02290","name":"Yukon-Koyukuk Census Area","state_id":"AK"},{"zip":"99559","fips":"02050","name":"Bethel Census Area","state_id":"AK"},{"zip":"99561","fips":"02050","name":"Bethel Census Area","state_id":"AK"},{"zip":"99564","fips":"02164","name":"Lake and Peninsula Borough","state_id":"AK"},{"zip":"99565","fips":"02164","name":"Lake and Peninsula Borough","state_id":"AK"},{"zip":"99566","fips":"02261","name":"Valdez-Cordova Census Area","state_id":"AK"},{"zip":"99567","fips":"02020","name":"Anchorage Municipality","state_id":"AK"},{"zip":"99568","fips":"02122","name":"Kenai Peninsula Borough","state_id":"AK"},{"zip":"99569","fips":"02070","name":"Dillingham Census Area","state_id":"AK"},{"zip":"99571","fips":"02013","name":"Aleutians East Borough","state_id":"AK"},{"zip":"99572","fips":"02122","name":"Kenai Peninsula Borough","state_id":"AK"},{"zip":"99573","fips":"02261","name":"Valdez-Cordova Census Area","state_id":"AK"},{"zip":"99574","fips":"02261","name":"Valdez-Cordova Census Area","state_id":"AK"},{"zip":"99575","fips":"02050","name":"Bethel Census Area","state_id":"AK"},{"zip":"99576","fips":"02070","name":"Dillingham Census Area","state_id":"AK"},{"zip":"99577","fips":"02020","name":"Anchorage Municipality","state_id":"AK"},{"zip":"99578","fips":"02050","name":"Bethel Census Area","state_id":"AK"},{"zip":"99579","fips":"02164","name":"Lake and Peninsula Borough","state_id":"AK"},{"zip":"99580","fips":"02070","name":"Dillingham Census Area","state_id":"AK"},{"zip":"99583","fips":"02013","name":"Aleutians East Borough","state_id":"AK"},{"zip":"99586","fips":"02261","name":"Valdez-Cordova Census Area","state_id":"AK"},{"zip":"99587","fips":"02020","name":"Anchorage Municipality","state_id":"AK"},{"zip":"99588","fips":"02261","name":"Valdez-Cordova Census Area","state_id":"AK"},{"zip":"99589","fips":"02050","name":"Bethel Census Area","state_id":"AK"},{"zip":"99590","fips":"02290","name":"Yukon-Koyukuk Census Area","state_id":"AK"},{"zip":"99591","fips":"02016","name":"Aleutians West Census Area","state_id":"AK"},{"zip":"99599","fips":"02020","name":"Anchorage Municipality","state_id":"AK"}]
