[{"zip":"99602","fips":"02290","name":"Yukon-Koyukuk Census Area","state_id":"AK"},{"zip":"99603","fips":"02122","name":"Kenai Peninsula Borough","state_id":"AK"},{"zip":"99605","fips":"02122","name":"Kenai Peninsula Borough","state_id":"AK"},{"zip":"99606","fips":"02164","name":"Lake and Peninsula Borough","state_id":"AK"},{"zip":"99607","fips":"02050","name":"Bethel Census Area","state_id":"AK"},{"zip":"99608","fips":"02150","name":"Kodiak Island Borough","state_id":"AK"},{"zip":"99609","fips":"02050","name":"Bethel Census Area","state_id":"AK"},{"zip":"99610","fips":"02122","name":"Kenai Peninsula Borough","state_id":"AK"},{"zip":"99611","fips":"02122","name":"Kenai Peninsula Borough","state_id":"AK"},{"zip":"99612","fips":"02013","name":"Aleutians East Borough","state_id":"AK"},{"zip":"99613","fips":"02060","name":"Bristol Bay Borough","state_id":"AK"},{"zip":"99614","fips":"02050","name":"Bethel Census Area","state_id":"AK"},{"zip":"99615","fips":"02150","name":"Kodiak Island Borough","state_id":"AK"},{"zip":"99619","fips":"02150","name":"Kodiak Island Borough","state_id":"AK"},{"zip":"99621","fips":"02050","name":"Bethel Census Area","state_id":"AK"},{"zip":"99622","fips":"02050","name":"Bethel Census Area","state_id":"AK"},{"zip":"99623","fips":"02170","name":"Matanuska-Susitna Borough","state_id":"AK"},{"zip":"99624","fips":"02150","name":"Kodiak Island Borough","state_id":"AK"},{"zip":"99625","fips":"02164","name":"Lake and Peninsula Borough","state_id":"AK"},{"zip":"99626","fips":"02050","name":"Bethel Census Area","state_id":"AK"},{"zip":"99627","fips":"02290","name":"Yukon-Koyukuk Census Area","state_id":"AK"},{"zip":"99628","fips":"02070","name":"Dillingham Census Area","state_id":"AK"},{"zip":"99630","fips":"02050","name":"Bethel Census Area","state_id":"AK"},{"zip":"99631","fips":"02122","name":"Kenai Peninsula Borough","state_id":"AK"},{"zip":"99633","fips":"02060","name":"Bristol Bay Borough","state_id":"AK"},{"zip":"99634","fips":"02050","name":"Bethel Census Area","state_id":"AK"},{"zip":"99635","fips":"02122","name":"Kenai Peninsula Borough","state_id":"AK"},{"zip":"99636","fips":"02070","name":"Dillingham Census Area","state_id":"AK"},{"zip":"99637","fips":"02050","name":"Bethel Census Area","state_id":"AK"},{"zip":"99638","fips":"02016","name":"Aleutians West Census Area","state_id":"AK"},{"zip":"99639","fips":"02122","name":"Kenai Peninsula Borough","state_id":"AK"},{"zip":"99640","fips":"02164","name":"Lake and Peninsula Borough","state_id":"AK"},{"zip":"99641","fips":"02050","name":"Bethel Census Area","state_id":"AK"},{"zip":"99643","fips":"02150","name":"Kodiak Island Borough","state_id":"AK"},{"zip":"99644","fips":"02150","name":"Kodiak Island Borough","state_id":"AK"},{"zip":"99645","fips":"02170","name":"Matanuska-Susitna Borough","state_id":"AK"},{"zip":"99647","fips":"02164","name":"Lake and Peninsula Borough","state_id":"AK"},{"zip":"99648","fips":"02164","name":"Lake and Peninsula Borough","state_id":"AK"},{"zip":"99649","fips":"02164","name":"Lake and Peninsula Borough","state_id":"AK"},{"zip":"99651","fips":"02050","name":"Bethel Census Area","state_id":"AK"},{"zip":"99652","fips":"02170","name":"Matanuska-Susitna Borough","state_id":"AK"},{"zip":"99653","fips":"02164","name":"Lake and Peninsula Borough","state_id":"AK"},{"zip":"99654","fips":"02170","name":"Matanuska-Susitna Borough","state_id":"AK"},{"zip":"99655","fips":"02050","name":"Bethel Census Area","state_id":"AK"},{"zip":"99656","fips":"02050","name":"Bethel Census Area","state_id":"AK"},{"zip":"99659","fips":"02180","name":"Nome Census Area","state_id":"AK"},{"zip":"99660","fips":"02016","name":"Aleutians West Census Area","state_id":"AK"},{"zip":"99661","fips":"02013","name":"Aleutians East Borough","state_id":"AK"},{"zip":"99663","fips":"02122","name":"Kenai Peninsula Borough","state_id":"AK"},{"zip":"99664","fips":"02122","name":"Kenai Peninsula Borough","state_id":"AK"},{"zip":"99665","fips":"02290","name":"Yukon-Koyukuk Census Area","state_id":"AK"},{"zip":"99667","fips":"02170","name":"Matanuska-Susitna Borough","state_id":"AK"},{"zip":"99668","fips":"02050","name":"Bethel Census Area","state_id":"AK"},{"zip":"99669","fips":"02122","name":"Kenai Peninsula Borough","state_id":"AK"},{"zip":"99670","fips":"02060","name":"Bristol Bay Borough","state_id":"AK"},{"zip":"99671","fips":"02180","name":"Nome Census Area","state_id":"AK"},{"zip":"99672","fips":"02122","name":"Kenai Peninsula Borough","state_id":"AK"},{"zip":"99674","fips":"02170","name":"Matanuska-Susitna Borough","state_id":"AK"},{"zip":"99675","fips":"02290","name":"Yukon-Koyukuk Census Area","state_id":"AK"},{"zip":"99676","fips":"02170","name":"Matanuska-Susitna Borough","state_id":"AK"},{"zip":"99677","fips":"02261","name":"Valdez-Cordova Census Area","state_id":"AK"},{"zip":"99678","fips":"02070","name":"Dillingham Census Area","state_id":"AK"},{"zip":"99679","fips":"02050","name":"Bethel Census Area","state_id":"AK"},{"zip":"99680","fips":"02050","name":"Bethel Census Area","state_id":"AK"},{"zip":"99681","fips":"02050","name":"Bethel Census Area","state_id":"AK"},{"zip":"99682","fips":"02122","name":"Kenai Peninsula Borough","state_id":"AK"},{"zip":"99683","fips":"02170","name":"Matanuska-Susitna Borough","state_id":"AK"},{"zip":"99684","fips":"02180","name":"Nome Census Area","state_id":"AK"},{"zip":"99685","fips":"02016","name":"Aleutians West Census Area","state_id":"AK"},{"zip":"99686","fips":"02261","name":"Valdez-Cordova Census Area","state_id":"AK"},{"zip":"99687","fips":"02170","name":"Matanuska-Susitna Borough","state_id":"AK"},{"zip":"99688","fips":"02170","name":"Matanuska-Susitna Borough","state_id":"AK"},{"zip":"99689","fips":"02282","name":"Yakutat City and Borough","state_id":"AK"},{"zip":"99690","fips":"02050","name":"Bethel Census Area","state_id":"AK"},{"zip":"99691","fips":"02290","name":"Yukon-Koyukuk Census Area","state_id":"AK"},{"zip":"99692","fips":"02016","name":"Aleutians West Census Area","state_id":"AK"},{"zip":"99693","fips":"02261","name":"Valdez-Cordova Census Area","state_id":"AK"},{"zip":"99694","fips":"02170","name":"Matanuska-Susitna Borough","state_id":"AK"}]
