[{"zip":"99701","fips":"02090","name":"Fairbanks North Star Borough","state_id":"AK"},{"zip":"99702","fips":"02090","name":"Fairbanks North Star Borough","state_id":"AK"},{"zip":"99703","fips":"02090","name":"Fairbanks North Star Borough","state_id":"AK"},{"zip":"99704","fips":"02290","name":"Yukon-Koyukuk Census Area","state_id":"AK"},{"zip":"99705","fips":"02090","name":"Fairbanks North Star Borough","state_id":"AK"},{"zip":"99706","fips":"02090","name":"Fairbanks North Star Borough","state_id":"AK"},{"zip":"99707","fips":"02090","name":"Fairbanks North Star Borough","state_id":"AK"},{"zip":"99708","fips":"02090","name":"Fairbanks North Star Borough","state_id":"AK"},{"zip":"99709","fips":"02090","name":"Fairbanks North Star Borough","state_id":"AK"},{"zip":"99712","fips":"02090","name":"Fairbanks North Star Borough","state_id":"AK"},{"zip":"99714","fips":"02090","name":"Fairbanks North Star Borough","state_id":"AK"},{"zip":"99720","fips":"02290","name":"Yukon-Koyukuk Census Area","state_id":"AK"},{"zip":"99721","fips":"02185","name":"North Slope Borough","state_id":"AK"},{"zip":"99722","fips":"02290","name":"Yukon-Koyukuk Census Area","state_id":"AK"},{"zip":"99723","fips":"02185","name":"North Slope Borough","state_id":"AK"},{"zip":"99724","fips":"02290","name":"Yukon-Koyukuk Census Area","state_id":"AK"},{"zip":"99725","fips":"02090","name":"Fairbanks North Star Borough","state_id":"AK"},{"zip":"99726","fips":"02290","name":"Yukon-Koyukuk Census Area","state_id":"AK"},{"zip":"99727","fips":"02188","name":"Northwest Arctic Borough","state_id":"AK"},{"zip":"99729","fips":"02068","name":"Denali Borough","state_id":"AK"},{"zip":"99730","fips":"02290","name":"Yukon-Koyukuk Census Area","state_id":"AK"},{"zip":"99731","fips":"02240","name":"Southeast Fairbanks Census Area","state_id":"AK"},{"zip":"99732","fips":"02240","name":"Southeast Fairbanks Census Area","state_id":"AK"},{"zip":"99733","fips":"02290","name":"Yukon-Koyukuk Census Area","state_id":"AK"},{"zip":"99734","fips":"02185","name":"North Slope Borough","state_id":"AK"},{"zip":"99736","fips":"02188","name":"Northwest Arctic Borough","state_id":"AK"},{"zip":"99737","fips":"02240","name":"Southeast Fairbanks Census Area","state_id":"AK"},{"zip":"99738","fips":"02240","name":"Southeast Fairbanks Census Area","state_id":"AK"},{"zip":"99739","fips":"02180","name":"Nome Census Area","state_id":"AK"},{"zip":"99740","fips":"02290","name":"Yukon-Koyukuk Census Area","state_id":"AK"},{"zip":"99741","fips":"02290","name":"Yukon-Koyukuk Census Area","state_id":"AK"},{"zip":"99742","fips":"02180","name":"Nome Census Area","state_id":"AK"},{"zip":"99743","fips":"02068","name":"Denali Borough","state_id":"AK"},{"zip":"99744","fips":"02068","name":"Denali Borough","state_id":"AK"},{"zip":"99745","fips":"02290","name":"Yukon-Koyukuk Census Area","state_id":"AK"},{"zip":"99746","fips":"02290","name":"Yukon-Koyukuk Census Area","state_id":"AK"},{"zip":"99747","fips":"02185","name":"North Slope Borough","state_id":"AK"},{"zip":"99748","fips":"02290","name":"Yukon-Koyukuk Census Area","state_id":"AK"},{"zip":"99749","fips":"02188","name":"Northwest Arctic Borough","state_id":"AK"},{"zip":"99750","fips":"02188","name":"Northwest Arctic Borough","state_id":"AK"},{"zip":"99751","fips":"02188","name":"Northwest Arctic Borough","state_id":"AK"},{"zip":"99752","fips":"02188","name":"Northwest Arctic Borough","state_id":"AK"},{"zip":"99753","fips":"02180","name":"Nome Census Area","state_id":"AK"},{"zip":"99754","fips":"02290","name":"Yukon-Koyukuk Census Area","state_id":"AK"},{"zip":"99755","fips":"02068","name":"Denali Borough","state_id":"AK"},{"zip":"99756","fips":"02290","name":"Yukon-Koyukuk Census Area","state_id":"AK"},{"zip":"99757","fips":"02290","name":"Yukon-Koyukuk Census Area","state_id":"AK"},{"zip":"99758","fips":"02290","name":"Yukon-Koyukuk Census Area","state_id":"AK"},{"zip":"99759","fips":"02185","name":"North Slope Borough","state_id":"AK"},{"zip":"99760","fips":"02290","name":"Yukon-Koyukuk Census Area","state_id":"AK"},{"zip":"99761","fips":"02188","name":"Northwest Arctic Borough","state_id":"AK"},{"zip":"99762","fips":"02180","name":"Nome Census Area","state_id":"AK"},{"zip":"99763","fips":"02188","name":"Northwest Arctic Borough","state_id":"AK"},{"zip":"99764","fips":"02240","name":"Southeast Fairbanks Census Area","state_id":"AK"},{"zip":"99765","fips":"02290","name":"Yukon-Koyukuk Census Area","state_id":"AK"},{"zip":"99766","fips":"02185","name":"North Slope Borough","state_id":"AK"},{"zip":"99767","fips":"02290","name":"Yukon-Koyukuk Census Area","state_id":"AK"},{"zip":"99768","fips":"02290","name":"Yukon-Koyukuk Census Area","state_id":"AK"},{"zip":"99769","fips":"02180","name":"Nome Census Area","state_id":"AK"},{"zip":"99770","fips":"02188","name":"Northwest Arctic Borough","state_id":"AK"},{"zip":"99771","fips":"02180","name":"Nome Census Area","state_id":"AK"},{"zip":"99772","fips":"02180","name":"Nome Census Area","state_id":"AK"},{"zip":"99773","fips":"02188","name":"Northwest Arctic Borough","state_id":"AK"},{"zip":"99774","fips":"02290","name":"Yukon-Koyukuk Census Area","state_id":"AK"},{"zip":"99775","fips":"02090","name":"Fairbanks North Star Borough","state_id":"AK"},{"zip":"99776","fips":"02240","name":"Southeast Fairbanks Census Area","state_id":"AK"},{"zip":"99777","fips":"02290","name":"Yukon-Koyukuk Census Area","state_id":"AK"},{"zip":"99778","fips":"02180","name":"Nome Census Area","state_id":"AK"},{"zip":"99780","fips":"02240","name":"Southeast Fairbanks Census Area","state_id":"AK"},{"zip":"99781","fips":"02290","name":"Yukon-Koyukuk Census Area","state_id":"AK"},{"zip":"99782","fips":"02185","name":"North Slope Borough","state_id":"AK"},{"zip":"99783","fips":"02180","name":"Nome Census Area","state_id":"AK"},{"zip":"99784","fips":"02180","name":"Nome Census Area","state_id":"AK"},{"zip":"99785","fips":"02180","name":"Nome Census Area","state_id":"AK"},{"zip":"99786","fips":"02188","name":"Northwest Arctic Borough","state_id":"AK"},{"zip":"99788","fips":"02290","name":"Yukon-Koyukuk Census Area","state_id":"AK"},{"zip":"99789","fips":"02185","name":"North Slope Borough","state_id":"AK"},{"zip":"99790","fips":"02090","name":"Fairbanks North Star Borough","state_id":"AK"},{"zip":"99791","fips":"02185","name":"North Slope Borough","state_id":"AK"}]
