[{"zip":"99801","fips":"02110","name":"Juneau City and Borough","state_id":"AK"},{"zip":"99811","fips":"02110","name":"Juneau City and Borough","state_id":"AK"},{"zip":"99820","fips":"02105","name":"Hoonah-Angoon Census Area","state_id":"AK"},{"zip":"99824","fips":"02110","name":"Juneau City and Borough","state_id":"AK"},{"zip":"99825","fips":"02105","name":"Hoonah-Angoon Census Area","state_id":"AK"},{"zip":"99826","fips":"02105","name":"Hoonah-Angoon Census Area","state_id":"AK"},{"zip":"99827","fips":"02100","name":"Haines Borough","state_id":"AK"},{"zip":"99829","fips":"02105","name":"Hoonah-Angoon Census Area","state_id":"AK"},{"zip":"99830","fips":"02195","name":"Petersburg Borough","state_id":"AK"},{"zip":"99832","fips":"02105","name":"Hoonah-Angoon Census Area","state_id":"AK"},{"zip":"99833","fips":"02195","name":"Petersburg Borough","state_id":"AK"},{"zip":"99835","fips":"02220","name":"Sitka City and Borough","state_id":"AK"},{"zip":"99836","fips":"02195","name":"Petersburg Borough","state_id":"AK"},{"zip":"99840","fips":"02230","name":"Skagway Municipality","state_id":"AK"},{"zip":"99841","fips":"02105","name":"Hoonah-Angoon Census Area","state_id":"AK"}]
