[{"zip":"99901","fips":"02130","name":"Ketchikan Gateway Borough","state_id":"AK"},{"zip":"99903","fips":"02275","name":"Wrangell City and Borough","state_id":"AK"},{"zip":"99918","fips":"02198","name":"Prince of Wales-Hyder Census Area","state_id":"AK"},{"zip":"99919","fips":"02198","name":"Prince of Wales-Hyder Census Area","state_id":"AK"},{"zip":"99921","fips":"02198","name":"Prince of Wales-Hyder Census Area","state_id":"AK"},{"zip":"99922","fips":"02198","name":"Prince of Wales-Hyder Census Area","state_id":"AK"},{"zip":"99923","fips":"02198","name":"Prince of Wales-Hyder Census Area","state_id":"AK"},{"zip":"99925","fips":"02198","name":"Prince of Wales-Hyder Census Area","state_id":"AK"},{"zip":"99926","fips":"02198","name":"Prince of Wales-Hyder Census Area","state_id":"AK"},{"zip":"99927","fips":"02198","name":"Prince of Wales-Hyder Census Area","state_id":"AK"},{"zip":"99928","fips":"02130","name":"Ketchikan Gateway Borough","state_id":"AK"},{"zip":"99929","fips":"02275","name":"Wrangell City and Borough","state_id":"AK"}]
