[{"zip":"00601","fips":"72113","name":"Ponce Municipio","state_id":"PR"},{"zip":"00601","fips":"72001","name":"Adjuntas Municipio","state_id":"PR"},{"zip":"00602","fips":"72003","name":"Aguada Municipio","state_id":"PR"},{"zip":"00602","fips":"72005","name":"Aguadilla Municipio","state_id":"PR"},{"zip":"00603","fips":"72005","name":"Aguadilla Municipio","state_id":"PR"},{"zip":"00603","fips":"72099","name":"Moca Municipio","state_id":"PR"},{"zip":"00603","fips":"72071","name":"Isabela Municipio","state_id":"PR"},{"zip":"00604","fips":"72005","name":"Aguadilla Municipio","state_id":"PR"},{"zip":"00605","fips":"72005","name":"Aguadilla Municipio","state_id":"PR"},{"zip":"00606","fips":"72093","name":"Maricao Municipio","state_id":"PR"},{"zip":"00610","fips":"72011","name":"Añasco Municipio","state_id":"PR"},{"zip":"00611","fips":"72141","name":"Utuado Municipio","state_id":"PR"},{"zip":"00612","fips":"72017","name":"Barceloneta Municipio","state_id":"PR"},{"zip":"00612","fips":"72054","name":"Florida Municipio","state_id":"PR"},{"zip":"00612","fips":"72013","name":"Arecibo Municipio","state_id":"PR"},{"zip":"00612","fips":"72141","name":"Utuado Municipio","state_id":"PR"},{"zip":"00612","fips":"72065","name":"Hatillo Municipio","state_id":"PR"},{"zip":"00613","fips":"72013","name":"Arecibo Municipio","state_id":"PR"},{"zip":"00614","fips":"72013","name":"Arecibo Municipio","state_id":"PR"},{"zip":"00616","fips":"72013","name":"Arecibo Municipio","state_id":"PR"},{"zip":"00617","fips":"72017","name":"Barceloneta Municipio","state_id":"PR"},{"zip":"00617","fips":"72054","name":"Florida Municipio","state_id":"PR"},{"zip":"00617","fips":"72091","name":"Manatí Municipio","state_id":"PR"},{"zip":"00622","fips":"72023","name":"Cabo Rojo Municipio","state_id":"PR"},{"zip":"00623","fips":"72023","name":"Cabo Rojo Municipio","state_id":"PR"},{"zip":"00623","fips":"72097","name":"Mayagüez Municipio","state_id":"PR"},{"zip":"00624","fips":"72059","name":"Guayanilla Municipio","state_id":"PR"},{"zip":"00624","fips":"72113","name":"Ponce Municipio","state_id":"PR"},{"zip":"00624","fips":"72111","name":"Peñuelas Municipio","state_id":"PR"},{"zip":"00627","fips":"72027","name":"Camuy Municipio","state_id":"PR"},{"zip":"00631","fips":"72081","name":"Lares Municipio","state_id":"PR"},{"zip":"00637","fips":"72121","name":"Sabana Grande Municipio","state_id":"PR"},{"zip":"00638","fips":"72107","name":"Orocovis Municipio","state_id":"PR"},{"zip":"00638","fips":"72039","name":"Ciales Municipio","state_id":"PR"},{"zip":"00641","fips":"72141","name":"Utuado Municipio","state_id":"PR"},{"zip":"00641","fips":"72113","name":"Ponce Municipio","state_id":"PR"},{"zip":"00646","fips":"72137","name":"Toa Baja Municipio","state_id":"PR"},{"zip":"00646","fips":"72135","name":"Toa Alta Municipio","state_id":"PR"},{"zip":"00646","fips":"72143","name":"Vega Alta Municipio","state_id":"PR"},{"zip":"00646","fips":"72051","name":"Dorado Municipio","state_id":"PR"},{"zip":"00647","fips":"72055","name":"Guánica Municipio","state_id":"PR"},{"zip":"00647","fips":"72121","name":"Sabana Grande Municipio","state_id":"PR"},{"zip":"00650","fips":"72054","name":"Florida Municipio","state_id":"PR"},{"zip":"00650","fips":"72013","name":"Arecibo Municipio","state_id":"PR"},{"zip":"00650","fips":"72017","name":"Barceloneta Municipio","state_id":"PR"},{"zip":"00650","fips":"72091","name":"Manatí Municipio","state_id":"PR"},{"zip":"00652","fips":"72013","name":"Arecibo Municipio","state_id":"PR"},{"zip":"00653","fips":"72055","name":"Guánica Municipio","state_id":"PR"},{"zip":"00653","fips":"72153","name":"Yauco Municipio","state_id":"PR"},{"zip":"00656","fips":"72059","name":"Guayanilla Municipio","state_id":"PR"},{"zip":"00659","fips":"72013","name":"Arecibo Municipio","state_id":"PR"},{"zip":"00659","fips":"72065","name":"Hatillo Municipio","state_id":"PR"},{"zip":"00660","fips":"72097","name":"Mayagüez Municipio","state_id":"PR"},{"zip":"00660","fips":"72067","name":"Hormigueros Municipio","state_id":"PR"},{"zip":"00662","fips":"72115","name":"Quebradillas Municipio","state_id":"PR"},{"zip":"00662","fips":"72005","name":"Aguadilla Municipio","state_id":"PR"},{"zip":"00662","fips":"72071","name":"Isabela Municipio","state_id":"PR"},{"zip":"00662","fips":"72099","name":"Moca Municipio","state_id":"PR"},{"zip":"00664","fips":"72141","name":"Utuado Municipio","state_id":"PR"},{"zip":"00664","fips":"72073","name":"Jayuya Municipio","state_id":"PR"},{"zip":"00667","fips":"72079","name":"Lajas Municipio","state_id":"PR"},{"zip":"00667","fips":"72121","name":"Sabana Grande Municipio","state_id":"PR"},{"zip":"00669","fips":"72081","name":"Lares Municipio","state_id":"PR"},{"zip":"00670","fips":"72083","name":"Las Marías Municipio","state_id":"PR"},{"zip":"00674","fips":"72091","name":"Manatí Municipio","state_id":"PR"},{"zip":"00674","fips":"72145","name":"Vega Baja Municipio","state_id":"PR"},{"zip":"00674","fips":"72017","name":"Barceloneta Municipio","state_id":"PR"},{"zip":"00674","fips":"72101","name":"Morovis Municipio","state_id":"PR"},{"zip":"00676","fips":"72131","name":"San Sebastián Municipio","state_id":"PR"},{"zip":"00676","fips":"72099","name":"Moca Municipio","state_id":"PR"},{"zip":"00677","fips":"72117","name":"Rincón Municipio","state_id":"PR"},{"zip":"00678","fips":"72115","name":"Quebradillas Municipio","state_id":"PR"},{"zip":"00680","fips":"72011","name":"Añasco Municipio","state_id":"PR"},{"zip":"00680","fips":"72097","name":"Mayagüez Municipio","state_id":"PR"},{"zip":"00680","fips":"72023","name":"Cabo Rojo Municipio","state_id":"PR"},{"zip":"00680","fips":"72067","name":"Hormigueros Municipio","state_id":"PR"},{"zip":"00681","fips":"72097","name":"Mayagüez Municipio","state_id":"PR"},{"zip":"00682","fips":"72097","name":"Mayagüez Municipio","state_id":"PR"},{"zip":"00683","fips":"72097","name":"Mayagüez Municipio","state_id":"PR"},{"zip":"00683","fips":"72125","name":"San Germán Municipio","state_id":"PR"},{"zip":"00683","fips":"72121","name":"Sabana Grande Municipio","state_id":"PR"},{"zip":"00683","fips":"72023","name":"Cabo Rojo Municipio","state_id":"PR"},{"zip":"00683","fips":"72079","name":"Lajas Municipio","state_id":"PR"},{"zip":"00685","fips":"72131","name":"San Sebastián Municipio","state_id":"PR"},{"zip":"00687","fips":"72145","name":"Vega Baja Municipio","state_id":"PR"},{"zip":"00687","fips":"72091","name":"Manatí Municipio","state_id":"PR"},{"zip":"00687","fips":"72101","name":"Morovis Municipio","state_id":"PR"},{"zip":"00687","fips":"72143","name":"Vega Alta Municipio","state_id":"PR"},{"zip":"00688","fips":"72013","name":"Arecibo Municipio","state_id":"PR"},{"zip":"00690","fips":"72005","name":"Aguadilla Municipio","state_id":"PR"},{"zip":"00692","fips":"72143","name":"Vega Alta Municipio","state_id":"PR"},{"zip":"00692","fips":"72101","name":"Morovis Municipio","state_id":"PR"},{"zip":"00692","fips":"72145","name":"Vega Baja Municipio","state_id":"PR"},{"zip":"00692","fips":"72051","name":"Dorado Municipio","state_id":"PR"},{"zip":"00693","fips":"72091","name":"Manatí Municipio","state_id":"PR"},{"zip":"00693","fips":"72145","name":"Vega Baja Municipio","state_id":"PR"},{"zip":"00693","fips":"72143","name":"Vega Alta Municipio","state_id":"PR"},{"zip":"00693","fips":"72101","name":"Morovis Municipio","state_id":"PR"},{"zip":"00694","fips":"72145","name":"Vega Baja Municipio","state_id":"PR"},{"zip":"00698","fips":"72059","name":"Guayanilla Municipio","state_id":"PR"},{"zip":"00698","fips":"72121","name":"Sabana Grande Municipio","state_id":"PR"},{"zip":"00698","fips":"72153","name":"Yauco Municipio","state_id":"PR"}]
