[{"zip":"00901","fips":"72127","name":"San Juan Municipio","state_id":"PR"},{"zip":"00902","fips":"72127","name":"San Juan Municipio","state_id":"PR"},{"zip":"00907","fips":"72127","name":"San Juan Municipio","state_id":"PR"},{"zip":"00908","fips":"72127","name":"San Juan Municipio","state_id":"PR"},{"zip":"00909","fips":"72033","name":"Cataño Municipio","state_id":"PR"},{"zip":"00909","fips":"72127","name":"San Juan Municipio","state_id":"PR"},{"zip":"00910","fips":"72127","name":"San Juan Municipio","state_id":"PR"},{"zip":"00911","fips":"72127","name":"San Juan Municipio","state_id":"PR"},{"zip":"00912","fips":"72127","name":"San Juan Municipio","state_id":"PR"},{"zip":"00913","fips":"72127","name":"San Juan Municipio","state_id":"PR"},{"zip":"00914","fips":"72127","name":"San Juan Municipio","state_id":"PR"},{"zip":"00915","fips":"72127","name":"San Juan Municipio","state_id":"PR"},{"zip":"00916","fips":"72127","name":"San Juan Municipio","state_id":"PR"},{"zip":"00917","fips":"72127","name":"San Juan Municipio","state_id":"PR"},{"zip":"00917","fips":"72061","name":"Guaynabo Municipio","state_id":"PR"},{"zip":"00918","fips":"72127","name":"San Juan Municipio","state_id":"PR"},{"zip":"00919","fips":"72127","name":"San Juan Municipio","state_id":"PR"},{"zip":"00920","fips":"72127","name":"San Juan Municipio","state_id":"PR"},{"zip":"00920","fips":"72061","name":"Guaynabo Municipio","state_id":"PR"},{"zip":"00921","fips":"72021","name":"Bayamón Municipio","state_id":"PR"},{"zip":"00921","fips":"72031","name":"Carolina Municipio","state_id":"PR"},{"zip":"00921","fips":"72127","name":"San Juan Municipio","state_id":"PR"},{"zip":"00922","fips":"72061","name":"Guaynabo Municipio","state_id":"PR"},{"zip":"00923","fips":"72127","name":"San Juan Municipio","state_id":"PR"},{"zip":"00924","fips":"72021","name":"Bayamón Municipio","state_id":"PR"},{"zip":"00924","fips":"72139","name":"Trujillo Alto Municipio","state_id":"PR"},{"zip":"00924","fips":"72031","name":"Carolina Municipio","state_id":"PR"},{"zip":"00924","fips":"72127","name":"San Juan Municipio","state_id":"PR"},{"zip":"00925","fips":"72127","name":"San Juan Municipio","state_id":"PR"},{"zip":"00926","fips":"72021","name":"Bayamón Municipio","state_id":"PR"},{"zip":"00926","fips":"72127","name":"San Juan Municipio","state_id":"PR"},{"zip":"00926","fips":"72139","name":"Trujillo Alto Municipio","state_id":"PR"},{"zip":"00926","fips":"72061","name":"Guaynabo Municipio","state_id":"PR"},{"zip":"00926","fips":"72025","name":"Caguas Municipio","state_id":"PR"},{"zip":"00926","fips":"72031","name":"Carolina Municipio","state_id":"PR"},{"zip":"00926","fips":"72033","name":"Cataño Municipio","state_id":"PR"},{"zip":"00927","fips":"72127","name":"San Juan Municipio","state_id":"PR"},{"zip":"00928","fips":"72127","name":"San Juan Municipio","state_id":"PR"},{"zip":"00929","fips":"72127","name":"San Juan Municipio","state_id":"PR"},{"zip":"00931","fips":"72127","name":"San Juan Municipio","state_id":"PR"},{"zip":"00934","fips":"72021","name":"Bayamón Municipio","state_id":"PR"},{"zip":"00934","fips":"72061","name":"Guaynabo Municipio","state_id":"PR"},{"zip":"00935","fips":"72127","name":"San Juan Municipio","state_id":"PR"},{"zip":"00936","fips":"72127","name":"San Juan Municipio","state_id":"PR"},{"zip":"00937","fips":"72031","name":"Carolina Municipio","state_id":"PR"},{"zip":"00940","fips":"72127","name":"San Juan Municipio","state_id":"PR"},{"zip":"00949","fips":"72137","name":"Toa Baja Municipio","state_id":"PR"},{"zip":"00949","fips":"72021","name":"Bayamón Municipio","state_id":"PR"},{"zip":"00949","fips":"72051","name":"Dorado Municipio","state_id":"PR"},{"zip":"00949","fips":"72135","name":"Toa Alta Municipio","state_id":"PR"},{"zip":"00950","fips":"72137","name":"Toa Baja Municipio","state_id":"PR"},{"zip":"00951","fips":"72137","name":"Toa Baja Municipio","state_id":"PR"},{"zip":"00952","fips":"72137","name":"Toa Baja Municipio","state_id":"PR"},{"zip":"00953","fips":"72137","name":"Toa Baja Municipio","state_id":"PR"},{"zip":"00953","fips":"72135","name":"Toa Alta Municipio","state_id":"PR"},{"zip":"00953","fips":"72021","name":"Bayamón Municipio","state_id":"PR"},{"zip":"00954","fips":"72135","name":"Toa Alta Municipio","state_id":"PR"},{"zip":"00956","fips":"72021","name":"Bayamón Municipio","state_id":"PR"},{"zip":"00956","fips":"72033","name":"Cataño Municipio","state_id":"PR"},{"zip":"00956","fips":"72007","name":"Aguas Buenas Municipio","state_id":"PR"},{"zip":"00956","fips":"72139","name":"Trujillo Alto Municipio","state_id":"PR"},{"zip":"00956","fips":"72127","name":"San Juan Municipio","state_id":"PR"},{"zip":"00956","fips":"72025","name":"Caguas Municipio","state_id":"PR"},{"zip":"00957","fips":"72033","name":"Cataño Municipio","state_id":"PR"},{"zip":"00957","fips":"72135","name":"Toa Alta Municipio","state_id":"PR"},{"zip":"00957","fips":"72127","name":"San Juan Municipio","state_id":"PR"},{"zip":"00957","fips":"72139","name":"Trujillo Alto Municipio","state_id":"PR"},{"zip":"00957","fips":"72137","name":"Toa Baja Municipio","state_id":"PR"},{"zip":"00957","fips":"72021","name":"Bayamón Municipio","state_id":"PR"},{"zip":"00958","fips":"72021","name":"Bayamón Municipio","state_id":"PR"},{"zip":"00959","fips":"72021","name":"Bayamón Municipio","state_id":"PR"},{"zip":"00959","fips":"72137","name":"Toa Baja Municipio","state_id":"PR"},{"zip":"00959","fips":"72139","name":"Trujillo Alto Municipio","state_id":"PR"},{"zip":"00959","fips":"72127","name":"San Juan Municipio","state_id":"PR"},{"zip":"00959","fips":"72061","name":"Guaynabo Municipio","state_id":"PR"},{"zip":"00960","fips":"72021","name":"Bayamón Municipio","state_id":"PR"},{"zip":"00961","fips":"72033","name":"Cataño Municipio","state_id":"PR"},{"zip":"00961","fips":"72139","name":"Trujillo Alto Municipio","state_id":"PR"},{"zip":"00961","fips":"72021","name":"Bayamón Municipio","state_id":"PR"},{"zip":"00961","fips":"72127","name":"San Juan Municipio","state_id":"PR"},{"zip":"00961","fips":"72137","name":"Toa Baja Municipio","state_id":"PR"},{"zip":"00961","fips":"72061","name":"Guaynabo Municipio","state_id":"PR"},{"zip":"00962","fips":"72139","name":"Trujillo Alto Municipio","state_id":"PR"},{"zip":"00962","fips":"72033","name":"Cataño Municipio","state_id":"PR"},{"zip":"00962","fips":"72061","name":"Guaynabo Municipio","state_id":"PR"},{"zip":"00962","fips":"72021","name":"Bayamón Municipio","state_id":"PR"},{"zip":"00962","fips":"72127","name":"San Juan Municipio","state_id":"PR"},{"zip":"00963","fips":"72033","name":"Cataño Municipio","state_id":"PR"},{"zip":"00965","fips":"72061","name":"Guaynabo Municipio","state_id":"PR"},{"zip":"00965","fips":"72033","name":"Cataño Municipio","state_id":"PR"},{"zip":"00966","fips":"72021","name":"Bayamón Municipio","state_id":"PR"},{"zip":"00966","fips":"72061","name":"Guaynabo Municipio","state_id":"PR"},{"zip":"00968","fips":"72127","name":"San Juan Municipio","state_id":"PR"},{"zip":"00968","fips":"72061","name":"Guaynabo Municipio","state_id":"PR"},{"zip":"00969","fips":"72139","name":"Trujillo Alto Municipio","state_id":"PR"},{"zip":"00969","fips":"72021","name":"Bayamón Municipio","state_id":"PR"},{"zip":"00969","fips":"72007","name":"Aguas Buenas Municipio","state_id":"PR"},{"zip":"00969","fips":"72127","name":"San Juan Municipio","state_id":"PR"},{"zip":"00969","fips":"72061","name":"Guaynabo Municipio","state_id":"PR"},{"zip":"00970","fips":"72061","name":"Guaynabo Municipio","state_id":"PR"},{"zip":"00971","fips":"72061","name":"Guaynabo Municipio","state_id":"PR"},{"zip":"00975","fips":"72127","name":"San Juan Municipio","state_id":"PR"},{"zip":"00976","fips":"72139","name":"Trujillo Alto Municipio","state_id":"PR"},{"zip":"00976","fips":"72031","name":"Carolina Municipio","state_id":"PR"},{"zip":"00976","fips":"72127","name":"San Juan Municipio","state_id":"PR"},{"zip":"00976","fips":"72021","name":"Bayamón Municipio","state_id":"PR"},{"zip":"00976","fips":"72033","name":"Cataño Municipio","state_id":"PR"},{"zip":"00977","fips":"72033","name":"Cataño Municipio","state_id":"PR"},{"zip":"00979","fips":"72031","name":"Carolina Municipio","state_id":"PR"},{"zip":"00981","fips":"72031","name":"Carolina Municipio","state_id":"PR"},{"zip":"00982","fips":"72031","name":"Carolina Municipio","state_id":"PR"},{"zip":"00983","fips":"72031","name":"Carolina Municipio","state_id":"PR"},{"zip":"00984","fips":"72031","name":"Carolina Municipio","state_id":"PR"},{"zip":"00985","fips":"72031","name":"Carolina Municipio","state_id":"PR"},{"zip":"00986","fips":"72031","name":"Carolina Municipio","state_id":"PR"},{"zip":"00987","fips":"72031","name":"Carolina Municipio","state_id":"PR"},{"zip":"00987","fips":"72139","name":"Trujillo Alto Municipio","state_id":"PR"},{"zip":"00987","fips":"72127","name":"San Juan Municipio","state_id":"PR"},{"zip":"00987","fips":"72029","name":"Canóvanas Municipio","state_id":"PR"},{"zip":"00988","fips":"72031","name":"Carolina Municipio","state_id":"PR"}]
