[{"zip":"01001","fips":"25013","name":"Hampden County","state_id":"MA"},{"zip":"01002","fips":"25015","name":"Hampshire County","state_id":"MA"},{"zip":"01002","fips":"25011","name":"Franklin County","state_id":"MA"},{"zip":"01003","fips":"25015","name":"Hampshire County","state_id":"MA"},{"zip":"01004","fips":"25015","name":"Hampshire County","state_id":"MA"},{"zip":"01005","fips":"25027","name":"Worcester County","state_id":"MA"},{"zip":"01007","fips":"25015","name":"Hampshire County","state_id":"MA"},{"zip":"01008","fips":"25013","name":"Hampden County","state_id":"MA"},{"zip":"01008","fips":"25003","name":"Berkshire County","state_id":"MA"},{"zip":"01009","fips":"25013","name":"Hampden County","state_id":"MA"},{"zip":"01010","fips":"25027","name":"Worcester County","state_id":"MA"},{"zip":"01010","fips":"25013","name":"Hampden County","state_id":"MA"},{"zip":"01011","fips":"25013","name":"Hampden County","state_id":"MA"},{"zip":"01011","fips":"25015","name":"Hampshire County","state_id":"MA"},{"zip":"01012","fips":"25015","name":"Hampshire County","state_id":"MA"},{"zip":"01013","fips":"25013","name":"Hampden County","state_id":"MA"},{"zip":"01014","fips":"25013","name":"Hampden County","state_id":"MA"},{"zip":"01020","fips":"25013","name":"Hampden County","state_id":"MA"},{"zip":"01021","fips":"25013","name":"Hampden County","state_id":"MA"},{"zip":"01022","fips":"25013","name":"Hampden County","state_id":"MA"},{"zip":"01026","fips":"25015","name":"Hampshire County","state_id":"MA"},{"zip":"01026","fips":"25003","name":"Berkshire County","state_id":"MA"},{"zip":"01027","fips":"25015","name":"Hampshire County","state_id":"MA"},{"zip":"01028","fips":"25013","name":"Hampden County","state_id":"MA"},{"zip":"01029","fips":"25003","name":"Berkshire County","state_id":"MA"},{"zip":"01030","fips":"25013","name":"Hampden County","state_id":"MA"},{"zip":"01031","fips":"25027","name":"Worcester County","state_id":"MA"},{"zip":"01032","fips":"25015","name":"Hampshire County","state_id":"MA"},{"zip":"01032","fips":"25011","name":"Franklin County","state_id":"MA"},{"zip":"01033","fips":"25015","name":"Hampshire County","state_id":"MA"},{"zip":"01033","fips":"25013","name":"Hampden County","state_id":"MA"},{"zip":"01034","fips":"25013","name":"Hampden County","state_id":"MA"},{"zip":"01035","fips":"25015","name":"Hampshire County","state_id":"MA"},{"zip":"01036","fips":"25013","name":"Hampden County","state_id":"MA"},{"zip":"01037","fips":"25027","name":"Worcester County","state_id":"MA"},{"zip":"01038","fips":"25015","name":"Hampshire County","state_id":"MA"},{"zip":"01039","fips":"25015","name":"Hampshire County","state_id":"MA"},{"zip":"01039","fips":"25011","name":"Franklin County","state_id":"MA"},{"zip":"01040","fips":"25013","name":"Hampden County","state_id":"MA"},{"zip":"01041","fips":"25013","name":"Hampden County","state_id":"MA"},{"zip":"01050","fips":"25015","name":"Hampshire County","state_id":"MA"},{"zip":"01050","fips":"25013","name":"Hampden County","state_id":"MA"},{"zip":"01053","fips":"25015","name":"Hampshire County","state_id":"MA"},{"zip":"01054","fips":"25011","name":"Franklin County","state_id":"MA"},{"zip":"01056","fips":"25013","name":"Hampden County","state_id":"MA"},{"zip":"01057","fips":"25013","name":"Hampden County","state_id":"MA"},{"zip":"01059","fips":"25015","name":"Hampshire County","state_id":"MA"},{"zip":"01060","fips":"25015","name":"Hampshire County","state_id":"MA"},{"zip":"01061","fips":"25015","name":"Hampshire County","state_id":"MA"},{"zip":"01062","fips":"25015","name":"Hampshire County","state_id":"MA"},{"zip":"01063","fips":"25015","name":"Hampshire County","state_id":"MA"},{"zip":"01066","fips":"25015","name":"Hampshire County","state_id":"MA"},{"zip":"01068","fips":"25027","name":"Worcester County","state_id":"MA"},{"zip":"01069","fips":"25015","name":"Hampshire County","state_id":"MA"},{"zip":"01069","fips":"25013","name":"Hampden County","state_id":"MA"},{"zip":"01070","fips":"25003","name":"Berkshire County","state_id":"MA"},{"zip":"01070","fips":"25011","name":"Franklin County","state_id":"MA"},{"zip":"01070","fips":"25015","name":"Hampshire County","state_id":"MA"},{"zip":"01071","fips":"25013","name":"Hampden County","state_id":"MA"},{"zip":"01072","fips":"25011","name":"Franklin County","state_id":"MA"},{"zip":"01073","fips":"25013","name":"Hampden County","state_id":"MA"},{"zip":"01073","fips":"25015","name":"Hampshire County","state_id":"MA"},{"zip":"01074","fips":"25027","name":"Worcester County","state_id":"MA"},{"zip":"01075","fips":"25015","name":"Hampshire County","state_id":"MA"},{"zip":"01077","fips":"25013","name":"Hampden County","state_id":"MA"},{"zip":"01079","fips":"25013","name":"Hampden County","state_id":"MA"},{"zip":"01080","fips":"25013","name":"Hampden County","state_id":"MA"},{"zip":"01081","fips":"25013","name":"Hampden County","state_id":"MA"},{"zip":"01082","fips":"25027","name":"Worcester County","state_id":"MA"},{"zip":"01082","fips":"25015","name":"Hampshire County","state_id":"MA"},{"zip":"01082","fips":"25013","name":"Hampden County","state_id":"MA"},{"zip":"01083","fips":"25027","name":"Worcester County","state_id":"MA"},{"zip":"01084","fips":"25015","name":"Hampshire County","state_id":"MA"},{"zip":"01085","fips":"25013","name":"Hampden County","state_id":"MA"},{"zip":"01088","fips":"25015","name":"Hampshire County","state_id":"MA"},{"zip":"01089","fips":"25013","name":"Hampden County","state_id":"MA"},{"zip":"01090","fips":"25013","name":"Hampden County","state_id":"MA"},{"zip":"01092","fips":"25027","name":"Worcester County","state_id":"MA"},{"zip":"01093","fips":"25011","name":"Franklin County","state_id":"MA"},{"zip":"01094","fips":"25027","name":"Worcester County","state_id":"MA"},{"zip":"01095","fips":"25013","name":"Hampden County","state_id":"MA"},{"zip":"01096","fips":"25015","name":"Hampshire County","state_id":"MA"},{"zip":"01096","fips":"25011","name":"Franklin County","state_id":"MA"},{"zip":"01097","fips":"25013","name":"Hampden County","state_id":"MA"},{"zip":"01098","fips":"25015","name":"Hampshire County","state_id":"MA"}]
