[{"zip":"01101","fips":"25013","name":"Hampden County","state_id":"MA"},{"zip":"01103","fips":"25013","name":"Hampden County","state_id":"MA"},{"zip":"01104","fips":"25013","name":"Hampden County","state_id":"MA"},{"zip":"01105","fips":"25013","name":"Hampden County","state_id":"MA"},{"zip":"01106","fips":"25013","name":"Hampden County","state_id":"MA"},{"zip":"01107","fips":"25013","name":"Hampden County","state_id":"MA"},{"zip":"01108","fips":"25013","name":"Hampden County","state_id":"MA"},{"zip":"01109","fips":"25013","name":"Hampden County","state_id":"MA"},{"zip":"01111","fips":"25013","name":"Hampden County","state_id":"MA"},{"zip":"01115","fips":"25013","name":"Hampden County","state_id":"MA"},{"zip":"01116","fips":"25013","name":"Hampden County","state_id":"MA"},{"zip":"01118","fips":"25013","name":"Hampden County","state_id":"MA"},{"zip":"01119","fips":"25013","name":"Hampden County","state_id":"MA"},{"zip":"01128","fips":"25013","name":"Hampden County","state_id":"MA"},{"zip":"01129","fips":"25013","name":"Hampden County","state_id":"MA"},{"zip":"01138","fips":"25013","name":"Hampden County","state_id":"MA"},{"zip":"01139","fips":"25013","name":"Hampden County","state_id":"MA"},{"zip":"01144","fips":"25013","name":"Hampden County","state_id":"MA"},{"zip":"01151","fips":"25013","name":"Hampden County","state_id":"MA"},{"zip":"01152","fips":"25013","name":"Hampden County","state_id":"MA"},{"zip":"01199","fips":"25013","name":"Hampden County","state_id":"MA"}]
