[{"zip":"01201","fips":"25003","name":"Berkshire County","state_id":"MA"},{"zip":"01202","fips":"25003","name":"Berkshire County","state_id":"MA"},{"zip":"01220","fips":"25003","name":"Berkshire County","state_id":"MA"},{"zip":"01222","fips":"25003","name":"Berkshire County","state_id":"MA"},{"zip":"01223","fips":"25013","name":"Hampden County","state_id":"MA"},{"zip":"01223","fips":"25003","name":"Berkshire County","state_id":"MA"},{"zip":"01224","fips":"25003","name":"Berkshire County","state_id":"MA"},{"zip":"01225","fips":"25003","name":"Berkshire County","state_id":"MA"},{"zip":"01226","fips":"25003","name":"Berkshire County","state_id":"MA"},{"zip":"01227","fips":"25003","name":"Berkshire County","state_id":"MA"},{"zip":"01229","fips":"25003","name":"Berkshire County","state_id":"MA"},{"zip":"01230","fips":"25003","name":"Berkshire County","state_id":"MA"},{"zip":"01235","fips":"25015","name":"Hampshire County","state_id":"MA"},{"zip":"01235","fips":"25003","name":"Berkshire County","state_id":"MA"},{"zip":"01236","fips":"25003","name":"Berkshire County","state_id":"MA"},{"zip":"01237","fips":"25003","name":"Berkshire County","state_id":"MA"},{"zip":"01238","fips":"25003","name":"Berkshire County","state_id":"MA"},{"zip":"01240","fips":"25003","name":"Berkshire County","state_id":"MA"},{"zip":"01242","fips":"25003","name":"Berkshire County","state_id":"MA"},{"zip":"01243","fips":"25015","name":"Hampshire County","state_id":"MA"},{"zip":"01244","fips":"25003","name":"Berkshire County","state_id":"MA"},{"zip":"01245","fips":"25003","name":"Berkshire County","state_id":"MA"},{"zip":"01247","fips":"25011","name":"Franklin County","state_id":"MA"},{"zip":"01247","fips":"25003","name":"Berkshire County","state_id":"MA"},{"zip":"01252","fips":"25003","name":"Berkshire County","state_id":"MA"},{"zip":"01253","fips":"25003","name":"Berkshire County","state_id":"MA"},{"zip":"01254","fips":"25003","name":"Berkshire County","state_id":"MA"},{"zip":"01255","fips":"25003","name":"Berkshire County","state_id":"MA"},{"zip":"01256","fips":"25003","name":"Berkshire County","state_id":"MA"},{"zip":"01257","fips":"25003","name":"Berkshire County","state_id":"MA"},{"zip":"01258","fips":"25003","name":"Berkshire County","state_id":"MA"},{"zip":"01259","fips":"25003","name":"Berkshire County","state_id":"MA"},{"zip":"01260","fips":"25003","name":"Berkshire County","state_id":"MA"},{"zip":"01262","fips":"25003","name":"Berkshire County","state_id":"MA"},{"zip":"01263","fips":"25003","name":"Berkshire County","state_id":"MA"},{"zip":"01264","fips":"25003","name":"Berkshire County","state_id":"MA"},{"zip":"01266","fips":"25003","name":"Berkshire County","state_id":"MA"},{"zip":"01267","fips":"25003","name":"Berkshire County","state_id":"MA"},{"zip":"01270","fips":"25003","name":"Berkshire County","state_id":"MA"}]
