[{"zip":"01301","fips":"25011","name":"Franklin County","state_id":"MA"},{"zip":"01302","fips":"25011","name":"Franklin County","state_id":"MA"},{"zip":"01330","fips":"25011","name":"Franklin County","state_id":"MA"},{"zip":"01330","fips":"25015","name":"Hampshire County","state_id":"MA"},{"zip":"01331","fips":"25011","name":"Franklin County","state_id":"MA"},{"zip":"01331","fips":"25027","name":"Worcester County","state_id":"MA"},{"zip":"01337","fips":"25011","name":"Franklin County","state_id":"MA"},{"zip":"01338","fips":"25011","name":"Franklin County","state_id":"MA"},{"zip":"01339","fips":"25015","name":"Hampshire County","state_id":"MA"},{"zip":"01339","fips":"25011","name":"Franklin County","state_id":"MA"},{"zip":"01340","fips":"25011","name":"Franklin County","state_id":"MA"},{"zip":"01341","fips":"25011","name":"Franklin County","state_id":"MA"},{"zip":"01342","fips":"25011","name":"Franklin County","state_id":"MA"},{"zip":"01343","fips":"25003","name":"Berkshire County","state_id":"MA"},{"zip":"01343","fips":"25011","name":"Franklin County","state_id":"MA"},{"zip":"01344","fips":"25011","name":"Franklin County","state_id":"MA"},{"zip":"01346","fips":"25011","name":"Franklin County","state_id":"MA"},{"zip":"01347","fips":"25011","name":"Franklin County","state_id":"MA"},{"zip":"01349","fips":"25011","name":"Franklin County","state_id":"MA"},{"zip":"01350","fips":"25011","name":"Franklin County","state_id":"MA"},{"zip":"01351","fips":"25011","name":"Franklin County","state_id":"MA"},{"zip":"01354","fips":"25011","name":"Franklin County","state_id":"MA"},{"zip":"01355","fips":"25011","name":"Franklin County","state_id":"MA"},{"zip":"01360","fips":"25011","name":"Franklin County","state_id":"MA"},{"zip":"01364","fips":"25011","name":"Franklin County","state_id":"MA"},{"zip":"01364","fips":"25027","name":"Worcester County","state_id":"MA"},{"zip":"01366","fips":"25027","name":"Worcester County","state_id":"MA"},{"zip":"01367","fips":"25003","name":"Berkshire County","state_id":"MA"},{"zip":"01367","fips":"25011","name":"Franklin County","state_id":"MA"},{"zip":"01368","fips":"25027","name":"Worcester County","state_id":"MA"},{"zip":"01370","fips":"25011","name":"Franklin County","state_id":"MA"},{"zip":"01373","fips":"25011","name":"Franklin County","state_id":"MA"},{"zip":"01375","fips":"25011","name":"Franklin County","state_id":"MA"},{"zip":"01376","fips":"25011","name":"Franklin County","state_id":"MA"},{"zip":"01378","fips":"25011","name":"Franklin County","state_id":"MA"},{"zip":"01379","fips":"25011","name":"Franklin County","state_id":"MA"},{"zip":"01380","fips":"25011","name":"Franklin County","state_id":"MA"}]
