[{"zip":"01501","fips":"25027","name":"Worcester County","state_id":"MA"},{"zip":"01503","fips":"25017","name":"Middlesex County","state_id":"MA"},{"zip":"01503","fips":"25027","name":"Worcester County","state_id":"MA"},{"zip":"01504","fips":"25021","name":"Norfolk County","state_id":"MA"},{"zip":"01504","fips":"25027","name":"Worcester County","state_id":"MA"},{"zip":"01505","fips":"25027","name":"Worcester County","state_id":"MA"},{"zip":"01506","fips":"25027","name":"Worcester County","state_id":"MA"},{"zip":"01507","fips":"25027","name":"Worcester County","state_id":"MA"},{"zip":"01508","fips":"25027","name":"Worcester County","state_id":"MA"},{"zip":"01509","fips":"25027","name":"Worcester County","state_id":"MA"},{"zip":"01510","fips":"25027","name":"Worcester County","state_id":"MA"},{"zip":"01515","fips":"25027","name":"Worcester County","state_id":"MA"},{"zip":"01516","fips":"25027","name":"Worcester County","state_id":"MA"},{"zip":"01518","fips":"25027","name":"Worcester County","state_id":"MA"},{"zip":"01519","fips":"25027","name":"Worcester County","state_id":"MA"},{"zip":"01520","fips":"25027","name":"Worcester County","state_id":"MA"},{"zip":"01521","fips":"25013","name":"Hampden County","state_id":"MA"},{"zip":"01522","fips":"25027","name":"Worcester County","state_id":"MA"},{"zip":"01523","fips":"25027","name":"Worcester County","state_id":"MA"},{"zip":"01524","fips":"25027","name":"Worcester County","state_id":"MA"},{"zip":"01525","fips":"25027","name":"Worcester County","state_id":"MA"},{"zip":"01526","fips":"25027","name":"Worcester County","state_id":"MA"},{"zip":"01527","fips":"25027","name":"Worcester County","state_id":"MA"},{"zip":"01529","fips":"25027","name":"Worcester County","state_id":"MA"},{"zip":"01531","fips":"25027","name":"Worcester County","state_id":"MA"},{"zip":"01532","fips":"25027","name":"Worcester County","state_id":"MA"},{"zip":"01532","fips":"25017","name":"Middlesex County","state_id":"MA"},{"zip":"01534","fips":"25027","name":"Worcester County","state_id":"MA"},{"zip":"01535","fips":"25027","name":"Worcester County","state_id":"MA"},{"zip":"01536","fips":"25027","name":"Worcester County","state_id":"MA"},{"zip":"01537","fips":"25027","name":"Worcester County","state_id":"MA"},{"zip":"01538","fips":"25027","name":"Worcester County","state_id":"MA"},{"zip":"01540","fips":"25027","name":"Worcester County","state_id":"MA"},{"zip":"01541","fips":"25027","name":"Worcester County","state_id":"MA"},{"zip":"01542","fips":"25027","name":"Worcester County","state_id":"MA"},{"zip":"01543","fips":"25027","name":"Worcester County","state_id":"MA"},{"zip":"01545","fips":"25027","name":"Worcester County","state_id":"MA"},{"zip":"01546","fips":"25027","name":"Worcester County","state_id":"MA"},{"zip":"01550","fips":"25027","name":"Worcester County","state_id":"MA"},{"zip":"01560","fips":"25027","name":"Worcester County","state_id":"MA"},{"zip":"01561","fips":"25027","name":"Worcester County","state_id":"MA"},{"zip":"01562","fips":"25027","name":"Worcester County","state_id":"MA"},{"zip":"01564","fips":"25027","name":"Worcester County","state_id":"MA"},{"zip":"01566","fips":"25027","name":"Worcester County","state_id":"MA"},{"zip":"01568","fips":"25027","name":"Worcester County","state_id":"MA"},{"zip":"01569","fips":"25027","name":"Worcester County","state_id":"MA"},{"zip":"01570","fips":"25027","name":"Worcester County","state_id":"MA"},{"zip":"01571","fips":"25027","name":"Worcester County","state_id":"MA"},{"zip":"01581","fips":"25027","name":"Worcester County","state_id":"MA"},{"zip":"01583","fips":"25027","name":"Worcester County","state_id":"MA"},{"zip":"01585","fips":"25027","name":"Worcester County","state_id":"MA"},{"zip":"01586","fips":"25027","name":"Worcester County","state_id":"MA"},{"zip":"01588","fips":"25027","name":"Worcester County","state_id":"MA"},{"zip":"01590","fips":"25027","name":"Worcester County","state_id":"MA"}]
