[{"zip":"01601","fips":"25027","name":"Worcester County","state_id":"MA"},{"zip":"01602","fips":"25027","name":"Worcester County","state_id":"MA"},{"zip":"01603","fips":"25027","name":"Worcester County","state_id":"MA"},{"zip":"01604","fips":"25027","name":"Worcester County","state_id":"MA"},{"zip":"01605","fips":"25027","name":"Worcester County","state_id":"MA"},{"zip":"01606","fips":"25027","name":"Worcester County","state_id":"MA"},{"zip":"01607","fips":"25027","name":"Worcester County","state_id":"MA"},{"zip":"01608","fips":"25027","name":"Worcester County","state_id":"MA"},{"zip":"01609","fips":"25027","name":"Worcester County","state_id":"MA"},{"zip":"01610","fips":"25027","name":"Worcester County","state_id":"MA"},{"zip":"01611","fips":"25027","name":"Worcester County","state_id":"MA"},{"zip":"01612","fips":"25027","name":"Worcester County","state_id":"MA"},{"zip":"01613","fips":"25027","name":"Worcester County","state_id":"MA"},{"zip":"01614","fips":"25027","name":"Worcester County","state_id":"MA"},{"zip":"01653","fips":"25027","name":"Worcester County","state_id":"MA"},{"zip":"01655","fips":"25027","name":"Worcester County","state_id":"MA"}]
