[{"zip":"01701","fips":"25017","name":"Middlesex County","state_id":"MA"},{"zip":"01702","fips":"25017","name":"Middlesex County","state_id":"MA"},{"zip":"01703","fips":"25017","name":"Middlesex County","state_id":"MA"},{"zip":"01704","fips":"25017","name":"Middlesex County","state_id":"MA"},{"zip":"01718","fips":"25017","name":"Middlesex County","state_id":"MA"},{"zip":"01719","fips":"25017","name":"Middlesex County","state_id":"MA"},{"zip":"01720","fips":"25017","name":"Middlesex County","state_id":"MA"},{"zip":"01721","fips":"25017","name":"Middlesex County","state_id":"MA"},{"zip":"01730","fips":"25017","name":"Middlesex County","state_id":"MA"},{"zip":"01731","fips":"25017","name":"Middlesex County","state_id":"MA"},{"zip":"01740","fips":"25027","name":"Worcester County","state_id":"MA"},{"zip":"01741","fips":"25017","name":"Middlesex County","state_id":"MA"},{"zip":"01742","fips":"25017","name":"Middlesex County","state_id":"MA"},{"zip":"01745","fips":"25027","name":"Worcester County","state_id":"MA"},{"zip":"01746","fips":"25017","name":"Middlesex County","state_id":"MA"},{"zip":"01746","fips":"25021","name":"Norfolk County","state_id":"MA"},{"zip":"01747","fips":"25027","name":"Worcester County","state_id":"MA"},{"zip":"01748","fips":"25027","name":"Worcester County","state_id":"MA"},{"zip":"01748","fips":"25017","name":"Middlesex County","state_id":"MA"},{"zip":"01749","fips":"25017","name":"Middlesex County","state_id":"MA"},{"zip":"01749","fips":"25027","name":"Worcester County","state_id":"MA"},{"zip":"01752","fips":"25017","name":"Middlesex County","state_id":"MA"},{"zip":"01752","fips":"25027","name":"Worcester County","state_id":"MA"},{"zip":"01754","fips":"25017","name":"Middlesex County","state_id":"MA"},{"zip":"01756","fips":"25027","name":"Worcester County","state_id":"MA"},{"zip":"01756","fips":"25021","name":"Norfolk County","state_id":"MA"},{"zip":"01757","fips":"25027","name":"Worcester County","state_id":"MA"},{"zip":"01760","fips":"25017","name":"Middlesex County","state_id":"MA"},{"zip":"01760","fips":"25021","name":"Norfolk County","state_id":"MA"},{"zip":"01770","fips":"25017","name":"Middlesex County","state_id":"MA"},{"zip":"01772","fips":"25027","name":"Worcester County","state_id":"MA"},{"zip":"01773","fips":"25017","name":"Middlesex County","state_id":"MA"},{"zip":"01775","fips":"25017","name":"Middlesex County","state_id":"MA"},{"zip":"01776","fips":"25017","name":"Middlesex County","state_id":"MA"},{"zip":"01778","fips":"25017","name":"Middlesex County","state_id":"MA"},{"zip":"01784","fips":"25017","name":"Middlesex County","state_id":"MA"}]
