[{"zip":"01801","fips":"25017","name":"Middlesex County","state_id":"MA"},{"zip":"01803","fips":"25017","name":"Middlesex County","state_id":"MA"},{"zip":"01805","fips":"25017","name":"Middlesex County","state_id":"MA"},{"zip":"01810","fips":"25017","name":"Middlesex County","state_id":"MA"},{"zip":"01810","fips":"25009","name":"Essex County","state_id":"MA"},{"zip":"01812","fips":"25009","name":"Essex County","state_id":"MA"},{"zip":"01821","fips":"25017","name":"Middlesex County","state_id":"MA"},{"zip":"01822","fips":"25017","name":"Middlesex County","state_id":"MA"},{"zip":"01824","fips":"25017","name":"Middlesex County","state_id":"MA"},{"zip":"01826","fips":"25017","name":"Middlesex County","state_id":"MA"},{"zip":"01826","fips":"25009","name":"Essex County","state_id":"MA"},{"zip":"01827","fips":"25017","name":"Middlesex County","state_id":"MA"},{"zip":"01830","fips":"25009","name":"Essex County","state_id":"MA"},{"zip":"01831","fips":"25009","name":"Essex County","state_id":"MA"},{"zip":"01832","fips":"25009","name":"Essex County","state_id":"MA"},{"zip":"01833","fips":"25009","name":"Essex County","state_id":"MA"},{"zip":"01834","fips":"25009","name":"Essex County","state_id":"MA"},{"zip":"01835","fips":"25009","name":"Essex County","state_id":"MA"},{"zip":"01840","fips":"25009","name":"Essex County","state_id":"MA"},{"zip":"01841","fips":"25009","name":"Essex County","state_id":"MA"},{"zip":"01842","fips":"25009","name":"Essex County","state_id":"MA"},{"zip":"01843","fips":"25009","name":"Essex County","state_id":"MA"},{"zip":"01844","fips":"25009","name":"Essex County","state_id":"MA"},{"zip":"01845","fips":"25009","name":"Essex County","state_id":"MA"},{"zip":"01850","fips":"25017","name":"Middlesex County","state_id":"MA"},{"zip":"01851","fips":"25017","name":"Middlesex County","state_id":"MA"},{"zip":"01852","fips":"25017","name":"Middlesex County","state_id":"MA"},{"zip":"01853","fips":"25017","name":"Middlesex County","state_id":"MA"},{"zip":"01854","fips":"25017","name":"Middlesex County","state_id":"MA"},{"zip":"01860","fips":"25009","name":"Essex County","state_id":"MA"},{"zip":"01862","fips":"25017","name":"Middlesex County","state_id":"MA"},{"zip":"01863","fips":"25017","name":"Middlesex County","state_id":"MA"},{"zip":"01864","fips":"25017","name":"Middlesex County","state_id":"MA"},{"zip":"01865","fips":"25017","name":"Middlesex County","state_id":"MA"},{"zip":"01866","fips":"25017","name":"Middlesex County","state_id":"MA"},{"zip":"01867","fips":"25017","name":"Middlesex County","state_id":"MA"},{"zip":"01876","fips":"25017","name":"Middlesex County","state_id":"MA"},{"zip":"01876","fips":"25009","name":"Essex County","state_id":"MA"},{"zip":"01879","fips":"25017","name":"Middlesex County","state_id":"MA"},{"zip":"01880","fips":"25017","name":"Middlesex County","state_id":"MA"},{"zip":"01880","fips":"25009","name":"Essex County","state_id":"MA"},{"zip":"01885","fips":"25009","name":"Essex County","state_id":"MA"},{"zip":"01886","fips":"25017","name":"Middlesex County","state_id":"MA"},{"zip":"01887","fips":"25017","name":"Middlesex County","state_id":"MA"},{"zip":"01888","fips":"25017","name":"Middlesex County","state_id":"MA"},{"zip":"01889","fips":"25017","name":"Middlesex County","state_id":"MA"},{"zip":"01890","fips":"25017","name":"Middlesex County","state_id":"MA"},{"zip":"01899","fips":"25009","name":"Essex County","state_id":"MA"}]
