[{"zip":"02018","fips":"25023","name":"Plymouth County","state_id":"MA"},{"zip":"02019","fips":"25021","name":"Norfolk County","state_id":"MA"},{"zip":"02020","fips":"25023","name":"Plymouth County","state_id":"MA"},{"zip":"02021","fips":"25021","name":"Norfolk County","state_id":"MA"},{"zip":"02025","fips":"25023","name":"Plymouth County","state_id":"MA"},{"zip":"02025","fips":"25021","name":"Norfolk County","state_id":"MA"},{"zip":"02026","fips":"25021","name":"Norfolk County","state_id":"MA"},{"zip":"02026","fips":"25025","name":"Suffolk County","state_id":"MA"},{"zip":"02027","fips":"25021","name":"Norfolk County","state_id":"MA"},{"zip":"02030","fips":"25021","name":"Norfolk County","state_id":"MA"},{"zip":"02030","fips":"25017","name":"Middlesex County","state_id":"MA"},{"zip":"02032","fips":"25021","name":"Norfolk County","state_id":"MA"},{"zip":"02035","fips":"25021","name":"Norfolk County","state_id":"MA"},{"zip":"02038","fips":"25021","name":"Norfolk County","state_id":"MA"},{"zip":"02041","fips":"25023","name":"Plymouth County","state_id":"MA"},{"zip":"02043","fips":"25021","name":"Norfolk County","state_id":"MA"},{"zip":"02043","fips":"25023","name":"Plymouth County","state_id":"MA"},{"zip":"02044","fips":"25023","name":"Plymouth County","state_id":"MA"},{"zip":"02045","fips":"25023","name":"Plymouth County","state_id":"MA"},{"zip":"02047","fips":"25023","name":"Plymouth County","state_id":"MA"},{"zip":"02048","fips":"25005","name":"Bristol County","state_id":"MA"},{"zip":"02048","fips":"25021","name":"Norfolk County","state_id":"MA"},{"zip":"02050","fips":"25023","name":"Plymouth County","state_id":"MA"},{"zip":"02051","fips":"25023","name":"Plymouth County","state_id":"MA"},{"zip":"02052","fips":"25021","name":"Norfolk County","state_id":"MA"},{"zip":"02053","fips":"25021","name":"Norfolk County","state_id":"MA"},{"zip":"02054","fips":"25021","name":"Norfolk County","state_id":"MA"},{"zip":"02056","fips":"25021","name":"Norfolk County","state_id":"MA"},{"zip":"02059","fips":"25023","name":"Plymouth County","state_id":"MA"},{"zip":"02060","fips":"25023","name":"Plymouth County","state_id":"MA"},{"zip":"02061","fips":"25023","name":"Plymouth County","state_id":"MA"},{"zip":"02062","fips":"25021","name":"Norfolk County","state_id":"MA"},{"zip":"02065","fips":"25023","name":"Plymouth County","state_id":"MA"},{"zip":"02066","fips":"25023","name":"Plymouth County","state_id":"MA"},{"zip":"02066","fips":"25021","name":"Norfolk County","state_id":"MA"},{"zip":"02067","fips":"25021","name":"Norfolk County","state_id":"MA"},{"zip":"02070","fips":"25021","name":"Norfolk County","state_id":"MA"},{"zip":"02071","fips":"25021","name":"Norfolk County","state_id":"MA"},{"zip":"02072","fips":"25021","name":"Norfolk County","state_id":"MA"},{"zip":"02081","fips":"25021","name":"Norfolk County","state_id":"MA"},{"zip":"02090","fips":"25021","name":"Norfolk County","state_id":"MA"},{"zip":"02093","fips":"25021","name":"Norfolk County","state_id":"MA"}]
