[{"zip":"02108","fips":"25025","name":"Suffolk County","state_id":"MA"},{"zip":"02109","fips":"25025","name":"Suffolk County","state_id":"MA"},{"zip":"02110","fips":"25025","name":"Suffolk County","state_id":"MA"},{"zip":"02111","fips":"25025","name":"Suffolk County","state_id":"MA"},{"zip":"02112","fips":"25025","name":"Suffolk County","state_id":"MA"},{"zip":"02113","fips":"25025","name":"Suffolk County","state_id":"MA"},{"zip":"02114","fips":"25025","name":"Suffolk County","state_id":"MA"},{"zip":"02115","fips":"25025","name":"Suffolk County","state_id":"MA"},{"zip":"02116","fips":"25025","name":"Suffolk County","state_id":"MA"},{"zip":"02117","fips":"25025","name":"Suffolk County","state_id":"MA"},{"zip":"02118","fips":"25025","name":"Suffolk County","state_id":"MA"},{"zip":"02119","fips":"25025","name":"Suffolk County","state_id":"MA"},{"zip":"02120","fips":"25025","name":"Suffolk County","state_id":"MA"},{"zip":"02121","fips":"25025","name":"Suffolk County","state_id":"MA"},{"zip":"02122","fips":"25025","name":"Suffolk County","state_id":"MA"},{"zip":"02123","fips":"25025","name":"Suffolk County","state_id":"MA"},{"zip":"02124","fips":"25021","name":"Norfolk County","state_id":"MA"},{"zip":"02124","fips":"25025","name":"Suffolk County","state_id":"MA"},{"zip":"02125","fips":"25025","name":"Suffolk County","state_id":"MA"},{"zip":"02126","fips":"25025","name":"Suffolk County","state_id":"MA"},{"zip":"02127","fips":"25025","name":"Suffolk County","state_id":"MA"},{"zip":"02128","fips":"25025","name":"Suffolk County","state_id":"MA"},{"zip":"02129","fips":"25025","name":"Suffolk County","state_id":"MA"},{"zip":"02130","fips":"25021","name":"Norfolk County","state_id":"MA"},{"zip":"02130","fips":"25025","name":"Suffolk County","state_id":"MA"},{"zip":"02131","fips":"25025","name":"Suffolk County","state_id":"MA"},{"zip":"02132","fips":"25025","name":"Suffolk County","state_id":"MA"},{"zip":"02133","fips":"25025","name":"Suffolk County","state_id":"MA"},{"zip":"02134","fips":"25025","name":"Suffolk County","state_id":"MA"},{"zip":"02135","fips":"25021","name":"Norfolk County","state_id":"MA"},{"zip":"02135","fips":"25025","name":"Suffolk County","state_id":"MA"},{"zip":"02136","fips":"25021","name":"Norfolk County","state_id":"MA"},{"zip":"02136","fips":"25025","name":"Suffolk County","state_id":"MA"},{"zip":"02137","fips":"25025","name":"Suffolk County","state_id":"MA"},{"zip":"02138","fips":"25017","name":"Middlesex County","state_id":"MA"},{"zip":"02139","fips":"25017","name":"Middlesex County","state_id":"MA"},{"zip":"02140","fips":"25017","name":"Middlesex County","state_id":"MA"},{"zip":"02141","fips":"25025","name":"Suffolk County","state_id":"MA"},{"zip":"02141","fips":"25017","name":"Middlesex County","state_id":"MA"},{"zip":"02142","fips":"25017","name":"Middlesex County","state_id":"MA"},{"zip":"02143","fips":"25017","name":"Middlesex County","state_id":"MA"},{"zip":"02144","fips":"25017","name":"Middlesex County","state_id":"MA"},{"zip":"02145","fips":"25017","name":"Middlesex County","state_id":"MA"},{"zip":"02148","fips":"25009","name":"Essex County","state_id":"MA"},{"zip":"02148","fips":"25025","name":"Suffolk County","state_id":"MA"},{"zip":"02148","fips":"25017","name":"Middlesex County","state_id":"MA"},{"zip":"02149","fips":"25025","name":"Suffolk County","state_id":"MA"},{"zip":"02149","fips":"25017","name":"Middlesex County","state_id":"MA"},{"zip":"02150","fips":"25025","name":"Suffolk County","state_id":"MA"},{"zip":"02150","fips":"25017","name":"Middlesex County","state_id":"MA"},{"zip":"02151","fips":"25017","name":"Middlesex County","state_id":"MA"},{"zip":"02151","fips":"25025","name":"Suffolk County","state_id":"MA"},{"zip":"02152","fips":"25025","name":"Suffolk County","state_id":"MA"},{"zip":"02155","fips":"25017","name":"Middlesex County","state_id":"MA"},{"zip":"02163","fips":"25025","name":"Suffolk County","state_id":"MA"},{"zip":"02169","fips":"25021","name":"Norfolk County","state_id":"MA"},{"zip":"02170","fips":"25021","name":"Norfolk County","state_id":"MA"},{"zip":"02171","fips":"25021","name":"Norfolk County","state_id":"MA"},{"zip":"02176","fips":"25017","name":"Middlesex County","state_id":"MA"},{"zip":"02176","fips":"25009","name":"Essex County","state_id":"MA"},{"zip":"02180","fips":"25017","name":"Middlesex County","state_id":"MA"},{"zip":"02184","fips":"25021","name":"Norfolk County","state_id":"MA"},{"zip":"02185","fips":"25021","name":"Norfolk County","state_id":"MA"},{"zip":"02186","fips":"25025","name":"Suffolk County","state_id":"MA"},{"zip":"02186","fips":"25021","name":"Norfolk County","state_id":"MA"},{"zip":"02188","fips":"25021","name":"Norfolk County","state_id":"MA"},{"zip":"02189","fips":"25023","name":"Plymouth County","state_id":"MA"},{"zip":"02189","fips":"25021","name":"Norfolk County","state_id":"MA"},{"zip":"02190","fips":"25021","name":"Norfolk County","state_id":"MA"},{"zip":"02191","fips":"25021","name":"Norfolk County","state_id":"MA"},{"zip":"02196","fips":"25025","name":"Suffolk County","state_id":"MA"},{"zip":"02199","fips":"25025","name":"Suffolk County","state_id":"MA"}]
