[{"zip":"02301","fips":"25023","name":"Plymouth County","state_id":"MA"},{"zip":"02302","fips":"25021","name":"Norfolk County","state_id":"MA"},{"zip":"02302","fips":"25023","name":"Plymouth County","state_id":"MA"},{"zip":"02303","fips":"25023","name":"Plymouth County","state_id":"MA"},{"zip":"02304","fips":"25023","name":"Plymouth County","state_id":"MA"},{"zip":"02305","fips":"25023","name":"Plymouth County","state_id":"MA"},{"zip":"02322","fips":"25021","name":"Norfolk County","state_id":"MA"},{"zip":"02324","fips":"25023","name":"Plymouth County","state_id":"MA"},{"zip":"02325","fips":"25023","name":"Plymouth County","state_id":"MA"},{"zip":"02327","fips":"25023","name":"Plymouth County","state_id":"MA"},{"zip":"02330","fips":"25023","name":"Plymouth County","state_id":"MA"},{"zip":"02331","fips":"25023","name":"Plymouth County","state_id":"MA"},{"zip":"02332","fips":"25023","name":"Plymouth County","state_id":"MA"},{"zip":"02333","fips":"25023","name":"Plymouth County","state_id":"MA"},{"zip":"02334","fips":"25005","name":"Bristol County","state_id":"MA"},{"zip":"02337","fips":"25023","name":"Plymouth County","state_id":"MA"},{"zip":"02338","fips":"25023","name":"Plymouth County","state_id":"MA"},{"zip":"02339","fips":"25023","name":"Plymouth County","state_id":"MA"},{"zip":"02341","fips":"25023","name":"Plymouth County","state_id":"MA"},{"zip":"02343","fips":"25021","name":"Norfolk County","state_id":"MA"},{"zip":"02344","fips":"25023","name":"Plymouth County","state_id":"MA"},{"zip":"02345","fips":"25023","name":"Plymouth County","state_id":"MA"},{"zip":"02346","fips":"25023","name":"Plymouth County","state_id":"MA"},{"zip":"02347","fips":"25023","name":"Plymouth County","state_id":"MA"},{"zip":"02347","fips":"25005","name":"Bristol County","state_id":"MA"},{"zip":"02348","fips":"25023","name":"Plymouth County","state_id":"MA"},{"zip":"02349","fips":"25023","name":"Plymouth County","state_id":"MA"},{"zip":"02350","fips":"25023","name":"Plymouth County","state_id":"MA"},{"zip":"02351","fips":"25023","name":"Plymouth County","state_id":"MA"},{"zip":"02355","fips":"25023","name":"Plymouth County","state_id":"MA"},{"zip":"02356","fips":"25021","name":"Norfolk County","state_id":"MA"},{"zip":"02356","fips":"25005","name":"Bristol County","state_id":"MA"},{"zip":"02357","fips":"25005","name":"Bristol County","state_id":"MA"},{"zip":"02358","fips":"25023","name":"Plymouth County","state_id":"MA"},{"zip":"02359","fips":"25023","name":"Plymouth County","state_id":"MA"},{"zip":"02360","fips":"25023","name":"Plymouth County","state_id":"MA"},{"zip":"02360","fips":"25001","name":"Barnstable County","state_id":"MA"},{"zip":"02361","fips":"25023","name":"Plymouth County","state_id":"MA"},{"zip":"02362","fips":"25023","name":"Plymouth County","state_id":"MA"},{"zip":"02364","fips":"25023","name":"Plymouth County","state_id":"MA"},{"zip":"02366","fips":"25023","name":"Plymouth County","state_id":"MA"},{"zip":"02367","fips":"25023","name":"Plymouth County","state_id":"MA"},{"zip":"02368","fips":"25021","name":"Norfolk County","state_id":"MA"},{"zip":"02370","fips":"25023","name":"Plymouth County","state_id":"MA"},{"zip":"02375","fips":"25005","name":"Bristol County","state_id":"MA"},{"zip":"02375","fips":"25023","name":"Plymouth County","state_id":"MA"},{"zip":"02379","fips":"25023","name":"Plymouth County","state_id":"MA"},{"zip":"02381","fips":"25023","name":"Plymouth County","state_id":"MA"},{"zip":"02382","fips":"25023","name":"Plymouth County","state_id":"MA"}]
