[{"zip":"02420","fips":"25017","name":"Middlesex County","state_id":"MA"},{"zip":"02421","fips":"25017","name":"Middlesex County","state_id":"MA"},{"zip":"02445","fips":"25025","name":"Suffolk County","state_id":"MA"},{"zip":"02445","fips":"25021","name":"Norfolk County","state_id":"MA"},{"zip":"02446","fips":"25021","name":"Norfolk County","state_id":"MA"},{"zip":"02446","fips":"25025","name":"Suffolk County","state_id":"MA"},{"zip":"02447","fips":"25021","name":"Norfolk County","state_id":"MA"},{"zip":"02451","fips":"25017","name":"Middlesex County","state_id":"MA"},{"zip":"02452","fips":"25017","name":"Middlesex County","state_id":"MA"},{"zip":"02453","fips":"25017","name":"Middlesex County","state_id":"MA"},{"zip":"02454","fips":"25017","name":"Middlesex County","state_id":"MA"},{"zip":"02455","fips":"25017","name":"Middlesex County","state_id":"MA"},{"zip":"02458","fips":"25025","name":"Suffolk County","state_id":"MA"},{"zip":"02458","fips":"25017","name":"Middlesex County","state_id":"MA"},{"zip":"02459","fips":"25017","name":"Middlesex County","state_id":"MA"},{"zip":"02460","fips":"25017","name":"Middlesex County","state_id":"MA"},{"zip":"02461","fips":"25017","name":"Middlesex County","state_id":"MA"},{"zip":"02462","fips":"25017","name":"Middlesex County","state_id":"MA"},{"zip":"02464","fips":"25017","name":"Middlesex County","state_id":"MA"},{"zip":"02465","fips":"25017","name":"Middlesex County","state_id":"MA"},{"zip":"02466","fips":"25017","name":"Middlesex County","state_id":"MA"},{"zip":"02467","fips":"25017","name":"Middlesex County","state_id":"MA"},{"zip":"02467","fips":"25025","name":"Suffolk County","state_id":"MA"},{"zip":"02467","fips":"25021","name":"Norfolk County","state_id":"MA"},{"zip":"02468","fips":"25017","name":"Middlesex County","state_id":"MA"},{"zip":"02471","fips":"25017","name":"Middlesex County","state_id":"MA"},{"zip":"02472","fips":"25017","name":"Middlesex County","state_id":"MA"},{"zip":"02474","fips":"25017","name":"Middlesex County","state_id":"MA"},{"zip":"02476","fips":"25017","name":"Middlesex County","state_id":"MA"},{"zip":"02477","fips":"25017","name":"Middlesex County","state_id":"MA"},{"zip":"02478","fips":"25017","name":"Middlesex County","state_id":"MA"},{"zip":"02481","fips":"25021","name":"Norfolk County","state_id":"MA"},{"zip":"02482","fips":"25017","name":"Middlesex County","state_id":"MA"},{"zip":"02482","fips":"25021","name":"Norfolk County","state_id":"MA"},{"zip":"02492","fips":"25021","name":"Norfolk County","state_id":"MA"},{"zip":"02493","fips":"25017","name":"Middlesex County","state_id":"MA"},{"zip":"02494","fips":"25021","name":"Norfolk County","state_id":"MA"}]
