[{"zip":"02532","fips":"25023","name":"Plymouth County","state_id":"MA"},{"zip":"02532","fips":"25001","name":"Barnstable County","state_id":"MA"},{"zip":"02534","fips":"25001","name":"Barnstable County","state_id":"MA"},{"zip":"02535","fips":"25007","name":"Dukes County","state_id":"MA"},{"zip":"02536","fips":"25001","name":"Barnstable County","state_id":"MA"},{"zip":"02537","fips":"25001","name":"Barnstable County","state_id":"MA"},{"zip":"02538","fips":"25023","name":"Plymouth County","state_id":"MA"},{"zip":"02539","fips":"25007","name":"Dukes County","state_id":"MA"},{"zip":"02540","fips":"25001","name":"Barnstable County","state_id":"MA"},{"zip":"02541","fips":"25001","name":"Barnstable County","state_id":"MA"},{"zip":"02542","fips":"25001","name":"Barnstable County","state_id":"MA"},{"zip":"02543","fips":"25001","name":"Barnstable County","state_id":"MA"},{"zip":"02552","fips":"25007","name":"Dukes County","state_id":"MA"},{"zip":"02553","fips":"25001","name":"Barnstable County","state_id":"MA"},{"zip":"02554","fips":"25019","name":"Nantucket County","state_id":"MA"},{"zip":"02556","fips":"25001","name":"Barnstable County","state_id":"MA"},{"zip":"02557","fips":"25007","name":"Dukes County","state_id":"MA"},{"zip":"02558","fips":"25023","name":"Plymouth County","state_id":"MA"},{"zip":"02559","fips":"25001","name":"Barnstable County","state_id":"MA"},{"zip":"02561","fips":"25001","name":"Barnstable County","state_id":"MA"},{"zip":"02562","fips":"25001","name":"Barnstable County","state_id":"MA"},{"zip":"02563","fips":"25001","name":"Barnstable County","state_id":"MA"},{"zip":"02564","fips":"25019","name":"Nantucket County","state_id":"MA"},{"zip":"02568","fips":"25005","name":"Bristol County","state_id":"MA"},{"zip":"02568","fips":"25007","name":"Dukes County","state_id":"MA"},{"zip":"02571","fips":"25023","name":"Plymouth County","state_id":"MA"},{"zip":"02574","fips":"25001","name":"Barnstable County","state_id":"MA"},{"zip":"02575","fips":"25007","name":"Dukes County","state_id":"MA"},{"zip":"02576","fips":"25023","name":"Plymouth County","state_id":"MA"},{"zip":"02584","fips":"25019","name":"Nantucket County","state_id":"MA"}]
