[{"zip":"02702","fips":"25023","name":"Plymouth County","state_id":"MA"},{"zip":"02702","fips":"25005","name":"Bristol County","state_id":"MA"},{"zip":"02703","fips":"25005","name":"Bristol County","state_id":"MA"},{"zip":"02712","fips":"25005","name":"Bristol County","state_id":"MA"},{"zip":"02713","fips":"25007","name":"Dukes County","state_id":"MA"},{"zip":"02715","fips":"25005","name":"Bristol County","state_id":"MA"},{"zip":"02717","fips":"25005","name":"Bristol County","state_id":"MA"},{"zip":"02718","fips":"25005","name":"Bristol County","state_id":"MA"},{"zip":"02719","fips":"25005","name":"Bristol County","state_id":"MA"},{"zip":"02720","fips":"25005","name":"Bristol County","state_id":"MA"},{"zip":"02721","fips":"25005","name":"Bristol County","state_id":"MA"},{"zip":"02722","fips":"25005","name":"Bristol County","state_id":"MA"},{"zip":"02723","fips":"25005","name":"Bristol County","state_id":"MA"},{"zip":"02724","fips":"25005","name":"Bristol County","state_id":"MA"},{"zip":"02725","fips":"25005","name":"Bristol County","state_id":"MA"},{"zip":"02726","fips":"25005","name":"Bristol County","state_id":"MA"},{"zip":"02738","fips":"25023","name":"Plymouth County","state_id":"MA"},{"zip":"02739","fips":"25023","name":"Plymouth County","state_id":"MA"},{"zip":"02740","fips":"25005","name":"Bristol County","state_id":"MA"},{"zip":"02741","fips":"25005","name":"Bristol County","state_id":"MA"},{"zip":"02742","fips":"25005","name":"Bristol County","state_id":"MA"},{"zip":"02743","fips":"25005","name":"Bristol County","state_id":"MA"},{"zip":"02744","fips":"25005","name":"Bristol County","state_id":"MA"},{"zip":"02745","fips":"25005","name":"Bristol County","state_id":"MA"},{"zip":"02746","fips":"25005","name":"Bristol County","state_id":"MA"},{"zip":"02747","fips":"25005","name":"Bristol County","state_id":"MA"},{"zip":"02748","fips":"25005","name":"Bristol County","state_id":"MA"},{"zip":"02760","fips":"25005","name":"Bristol County","state_id":"MA"},{"zip":"02761","fips":"25005","name":"Bristol County","state_id":"MA"},{"zip":"02762","fips":"25021","name":"Norfolk County","state_id":"MA"},{"zip":"02763","fips":"25005","name":"Bristol County","state_id":"MA"},{"zip":"02764","fips":"25005","name":"Bristol County","state_id":"MA"},{"zip":"02766","fips":"25005","name":"Bristol County","state_id":"MA"},{"zip":"02767","fips":"25023","name":"Plymouth County","state_id":"MA"},{"zip":"02767","fips":"25005","name":"Bristol County","state_id":"MA"},{"zip":"02768","fips":"25005","name":"Bristol County","state_id":"MA"},{"zip":"02769","fips":"25005","name":"Bristol County","state_id":"MA"},{"zip":"02770","fips":"25023","name":"Plymouth County","state_id":"MA"},{"zip":"02770","fips":"25005","name":"Bristol County","state_id":"MA"},{"zip":"02771","fips":"25005","name":"Bristol County","state_id":"MA"},{"zip":"02777","fips":"25005","name":"Bristol County","state_id":"MA"},{"zip":"02779","fips":"25023","name":"Plymouth County","state_id":"MA"},{"zip":"02779","fips":"25005","name":"Bristol County","state_id":"MA"},{"zip":"02780","fips":"25005","name":"Bristol County","state_id":"MA"},{"zip":"02790","fips":"25005","name":"Bristol County","state_id":"MA"},{"zip":"02791","fips":"25005","name":"Bristol County","state_id":"MA"}]
