[{"zip":"02801","fips":"44005","name":"Newport County","state_id":"RI"},{"zip":"02802","fips":"44007","name":"Providence County","state_id":"RI"},{"zip":"02804","fips":"44009","name":"Washington County","state_id":"RI"},{"zip":"02806","fips":"44001","name":"Bristol County","state_id":"RI"},{"zip":"02807","fips":"44009","name":"Washington County","state_id":"RI"},{"zip":"02808","fips":"44009","name":"Washington County","state_id":"RI"},{"zip":"02809","fips":"44001","name":"Bristol County","state_id":"RI"},{"zip":"02812","fips":"44009","name":"Washington County","state_id":"RI"},{"zip":"02813","fips":"44009","name":"Washington County","state_id":"RI"},{"zip":"02814","fips":"44007","name":"Providence County","state_id":"RI"},{"zip":"02815","fips":"44007","name":"Providence County","state_id":"RI"},{"zip":"02816","fips":"44003","name":"Kent County","state_id":"RI"},{"zip":"02816","fips":"44007","name":"Providence County","state_id":"RI"},{"zip":"02817","fips":"44003","name":"Kent County","state_id":"RI"},{"zip":"02818","fips":"44003","name":"Kent County","state_id":"RI"},{"zip":"02822","fips":"44003","name":"Kent County","state_id":"RI"},{"zip":"02822","fips":"44009","name":"Washington County","state_id":"RI"},{"zip":"02823","fips":"44007","name":"Providence County","state_id":"RI"},{"zip":"02824","fips":"44007","name":"Providence County","state_id":"RI"},{"zip":"02825","fips":"44007","name":"Providence County","state_id":"RI"},{"zip":"02826","fips":"44007","name":"Providence County","state_id":"RI"},{"zip":"02827","fips":"44003","name":"Kent County","state_id":"RI"},{"zip":"02828","fips":"44007","name":"Providence County","state_id":"RI"},{"zip":"02829","fips":"44007","name":"Providence County","state_id":"RI"},{"zip":"02830","fips":"44007","name":"Providence County","state_id":"RI"},{"zip":"02831","fips":"44007","name":"Providence County","state_id":"RI"},{"zip":"02831","fips":"44003","name":"Kent County","state_id":"RI"},{"zip":"02832","fips":"44009","name":"Washington County","state_id":"RI"},{"zip":"02833","fips":"44009","name":"Washington County","state_id":"RI"},{"zip":"02835","fips":"44005","name":"Newport County","state_id":"RI"},{"zip":"02836","fips":"44009","name":"Washington County","state_id":"RI"},{"zip":"02837","fips":"44005","name":"Newport County","state_id":"RI"},{"zip":"02838","fips":"44007","name":"Providence County","state_id":"RI"},{"zip":"02839","fips":"44007","name":"Providence County","state_id":"RI"},{"zip":"02840","fips":"44005","name":"Newport County","state_id":"RI"},{"zip":"02841","fips":"44005","name":"Newport County","state_id":"RI"},{"zip":"02842","fips":"44005","name":"Newport County","state_id":"RI"},{"zip":"02852","fips":"44009","name":"Washington County","state_id":"RI"},{"zip":"02852","fips":"44003","name":"Kent County","state_id":"RI"},{"zip":"02857","fips":"44007","name":"Providence County","state_id":"RI"},{"zip":"02858","fips":"44007","name":"Providence County","state_id":"RI"},{"zip":"02859","fips":"44007","name":"Providence County","state_id":"RI"},{"zip":"02860","fips":"44007","name":"Providence County","state_id":"RI"},{"zip":"02861","fips":"44007","name":"Providence County","state_id":"RI"},{"zip":"02862","fips":"44007","name":"Providence County","state_id":"RI"},{"zip":"02863","fips":"44007","name":"Providence County","state_id":"RI"},{"zip":"02864","fips":"44007","name":"Providence County","state_id":"RI"},{"zip":"02865","fips":"44007","name":"Providence County","state_id":"RI"},{"zip":"02871","fips":"44005","name":"Newport County","state_id":"RI"},{"zip":"02872","fips":"44005","name":"Newport County","state_id":"RI"},{"zip":"02873","fips":"44009","name":"Washington County","state_id":"RI"},{"zip":"02874","fips":"44009","name":"Washington County","state_id":"RI"},{"zip":"02875","fips":"44009","name":"Washington County","state_id":"RI"},{"zip":"02876","fips":"44007","name":"Providence County","state_id":"RI"},{"zip":"02877","fips":"44009","name":"Washington County","state_id":"RI"},{"zip":"02878","fips":"44005","name":"Newport County","state_id":"RI"},{"zip":"02879","fips":"44009","name":"Washington County","state_id":"RI"},{"zip":"02880","fips":"44009","name":"Washington County","state_id":"RI"},{"zip":"02881","fips":"44009","name":"Washington County","state_id":"RI"},{"zip":"02882","fips":"44009","name":"Washington County","state_id":"RI"},{"zip":"02883","fips":"44009","name":"Washington County","state_id":"RI"},{"zip":"02885","fips":"44001","name":"Bristol County","state_id":"RI"},{"zip":"02886","fips":"44003","name":"Kent County","state_id":"RI"},{"zip":"02887","fips":"44003","name":"Kent County","state_id":"RI"},{"zip":"02888","fips":"44003","name":"Kent County","state_id":"RI"},{"zip":"02889","fips":"44003","name":"Kent County","state_id":"RI"},{"zip":"02891","fips":"44009","name":"Washington County","state_id":"RI"},{"zip":"02892","fips":"44009","name":"Washington County","state_id":"RI"},{"zip":"02893","fips":"44003","name":"Kent County","state_id":"RI"},{"zip":"02894","fips":"44009","name":"Washington County","state_id":"RI"},{"zip":"02895","fips":"44007","name":"Providence County","state_id":"RI"},{"zip":"02896","fips":"44007","name":"Providence County","state_id":"RI"},{"zip":"02898","fips":"44009","name":"Washington County","state_id":"RI"}]
