[{"zip":"02901","fips":"44007","name":"Providence County","state_id":"RI"},{"zip":"02902","fips":"44007","name":"Providence County","state_id":"RI"},{"zip":"02903","fips":"44007","name":"Providence County","state_id":"RI"},{"zip":"02904","fips":"44007","name":"Providence County","state_id":"RI"},{"zip":"02905","fips":"44007","name":"Providence County","state_id":"RI"},{"zip":"02906","fips":"44007","name":"Providence County","state_id":"RI"},{"zip":"02907","fips":"44007","name":"Providence County","state_id":"RI"},{"zip":"02908","fips":"44007","name":"Providence County","state_id":"RI"},{"zip":"02909","fips":"44007","name":"Providence County","state_id":"RI"},{"zip":"02910","fips":"44007","name":"Providence County","state_id":"RI"},{"zip":"02911","fips":"44007","name":"Providence County","state_id":"RI"},{"zip":"02912","fips":"44007","name":"Providence County","state_id":"RI"},{"zip":"02914","fips":"44007","name":"Providence County","state_id":"RI"},{"zip":"02915","fips":"44007","name":"Providence County","state_id":"RI"},{"zip":"02915","fips":"44001","name":"Bristol County","state_id":"RI"},{"zip":"02916","fips":"44007","name":"Providence County","state_id":"RI"},{"zip":"02917","fips":"44007","name":"Providence County","state_id":"RI"},{"zip":"02918","fips":"44007","name":"Providence County","state_id":"RI"},{"zip":"02919","fips":"44007","name":"Providence County","state_id":"RI"},{"zip":"02920","fips":"44007","name":"Providence County","state_id":"RI"},{"zip":"02920","fips":"44003","name":"Kent County","state_id":"RI"},{"zip":"02921","fips":"44007","name":"Providence County","state_id":"RI"},{"zip":"02940","fips":"44007","name":"Providence County","state_id":"RI"}]
