[{"zip":"03031","fips":"33011","name":"Hillsborough County","state_id":"NH"},{"zip":"03032","fips":"33015","name":"Rockingham County","state_id":"NH"},{"zip":"03033","fips":"33011","name":"Hillsborough County","state_id":"NH"},{"zip":"03034","fips":"33013","name":"Merrimack County","state_id":"NH"},{"zip":"03034","fips":"33015","name":"Rockingham County","state_id":"NH"},{"zip":"03036","fips":"33015","name":"Rockingham County","state_id":"NH"},{"zip":"03037","fips":"33015","name":"Rockingham County","state_id":"NH"},{"zip":"03038","fips":"33015","name":"Rockingham County","state_id":"NH"},{"zip":"03041","fips":"33015","name":"Rockingham County","state_id":"NH"},{"zip":"03042","fips":"33017","name":"Strafford County","state_id":"NH"},{"zip":"03042","fips":"33015","name":"Rockingham County","state_id":"NH"},{"zip":"03043","fips":"33011","name":"Hillsborough County","state_id":"NH"},{"zip":"03044","fips":"33015","name":"Rockingham County","state_id":"NH"},{"zip":"03045","fips":"33011","name":"Hillsborough County","state_id":"NH"},{"zip":"03046","fips":"33013","name":"Merrimack County","state_id":"NH"},{"zip":"03047","fips":"33011","name":"Hillsborough County","state_id":"NH"},{"zip":"03048","fips":"33011","name":"Hillsborough County","state_id":"NH"},{"zip":"03049","fips":"33011","name":"Hillsborough County","state_id":"NH"},{"zip":"03051","fips":"33011","name":"Hillsborough County","state_id":"NH"},{"zip":"03052","fips":"33011","name":"Hillsborough County","state_id":"NH"},{"zip":"03053","fips":"33015","name":"Rockingham County","state_id":"NH"},{"zip":"03054","fips":"33011","name":"Hillsborough County","state_id":"NH"},{"zip":"03055","fips":"33011","name":"Hillsborough County","state_id":"NH"},{"zip":"03057","fips":"33011","name":"Hillsborough County","state_id":"NH"},{"zip":"03060","fips":"33011","name":"Hillsborough County","state_id":"NH"},{"zip":"03061","fips":"33011","name":"Hillsborough County","state_id":"NH"},{"zip":"03062","fips":"33011","name":"Hillsborough County","state_id":"NH"},{"zip":"03063","fips":"33011","name":"Hillsborough County","state_id":"NH"},{"zip":"03064","fips":"33011","name":"Hillsborough County","state_id":"NH"},{"zip":"03070","fips":"33011","name":"Hillsborough County","state_id":"NH"},{"zip":"03071","fips":"33011","name":"Hillsborough County","state_id":"NH"},{"zip":"03073","fips":"33015","name":"Rockingham County","state_id":"NH"},{"zip":"03076","fips":"33015","name":"Rockingham County","state_id":"NH"},{"zip":"03076","fips":"33011","name":"Hillsborough County","state_id":"NH"},{"zip":"03077","fips":"33015","name":"Rockingham County","state_id":"NH"},{"zip":"03079","fips":"33015","name":"Rockingham County","state_id":"NH"},{"zip":"03082","fips":"33011","name":"Hillsborough County","state_id":"NH"},{"zip":"03084","fips":"33011","name":"Hillsborough County","state_id":"NH"},{"zip":"03086","fips":"33011","name":"Hillsborough County","state_id":"NH"},{"zip":"03087","fips":"33015","name":"Rockingham County","state_id":"NH"}]
