[{"zip":"03101","fips":"33011","name":"Hillsborough County","state_id":"NH"},{"zip":"03102","fips":"33013","name":"Merrimack County","state_id":"NH"},{"zip":"03102","fips":"33011","name":"Hillsborough County","state_id":"NH"},{"zip":"03103","fips":"33011","name":"Hillsborough County","state_id":"NH"},{"zip":"03103","fips":"33015","name":"Rockingham County","state_id":"NH"},{"zip":"03104","fips":"33013","name":"Merrimack County","state_id":"NH"},{"zip":"03104","fips":"33011","name":"Hillsborough County","state_id":"NH"},{"zip":"03104","fips":"33015","name":"Rockingham County","state_id":"NH"},{"zip":"03105","fips":"33011","name":"Hillsborough County","state_id":"NH"},{"zip":"03106","fips":"33013","name":"Merrimack County","state_id":"NH"},{"zip":"03106","fips":"33011","name":"Hillsborough County","state_id":"NH"},{"zip":"03108","fips":"33011","name":"Hillsborough County","state_id":"NH"},{"zip":"03109","fips":"33011","name":"Hillsborough County","state_id":"NH"},{"zip":"03110","fips":"33011","name":"Hillsborough County","state_id":"NH"},{"zip":"03111","fips":"33011","name":"Hillsborough County","state_id":"NH"}]
