[{"zip":"03215","fips":"33009","name":"Grafton County","state_id":"NH"},{"zip":"03216","fips":"33013","name":"Merrimack County","state_id":"NH"},{"zip":"03217","fips":"33009","name":"Grafton County","state_id":"NH"},{"zip":"03217","fips":"33001","name":"Belknap County","state_id":"NH"},{"zip":"03218","fips":"33001","name":"Belknap County","state_id":"NH"},{"zip":"03220","fips":"33001","name":"Belknap County","state_id":"NH"},{"zip":"03220","fips":"33013","name":"Merrimack County","state_id":"NH"},{"zip":"03221","fips":"33013","name":"Merrimack County","state_id":"NH"},{"zip":"03222","fips":"33009","name":"Grafton County","state_id":"NH"},{"zip":"03223","fips":"33009","name":"Grafton County","state_id":"NH"},{"zip":"03224","fips":"33013","name":"Merrimack County","state_id":"NH"},{"zip":"03225","fips":"33001","name":"Belknap County","state_id":"NH"},{"zip":"03226","fips":"33003","name":"Carroll County","state_id":"NH"},{"zip":"03226","fips":"33001","name":"Belknap County","state_id":"NH"},{"zip":"03227","fips":"33003","name":"Carroll County","state_id":"NH"},{"zip":"03229","fips":"33013","name":"Merrimack County","state_id":"NH"},{"zip":"03230","fips":"33013","name":"Merrimack County","state_id":"NH"},{"zip":"03230","fips":"33009","name":"Grafton County","state_id":"NH"},{"zip":"03231","fips":"33013","name":"Merrimack County","state_id":"NH"},{"zip":"03233","fips":"33013","name":"Merrimack County","state_id":"NH"},{"zip":"03234","fips":"33015","name":"Rockingham County","state_id":"NH"},{"zip":"03234","fips":"33013","name":"Merrimack County","state_id":"NH"},{"zip":"03235","fips":"33013","name":"Merrimack County","state_id":"NH"},{"zip":"03237","fips":"33013","name":"Merrimack County","state_id":"NH"},{"zip":"03237","fips":"33001","name":"Belknap County","state_id":"NH"},{"zip":"03238","fips":"33009","name":"Grafton County","state_id":"NH"},{"zip":"03240","fips":"33009","name":"Grafton County","state_id":"NH"},{"zip":"03241","fips":"33009","name":"Grafton County","state_id":"NH"},{"zip":"03242","fips":"33013","name":"Merrimack County","state_id":"NH"},{"zip":"03243","fips":"33009","name":"Grafton County","state_id":"NH"},{"zip":"03243","fips":"33013","name":"Merrimack County","state_id":"NH"},{"zip":"03244","fips":"33019","name":"Sullivan County","state_id":"NH"},{"zip":"03244","fips":"33011","name":"Hillsborough County","state_id":"NH"},{"zip":"03245","fips":"33001","name":"Belknap County","state_id":"NH"},{"zip":"03245","fips":"33009","name":"Grafton County","state_id":"NH"},{"zip":"03246","fips":"33001","name":"Belknap County","state_id":"NH"},{"zip":"03249","fips":"33001","name":"Belknap County","state_id":"NH"},{"zip":"03251","fips":"33009","name":"Grafton County","state_id":"NH"},{"zip":"03252","fips":"33001","name":"Belknap County","state_id":"NH"},{"zip":"03253","fips":"33001","name":"Belknap County","state_id":"NH"},{"zip":"03254","fips":"33003","name":"Carroll County","state_id":"NH"},{"zip":"03254","fips":"33001","name":"Belknap County","state_id":"NH"},{"zip":"03255","fips":"33013","name":"Merrimack County","state_id":"NH"},{"zip":"03256","fips":"33001","name":"Belknap County","state_id":"NH"},{"zip":"03257","fips":"33019","name":"Sullivan County","state_id":"NH"},{"zip":"03257","fips":"33013","name":"Merrimack County","state_id":"NH"},{"zip":"03258","fips":"33013","name":"Merrimack County","state_id":"NH"},{"zip":"03259","fips":"33003","name":"Carroll County","state_id":"NH"},{"zip":"03260","fips":"33013","name":"Merrimack County","state_id":"NH"},{"zip":"03261","fips":"33017","name":"Strafford County","state_id":"NH"},{"zip":"03261","fips":"33015","name":"Rockingham County","state_id":"NH"},{"zip":"03262","fips":"33009","name":"Grafton County","state_id":"NH"},{"zip":"03263","fips":"33013","name":"Merrimack County","state_id":"NH"},{"zip":"03264","fips":"33009","name":"Grafton County","state_id":"NH"},{"zip":"03266","fips":"33009","name":"Grafton County","state_id":"NH"},{"zip":"03268","fips":"33013","name":"Merrimack County","state_id":"NH"},{"zip":"03269","fips":"33001","name":"Belknap County","state_id":"NH"},{"zip":"03272","fips":"33013","name":"Merrimack County","state_id":"NH"},{"zip":"03273","fips":"33013","name":"Merrimack County","state_id":"NH"},{"zip":"03275","fips":"33013","name":"Merrimack County","state_id":"NH"},{"zip":"03276","fips":"33013","name":"Merrimack County","state_id":"NH"},{"zip":"03276","fips":"33001","name":"Belknap County","state_id":"NH"},{"zip":"03278","fips":"33013","name":"Merrimack County","state_id":"NH"},{"zip":"03279","fips":"33009","name":"Grafton County","state_id":"NH"},{"zip":"03280","fips":"33011","name":"Hillsborough County","state_id":"NH"},{"zip":"03280","fips":"33019","name":"Sullivan County","state_id":"NH"},{"zip":"03280","fips":"33013","name":"Merrimack County","state_id":"NH"},{"zip":"03280","fips":"33005","name":"Cheshire County","state_id":"NH"},{"zip":"03281","fips":"33011","name":"Hillsborough County","state_id":"NH"},{"zip":"03281","fips":"33013","name":"Merrimack County","state_id":"NH"},{"zip":"03282","fips":"33009","name":"Grafton County","state_id":"NH"},{"zip":"03284","fips":"33019","name":"Sullivan County","state_id":"NH"},{"zip":"03285","fips":"33009","name":"Grafton County","state_id":"NH"},{"zip":"03287","fips":"33013","name":"Merrimack County","state_id":"NH"},{"zip":"03289","fips":"33001","name":"Belknap County","state_id":"NH"},{"zip":"03290","fips":"33015","name":"Rockingham County","state_id":"NH"},{"zip":"03290","fips":"33017","name":"Strafford County","state_id":"NH"},{"zip":"03291","fips":"33015","name":"Rockingham County","state_id":"NH"},{"zip":"03299","fips":"33001","name":"Belknap County","state_id":"NH"}]
