[{"zip":"03561","fips":"33009","name":"Grafton County","state_id":"NH"},{"zip":"03570","fips":"33007","name":"Coos County","state_id":"NH"},{"zip":"03574","fips":"33007","name":"Coos County","state_id":"NH"},{"zip":"03574","fips":"33009","name":"Grafton County","state_id":"NH"},{"zip":"03575","fips":"33007","name":"Coos County","state_id":"NH"},{"zip":"03576","fips":"33007","name":"Coos County","state_id":"NH"},{"zip":"03579","fips":"33007","name":"Coos County","state_id":"NH"},{"zip":"03580","fips":"33009","name":"Grafton County","state_id":"NH"},{"zip":"03581","fips":"33007","name":"Coos County","state_id":"NH"},{"zip":"03582","fips":"33007","name":"Coos County","state_id":"NH"},{"zip":"03583","fips":"33007","name":"Coos County","state_id":"NH"},{"zip":"03584","fips":"33007","name":"Coos County","state_id":"NH"},{"zip":"03585","fips":"33009","name":"Grafton County","state_id":"NH"},{"zip":"03586","fips":"33009","name":"Grafton County","state_id":"NH"},{"zip":"03588","fips":"33007","name":"Coos County","state_id":"NH"},{"zip":"03589","fips":"33007","name":"Coos County","state_id":"NH"},{"zip":"03590","fips":"33007","name":"Coos County","state_id":"NH"},{"zip":"03592","fips":"33007","name":"Coos County","state_id":"NH"},{"zip":"03593","fips":"33007","name":"Coos County","state_id":"NH"},{"zip":"03595","fips":"33007","name":"Coos County","state_id":"NH"},{"zip":"03597","fips":"33007","name":"Coos County","state_id":"NH"},{"zip":"03598","fips":"33009","name":"Grafton County","state_id":"NH"},{"zip":"03598","fips":"33007","name":"Coos County","state_id":"NH"}]
