[{"zip":"03740","fips":"33009","name":"Grafton County","state_id":"NH"},{"zip":"03741","fips":"33009","name":"Grafton County","state_id":"NH"},{"zip":"03743","fips":"33019","name":"Sullivan County","state_id":"NH"},{"zip":"03745","fips":"33019","name":"Sullivan County","state_id":"NH"},{"zip":"03746","fips":"33019","name":"Sullivan County","state_id":"NH"},{"zip":"03748","fips":"33009","name":"Grafton County","state_id":"NH"},{"zip":"03748","fips":"33019","name":"Sullivan County","state_id":"NH"},{"zip":"03749","fips":"33009","name":"Grafton County","state_id":"NH"},{"zip":"03750","fips":"33009","name":"Grafton County","state_id":"NH"},{"zip":"03751","fips":"33019","name":"Sullivan County","state_id":"NH"},{"zip":"03752","fips":"33019","name":"Sullivan County","state_id":"NH"},{"zip":"03753","fips":"33009","name":"Grafton County","state_id":"NH"},{"zip":"03753","fips":"33019","name":"Sullivan County","state_id":"NH"},{"zip":"03754","fips":"33019","name":"Sullivan County","state_id":"NH"},{"zip":"03755","fips":"33009","name":"Grafton County","state_id":"NH"},{"zip":"03756","fips":"33009","name":"Grafton County","state_id":"NH"},{"zip":"03765","fips":"33009","name":"Grafton County","state_id":"NH"},{"zip":"03766","fips":"33009","name":"Grafton County","state_id":"NH"},{"zip":"03768","fips":"33009","name":"Grafton County","state_id":"NH"},{"zip":"03769","fips":"33009","name":"Grafton County","state_id":"NH"},{"zip":"03770","fips":"33019","name":"Sullivan County","state_id":"NH"},{"zip":"03771","fips":"33009","name":"Grafton County","state_id":"NH"},{"zip":"03773","fips":"33019","name":"Sullivan County","state_id":"NH"},{"zip":"03774","fips":"33009","name":"Grafton County","state_id":"NH"},{"zip":"03777","fips":"33009","name":"Grafton County","state_id":"NH"},{"zip":"03779","fips":"33009","name":"Grafton County","state_id":"NH"},{"zip":"03780","fips":"33009","name":"Grafton County","state_id":"NH"},{"zip":"03781","fips":"33019","name":"Sullivan County","state_id":"NH"},{"zip":"03782","fips":"33019","name":"Sullivan County","state_id":"NH"},{"zip":"03782","fips":"33013","name":"Merrimack County","state_id":"NH"},{"zip":"03784","fips":"33009","name":"Grafton County","state_id":"NH"},{"zip":"03785","fips":"33009","name":"Grafton County","state_id":"NH"}]
