[{"zip":"03801","fips":"33015","name":"Rockingham County","state_id":"NH"},{"zip":"03802","fips":"33015","name":"Rockingham County","state_id":"NH"},{"zip":"03803","fips":"33015","name":"Rockingham County","state_id":"NH"},{"zip":"03804","fips":"23031","name":"York County","state_id":"ME"},{"zip":"03809","fips":"33001","name":"Belknap County","state_id":"NH"},{"zip":"03809","fips":"33017","name":"Strafford County","state_id":"NH"},{"zip":"03810","fips":"33001","name":"Belknap County","state_id":"NH"},{"zip":"03811","fips":"33015","name":"Rockingham County","state_id":"NH"},{"zip":"03812","fips":"33003","name":"Carroll County","state_id":"NH"},{"zip":"03813","fips":"33003","name":"Carroll County","state_id":"NH"},{"zip":"03814","fips":"33003","name":"Carroll County","state_id":"NH"},{"zip":"03815","fips":"33017","name":"Strafford County","state_id":"NH"},{"zip":"03816","fips":"33003","name":"Carroll County","state_id":"NH"},{"zip":"03817","fips":"33003","name":"Carroll County","state_id":"NH"},{"zip":"03818","fips":"33003","name":"Carroll County","state_id":"NH"},{"zip":"03819","fips":"33015","name":"Rockingham County","state_id":"NH"},{"zip":"03820","fips":"33017","name":"Strafford County","state_id":"NH"},{"zip":"03821","fips":"33017","name":"Strafford County","state_id":"NH"},{"zip":"03822","fips":"33017","name":"Strafford County","state_id":"NH"},{"zip":"03823","fips":"33017","name":"Strafford County","state_id":"NH"},{"zip":"03824","fips":"33017","name":"Strafford County","state_id":"NH"},{"zip":"03824","fips":"33015","name":"Rockingham County","state_id":"NH"},{"zip":"03825","fips":"33017","name":"Strafford County","state_id":"NH"},{"zip":"03825","fips":"33015","name":"Rockingham County","state_id":"NH"},{"zip":"03826","fips":"33015","name":"Rockingham County","state_id":"NH"},{"zip":"03827","fips":"33015","name":"Rockingham County","state_id":"NH"},{"zip":"03830","fips":"33003","name":"Carroll County","state_id":"NH"},{"zip":"03832","fips":"33003","name":"Carroll County","state_id":"NH"},{"zip":"03833","fips":"33015","name":"Rockingham County","state_id":"NH"},{"zip":"03835","fips":"33017","name":"Strafford County","state_id":"NH"},{"zip":"03836","fips":"33003","name":"Carroll County","state_id":"NH"},{"zip":"03837","fips":"33001","name":"Belknap County","state_id":"NH"},{"zip":"03838","fips":"33003","name":"Carroll County","state_id":"NH"},{"zip":"03839","fips":"33017","name":"Strafford County","state_id":"NH"},{"zip":"03840","fips":"33015","name":"Rockingham County","state_id":"NH"},{"zip":"03841","fips":"33015","name":"Rockingham County","state_id":"NH"},{"zip":"03842","fips":"33015","name":"Rockingham County","state_id":"NH"},{"zip":"03843","fips":"33015","name":"Rockingham County","state_id":"NH"},{"zip":"03844","fips":"33015","name":"Rockingham County","state_id":"NH"},{"zip":"03845","fips":"33003","name":"Carroll County","state_id":"NH"},{"zip":"03846","fips":"33003","name":"Carroll County","state_id":"NH"},{"zip":"03847","fips":"33003","name":"Carroll County","state_id":"NH"},{"zip":"03848","fips":"33015","name":"Rockingham County","state_id":"NH"},{"zip":"03849","fips":"33003","name":"Carroll County","state_id":"NH"},{"zip":"03850","fips":"33003","name":"Carroll County","state_id":"NH"},{"zip":"03851","fips":"33017","name":"Strafford County","state_id":"NH"},{"zip":"03852","fips":"33017","name":"Strafford County","state_id":"NH"},{"zip":"03853","fips":"33003","name":"Carroll County","state_id":"NH"},{"zip":"03854","fips":"33015","name":"Rockingham County","state_id":"NH"},{"zip":"03855","fips":"33017","name":"Strafford County","state_id":"NH"},{"zip":"03856","fips":"33015","name":"Rockingham County","state_id":"NH"},{"zip":"03857","fips":"33015","name":"Rockingham County","state_id":"NH"},{"zip":"03857","fips":"33017","name":"Strafford County","state_id":"NH"},{"zip":"03858","fips":"33015","name":"Rockingham County","state_id":"NH"},{"zip":"03859","fips":"33015","name":"Rockingham County","state_id":"NH"},{"zip":"03860","fips":"33003","name":"Carroll County","state_id":"NH"},{"zip":"03861","fips":"33015","name":"Rockingham County","state_id":"NH"},{"zip":"03861","fips":"33017","name":"Strafford County","state_id":"NH"},{"zip":"03862","fips":"33015","name":"Rockingham County","state_id":"NH"},{"zip":"03864","fips":"33003","name":"Carroll County","state_id":"NH"},{"zip":"03865","fips":"33015","name":"Rockingham County","state_id":"NH"},{"zip":"03866","fips":"33017","name":"Strafford County","state_id":"NH"},{"zip":"03867","fips":"33017","name":"Strafford County","state_id":"NH"},{"zip":"03868","fips":"33017","name":"Strafford County","state_id":"NH"},{"zip":"03869","fips":"33017","name":"Strafford County","state_id":"NH"},{"zip":"03870","fips":"33015","name":"Rockingham County","state_id":"NH"},{"zip":"03871","fips":"33015","name":"Rockingham County","state_id":"NH"},{"zip":"03872","fips":"33003","name":"Carroll County","state_id":"NH"},{"zip":"03873","fips":"33015","name":"Rockingham County","state_id":"NH"},{"zip":"03874","fips":"33015","name":"Rockingham County","state_id":"NH"},{"zip":"03875","fips":"33003","name":"Carroll County","state_id":"NH"},{"zip":"03878","fips":"33017","name":"Strafford County","state_id":"NH"},{"zip":"03882","fips":"33003","name":"Carroll County","state_id":"NH"},{"zip":"03883","fips":"33003","name":"Carroll County","state_id":"NH"},{"zip":"03884","fips":"33017","name":"Strafford County","state_id":"NH"},{"zip":"03884","fips":"33015","name":"Rockingham County","state_id":"NH"},{"zip":"03885","fips":"33015","name":"Rockingham County","state_id":"NH"},{"zip":"03886","fips":"33003","name":"Carroll County","state_id":"NH"},{"zip":"03887","fips":"33003","name":"Carroll County","state_id":"NH"},{"zip":"03887","fips":"33017","name":"Strafford County","state_id":"NH"},{"zip":"03890","fips":"33003","name":"Carroll County","state_id":"NH"},{"zip":"03894","fips":"33003","name":"Carroll County","state_id":"NH"},{"zip":"03896","fips":"33003","name":"Carroll County","state_id":"NH"},{"zip":"03897","fips":"33003","name":"Carroll County","state_id":"NH"}]
