[{"zip":"04001","fips":"23031","name":"York County","state_id":"ME"},{"zip":"04002","fips":"23031","name":"York County","state_id":"ME"},{"zip":"04003","fips":"23005","name":"Cumberland County","state_id":"ME"},{"zip":"04004","fips":"23031","name":"York County","state_id":"ME"},{"zip":"04005","fips":"23031","name":"York County","state_id":"ME"},{"zip":"04006","fips":"23031","name":"York County","state_id":"ME"},{"zip":"04008","fips":"23023","name":"Sagadahoc County","state_id":"ME"},{"zip":"04009","fips":"23005","name":"Cumberland County","state_id":"ME"},{"zip":"04010","fips":"23017","name":"Oxford County","state_id":"ME"},{"zip":"04011","fips":"23005","name":"Cumberland County","state_id":"ME"},{"zip":"04011","fips":"23023","name":"Sagadahoc County","state_id":"ME"},{"zip":"04013","fips":"23005","name":"Cumberland County","state_id":"ME"},{"zip":"04014","fips":"23031","name":"York County","state_id":"ME"},{"zip":"04015","fips":"23005","name":"Cumberland County","state_id":"ME"},{"zip":"04016","fips":"23017","name":"Oxford County","state_id":"ME"},{"zip":"04017","fips":"23005","name":"Cumberland County","state_id":"ME"},{"zip":"04019","fips":"23005","name":"Cumberland County","state_id":"ME"},{"zip":"04020","fips":"23031","name":"York County","state_id":"ME"},{"zip":"04021","fips":"23005","name":"Cumberland County","state_id":"ME"},{"zip":"04022","fips":"23017","name":"Oxford County","state_id":"ME"},{"zip":"04024","fips":"23005","name":"Cumberland County","state_id":"ME"},{"zip":"04027","fips":"23031","name":"York County","state_id":"ME"},{"zip":"04028","fips":"23031","name":"York County","state_id":"ME"},{"zip":"04029","fips":"23005","name":"Cumberland County","state_id":"ME"},{"zip":"04030","fips":"23031","name":"York County","state_id":"ME"},{"zip":"04032","fips":"23005","name":"Cumberland County","state_id":"ME"},{"zip":"04033","fips":"23005","name":"Cumberland County","state_id":"ME"},{"zip":"04034","fips":"23005","name":"Cumberland County","state_id":"ME"},{"zip":"04037","fips":"23017","name":"Oxford County","state_id":"ME"},{"zip":"04038","fips":"23031","name":"York County","state_id":"ME"},{"zip":"04038","fips":"23005","name":"Cumberland County","state_id":"ME"},{"zip":"04039","fips":"23005","name":"Cumberland County","state_id":"ME"},{"zip":"04040","fips":"23005","name":"Cumberland County","state_id":"ME"},{"zip":"04040","fips":"23017","name":"Oxford County","state_id":"ME"},{"zip":"04041","fips":"23017","name":"Oxford County","state_id":"ME"},{"zip":"04042","fips":"23031","name":"York County","state_id":"ME"},{"zip":"04043","fips":"23031","name":"York County","state_id":"ME"},{"zip":"04046","fips":"23031","name":"York County","state_id":"ME"},{"zip":"04047","fips":"23031","name":"York County","state_id":"ME"},{"zip":"04048","fips":"23031","name":"York County","state_id":"ME"},{"zip":"04049","fips":"23031","name":"York County","state_id":"ME"},{"zip":"04050","fips":"23005","name":"Cumberland County","state_id":"ME"},{"zip":"04051","fips":"23017","name":"Oxford County","state_id":"ME"},{"zip":"04054","fips":"23031","name":"York County","state_id":"ME"},{"zip":"04055","fips":"23005","name":"Cumberland County","state_id":"ME"},{"zip":"04056","fips":"23031","name":"York County","state_id":"ME"},{"zip":"04057","fips":"23005","name":"Cumberland County","state_id":"ME"},{"zip":"04061","fips":"23031","name":"York County","state_id":"ME"},{"zip":"04062","fips":"23005","name":"Cumberland County","state_id":"ME"},{"zip":"04063","fips":"23031","name":"York County","state_id":"ME"},{"zip":"04064","fips":"23031","name":"York County","state_id":"ME"},{"zip":"04066","fips":"23005","name":"Cumberland County","state_id":"ME"},{"zip":"04068","fips":"23017","name":"Oxford County","state_id":"ME"},{"zip":"04069","fips":"23005","name":"Cumberland County","state_id":"ME"},{"zip":"04070","fips":"23005","name":"Cumberland County","state_id":"ME"},{"zip":"04071","fips":"23005","name":"Cumberland County","state_id":"ME"},{"zip":"04072","fips":"23031","name":"York County","state_id":"ME"},{"zip":"04073","fips":"23031","name":"York County","state_id":"ME"},{"zip":"04074","fips":"23005","name":"Cumberland County","state_id":"ME"},{"zip":"04076","fips":"23031","name":"York County","state_id":"ME"},{"zip":"04077","fips":"23005","name":"Cumberland County","state_id":"ME"},{"zip":"04078","fips":"23005","name":"Cumberland County","state_id":"ME"},{"zip":"04079","fips":"23005","name":"Cumberland County","state_id":"ME"},{"zip":"04082","fips":"23005","name":"Cumberland County","state_id":"ME"},{"zip":"04083","fips":"23031","name":"York County","state_id":"ME"},{"zip":"04084","fips":"23005","name":"Cumberland County","state_id":"ME"},{"zip":"04084","fips":"23031","name":"York County","state_id":"ME"},{"zip":"04085","fips":"23005","name":"Cumberland County","state_id":"ME"},{"zip":"04086","fips":"23023","name":"Sagadahoc County","state_id":"ME"},{"zip":"04087","fips":"23031","name":"York County","state_id":"ME"},{"zip":"04088","fips":"23017","name":"Oxford County","state_id":"ME"},{"zip":"04090","fips":"23031","name":"York County","state_id":"ME"},{"zip":"04091","fips":"23005","name":"Cumberland County","state_id":"ME"},{"zip":"04092","fips":"23005","name":"Cumberland County","state_id":"ME"},{"zip":"04093","fips":"23005","name":"Cumberland County","state_id":"ME"},{"zip":"04093","fips":"23031","name":"York County","state_id":"ME"},{"zip":"04094","fips":"23031","name":"York County","state_id":"ME"},{"zip":"04095","fips":"23031","name":"York County","state_id":"ME"},{"zip":"04096","fips":"23005","name":"Cumberland County","state_id":"ME"},{"zip":"04097","fips":"23005","name":"Cumberland County","state_id":"ME"},{"zip":"04098","fips":"23005","name":"Cumberland County","state_id":"ME"}]
