[{"zip":"04210","fips":"23001","name":"Androscoggin County","state_id":"ME"},{"zip":"04211","fips":"23001","name":"Androscoggin County","state_id":"ME"},{"zip":"04212","fips":"23001","name":"Androscoggin County","state_id":"ME"},{"zip":"04216","fips":"23017","name":"Oxford County","state_id":"ME"},{"zip":"04217","fips":"23017","name":"Oxford County","state_id":"ME"},{"zip":"04219","fips":"23017","name":"Oxford County","state_id":"ME"},{"zip":"04220","fips":"23001","name":"Androscoggin County","state_id":"ME"},{"zip":"04220","fips":"23017","name":"Oxford County","state_id":"ME"},{"zip":"04221","fips":"23017","name":"Oxford County","state_id":"ME"},{"zip":"04222","fips":"23001","name":"Androscoggin County","state_id":"ME"},{"zip":"04222","fips":"23005","name":"Cumberland County","state_id":"ME"},{"zip":"04223","fips":"23001","name":"Androscoggin County","state_id":"ME"},{"zip":"04224","fips":"23017","name":"Oxford County","state_id":"ME"},{"zip":"04224","fips":"23007","name":"Franklin County","state_id":"ME"},{"zip":"04225","fips":"23007","name":"Franklin County","state_id":"ME"},{"zip":"04226","fips":"23017","name":"Oxford County","state_id":"ME"},{"zip":"04227","fips":"23007","name":"Franklin County","state_id":"ME"},{"zip":"04228","fips":"23001","name":"Androscoggin County","state_id":"ME"},{"zip":"04230","fips":"23001","name":"Androscoggin County","state_id":"ME"},{"zip":"04231","fips":"23017","name":"Oxford County","state_id":"ME"},{"zip":"04234","fips":"23007","name":"Franklin County","state_id":"ME"},{"zip":"04236","fips":"23001","name":"Androscoggin County","state_id":"ME"},{"zip":"04237","fips":"23017","name":"Oxford County","state_id":"ME"},{"zip":"04238","fips":"23017","name":"Oxford County","state_id":"ME"},{"zip":"04238","fips":"23001","name":"Androscoggin County","state_id":"ME"},{"zip":"04239","fips":"23007","name":"Franklin County","state_id":"ME"},{"zip":"04239","fips":"23001","name":"Androscoggin County","state_id":"ME"},{"zip":"04239","fips":"23017","name":"Oxford County","state_id":"ME"},{"zip":"04240","fips":"23001","name":"Androscoggin County","state_id":"ME"},{"zip":"04241","fips":"23001","name":"Androscoggin County","state_id":"ME"},{"zip":"04243","fips":"23001","name":"Androscoggin County","state_id":"ME"},{"zip":"04250","fips":"23001","name":"Androscoggin County","state_id":"ME"},{"zip":"04252","fips":"23001","name":"Androscoggin County","state_id":"ME"},{"zip":"04252","fips":"23023","name":"Sagadahoc County","state_id":"ME"},{"zip":"04253","fips":"23001","name":"Androscoggin County","state_id":"ME"},{"zip":"04254","fips":"23001","name":"Androscoggin County","state_id":"ME"},{"zip":"04254","fips":"23011","name":"Kennebec County","state_id":"ME"},{"zip":"04255","fips":"23017","name":"Oxford County","state_id":"ME"},{"zip":"04256","fips":"23001","name":"Androscoggin County","state_id":"ME"},{"zip":"04257","fips":"23017","name":"Oxford County","state_id":"ME"},{"zip":"04258","fips":"23001","name":"Androscoggin County","state_id":"ME"},{"zip":"04259","fips":"23011","name":"Kennebec County","state_id":"ME"},{"zip":"04260","fips":"23001","name":"Androscoggin County","state_id":"ME"},{"zip":"04260","fips":"23005","name":"Cumberland County","state_id":"ME"},{"zip":"04261","fips":"23017","name":"Oxford County","state_id":"ME"},{"zip":"04262","fips":"23007","name":"Franklin County","state_id":"ME"},{"zip":"04263","fips":"23001","name":"Androscoggin County","state_id":"ME"},{"zip":"04265","fips":"23011","name":"Kennebec County","state_id":"ME"},{"zip":"04266","fips":"23001","name":"Androscoggin County","state_id":"ME"},{"zip":"04267","fips":"23017","name":"Oxford County","state_id":"ME"},{"zip":"04268","fips":"23017","name":"Oxford County","state_id":"ME"},{"zip":"04270","fips":"23017","name":"Oxford County","state_id":"ME"},{"zip":"04270","fips":"23001","name":"Androscoggin County","state_id":"ME"},{"zip":"04271","fips":"23017","name":"Oxford County","state_id":"ME"},{"zip":"04274","fips":"23001","name":"Androscoggin County","state_id":"ME"},{"zip":"04274","fips":"23005","name":"Cumberland County","state_id":"ME"},{"zip":"04275","fips":"23017","name":"Oxford County","state_id":"ME"},{"zip":"04276","fips":"23017","name":"Oxford County","state_id":"ME"},{"zip":"04280","fips":"23001","name":"Androscoggin County","state_id":"ME"},{"zip":"04281","fips":"23017","name":"Oxford County","state_id":"ME"},{"zip":"04282","fips":"23001","name":"Androscoggin County","state_id":"ME"},{"zip":"04284","fips":"23011","name":"Kennebec County","state_id":"ME"},{"zip":"04285","fips":"23007","name":"Franklin County","state_id":"ME"},{"zip":"04286","fips":"23017","name":"Oxford County","state_id":"ME"},{"zip":"04287","fips":"23023","name":"Sagadahoc County","state_id":"ME"},{"zip":"04287","fips":"23011","name":"Kennebec County","state_id":"ME"},{"zip":"04288","fips":"23001","name":"Androscoggin County","state_id":"ME"},{"zip":"04289","fips":"23017","name":"Oxford County","state_id":"ME"},{"zip":"04290","fips":"23017","name":"Oxford County","state_id":"ME"},{"zip":"04291","fips":"23001","name":"Androscoggin County","state_id":"ME"},{"zip":"04292","fips":"23017","name":"Oxford County","state_id":"ME"},{"zip":"04294","fips":"23007","name":"Franklin County","state_id":"ME"}]
