[{"zip":"04330","fips":"23011","name":"Kennebec County","state_id":"ME"},{"zip":"04332","fips":"23011","name":"Kennebec County","state_id":"ME"},{"zip":"04333","fips":"23011","name":"Kennebec County","state_id":"ME"},{"zip":"04336","fips":"23011","name":"Kennebec County","state_id":"ME"},{"zip":"04338","fips":"23011","name":"Kennebec County","state_id":"ME"},{"zip":"04341","fips":"23015","name":"Lincoln County","state_id":"ME"},{"zip":"04342","fips":"23015","name":"Lincoln County","state_id":"ME"},{"zip":"04343","fips":"23011","name":"Kennebec County","state_id":"ME"},{"zip":"04344","fips":"23011","name":"Kennebec County","state_id":"ME"},{"zip":"04345","fips":"23011","name":"Kennebec County","state_id":"ME"},{"zip":"04345","fips":"23023","name":"Sagadahoc County","state_id":"ME"},{"zip":"04346","fips":"23011","name":"Kennebec County","state_id":"ME"},{"zip":"04347","fips":"23011","name":"Kennebec County","state_id":"ME"},{"zip":"04348","fips":"23015","name":"Lincoln County","state_id":"ME"},{"zip":"04349","fips":"23011","name":"Kennebec County","state_id":"ME"},{"zip":"04350","fips":"23011","name":"Kennebec County","state_id":"ME"},{"zip":"04351","fips":"23011","name":"Kennebec County","state_id":"ME"},{"zip":"04352","fips":"23011","name":"Kennebec County","state_id":"ME"},{"zip":"04353","fips":"23011","name":"Kennebec County","state_id":"ME"},{"zip":"04353","fips":"23015","name":"Lincoln County","state_id":"ME"},{"zip":"04354","fips":"23015","name":"Lincoln County","state_id":"ME"},{"zip":"04354","fips":"23027","name":"Waldo County","state_id":"ME"},{"zip":"04355","fips":"23011","name":"Kennebec County","state_id":"ME"},{"zip":"04357","fips":"23023","name":"Sagadahoc County","state_id":"ME"},{"zip":"04357","fips":"23011","name":"Kennebec County","state_id":"ME"},{"zip":"04358","fips":"23011","name":"Kennebec County","state_id":"ME"},{"zip":"04358","fips":"23027","name":"Waldo County","state_id":"ME"},{"zip":"04359","fips":"23011","name":"Kennebec County","state_id":"ME"},{"zip":"04360","fips":"23011","name":"Kennebec County","state_id":"ME"},{"zip":"04363","fips":"23011","name":"Kennebec County","state_id":"ME"},{"zip":"04364","fips":"23011","name":"Kennebec County","state_id":"ME"}]
