[{"zip":"04401","fips":"23019","name":"Penobscot County","state_id":"ME"},{"zip":"04402","fips":"23019","name":"Penobscot County","state_id":"ME"},{"zip":"04406","fips":"23021","name":"Piscataquis County","state_id":"ME"},{"zip":"04408","fips":"23009","name":"Hancock County","state_id":"ME"},{"zip":"04410","fips":"23019","name":"Penobscot County","state_id":"ME"},{"zip":"04411","fips":"23019","name":"Penobscot County","state_id":"ME"},{"zip":"04412","fips":"23019","name":"Penobscot County","state_id":"ME"},{"zip":"04413","fips":"23029","name":"Washington County","state_id":"ME"},{"zip":"04414","fips":"23021","name":"Piscataquis County","state_id":"ME"},{"zip":"04415","fips":"23021","name":"Piscataquis County","state_id":"ME"},{"zip":"04416","fips":"23009","name":"Hancock County","state_id":"ME"},{"zip":"04417","fips":"23019","name":"Penobscot County","state_id":"ME"},{"zip":"04418","fips":"23019","name":"Penobscot County","state_id":"ME"},{"zip":"04419","fips":"23019","name":"Penobscot County","state_id":"ME"},{"zip":"04420","fips":"23009","name":"Hancock County","state_id":"ME"},{"zip":"04421","fips":"23009","name":"Hancock County","state_id":"ME"},{"zip":"04422","fips":"23019","name":"Penobscot County","state_id":"ME"},{"zip":"04424","fips":"23003","name":"Aroostook County","state_id":"ME"},{"zip":"04424","fips":"23029","name":"Washington County","state_id":"ME"},{"zip":"04426","fips":"23021","name":"Piscataquis County","state_id":"ME"},{"zip":"04427","fips":"23019","name":"Penobscot County","state_id":"ME"},{"zip":"04428","fips":"23019","name":"Penobscot County","state_id":"ME"},{"zip":"04429","fips":"23019","name":"Penobscot County","state_id":"ME"},{"zip":"04429","fips":"23009","name":"Hancock County","state_id":"ME"},{"zip":"04430","fips":"23019","name":"Penobscot County","state_id":"ME"},{"zip":"04431","fips":"23009","name":"Hancock County","state_id":"ME"},{"zip":"04434","fips":"23019","name":"Penobscot County","state_id":"ME"},{"zip":"04435","fips":"23019","name":"Penobscot County","state_id":"ME"},{"zip":"04438","fips":"23027","name":"Waldo County","state_id":"ME"},{"zip":"04441","fips":"23021","name":"Piscataquis County","state_id":"ME"},{"zip":"04442","fips":"23021","name":"Piscataquis County","state_id":"ME"},{"zip":"04443","fips":"23021","name":"Piscataquis County","state_id":"ME"},{"zip":"04444","fips":"23019","name":"Penobscot County","state_id":"ME"},{"zip":"04448","fips":"23021","name":"Piscataquis County","state_id":"ME"},{"zip":"04448","fips":"23019","name":"Penobscot County","state_id":"ME"},{"zip":"04449","fips":"23019","name":"Penobscot County","state_id":"ME"},{"zip":"04450","fips":"23019","name":"Penobscot County","state_id":"ME"},{"zip":"04451","fips":"23019","name":"Penobscot County","state_id":"ME"},{"zip":"04451","fips":"23003","name":"Aroostook County","state_id":"ME"},{"zip":"04453","fips":"23019","name":"Penobscot County","state_id":"ME"},{"zip":"04454","fips":"23029","name":"Washington County","state_id":"ME"},{"zip":"04455","fips":"23019","name":"Penobscot County","state_id":"ME"},{"zip":"04456","fips":"23019","name":"Penobscot County","state_id":"ME"},{"zip":"04457","fips":"23019","name":"Penobscot County","state_id":"ME"},{"zip":"04459","fips":"23003","name":"Aroostook County","state_id":"ME"},{"zip":"04459","fips":"23019","name":"Penobscot County","state_id":"ME"},{"zip":"04460","fips":"23019","name":"Penobscot County","state_id":"ME"},{"zip":"04461","fips":"23019","name":"Penobscot County","state_id":"ME"},{"zip":"04462","fips":"23019","name":"Penobscot County","state_id":"ME"},{"zip":"04463","fips":"23021","name":"Piscataquis County","state_id":"ME"},{"zip":"04464","fips":"23021","name":"Piscataquis County","state_id":"ME"},{"zip":"04468","fips":"23019","name":"Penobscot County","state_id":"ME"},{"zip":"04469","fips":"23019","name":"Penobscot County","state_id":"ME"},{"zip":"04471","fips":"23003","name":"Aroostook County","state_id":"ME"},{"zip":"04472","fips":"23009","name":"Hancock County","state_id":"ME"},{"zip":"04473","fips":"23019","name":"Penobscot County","state_id":"ME"},{"zip":"04474","fips":"23019","name":"Penobscot County","state_id":"ME"},{"zip":"04475","fips":"23019","name":"Penobscot County","state_id":"ME"},{"zip":"04476","fips":"23009","name":"Hancock County","state_id":"ME"},{"zip":"04478","fips":"23025","name":"Somerset County","state_id":"ME"},{"zip":"04479","fips":"23021","name":"Piscataquis County","state_id":"ME"},{"zip":"04481","fips":"23021","name":"Piscataquis County","state_id":"ME"},{"zip":"04485","fips":"23021","name":"Piscataquis County","state_id":"ME"},{"zip":"04487","fips":"23003","name":"Aroostook County","state_id":"ME"},{"zip":"04487","fips":"23019","name":"Penobscot County","state_id":"ME"},{"zip":"04488","fips":"23019","name":"Penobscot County","state_id":"ME"},{"zip":"04489","fips":"23019","name":"Penobscot County","state_id":"ME"},{"zip":"04490","fips":"23029","name":"Washington County","state_id":"ME"},{"zip":"04491","fips":"23029","name":"Washington County","state_id":"ME"},{"zip":"04492","fips":"23029","name":"Washington County","state_id":"ME"},{"zip":"04493","fips":"23019","name":"Penobscot County","state_id":"ME"},{"zip":"04495","fips":"23019","name":"Penobscot County","state_id":"ME"},{"zip":"04496","fips":"23027","name":"Waldo County","state_id":"ME"},{"zip":"04497","fips":"23019","name":"Penobscot County","state_id":"ME"},{"zip":"04497","fips":"23003","name":"Aroostook County","state_id":"ME"}]
