[{"zip":"04530","fips":"23023","name":"Sagadahoc County","state_id":"ME"},{"zip":"04535","fips":"23015","name":"Lincoln County","state_id":"ME"},{"zip":"04537","fips":"23015","name":"Lincoln County","state_id":"ME"},{"zip":"04538","fips":"23015","name":"Lincoln County","state_id":"ME"},{"zip":"04539","fips":"23015","name":"Lincoln County","state_id":"ME"},{"zip":"04541","fips":"23015","name":"Lincoln County","state_id":"ME"},{"zip":"04543","fips":"23015","name":"Lincoln County","state_id":"ME"},{"zip":"04544","fips":"23015","name":"Lincoln County","state_id":"ME"},{"zip":"04547","fips":"23013","name":"Knox County","state_id":"ME"},{"zip":"04548","fips":"23023","name":"Sagadahoc County","state_id":"ME"},{"zip":"04551","fips":"23015","name":"Lincoln County","state_id":"ME"},{"zip":"04553","fips":"23015","name":"Lincoln County","state_id":"ME"},{"zip":"04554","fips":"23015","name":"Lincoln County","state_id":"ME"},{"zip":"04555","fips":"23015","name":"Lincoln County","state_id":"ME"},{"zip":"04556","fips":"23015","name":"Lincoln County","state_id":"ME"},{"zip":"04558","fips":"23015","name":"Lincoln County","state_id":"ME"},{"zip":"04562","fips":"23023","name":"Sagadahoc County","state_id":"ME"},{"zip":"04563","fips":"23013","name":"Knox County","state_id":"ME"},{"zip":"04564","fips":"23015","name":"Lincoln County","state_id":"ME"},{"zip":"04565","fips":"23023","name":"Sagadahoc County","state_id":"ME"},{"zip":"04568","fips":"23015","name":"Lincoln County","state_id":"ME"},{"zip":"04570","fips":"23015","name":"Lincoln County","state_id":"ME"},{"zip":"04571","fips":"23015","name":"Lincoln County","state_id":"ME"},{"zip":"04572","fips":"23013","name":"Knox County","state_id":"ME"},{"zip":"04572","fips":"23015","name":"Lincoln County","state_id":"ME"},{"zip":"04573","fips":"23015","name":"Lincoln County","state_id":"ME"},{"zip":"04574","fips":"23027","name":"Waldo County","state_id":"ME"},{"zip":"04574","fips":"23013","name":"Knox County","state_id":"ME"},{"zip":"04575","fips":"23015","name":"Lincoln County","state_id":"ME"},{"zip":"04576","fips":"23015","name":"Lincoln County","state_id":"ME"},{"zip":"04578","fips":"23015","name":"Lincoln County","state_id":"ME"},{"zip":"04579","fips":"23023","name":"Sagadahoc County","state_id":"ME"}]
