[{"zip":"04730","fips":"23003","name":"Aroostook County","state_id":"ME"},{"zip":"04732","fips":"23003","name":"Aroostook County","state_id":"ME"},{"zip":"04733","fips":"23019","name":"Penobscot County","state_id":"ME"},{"zip":"04733","fips":"23003","name":"Aroostook County","state_id":"ME"},{"zip":"04734","fips":"23003","name":"Aroostook County","state_id":"ME"},{"zip":"04735","fips":"23003","name":"Aroostook County","state_id":"ME"},{"zip":"04736","fips":"23003","name":"Aroostook County","state_id":"ME"},{"zip":"04737","fips":"23003","name":"Aroostook County","state_id":"ME"},{"zip":"04738","fips":"23003","name":"Aroostook County","state_id":"ME"},{"zip":"04739","fips":"23003","name":"Aroostook County","state_id":"ME"},{"zip":"04740","fips":"23003","name":"Aroostook County","state_id":"ME"},{"zip":"04742","fips":"23003","name":"Aroostook County","state_id":"ME"},{"zip":"04743","fips":"23003","name":"Aroostook County","state_id":"ME"},{"zip":"04744","fips":"23003","name":"Aroostook County","state_id":"ME"},{"zip":"04745","fips":"23003","name":"Aroostook County","state_id":"ME"},{"zip":"04746","fips":"23003","name":"Aroostook County","state_id":"ME"},{"zip":"04747","fips":"23003","name":"Aroostook County","state_id":"ME"},{"zip":"04750","fips":"23003","name":"Aroostook County","state_id":"ME"},{"zip":"04751","fips":"23003","name":"Aroostook County","state_id":"ME"},{"zip":"04756","fips":"23003","name":"Aroostook County","state_id":"ME"},{"zip":"04757","fips":"23003","name":"Aroostook County","state_id":"ME"},{"zip":"04758","fips":"23003","name":"Aroostook County","state_id":"ME"},{"zip":"04760","fips":"23003","name":"Aroostook County","state_id":"ME"},{"zip":"04761","fips":"23003","name":"Aroostook County","state_id":"ME"},{"zip":"04762","fips":"23003","name":"Aroostook County","state_id":"ME"},{"zip":"04763","fips":"23003","name":"Aroostook County","state_id":"ME"},{"zip":"04764","fips":"23003","name":"Aroostook County","state_id":"ME"},{"zip":"04765","fips":"23019","name":"Penobscot County","state_id":"ME"},{"zip":"04766","fips":"23003","name":"Aroostook County","state_id":"ME"},{"zip":"04768","fips":"23003","name":"Aroostook County","state_id":"ME"},{"zip":"04769","fips":"23003","name":"Aroostook County","state_id":"ME"},{"zip":"04772","fips":"23003","name":"Aroostook County","state_id":"ME"},{"zip":"04773","fips":"23003","name":"Aroostook County","state_id":"ME"},{"zip":"04774","fips":"23003","name":"Aroostook County","state_id":"ME"},{"zip":"04775","fips":"23003","name":"Aroostook County","state_id":"ME"},{"zip":"04776","fips":"23003","name":"Aroostook County","state_id":"ME"},{"zip":"04777","fips":"23019","name":"Penobscot County","state_id":"ME"},{"zip":"04777","fips":"23003","name":"Aroostook County","state_id":"ME"},{"zip":"04779","fips":"23003","name":"Aroostook County","state_id":"ME"},{"zip":"04780","fips":"23003","name":"Aroostook County","state_id":"ME"},{"zip":"04781","fips":"23003","name":"Aroostook County","state_id":"ME"},{"zip":"04783","fips":"23003","name":"Aroostook County","state_id":"ME"},{"zip":"04785","fips":"23003","name":"Aroostook County","state_id":"ME"},{"zip":"04786","fips":"23003","name":"Aroostook County","state_id":"ME"},{"zip":"04787","fips":"23003","name":"Aroostook County","state_id":"ME"}]
