[{"zip":"04841","fips":"23013","name":"Knox County","state_id":"ME"},{"zip":"04843","fips":"23013","name":"Knox County","state_id":"ME"},{"zip":"04847","fips":"23013","name":"Knox County","state_id":"ME"},{"zip":"04848","fips":"23027","name":"Waldo County","state_id":"ME"},{"zip":"04849","fips":"23027","name":"Waldo County","state_id":"ME"},{"zip":"04850","fips":"23027","name":"Waldo County","state_id":"ME"},{"zip":"04851","fips":"23013","name":"Knox County","state_id":"ME"},{"zip":"04852","fips":"23015","name":"Lincoln County","state_id":"ME"},{"zip":"04853","fips":"23013","name":"Knox County","state_id":"ME"},{"zip":"04854","fips":"23013","name":"Knox County","state_id":"ME"},{"zip":"04855","fips":"23013","name":"Knox County","state_id":"ME"},{"zip":"04856","fips":"23013","name":"Knox County","state_id":"ME"},{"zip":"04858","fips":"23013","name":"Knox County","state_id":"ME"},{"zip":"04859","fips":"23013","name":"Knox County","state_id":"ME"},{"zip":"04860","fips":"23013","name":"Knox County","state_id":"ME"},{"zip":"04861","fips":"23013","name":"Knox County","state_id":"ME"},{"zip":"04862","fips":"23015","name":"Lincoln County","state_id":"ME"},{"zip":"04862","fips":"23013","name":"Knox County","state_id":"ME"},{"zip":"04863","fips":"23013","name":"Knox County","state_id":"ME"},{"zip":"04864","fips":"23015","name":"Lincoln County","state_id":"ME"},{"zip":"04864","fips":"23013","name":"Knox County","state_id":"ME"},{"zip":"04865","fips":"23013","name":"Knox County","state_id":"ME"}]
