[{"zip":"04901","fips":"23011","name":"Kennebec County","state_id":"ME"},{"zip":"04903","fips":"23011","name":"Kennebec County","state_id":"ME"},{"zip":"04910","fips":"23011","name":"Kennebec County","state_id":"ME"},{"zip":"04911","fips":"23025","name":"Somerset County","state_id":"ME"},{"zip":"04912","fips":"23025","name":"Somerset County","state_id":"ME"},{"zip":"04915","fips":"23027","name":"Waldo County","state_id":"ME"},{"zip":"04917","fips":"23011","name":"Kennebec County","state_id":"ME"},{"zip":"04918","fips":"23011","name":"Kennebec County","state_id":"ME"},{"zip":"04920","fips":"23025","name":"Somerset County","state_id":"ME"},{"zip":"04921","fips":"23027","name":"Waldo County","state_id":"ME"},{"zip":"04921","fips":"23019","name":"Penobscot County","state_id":"ME"},{"zip":"04922","fips":"23027","name":"Waldo County","state_id":"ME"},{"zip":"04923","fips":"23025","name":"Somerset County","state_id":"ME"},{"zip":"04924","fips":"23025","name":"Somerset County","state_id":"ME"},{"zip":"04925","fips":"23025","name":"Somerset County","state_id":"ME"},{"zip":"04926","fips":"23011","name":"Kennebec County","state_id":"ME"},{"zip":"04927","fips":"23011","name":"Kennebec County","state_id":"ME"},{"zip":"04927","fips":"23025","name":"Somerset County","state_id":"ME"},{"zip":"04928","fips":"23019","name":"Penobscot County","state_id":"ME"},{"zip":"04929","fips":"23025","name":"Somerset County","state_id":"ME"},{"zip":"04930","fips":"23021","name":"Piscataquis County","state_id":"ME"},{"zip":"04930","fips":"23019","name":"Penobscot County","state_id":"ME"},{"zip":"04930","fips":"23025","name":"Somerset County","state_id":"ME"},{"zip":"04932","fips":"23019","name":"Penobscot County","state_id":"ME"},{"zip":"04933","fips":"23019","name":"Penobscot County","state_id":"ME"},{"zip":"04935","fips":"23011","name":"Kennebec County","state_id":"ME"},{"zip":"04936","fips":"23007","name":"Franklin County","state_id":"ME"},{"zip":"04937","fips":"23025","name":"Somerset County","state_id":"ME"},{"zip":"04937","fips":"23011","name":"Kennebec County","state_id":"ME"},{"zip":"04938","fips":"23007","name":"Franklin County","state_id":"ME"},{"zip":"04938","fips":"23025","name":"Somerset County","state_id":"ME"},{"zip":"04939","fips":"23019","name":"Penobscot County","state_id":"ME"},{"zip":"04940","fips":"23007","name":"Franklin County","state_id":"ME"},{"zip":"04941","fips":"23027","name":"Waldo County","state_id":"ME"},{"zip":"04942","fips":"23025","name":"Somerset County","state_id":"ME"},{"zip":"04942","fips":"23021","name":"Piscataquis County","state_id":"ME"},{"zip":"04943","fips":"23025","name":"Somerset County","state_id":"ME"},{"zip":"04944","fips":"23025","name":"Somerset County","state_id":"ME"},{"zip":"04945","fips":"23025","name":"Somerset County","state_id":"ME"},{"zip":"04947","fips":"23007","name":"Franklin County","state_id":"ME"},{"zip":"04949","fips":"23027","name":"Waldo County","state_id":"ME"},{"zip":"04949","fips":"23013","name":"Knox County","state_id":"ME"},{"zip":"04950","fips":"23025","name":"Somerset County","state_id":"ME"},{"zip":"04951","fips":"23027","name":"Waldo County","state_id":"ME"},{"zip":"04952","fips":"23027","name":"Waldo County","state_id":"ME"},{"zip":"04953","fips":"23019","name":"Penobscot County","state_id":"ME"},{"zip":"04954","fips":"23025","name":"Somerset County","state_id":"ME"},{"zip":"04955","fips":"23007","name":"Franklin County","state_id":"ME"},{"zip":"04955","fips":"23025","name":"Somerset County","state_id":"ME"},{"zip":"04956","fips":"23007","name":"Franklin County","state_id":"ME"},{"zip":"04957","fips":"23025","name":"Somerset County","state_id":"ME"},{"zip":"04958","fips":"23025","name":"Somerset County","state_id":"ME"},{"zip":"04961","fips":"23025","name":"Somerset County","state_id":"ME"},{"zip":"04961","fips":"23007","name":"Franklin County","state_id":"ME"},{"zip":"04962","fips":"23011","name":"Kennebec County","state_id":"ME"},{"zip":"04963","fips":"23011","name":"Kennebec County","state_id":"ME"},{"zip":"04964","fips":"23007","name":"Franklin County","state_id":"ME"},{"zip":"04965","fips":"23025","name":"Somerset County","state_id":"ME"},{"zip":"04966","fips":"23007","name":"Franklin County","state_id":"ME"},{"zip":"04967","fips":"23025","name":"Somerset County","state_id":"ME"},{"zip":"04969","fips":"23019","name":"Penobscot County","state_id":"ME"},{"zip":"04970","fips":"23007","name":"Franklin County","state_id":"ME"},{"zip":"04971","fips":"23025","name":"Somerset County","state_id":"ME"},{"zip":"04973","fips":"23027","name":"Waldo County","state_id":"ME"},{"zip":"04974","fips":"23027","name":"Waldo County","state_id":"ME"},{"zip":"04975","fips":"23025","name":"Somerset County","state_id":"ME"},{"zip":"04976","fips":"23025","name":"Somerset County","state_id":"ME"},{"zip":"04978","fips":"23025","name":"Somerset County","state_id":"ME"},{"zip":"04979","fips":"23025","name":"Somerset County","state_id":"ME"},{"zip":"04981","fips":"23027","name":"Waldo County","state_id":"ME"},{"zip":"04982","fips":"23007","name":"Franklin County","state_id":"ME"},{"zip":"04983","fips":"23007","name":"Franklin County","state_id":"ME"},{"zip":"04984","fips":"23007","name":"Franklin County","state_id":"ME"},{"zip":"04985","fips":"23025","name":"Somerset County","state_id":"ME"},{"zip":"04986","fips":"23027","name":"Waldo County","state_id":"ME"},{"zip":"04987","fips":"23027","name":"Waldo County","state_id":"ME"},{"zip":"04988","fips":"23027","name":"Waldo County","state_id":"ME"},{"zip":"04988","fips":"23011","name":"Kennebec County","state_id":"ME"},{"zip":"04989","fips":"23011","name":"Kennebec County","state_id":"ME"},{"zip":"04992","fips":"23007","name":"Franklin County","state_id":"ME"}]
