[{"zip":"05101","fips":"50025","name":"Windham County","state_id":"VT"},{"zip":"05141","fips":"50025","name":"Windham County","state_id":"VT"},{"zip":"05142","fips":"50027","name":"Windsor County","state_id":"VT"},{"zip":"05143","fips":"50027","name":"Windsor County","state_id":"VT"},{"zip":"05143","fips":"50025","name":"Windham County","state_id":"VT"},{"zip":"05146","fips":"50025","name":"Windham County","state_id":"VT"},{"zip":"05148","fips":"50027","name":"Windsor County","state_id":"VT"},{"zip":"05148","fips":"50025","name":"Windham County","state_id":"VT"},{"zip":"05148","fips":"50003","name":"Bennington County","state_id":"VT"},{"zip":"05149","fips":"50027","name":"Windsor County","state_id":"VT"},{"zip":"05150","fips":"50027","name":"Windsor County","state_id":"VT"},{"zip":"05151","fips":"50027","name":"Windsor County","state_id":"VT"},{"zip":"05152","fips":"50003","name":"Bennington County","state_id":"VT"},{"zip":"05153","fips":"50027","name":"Windsor County","state_id":"VT"},{"zip":"05154","fips":"50025","name":"Windham County","state_id":"VT"},{"zip":"05155","fips":"50025","name":"Windham County","state_id":"VT"},{"zip":"05155","fips":"50003","name":"Bennington County","state_id":"VT"},{"zip":"05156","fips":"50027","name":"Windsor County","state_id":"VT"},{"zip":"05156","fips":"50025","name":"Windham County","state_id":"VT"},{"zip":"05158","fips":"50025","name":"Windham County","state_id":"VT"},{"zip":"05159","fips":"50025","name":"Windham County","state_id":"VT"},{"zip":"05161","fips":"50003","name":"Bennington County","state_id":"VT"},{"zip":"05161","fips":"50027","name":"Windsor County","state_id":"VT"}]
