[{"zip":"05201","fips":"50003","name":"Bennington County","state_id":"VT"},{"zip":"05201","fips":"50025","name":"Windham County","state_id":"VT"},{"zip":"05250","fips":"50003","name":"Bennington County","state_id":"VT"},{"zip":"05251","fips":"50003","name":"Bennington County","state_id":"VT"},{"zip":"05251","fips":"50021","name":"Rutland County","state_id":"VT"},{"zip":"05252","fips":"50003","name":"Bennington County","state_id":"VT"},{"zip":"05253","fips":"50003","name":"Bennington County","state_id":"VT"},{"zip":"05253","fips":"50021","name":"Rutland County","state_id":"VT"},{"zip":"05254","fips":"50003","name":"Bennington County","state_id":"VT"},{"zip":"05255","fips":"50003","name":"Bennington County","state_id":"VT"},{"zip":"05257","fips":"50003","name":"Bennington County","state_id":"VT"},{"zip":"05260","fips":"50003","name":"Bennington County","state_id":"VT"},{"zip":"05261","fips":"50003","name":"Bennington County","state_id":"VT"},{"zip":"05262","fips":"50003","name":"Bennington County","state_id":"VT"}]
