[{"zip":"05401","fips":"50007","name":"Chittenden County","state_id":"VT"},{"zip":"05402","fips":"50007","name":"Chittenden County","state_id":"VT"},{"zip":"05403","fips":"50007","name":"Chittenden County","state_id":"VT"},{"zip":"05404","fips":"50007","name":"Chittenden County","state_id":"VT"},{"zip":"05405","fips":"50007","name":"Chittenden County","state_id":"VT"},{"zip":"05406","fips":"50007","name":"Chittenden County","state_id":"VT"},{"zip":"05407","fips":"50007","name":"Chittenden County","state_id":"VT"},{"zip":"05408","fips":"50007","name":"Chittenden County","state_id":"VT"},{"zip":"05439","fips":"50007","name":"Chittenden County","state_id":"VT"},{"zip":"05440","fips":"50013","name":"Grand Isle County","state_id":"VT"},{"zip":"05441","fips":"50011","name":"Franklin County","state_id":"VT"},{"zip":"05442","fips":"50015","name":"Lamoille County","state_id":"VT"},{"zip":"05443","fips":"50001","name":"Addison County","state_id":"VT"},{"zip":"05444","fips":"50011","name":"Franklin County","state_id":"VT"},{"zip":"05444","fips":"50015","name":"Lamoille County","state_id":"VT"},{"zip":"05445","fips":"50001","name":"Addison County","state_id":"VT"},{"zip":"05445","fips":"50007","name":"Chittenden County","state_id":"VT"},{"zip":"05446","fips":"50007","name":"Chittenden County","state_id":"VT"},{"zip":"05447","fips":"50011","name":"Franklin County","state_id":"VT"},{"zip":"05448","fips":"50011","name":"Franklin County","state_id":"VT"},{"zip":"05449","fips":"50007","name":"Chittenden County","state_id":"VT"},{"zip":"05450","fips":"50011","name":"Franklin County","state_id":"VT"},{"zip":"05451","fips":"50007","name":"Chittenden County","state_id":"VT"},{"zip":"05452","fips":"50007","name":"Chittenden County","state_id":"VT"},{"zip":"05453","fips":"50007","name":"Chittenden County","state_id":"VT"},{"zip":"05454","fips":"50011","name":"Franklin County","state_id":"VT"},{"zip":"05454","fips":"50007","name":"Chittenden County","state_id":"VT"},{"zip":"05455","fips":"50011","name":"Franklin County","state_id":"VT"},{"zip":"05456","fips":"50001","name":"Addison County","state_id":"VT"},{"zip":"05457","fips":"50011","name":"Franklin County","state_id":"VT"},{"zip":"05458","fips":"50013","name":"Grand Isle County","state_id":"VT"},{"zip":"05459","fips":"50011","name":"Franklin County","state_id":"VT"},{"zip":"05460","fips":"50011","name":"Franklin County","state_id":"VT"},{"zip":"05461","fips":"50001","name":"Addison County","state_id":"VT"},{"zip":"05461","fips":"50007","name":"Chittenden County","state_id":"VT"},{"zip":"05462","fips":"50001","name":"Addison County","state_id":"VT"},{"zip":"05462","fips":"50007","name":"Chittenden County","state_id":"VT"},{"zip":"05463","fips":"50013","name":"Grand Isle County","state_id":"VT"},{"zip":"05464","fips":"50011","name":"Franklin County","state_id":"VT"},{"zip":"05464","fips":"50015","name":"Lamoille County","state_id":"VT"},{"zip":"05465","fips":"50007","name":"Chittenden County","state_id":"VT"},{"zip":"05466","fips":"50007","name":"Chittenden County","state_id":"VT"},{"zip":"05468","fips":"50011","name":"Franklin County","state_id":"VT"},{"zip":"05468","fips":"50007","name":"Chittenden County","state_id":"VT"},{"zip":"05469","fips":"50001","name":"Addison County","state_id":"VT"},{"zip":"05470","fips":"50011","name":"Franklin County","state_id":"VT"},{"zip":"05471","fips":"50019","name":"Orleans County","state_id":"VT"},{"zip":"05471","fips":"50011","name":"Franklin County","state_id":"VT"},{"zip":"05472","fips":"50001","name":"Addison County","state_id":"VT"},{"zip":"05473","fips":"50001","name":"Addison County","state_id":"VT"},{"zip":"05474","fips":"50013","name":"Grand Isle County","state_id":"VT"},{"zip":"05476","fips":"50019","name":"Orleans County","state_id":"VT"},{"zip":"05476","fips":"50011","name":"Franklin County","state_id":"VT"},{"zip":"05477","fips":"50007","name":"Chittenden County","state_id":"VT"},{"zip":"05478","fips":"50011","name":"Franklin County","state_id":"VT"},{"zip":"05478","fips":"50007","name":"Chittenden County","state_id":"VT"},{"zip":"05479","fips":"50011","name":"Franklin County","state_id":"VT"},{"zip":"05481","fips":"50011","name":"Franklin County","state_id":"VT"},{"zip":"05482","fips":"50007","name":"Chittenden County","state_id":"VT"},{"zip":"05483","fips":"50011","name":"Franklin County","state_id":"VT"},{"zip":"05485","fips":"50011","name":"Franklin County","state_id":"VT"},{"zip":"05486","fips":"50013","name":"Grand Isle County","state_id":"VT"},{"zip":"05487","fips":"50007","name":"Chittenden County","state_id":"VT"},{"zip":"05487","fips":"50001","name":"Addison County","state_id":"VT"},{"zip":"05488","fips":"50011","name":"Franklin County","state_id":"VT"},{"zip":"05489","fips":"50007","name":"Chittenden County","state_id":"VT"},{"zip":"05489","fips":"50015","name":"Lamoille County","state_id":"VT"},{"zip":"05490","fips":"50007","name":"Chittenden County","state_id":"VT"},{"zip":"05491","fips":"50001","name":"Addison County","state_id":"VT"},{"zip":"05492","fips":"50015","name":"Lamoille County","state_id":"VT"},{"zip":"05494","fips":"50007","name":"Chittenden County","state_id":"VT"},{"zip":"05495","fips":"50007","name":"Chittenden County","state_id":"VT"}]
