[{"zip":"05601","fips":"50023","name":"Washington County","state_id":"VT"},{"zip":"05602","fips":"50023","name":"Washington County","state_id":"VT"},{"zip":"05603","fips":"50023","name":"Washington County","state_id":"VT"},{"zip":"05604","fips":"50023","name":"Washington County","state_id":"VT"},{"zip":"05609","fips":"50023","name":"Washington County","state_id":"VT"},{"zip":"05620","fips":"50023","name":"Washington County","state_id":"VT"},{"zip":"05633","fips":"50023","name":"Washington County","state_id":"VT"},{"zip":"05640","fips":"50023","name":"Washington County","state_id":"VT"},{"zip":"05641","fips":"50023","name":"Washington County","state_id":"VT"},{"zip":"05641","fips":"50017","name":"Orange County","state_id":"VT"},{"zip":"05647","fips":"50023","name":"Washington County","state_id":"VT"},{"zip":"05647","fips":"50005","name":"Caledonia County","state_id":"VT"},{"zip":"05648","fips":"50023","name":"Washington County","state_id":"VT"},{"zip":"05649","fips":"50017","name":"Orange County","state_id":"VT"},{"zip":"05649","fips":"50023","name":"Washington County","state_id":"VT"},{"zip":"05650","fips":"50023","name":"Washington County","state_id":"VT"},{"zip":"05651","fips":"50023","name":"Washington County","state_id":"VT"},{"zip":"05652","fips":"50015","name":"Lamoille County","state_id":"VT"},{"zip":"05653","fips":"50015","name":"Lamoille County","state_id":"VT"},{"zip":"05654","fips":"50023","name":"Washington County","state_id":"VT"},{"zip":"05654","fips":"50017","name":"Orange County","state_id":"VT"},{"zip":"05655","fips":"50015","name":"Lamoille County","state_id":"VT"},{"zip":"05656","fips":"50015","name":"Lamoille County","state_id":"VT"},{"zip":"05657","fips":"50015","name":"Lamoille County","state_id":"VT"},{"zip":"05658","fips":"50023","name":"Washington County","state_id":"VT"},{"zip":"05658","fips":"50005","name":"Caledonia County","state_id":"VT"},{"zip":"05660","fips":"50023","name":"Washington County","state_id":"VT"},{"zip":"05661","fips":"50015","name":"Lamoille County","state_id":"VT"},{"zip":"05662","fips":"50015","name":"Lamoille County","state_id":"VT"},{"zip":"05663","fips":"50023","name":"Washington County","state_id":"VT"},{"zip":"05663","fips":"50017","name":"Orange County","state_id":"VT"},{"zip":"05664","fips":"50023","name":"Washington County","state_id":"VT"},{"zip":"05665","fips":"50015","name":"Lamoille County","state_id":"VT"},{"zip":"05666","fips":"50023","name":"Washington County","state_id":"VT"},{"zip":"05667","fips":"50023","name":"Washington County","state_id":"VT"},{"zip":"05669","fips":"50001","name":"Addison County","state_id":"VT"},{"zip":"05669","fips":"50017","name":"Orange County","state_id":"VT"},{"zip":"05669","fips":"50023","name":"Washington County","state_id":"VT"},{"zip":"05670","fips":"50023","name":"Washington County","state_id":"VT"},{"zip":"05671","fips":"50023","name":"Washington County","state_id":"VT"},{"zip":"05672","fips":"50015","name":"Lamoille County","state_id":"VT"},{"zip":"05673","fips":"50023","name":"Washington County","state_id":"VT"},{"zip":"05674","fips":"50023","name":"Washington County","state_id":"VT"},{"zip":"05675","fips":"50017","name":"Orange County","state_id":"VT"},{"zip":"05676","fips":"50007","name":"Chittenden County","state_id":"VT"},{"zip":"05676","fips":"50023","name":"Washington County","state_id":"VT"},{"zip":"05677","fips":"50023","name":"Washington County","state_id":"VT"},{"zip":"05678","fips":"50023","name":"Washington County","state_id":"VT"},{"zip":"05679","fips":"50017","name":"Orange County","state_id":"VT"},{"zip":"05680","fips":"50019","name":"Orleans County","state_id":"VT"},{"zip":"05680","fips":"50005","name":"Caledonia County","state_id":"VT"},{"zip":"05680","fips":"50023","name":"Washington County","state_id":"VT"},{"zip":"05680","fips":"50015","name":"Lamoille County","state_id":"VT"},{"zip":"05681","fips":"50023","name":"Washington County","state_id":"VT"},{"zip":"05682","fips":"50023","name":"Washington County","state_id":"VT"}]
