[{"zip":"05819","fips":"50009","name":"Essex County","state_id":"VT"},{"zip":"05819","fips":"50005","name":"Caledonia County","state_id":"VT"},{"zip":"05820","fips":"50019","name":"Orleans County","state_id":"VT"},{"zip":"05821","fips":"50005","name":"Caledonia County","state_id":"VT"},{"zip":"05822","fips":"50019","name":"Orleans County","state_id":"VT"},{"zip":"05823","fips":"50019","name":"Orleans County","state_id":"VT"},{"zip":"05824","fips":"50009","name":"Essex County","state_id":"VT"},{"zip":"05824","fips":"50005","name":"Caledonia County","state_id":"VT"},{"zip":"05825","fips":"50019","name":"Orleans County","state_id":"VT"},{"zip":"05826","fips":"50015","name":"Lamoille County","state_id":"VT"},{"zip":"05826","fips":"50019","name":"Orleans County","state_id":"VT"},{"zip":"05827","fips":"50019","name":"Orleans County","state_id":"VT"},{"zip":"05828","fips":"50005","name":"Caledonia County","state_id":"VT"},{"zip":"05829","fips":"50019","name":"Orleans County","state_id":"VT"},{"zip":"05830","fips":"50019","name":"Orleans County","state_id":"VT"},{"zip":"05832","fips":"50005","name":"Caledonia County","state_id":"VT"},{"zip":"05833","fips":"50019","name":"Orleans County","state_id":"VT"},{"zip":"05836","fips":"50019","name":"Orleans County","state_id":"VT"},{"zip":"05836","fips":"50005","name":"Caledonia County","state_id":"VT"},{"zip":"05837","fips":"50009","name":"Essex County","state_id":"VT"},{"zip":"05837","fips":"50005","name":"Caledonia County","state_id":"VT"},{"zip":"05838","fips":"50005","name":"Caledonia County","state_id":"VT"},{"zip":"05839","fips":"50019","name":"Orleans County","state_id":"VT"},{"zip":"05839","fips":"50005","name":"Caledonia County","state_id":"VT"},{"zip":"05840","fips":"50009","name":"Essex County","state_id":"VT"},{"zip":"05841","fips":"50005","name":"Caledonia County","state_id":"VT"},{"zip":"05841","fips":"50019","name":"Orleans County","state_id":"VT"},{"zip":"05842","fips":"50019","name":"Orleans County","state_id":"VT"},{"zip":"05842","fips":"50005","name":"Caledonia County","state_id":"VT"},{"zip":"05843","fips":"50019","name":"Orleans County","state_id":"VT"},{"zip":"05843","fips":"50023","name":"Washington County","state_id":"VT"},{"zip":"05843","fips":"50005","name":"Caledonia County","state_id":"VT"},{"zip":"05843","fips":"50015","name":"Lamoille County","state_id":"VT"},{"zip":"05845","fips":"50019","name":"Orleans County","state_id":"VT"},{"zip":"05846","fips":"50009","name":"Essex County","state_id":"VT"},{"zip":"05846","fips":"50019","name":"Orleans County","state_id":"VT"},{"zip":"05847","fips":"50019","name":"Orleans County","state_id":"VT"},{"zip":"05848","fips":"50005","name":"Caledonia County","state_id":"VT"},{"zip":"05849","fips":"50005","name":"Caledonia County","state_id":"VT"},{"zip":"05850","fips":"50005","name":"Caledonia County","state_id":"VT"},{"zip":"05851","fips":"50005","name":"Caledonia County","state_id":"VT"},{"zip":"05853","fips":"50019","name":"Orleans County","state_id":"VT"},{"zip":"05855","fips":"50019","name":"Orleans County","state_id":"VT"},{"zip":"05857","fips":"50019","name":"Orleans County","state_id":"VT"},{"zip":"05858","fips":"50009","name":"Essex County","state_id":"VT"},{"zip":"05859","fips":"50019","name":"Orleans County","state_id":"VT"},{"zip":"05860","fips":"50019","name":"Orleans County","state_id":"VT"},{"zip":"05861","fips":"50005","name":"Caledonia County","state_id":"VT"},{"zip":"05862","fips":"50005","name":"Caledonia County","state_id":"VT"},{"zip":"05863","fips":"50005","name":"Caledonia County","state_id":"VT"},{"zip":"05866","fips":"50005","name":"Caledonia County","state_id":"VT"},{"zip":"05867","fips":"50005","name":"Caledonia County","state_id":"VT"},{"zip":"05868","fips":"50019","name":"Orleans County","state_id":"VT"},{"zip":"05871","fips":"50009","name":"Essex County","state_id":"VT"},{"zip":"05871","fips":"50019","name":"Orleans County","state_id":"VT"},{"zip":"05871","fips":"50005","name":"Caledonia County","state_id":"VT"},{"zip":"05872","fips":"50019","name":"Orleans County","state_id":"VT"},{"zip":"05873","fips":"50023","name":"Washington County","state_id":"VT"},{"zip":"05873","fips":"50005","name":"Caledonia County","state_id":"VT"},{"zip":"05874","fips":"50019","name":"Orleans County","state_id":"VT"},{"zip":"05875","fips":"50019","name":"Orleans County","state_id":"VT"}]
