[{"zip":"06001","fips":"09003","name":"Hartford County","state_id":"CT"},{"zip":"06002","fips":"09003","name":"Hartford County","state_id":"CT"},{"zip":"06006","fips":"09003","name":"Hartford County","state_id":"CT"},{"zip":"06010","fips":"09005","name":"Litchfield County","state_id":"CT"},{"zip":"06010","fips":"09003","name":"Hartford County","state_id":"CT"},{"zip":"06011","fips":"09003","name":"Hartford County","state_id":"CT"},{"zip":"06013","fips":"09003","name":"Hartford County","state_id":"CT"},{"zip":"06016","fips":"09003","name":"Hartford County","state_id":"CT"},{"zip":"06018","fips":"09005","name":"Litchfield County","state_id":"CT"},{"zip":"06019","fips":"09003","name":"Hartford County","state_id":"CT"},{"zip":"06020","fips":"09003","name":"Hartford County","state_id":"CT"},{"zip":"06021","fips":"09005","name":"Litchfield County","state_id":"CT"},{"zip":"06022","fips":"09003","name":"Hartford County","state_id":"CT"},{"zip":"06023","fips":"09007","name":"Middlesex County","state_id":"CT"},{"zip":"06023","fips":"09003","name":"Hartford County","state_id":"CT"},{"zip":"06024","fips":"09005","name":"Litchfield County","state_id":"CT"},{"zip":"06025","fips":"09003","name":"Hartford County","state_id":"CT"},{"zip":"06026","fips":"09003","name":"Hartford County","state_id":"CT"},{"zip":"06027","fips":"09003","name":"Hartford County","state_id":"CT"},{"zip":"06028","fips":"09003","name":"Hartford County","state_id":"CT"},{"zip":"06029","fips":"09013","name":"Tolland County","state_id":"CT"},{"zip":"06029","fips":"09003","name":"Hartford County","state_id":"CT"},{"zip":"06030","fips":"09003","name":"Hartford County","state_id":"CT"},{"zip":"06031","fips":"09005","name":"Litchfield County","state_id":"CT"},{"zip":"06032","fips":"09003","name":"Hartford County","state_id":"CT"},{"zip":"06033","fips":"09003","name":"Hartford County","state_id":"CT"},{"zip":"06034","fips":"09003","name":"Hartford County","state_id":"CT"},{"zip":"06035","fips":"09003","name":"Hartford County","state_id":"CT"},{"zip":"06037","fips":"09009","name":"New Haven County","state_id":"CT"},{"zip":"06037","fips":"09003","name":"Hartford County","state_id":"CT"},{"zip":"06039","fips":"09005","name":"Litchfield County","state_id":"CT"},{"zip":"06040","fips":"09003","name":"Hartford County","state_id":"CT"},{"zip":"06041","fips":"09003","name":"Hartford County","state_id":"CT"},{"zip":"06042","fips":"09003","name":"Hartford County","state_id":"CT"},{"zip":"06042","fips":"09013","name":"Tolland County","state_id":"CT"},{"zip":"06043","fips":"09003","name":"Hartford County","state_id":"CT"},{"zip":"06043","fips":"09013","name":"Tolland County","state_id":"CT"},{"zip":"06045","fips":"09003","name":"Hartford County","state_id":"CT"},{"zip":"06050","fips":"09003","name":"Hartford County","state_id":"CT"},{"zip":"06051","fips":"09003","name":"Hartford County","state_id":"CT"},{"zip":"06052","fips":"09003","name":"Hartford County","state_id":"CT"},{"zip":"06053","fips":"09003","name":"Hartford County","state_id":"CT"},{"zip":"06057","fips":"09005","name":"Litchfield County","state_id":"CT"},{"zip":"06058","fips":"09005","name":"Litchfield County","state_id":"CT"},{"zip":"06059","fips":"09005","name":"Litchfield County","state_id":"CT"},{"zip":"06060","fips":"09003","name":"Hartford County","state_id":"CT"},{"zip":"06061","fips":"09005","name":"Litchfield County","state_id":"CT"},{"zip":"06062","fips":"09003","name":"Hartford County","state_id":"CT"},{"zip":"06063","fips":"09005","name":"Litchfield County","state_id":"CT"},{"zip":"06064","fips":"09003","name":"Hartford County","state_id":"CT"},{"zip":"06065","fips":"09005","name":"Litchfield County","state_id":"CT"},{"zip":"06065","fips":"09003","name":"Hartford County","state_id":"CT"},{"zip":"06066","fips":"09003","name":"Hartford County","state_id":"CT"},{"zip":"06066","fips":"09013","name":"Tolland County","state_id":"CT"},{"zip":"06067","fips":"09003","name":"Hartford County","state_id":"CT"},{"zip":"06068","fips":"09005","name":"Litchfield County","state_id":"CT"},{"zip":"06069","fips":"09005","name":"Litchfield County","state_id":"CT"},{"zip":"06070","fips":"09003","name":"Hartford County","state_id":"CT"},{"zip":"06071","fips":"09013","name":"Tolland County","state_id":"CT"},{"zip":"06071","fips":"09003","name":"Hartford County","state_id":"CT"},{"zip":"06072","fips":"09013","name":"Tolland County","state_id":"CT"},{"zip":"06073","fips":"09003","name":"Hartford County","state_id":"CT"},{"zip":"06073","fips":"09007","name":"Middlesex County","state_id":"CT"},{"zip":"06074","fips":"09003","name":"Hartford County","state_id":"CT"},{"zip":"06074","fips":"09013","name":"Tolland County","state_id":"CT"},{"zip":"06075","fips":"09013","name":"Tolland County","state_id":"CT"},{"zip":"06076","fips":"09013","name":"Tolland County","state_id":"CT"},{"zip":"06077","fips":"09013","name":"Tolland County","state_id":"CT"},{"zip":"06078","fips":"09003","name":"Hartford County","state_id":"CT"},{"zip":"06079","fips":"09005","name":"Litchfield County","state_id":"CT"},{"zip":"06080","fips":"09003","name":"Hartford County","state_id":"CT"},{"zip":"06081","fips":"09003","name":"Hartford County","state_id":"CT"},{"zip":"06082","fips":"09013","name":"Tolland County","state_id":"CT"},{"zip":"06082","fips":"09003","name":"Hartford County","state_id":"CT"},{"zip":"06083","fips":"09003","name":"Hartford County","state_id":"CT"},{"zip":"06084","fips":"09013","name":"Tolland County","state_id":"CT"},{"zip":"06085","fips":"09003","name":"Hartford County","state_id":"CT"},{"zip":"06088","fips":"09003","name":"Hartford County","state_id":"CT"},{"zip":"06089","fips":"09003","name":"Hartford County","state_id":"CT"},{"zip":"06090","fips":"09003","name":"Hartford County","state_id":"CT"},{"zip":"06091","fips":"09003","name":"Hartford County","state_id":"CT"},{"zip":"06092","fips":"09003","name":"Hartford County","state_id":"CT"},{"zip":"06093","fips":"09003","name":"Hartford County","state_id":"CT"},{"zip":"06095","fips":"09003","name":"Hartford County","state_id":"CT"},{"zip":"06096","fips":"09003","name":"Hartford County","state_id":"CT"},{"zip":"06098","fips":"09005","name":"Litchfield County","state_id":"CT"}]
