[{"zip":"06226","fips":"09013","name":"Tolland County","state_id":"CT"},{"zip":"06226","fips":"09015","name":"Windham County","state_id":"CT"},{"zip":"06230","fips":"09015","name":"Windham County","state_id":"CT"},{"zip":"06231","fips":"09011","name":"New London County","state_id":"CT"},{"zip":"06231","fips":"09013","name":"Tolland County","state_id":"CT"},{"zip":"06232","fips":"09013","name":"Tolland County","state_id":"CT"},{"zip":"06233","fips":"09015","name":"Windham County","state_id":"CT"},{"zip":"06234","fips":"09015","name":"Windham County","state_id":"CT"},{"zip":"06235","fips":"09015","name":"Windham County","state_id":"CT"},{"zip":"06235","fips":"09013","name":"Tolland County","state_id":"CT"},{"zip":"06237","fips":"09013","name":"Tolland County","state_id":"CT"},{"zip":"06238","fips":"09013","name":"Tolland County","state_id":"CT"},{"zip":"06239","fips":"09015","name":"Windham County","state_id":"CT"},{"zip":"06241","fips":"09015","name":"Windham County","state_id":"CT"},{"zip":"06242","fips":"09013","name":"Tolland County","state_id":"CT"},{"zip":"06242","fips":"09015","name":"Windham County","state_id":"CT"},{"zip":"06243","fips":"09015","name":"Windham County","state_id":"CT"},{"zip":"06244","fips":"09015","name":"Windham County","state_id":"CT"},{"zip":"06246","fips":"09015","name":"Windham County","state_id":"CT"},{"zip":"06247","fips":"09015","name":"Windham County","state_id":"CT"},{"zip":"06248","fips":"09013","name":"Tolland County","state_id":"CT"},{"zip":"06248","fips":"09003","name":"Hartford County","state_id":"CT"},{"zip":"06249","fips":"09011","name":"New London County","state_id":"CT"},{"zip":"06250","fips":"09013","name":"Tolland County","state_id":"CT"},{"zip":"06250","fips":"09015","name":"Windham County","state_id":"CT"},{"zip":"06251","fips":"09013","name":"Tolland County","state_id":"CT"},{"zip":"06254","fips":"09011","name":"New London County","state_id":"CT"},{"zip":"06255","fips":"09015","name":"Windham County","state_id":"CT"},{"zip":"06256","fips":"09015","name":"Windham County","state_id":"CT"},{"zip":"06258","fips":"09015","name":"Windham County","state_id":"CT"},{"zip":"06259","fips":"09015","name":"Windham County","state_id":"CT"},{"zip":"06260","fips":"09015","name":"Windham County","state_id":"CT"},{"zip":"06262","fips":"09015","name":"Windham County","state_id":"CT"},{"zip":"06263","fips":"09015","name":"Windham County","state_id":"CT"},{"zip":"06264","fips":"09015","name":"Windham County","state_id":"CT"},{"zip":"06266","fips":"09015","name":"Windham County","state_id":"CT"},{"zip":"06267","fips":"09015","name":"Windham County","state_id":"CT"},{"zip":"06268","fips":"09013","name":"Tolland County","state_id":"CT"},{"zip":"06269","fips":"09013","name":"Tolland County","state_id":"CT"},{"zip":"06277","fips":"09015","name":"Windham County","state_id":"CT"},{"zip":"06278","fips":"09015","name":"Windham County","state_id":"CT"},{"zip":"06279","fips":"09013","name":"Tolland County","state_id":"CT"},{"zip":"06279","fips":"09015","name":"Windham County","state_id":"CT"},{"zip":"06280","fips":"09015","name":"Windham County","state_id":"CT"},{"zip":"06281","fips":"09015","name":"Windham County","state_id":"CT"},{"zip":"06282","fips":"09015","name":"Windham County","state_id":"CT"}]
