[{"zip":"06401","fips":"09009","name":"New Haven County","state_id":"CT"},{"zip":"06403","fips":"09009","name":"New Haven County","state_id":"CT"},{"zip":"06404","fips":"09001","name":"Fairfield County","state_id":"CT"},{"zip":"06405","fips":"09009","name":"New Haven County","state_id":"CT"},{"zip":"06408","fips":"09009","name":"New Haven County","state_id":"CT"},{"zip":"06409","fips":"09007","name":"Middlesex County","state_id":"CT"},{"zip":"06410","fips":"09009","name":"New Haven County","state_id":"CT"},{"zip":"06411","fips":"09009","name":"New Haven County","state_id":"CT"},{"zip":"06412","fips":"09007","name":"Middlesex County","state_id":"CT"},{"zip":"06413","fips":"09007","name":"Middlesex County","state_id":"CT"},{"zip":"06414","fips":"09007","name":"Middlesex County","state_id":"CT"},{"zip":"06415","fips":"09007","name":"Middlesex County","state_id":"CT"},{"zip":"06415","fips":"09011","name":"New London County","state_id":"CT"},{"zip":"06415","fips":"09013","name":"Tolland County","state_id":"CT"},{"zip":"06416","fips":"09007","name":"Middlesex County","state_id":"CT"},{"zip":"06417","fips":"09007","name":"Middlesex County","state_id":"CT"},{"zip":"06418","fips":"09009","name":"New Haven County","state_id":"CT"},{"zip":"06418","fips":"09001","name":"Fairfield County","state_id":"CT"},{"zip":"06419","fips":"09007","name":"Middlesex County","state_id":"CT"},{"zip":"06420","fips":"09011","name":"New London County","state_id":"CT"},{"zip":"06420","fips":"09007","name":"Middlesex County","state_id":"CT"},{"zip":"06422","fips":"09009","name":"New Haven County","state_id":"CT"},{"zip":"06422","fips":"09007","name":"Middlesex County","state_id":"CT"},{"zip":"06423","fips":"09007","name":"Middlesex County","state_id":"CT"},{"zip":"06424","fips":"09007","name":"Middlesex County","state_id":"CT"},{"zip":"06426","fips":"09007","name":"Middlesex County","state_id":"CT"},{"zip":"06437","fips":"09009","name":"New Haven County","state_id":"CT"},{"zip":"06438","fips":"09007","name":"Middlesex County","state_id":"CT"},{"zip":"06439","fips":"09011","name":"New London County","state_id":"CT"},{"zip":"06440","fips":"09001","name":"Fairfield County","state_id":"CT"},{"zip":"06441","fips":"09007","name":"Middlesex County","state_id":"CT"},{"zip":"06442","fips":"09007","name":"Middlesex County","state_id":"CT"},{"zip":"06443","fips":"09009","name":"New Haven County","state_id":"CT"},{"zip":"06444","fips":"09003","name":"Hartford County","state_id":"CT"},{"zip":"06447","fips":"09003","name":"Hartford County","state_id":"CT"},{"zip":"06447","fips":"09013","name":"Tolland County","state_id":"CT"},{"zip":"06450","fips":"09009","name":"New Haven County","state_id":"CT"},{"zip":"06451","fips":"09009","name":"New Haven County","state_id":"CT"},{"zip":"06451","fips":"09003","name":"Hartford County","state_id":"CT"},{"zip":"06455","fips":"09007","name":"Middlesex County","state_id":"CT"},{"zip":"06456","fips":"09007","name":"Middlesex County","state_id":"CT"},{"zip":"06457","fips":"09007","name":"Middlesex County","state_id":"CT"},{"zip":"06459","fips":"09007","name":"Middlesex County","state_id":"CT"},{"zip":"06460","fips":"09009","name":"New Haven County","state_id":"CT"},{"zip":"06461","fips":"09009","name":"New Haven County","state_id":"CT"},{"zip":"06467","fips":"09003","name":"Hartford County","state_id":"CT"},{"zip":"06468","fips":"09001","name":"Fairfield County","state_id":"CT"},{"zip":"06469","fips":"09007","name":"Middlesex County","state_id":"CT"},{"zip":"06470","fips":"09001","name":"Fairfield County","state_id":"CT"},{"zip":"06471","fips":"09009","name":"New Haven County","state_id":"CT"},{"zip":"06472","fips":"09009","name":"New Haven County","state_id":"CT"},{"zip":"06473","fips":"09009","name":"New Haven County","state_id":"CT"},{"zip":"06475","fips":"09007","name":"Middlesex County","state_id":"CT"},{"zip":"06477","fips":"09009","name":"New Haven County","state_id":"CT"},{"zip":"06478","fips":"09009","name":"New Haven County","state_id":"CT"},{"zip":"06479","fips":"09003","name":"Hartford County","state_id":"CT"},{"zip":"06479","fips":"09009","name":"New Haven County","state_id":"CT"},{"zip":"06480","fips":"09007","name":"Middlesex County","state_id":"CT"},{"zip":"06481","fips":"09007","name":"Middlesex County","state_id":"CT"},{"zip":"06482","fips":"09001","name":"Fairfield County","state_id":"CT"},{"zip":"06483","fips":"09009","name":"New Haven County","state_id":"CT"},{"zip":"06484","fips":"09001","name":"Fairfield County","state_id":"CT"},{"zip":"06487","fips":"09009","name":"New Haven County","state_id":"CT"},{"zip":"06488","fips":"09009","name":"New Haven County","state_id":"CT"},{"zip":"06489","fips":"09009","name":"New Haven County","state_id":"CT"},{"zip":"06489","fips":"09003","name":"Hartford County","state_id":"CT"},{"zip":"06491","fips":"09001","name":"Fairfield County","state_id":"CT"},{"zip":"06492","fips":"09009","name":"New Haven County","state_id":"CT"},{"zip":"06493","fips":"09009","name":"New Haven County","state_id":"CT"},{"zip":"06494","fips":"09009","name":"New Haven County","state_id":"CT"},{"zip":"06495","fips":"09009","name":"New Haven County","state_id":"CT"},{"zip":"06498","fips":"09007","name":"Middlesex County","state_id":"CT"}]
