[{"zip":"06701","fips":"09009","name":"New Haven County","state_id":"CT"},{"zip":"06702","fips":"09009","name":"New Haven County","state_id":"CT"},{"zip":"06703","fips":"09009","name":"New Haven County","state_id":"CT"},{"zip":"06704","fips":"09009","name":"New Haven County","state_id":"CT"},{"zip":"06705","fips":"09009","name":"New Haven County","state_id":"CT"},{"zip":"06706","fips":"09009","name":"New Haven County","state_id":"CT"},{"zip":"06708","fips":"09005","name":"Litchfield County","state_id":"CT"},{"zip":"06708","fips":"09009","name":"New Haven County","state_id":"CT"},{"zip":"06710","fips":"09009","name":"New Haven County","state_id":"CT"},{"zip":"06712","fips":"09009","name":"New Haven County","state_id":"CT"},{"zip":"06716","fips":"09009","name":"New Haven County","state_id":"CT"},{"zip":"06720","fips":"09009","name":"New Haven County","state_id":"CT"},{"zip":"06721","fips":"09009","name":"New Haven County","state_id":"CT"},{"zip":"06722","fips":"09009","name":"New Haven County","state_id":"CT"},{"zip":"06723","fips":"09009","name":"New Haven County","state_id":"CT"},{"zip":"06724","fips":"09009","name":"New Haven County","state_id":"CT"},{"zip":"06749","fips":"09009","name":"New Haven County","state_id":"CT"},{"zip":"06750","fips":"09005","name":"Litchfield County","state_id":"CT"},{"zip":"06751","fips":"09005","name":"Litchfield County","state_id":"CT"},{"zip":"06752","fips":"09005","name":"Litchfield County","state_id":"CT"},{"zip":"06753","fips":"09005","name":"Litchfield County","state_id":"CT"},{"zip":"06754","fips":"09005","name":"Litchfield County","state_id":"CT"},{"zip":"06755","fips":"09005","name":"Litchfield County","state_id":"CT"},{"zip":"06756","fips":"09005","name":"Litchfield County","state_id":"CT"},{"zip":"06757","fips":"09005","name":"Litchfield County","state_id":"CT"},{"zip":"06758","fips":"09005","name":"Litchfield County","state_id":"CT"},{"zip":"06759","fips":"09005","name":"Litchfield County","state_id":"CT"},{"zip":"06762","fips":"09009","name":"New Haven County","state_id":"CT"},{"zip":"06763","fips":"09005","name":"Litchfield County","state_id":"CT"},{"zip":"06770","fips":"09009","name":"New Haven County","state_id":"CT"},{"zip":"06776","fips":"09005","name":"Litchfield County","state_id":"CT"},{"zip":"06777","fips":"09005","name":"Litchfield County","state_id":"CT"},{"zip":"06778","fips":"09005","name":"Litchfield County","state_id":"CT"},{"zip":"06779","fips":"09005","name":"Litchfield County","state_id":"CT"},{"zip":"06779","fips":"09009","name":"New Haven County","state_id":"CT"},{"zip":"06781","fips":"09005","name":"Litchfield County","state_id":"CT"},{"zip":"06782","fips":"09005","name":"Litchfield County","state_id":"CT"},{"zip":"06783","fips":"09005","name":"Litchfield County","state_id":"CT"},{"zip":"06784","fips":"09001","name":"Fairfield County","state_id":"CT"},{"zip":"06784","fips":"09005","name":"Litchfield County","state_id":"CT"},{"zip":"06785","fips":"09005","name":"Litchfield County","state_id":"CT"},{"zip":"06786","fips":"09005","name":"Litchfield County","state_id":"CT"},{"zip":"06786","fips":"09003","name":"Hartford County","state_id":"CT"},{"zip":"06787","fips":"09005","name":"Litchfield County","state_id":"CT"},{"zip":"06790","fips":"09005","name":"Litchfield County","state_id":"CT"},{"zip":"06791","fips":"09005","name":"Litchfield County","state_id":"CT"},{"zip":"06791","fips":"09003","name":"Hartford County","state_id":"CT"},{"zip":"06792","fips":"09005","name":"Litchfield County","state_id":"CT"},{"zip":"06793","fips":"09005","name":"Litchfield County","state_id":"CT"},{"zip":"06794","fips":"09005","name":"Litchfield County","state_id":"CT"},{"zip":"06795","fips":"09005","name":"Litchfield County","state_id":"CT"},{"zip":"06796","fips":"09005","name":"Litchfield County","state_id":"CT"},{"zip":"06798","fips":"09005","name":"Litchfield County","state_id":"CT"}]
