[{"zip":"06801","fips":"09001","name":"Fairfield County","state_id":"CT"},{"zip":"06804","fips":"09005","name":"Litchfield County","state_id":"CT"},{"zip":"06804","fips":"09001","name":"Fairfield County","state_id":"CT"},{"zip":"06807","fips":"09001","name":"Fairfield County","state_id":"CT"},{"zip":"06810","fips":"09001","name":"Fairfield County","state_id":"CT"},{"zip":"06811","fips":"09001","name":"Fairfield County","state_id":"CT"},{"zip":"06812","fips":"09001","name":"Fairfield County","state_id":"CT"},{"zip":"06813","fips":"09001","name":"Fairfield County","state_id":"CT"},{"zip":"06820","fips":"09001","name":"Fairfield County","state_id":"CT"},{"zip":"06824","fips":"09001","name":"Fairfield County","state_id":"CT"},{"zip":"06825","fips":"09001","name":"Fairfield County","state_id":"CT"},{"zip":"06828","fips":"09001","name":"Fairfield County","state_id":"CT"},{"zip":"06829","fips":"09001","name":"Fairfield County","state_id":"CT"},{"zip":"06830","fips":"09001","name":"Fairfield County","state_id":"CT"},{"zip":"06831","fips":"09001","name":"Fairfield County","state_id":"CT"},{"zip":"06836","fips":"09001","name":"Fairfield County","state_id":"CT"},{"zip":"06838","fips":"09001","name":"Fairfield County","state_id":"CT"},{"zip":"06840","fips":"09001","name":"Fairfield County","state_id":"CT"},{"zip":"06850","fips":"09001","name":"Fairfield County","state_id":"CT"},{"zip":"06851","fips":"09001","name":"Fairfield County","state_id":"CT"},{"zip":"06852","fips":"09001","name":"Fairfield County","state_id":"CT"},{"zip":"06853","fips":"09001","name":"Fairfield County","state_id":"CT"},{"zip":"06854","fips":"09001","name":"Fairfield County","state_id":"CT"},{"zip":"06855","fips":"09001","name":"Fairfield County","state_id":"CT"},{"zip":"06856","fips":"09001","name":"Fairfield County","state_id":"CT"},{"zip":"06858","fips":"09001","name":"Fairfield County","state_id":"CT"},{"zip":"06870","fips":"09001","name":"Fairfield County","state_id":"CT"},{"zip":"06875","fips":"09001","name":"Fairfield County","state_id":"CT"},{"zip":"06876","fips":"09001","name":"Fairfield County","state_id":"CT"},{"zip":"06877","fips":"09001","name":"Fairfield County","state_id":"CT"},{"zip":"06878","fips":"09001","name":"Fairfield County","state_id":"CT"},{"zip":"06880","fips":"09001","name":"Fairfield County","state_id":"CT"},{"zip":"06881","fips":"09001","name":"Fairfield County","state_id":"CT"},{"zip":"06883","fips":"09001","name":"Fairfield County","state_id":"CT"},{"zip":"06888","fips":"09001","name":"Fairfield County","state_id":"CT"},{"zip":"06890","fips":"09001","name":"Fairfield County","state_id":"CT"},{"zip":"06896","fips":"09001","name":"Fairfield County","state_id":"CT"},{"zip":"06897","fips":"09001","name":"Fairfield County","state_id":"CT"}]
