[{"zip":"07001","fips":"34023","name":"Middlesex County","state_id":"NJ"},{"zip":"07002","fips":"34017","name":"Hudson County","state_id":"NJ"},{"zip":"07003","fips":"34013","name":"Essex County","state_id":"NJ"},{"zip":"07004","fips":"34013","name":"Essex County","state_id":"NJ"},{"zip":"07005","fips":"34027","name":"Morris County","state_id":"NJ"},{"zip":"07006","fips":"34031","name":"Passaic County","state_id":"NJ"},{"zip":"07006","fips":"34013","name":"Essex County","state_id":"NJ"},{"zip":"07007","fips":"34013","name":"Essex County","state_id":"NJ"},{"zip":"07008","fips":"34023","name":"Middlesex County","state_id":"NJ"},{"zip":"07009","fips":"34013","name":"Essex County","state_id":"NJ"},{"zip":"07010","fips":"34003","name":"Bergen County","state_id":"NJ"},{"zip":"07011","fips":"34031","name":"Passaic County","state_id":"NJ"},{"zip":"07012","fips":"34031","name":"Passaic County","state_id":"NJ"},{"zip":"07013","fips":"34031","name":"Passaic County","state_id":"NJ"},{"zip":"07014","fips":"34013","name":"Essex County","state_id":"NJ"},{"zip":"07014","fips":"34031","name":"Passaic County","state_id":"NJ"},{"zip":"07015","fips":"34031","name":"Passaic County","state_id":"NJ"},{"zip":"07016","fips":"34039","name":"Union County","state_id":"NJ"},{"zip":"07017","fips":"34013","name":"Essex County","state_id":"NJ"},{"zip":"07018","fips":"34013","name":"Essex County","state_id":"NJ"},{"zip":"07019","fips":"34013","name":"Essex County","state_id":"NJ"},{"zip":"07020","fips":"34003","name":"Bergen County","state_id":"NJ"},{"zip":"07021","fips":"34013","name":"Essex County","state_id":"NJ"},{"zip":"07022","fips":"34003","name":"Bergen County","state_id":"NJ"},{"zip":"07023","fips":"34039","name":"Union County","state_id":"NJ"},{"zip":"07024","fips":"34003","name":"Bergen County","state_id":"NJ"},{"zip":"07026","fips":"34003","name":"Bergen County","state_id":"NJ"},{"zip":"07027","fips":"34039","name":"Union County","state_id":"NJ"},{"zip":"07028","fips":"34013","name":"Essex County","state_id":"NJ"},{"zip":"07029","fips":"34017","name":"Hudson County","state_id":"NJ"},{"zip":"07030","fips":"34017","name":"Hudson County","state_id":"NJ"},{"zip":"07031","fips":"34017","name":"Hudson County","state_id":"NJ"},{"zip":"07031","fips":"34003","name":"Bergen County","state_id":"NJ"},{"zip":"07032","fips":"34017","name":"Hudson County","state_id":"NJ"},{"zip":"07032","fips":"34003","name":"Bergen County","state_id":"NJ"},{"zip":"07033","fips":"34039","name":"Union County","state_id":"NJ"},{"zip":"07034","fips":"34027","name":"Morris County","state_id":"NJ"},{"zip":"07035","fips":"34027","name":"Morris County","state_id":"NJ"},{"zip":"07036","fips":"34039","name":"Union County","state_id":"NJ"},{"zip":"07039","fips":"34013","name":"Essex County","state_id":"NJ"},{"zip":"07040","fips":"34039","name":"Union County","state_id":"NJ"},{"zip":"07040","fips":"34013","name":"Essex County","state_id":"NJ"},{"zip":"07041","fips":"34013","name":"Essex County","state_id":"NJ"},{"zip":"07042","fips":"34013","name":"Essex County","state_id":"NJ"},{"zip":"07043","fips":"34013","name":"Essex County","state_id":"NJ"},{"zip":"07043","fips":"34031","name":"Passaic County","state_id":"NJ"},{"zip":"07044","fips":"34013","name":"Essex County","state_id":"NJ"},{"zip":"07045","fips":"34027","name":"Morris County","state_id":"NJ"},{"zip":"07046","fips":"34027","name":"Morris County","state_id":"NJ"},{"zip":"07047","fips":"34003","name":"Bergen County","state_id":"NJ"},{"zip":"07047","fips":"34017","name":"Hudson County","state_id":"NJ"},{"zip":"07050","fips":"34013","name":"Essex County","state_id":"NJ"},{"zip":"07051","fips":"34013","name":"Essex County","state_id":"NJ"},{"zip":"07052","fips":"34013","name":"Essex County","state_id":"NJ"},{"zip":"07054","fips":"34027","name":"Morris County","state_id":"NJ"},{"zip":"07055","fips":"34031","name":"Passaic County","state_id":"NJ"},{"zip":"07057","fips":"34003","name":"Bergen County","state_id":"NJ"},{"zip":"07058","fips":"34027","name":"Morris County","state_id":"NJ"},{"zip":"07059","fips":"34035","name":"Somerset County","state_id":"NJ"},{"zip":"07060","fips":"34035","name":"Somerset County","state_id":"NJ"},{"zip":"07060","fips":"34039","name":"Union County","state_id":"NJ"},{"zip":"07061","fips":"34039","name":"Union County","state_id":"NJ"},{"zip":"07062","fips":"34035","name":"Somerset County","state_id":"NJ"},{"zip":"07062","fips":"34039","name":"Union County","state_id":"NJ"},{"zip":"07063","fips":"34035","name":"Somerset County","state_id":"NJ"},{"zip":"07063","fips":"34039","name":"Union County","state_id":"NJ"},{"zip":"07064","fips":"34023","name":"Middlesex County","state_id":"NJ"},{"zip":"07065","fips":"34023","name":"Middlesex County","state_id":"NJ"},{"zip":"07065","fips":"34039","name":"Union County","state_id":"NJ"},{"zip":"07066","fips":"34039","name":"Union County","state_id":"NJ"},{"zip":"07067","fips":"34023","name":"Middlesex County","state_id":"NJ"},{"zip":"07067","fips":"34039","name":"Union County","state_id":"NJ"},{"zip":"07068","fips":"34013","name":"Essex County","state_id":"NJ"},{"zip":"07069","fips":"34035","name":"Somerset County","state_id":"NJ"},{"zip":"07069","fips":"34039","name":"Union County","state_id":"NJ"},{"zip":"07070","fips":"34003","name":"Bergen County","state_id":"NJ"},{"zip":"07071","fips":"34003","name":"Bergen County","state_id":"NJ"},{"zip":"07072","fips":"34003","name":"Bergen County","state_id":"NJ"},{"zip":"07073","fips":"34003","name":"Bergen County","state_id":"NJ"},{"zip":"07074","fips":"34003","name":"Bergen County","state_id":"NJ"},{"zip":"07075","fips":"34003","name":"Bergen County","state_id":"NJ"},{"zip":"07076","fips":"34035","name":"Somerset County","state_id":"NJ"},{"zip":"07076","fips":"34023","name":"Middlesex County","state_id":"NJ"},{"zip":"07076","fips":"34039","name":"Union County","state_id":"NJ"},{"zip":"07077","fips":"34023","name":"Middlesex County","state_id":"NJ"},{"zip":"07078","fips":"34013","name":"Essex County","state_id":"NJ"},{"zip":"07078","fips":"34039","name":"Union County","state_id":"NJ"},{"zip":"07079","fips":"34013","name":"Essex County","state_id":"NJ"},{"zip":"07080","fips":"34039","name":"Union County","state_id":"NJ"},{"zip":"07080","fips":"34023","name":"Middlesex County","state_id":"NJ"},{"zip":"07081","fips":"34039","name":"Union County","state_id":"NJ"},{"zip":"07082","fips":"34027","name":"Morris County","state_id":"NJ"},{"zip":"07083","fips":"34013","name":"Essex County","state_id":"NJ"},{"zip":"07083","fips":"34039","name":"Union County","state_id":"NJ"},{"zip":"07086","fips":"34017","name":"Hudson County","state_id":"NJ"},{"zip":"07087","fips":"34017","name":"Hudson County","state_id":"NJ"},{"zip":"07088","fips":"34039","name":"Union County","state_id":"NJ"},{"zip":"07088","fips":"34013","name":"Essex County","state_id":"NJ"},{"zip":"07090","fips":"34039","name":"Union County","state_id":"NJ"},{"zip":"07091","fips":"34039","name":"Union County","state_id":"NJ"},{"zip":"07092","fips":"34039","name":"Union County","state_id":"NJ"},{"zip":"07093","fips":"34017","name":"Hudson County","state_id":"NJ"},{"zip":"07094","fips":"34017","name":"Hudson County","state_id":"NJ"},{"zip":"07095","fips":"34023","name":"Middlesex County","state_id":"NJ"},{"zip":"07096","fips":"34017","name":"Hudson County","state_id":"NJ"},{"zip":"07097","fips":"34017","name":"Hudson County","state_id":"NJ"},{"zip":"07099","fips":"34017","name":"Hudson County","state_id":"NJ"}]
