[{"zip":"07101","fips":"34013","name":"Essex County","state_id":"NJ"},{"zip":"07102","fips":"34013","name":"Essex County","state_id":"NJ"},{"zip":"07103","fips":"34013","name":"Essex County","state_id":"NJ"},{"zip":"07104","fips":"34013","name":"Essex County","state_id":"NJ"},{"zip":"07105","fips":"34013","name":"Essex County","state_id":"NJ"},{"zip":"07106","fips":"34013","name":"Essex County","state_id":"NJ"},{"zip":"07107","fips":"34013","name":"Essex County","state_id":"NJ"},{"zip":"07108","fips":"34013","name":"Essex County","state_id":"NJ"},{"zip":"07109","fips":"34013","name":"Essex County","state_id":"NJ"},{"zip":"07110","fips":"34013","name":"Essex County","state_id":"NJ"},{"zip":"07110","fips":"34031","name":"Passaic County","state_id":"NJ"},{"zip":"07111","fips":"34013","name":"Essex County","state_id":"NJ"},{"zip":"07111","fips":"34039","name":"Union County","state_id":"NJ"},{"zip":"07112","fips":"34013","name":"Essex County","state_id":"NJ"},{"zip":"07114","fips":"34013","name":"Essex County","state_id":"NJ"},{"zip":"07114","fips":"34039","name":"Union County","state_id":"NJ"},{"zip":"07175","fips":"34013","name":"Essex County","state_id":"NJ"}]
