[{"zip":"07401","fips":"34003","name":"Bergen County","state_id":"NJ"},{"zip":"07403","fips":"34027","name":"Morris County","state_id":"NJ"},{"zip":"07403","fips":"34031","name":"Passaic County","state_id":"NJ"},{"zip":"07405","fips":"34027","name":"Morris County","state_id":"NJ"},{"zip":"07407","fips":"34003","name":"Bergen County","state_id":"NJ"},{"zip":"07410","fips":"34003","name":"Bergen County","state_id":"NJ"},{"zip":"07416","fips":"34037","name":"Sussex County","state_id":"NJ"},{"zip":"07417","fips":"34003","name":"Bergen County","state_id":"NJ"},{"zip":"07418","fips":"34037","name":"Sussex County","state_id":"NJ"},{"zip":"07419","fips":"34037","name":"Sussex County","state_id":"NJ"},{"zip":"07420","fips":"34031","name":"Passaic County","state_id":"NJ"},{"zip":"07421","fips":"34031","name":"Passaic County","state_id":"NJ"},{"zip":"07421","fips":"34037","name":"Sussex County","state_id":"NJ"},{"zip":"07422","fips":"34037","name":"Sussex County","state_id":"NJ"},{"zip":"07423","fips":"34003","name":"Bergen County","state_id":"NJ"},{"zip":"07424","fips":"34031","name":"Passaic County","state_id":"NJ"},{"zip":"07428","fips":"34037","name":"Sussex County","state_id":"NJ"},{"zip":"07430","fips":"34003","name":"Bergen County","state_id":"NJ"},{"zip":"07432","fips":"34003","name":"Bergen County","state_id":"NJ"},{"zip":"07435","fips":"34031","name":"Passaic County","state_id":"NJ"},{"zip":"07435","fips":"34027","name":"Morris County","state_id":"NJ"},{"zip":"07436","fips":"34003","name":"Bergen County","state_id":"NJ"},{"zip":"07438","fips":"34027","name":"Morris County","state_id":"NJ"},{"zip":"07438","fips":"34031","name":"Passaic County","state_id":"NJ"},{"zip":"07439","fips":"34037","name":"Sussex County","state_id":"NJ"},{"zip":"07440","fips":"34027","name":"Morris County","state_id":"NJ"},{"zip":"07442","fips":"34031","name":"Passaic County","state_id":"NJ"},{"zip":"07444","fips":"34027","name":"Morris County","state_id":"NJ"},{"zip":"07446","fips":"34003","name":"Bergen County","state_id":"NJ"},{"zip":"07450","fips":"34003","name":"Bergen County","state_id":"NJ"},{"zip":"07451","fips":"34003","name":"Bergen County","state_id":"NJ"},{"zip":"07452","fips":"34003","name":"Bergen County","state_id":"NJ"},{"zip":"07456","fips":"34031","name":"Passaic County","state_id":"NJ"},{"zip":"07457","fips":"34027","name":"Morris County","state_id":"NJ"},{"zip":"07458","fips":"34003","name":"Bergen County","state_id":"NJ"},{"zip":"07460","fips":"34037","name":"Sussex County","state_id":"NJ"},{"zip":"07460","fips":"34031","name":"Passaic County","state_id":"NJ"},{"zip":"07460","fips":"34027","name":"Morris County","state_id":"NJ"},{"zip":"07461","fips":"34037","name":"Sussex County","state_id":"NJ"},{"zip":"07462","fips":"34037","name":"Sussex County","state_id":"NJ"},{"zip":"07463","fips":"34003","name":"Bergen County","state_id":"NJ"},{"zip":"07465","fips":"34031","name":"Passaic County","state_id":"NJ"},{"zip":"07470","fips":"34031","name":"Passaic County","state_id":"NJ"},{"zip":"07474","fips":"34031","name":"Passaic County","state_id":"NJ"},{"zip":"07480","fips":"34031","name":"Passaic County","state_id":"NJ"},{"zip":"07481","fips":"34003","name":"Bergen County","state_id":"NJ"},{"zip":"07495","fips":"34003","name":"Bergen County","state_id":"NJ"}]
