[{"zip":"07501","fips":"34031","name":"Passaic County","state_id":"NJ"},{"zip":"07502","fips":"34031","name":"Passaic County","state_id":"NJ"},{"zip":"07503","fips":"34031","name":"Passaic County","state_id":"NJ"},{"zip":"07504","fips":"34031","name":"Passaic County","state_id":"NJ"},{"zip":"07505","fips":"34031","name":"Passaic County","state_id":"NJ"},{"zip":"07506","fips":"34003","name":"Bergen County","state_id":"NJ"},{"zip":"07506","fips":"34031","name":"Passaic County","state_id":"NJ"},{"zip":"07507","fips":"34031","name":"Passaic County","state_id":"NJ"},{"zip":"07508","fips":"34031","name":"Passaic County","state_id":"NJ"},{"zip":"07509","fips":"34031","name":"Passaic County","state_id":"NJ"},{"zip":"07510","fips":"34031","name":"Passaic County","state_id":"NJ"},{"zip":"07511","fips":"34031","name":"Passaic County","state_id":"NJ"},{"zip":"07512","fips":"34031","name":"Passaic County","state_id":"NJ"},{"zip":"07513","fips":"34031","name":"Passaic County","state_id":"NJ"},{"zip":"07514","fips":"34031","name":"Passaic County","state_id":"NJ"},{"zip":"07522","fips":"34031","name":"Passaic County","state_id":"NJ"},{"zip":"07524","fips":"34031","name":"Passaic County","state_id":"NJ"},{"zip":"07538","fips":"34031","name":"Passaic County","state_id":"NJ"},{"zip":"07543","fips":"34031","name":"Passaic County","state_id":"NJ"},{"zip":"07544","fips":"34031","name":"Passaic County","state_id":"NJ"}]
