[{"zip":"07901","fips":"34039","name":"Union County","state_id":"NJ"},{"zip":"07902","fips":"34039","name":"Union County","state_id":"NJ"},{"zip":"07920","fips":"34027","name":"Morris County","state_id":"NJ"},{"zip":"07920","fips":"34035","name":"Somerset County","state_id":"NJ"},{"zip":"07921","fips":"34035","name":"Somerset County","state_id":"NJ"},{"zip":"07922","fips":"34035","name":"Somerset County","state_id":"NJ"},{"zip":"07922","fips":"34039","name":"Union County","state_id":"NJ"},{"zip":"07924","fips":"34027","name":"Morris County","state_id":"NJ"},{"zip":"07924","fips":"34035","name":"Somerset County","state_id":"NJ"},{"zip":"07926","fips":"34027","name":"Morris County","state_id":"NJ"},{"zip":"07927","fips":"34027","name":"Morris County","state_id":"NJ"},{"zip":"07928","fips":"34039","name":"Union County","state_id":"NJ"},{"zip":"07928","fips":"34027","name":"Morris County","state_id":"NJ"},{"zip":"07930","fips":"34027","name":"Morris County","state_id":"NJ"},{"zip":"07931","fips":"34035","name":"Somerset County","state_id":"NJ"},{"zip":"07931","fips":"34027","name":"Morris County","state_id":"NJ"},{"zip":"07932","fips":"34027","name":"Morris County","state_id":"NJ"},{"zip":"07933","fips":"34027","name":"Morris County","state_id":"NJ"},{"zip":"07934","fips":"34035","name":"Somerset County","state_id":"NJ"},{"zip":"07934","fips":"34027","name":"Morris County","state_id":"NJ"},{"zip":"07935","fips":"34027","name":"Morris County","state_id":"NJ"},{"zip":"07936","fips":"34027","name":"Morris County","state_id":"NJ"},{"zip":"07938","fips":"34035","name":"Somerset County","state_id":"NJ"},{"zip":"07939","fips":"34035","name":"Somerset County","state_id":"NJ"},{"zip":"07940","fips":"34027","name":"Morris County","state_id":"NJ"},{"zip":"07945","fips":"34027","name":"Morris County","state_id":"NJ"},{"zip":"07946","fips":"34027","name":"Morris County","state_id":"NJ"},{"zip":"07950","fips":"34027","name":"Morris County","state_id":"NJ"},{"zip":"07960","fips":"34027","name":"Morris County","state_id":"NJ"},{"zip":"07961","fips":"34027","name":"Morris County","state_id":"NJ"},{"zip":"07962","fips":"34027","name":"Morris County","state_id":"NJ"},{"zip":"07963","fips":"34027","name":"Morris County","state_id":"NJ"},{"zip":"07970","fips":"34027","name":"Morris County","state_id":"NJ"},{"zip":"07974","fips":"34039","name":"Union County","state_id":"NJ"},{"zip":"07976","fips":"34027","name":"Morris County","state_id":"NJ"},{"zip":"07977","fips":"34035","name":"Somerset County","state_id":"NJ"},{"zip":"07978","fips":"34035","name":"Somerset County","state_id":"NJ"},{"zip":"07979","fips":"34019","name":"Hunterdon County","state_id":"NJ"},{"zip":"07980","fips":"34027","name":"Morris County","state_id":"NJ"},{"zip":"07981","fips":"34027","name":"Morris County","state_id":"NJ"}]
