[{"zip":"08001","fips":"34033","name":"Salem County","state_id":"NJ"},{"zip":"08002","fips":"34007","name":"Camden County","state_id":"NJ"},{"zip":"08003","fips":"34007","name":"Camden County","state_id":"NJ"},{"zip":"08004","fips":"34007","name":"Camden County","state_id":"NJ"},{"zip":"08005","fips":"34029","name":"Ocean County","state_id":"NJ"},{"zip":"08006","fips":"34029","name":"Ocean County","state_id":"NJ"},{"zip":"08007","fips":"34007","name":"Camden County","state_id":"NJ"},{"zip":"08008","fips":"34029","name":"Ocean County","state_id":"NJ"},{"zip":"08009","fips":"34007","name":"Camden County","state_id":"NJ"},{"zip":"08010","fips":"34005","name":"Burlington County","state_id":"NJ"},{"zip":"08011","fips":"34005","name":"Burlington County","state_id":"NJ"},{"zip":"08012","fips":"34007","name":"Camden County","state_id":"NJ"},{"zip":"08012","fips":"34015","name":"Gloucester County","state_id":"NJ"},{"zip":"08014","fips":"34015","name":"Gloucester County","state_id":"NJ"},{"zip":"08015","fips":"34005","name":"Burlington County","state_id":"NJ"},{"zip":"08016","fips":"34005","name":"Burlington County","state_id":"NJ"},{"zip":"08018","fips":"34007","name":"Camden County","state_id":"NJ"},{"zip":"08019","fips":"34005","name":"Burlington County","state_id":"NJ"},{"zip":"08020","fips":"34015","name":"Gloucester County","state_id":"NJ"},{"zip":"08021","fips":"34007","name":"Camden County","state_id":"NJ"},{"zip":"08022","fips":"34005","name":"Burlington County","state_id":"NJ"},{"zip":"08023","fips":"34033","name":"Salem County","state_id":"NJ"},{"zip":"08025","fips":"34015","name":"Gloucester County","state_id":"NJ"},{"zip":"08026","fips":"34007","name":"Camden County","state_id":"NJ"},{"zip":"08027","fips":"34015","name":"Gloucester County","state_id":"NJ"},{"zip":"08028","fips":"34015","name":"Gloucester County","state_id":"NJ"},{"zip":"08029","fips":"34007","name":"Camden County","state_id":"NJ"},{"zip":"08030","fips":"34007","name":"Camden County","state_id":"NJ"},{"zip":"08031","fips":"34007","name":"Camden County","state_id":"NJ"},{"zip":"08032","fips":"34015","name":"Gloucester County","state_id":"NJ"},{"zip":"08033","fips":"34007","name":"Camden County","state_id":"NJ"},{"zip":"08034","fips":"34007","name":"Camden County","state_id":"NJ"},{"zip":"08035","fips":"34007","name":"Camden County","state_id":"NJ"},{"zip":"08036","fips":"34005","name":"Burlington County","state_id":"NJ"},{"zip":"08037","fips":"34001","name":"Atlantic County","state_id":"NJ"},{"zip":"08037","fips":"34007","name":"Camden County","state_id":"NJ"},{"zip":"08038","fips":"34033","name":"Salem County","state_id":"NJ"},{"zip":"08039","fips":"34015","name":"Gloucester County","state_id":"NJ"},{"zip":"08041","fips":"34005","name":"Burlington County","state_id":"NJ"},{"zip":"08042","fips":"34005","name":"Burlington County","state_id":"NJ"},{"zip":"08043","fips":"34007","name":"Camden County","state_id":"NJ"},{"zip":"08043","fips":"34005","name":"Burlington County","state_id":"NJ"},{"zip":"08045","fips":"34007","name":"Camden County","state_id":"NJ"},{"zip":"08046","fips":"34005","name":"Burlington County","state_id":"NJ"},{"zip":"08048","fips":"34005","name":"Burlington County","state_id":"NJ"},{"zip":"08049","fips":"34007","name":"Camden County","state_id":"NJ"},{"zip":"08050","fips":"34029","name":"Ocean County","state_id":"NJ"},{"zip":"08051","fips":"34015","name":"Gloucester County","state_id":"NJ"},{"zip":"08052","fips":"34007","name":"Camden County","state_id":"NJ"},{"zip":"08052","fips":"34005","name":"Burlington County","state_id":"NJ"},{"zip":"08053","fips":"34007","name":"Camden County","state_id":"NJ"},{"zip":"08053","fips":"34005","name":"Burlington County","state_id":"NJ"},{"zip":"08054","fips":"34005","name":"Burlington County","state_id":"NJ"},{"zip":"08055","fips":"34005","name":"Burlington County","state_id":"NJ"},{"zip":"08056","fips":"34015","name":"Gloucester County","state_id":"NJ"},{"zip":"08057","fips":"34005","name":"Burlington County","state_id":"NJ"},{"zip":"08059","fips":"34007","name":"Camden County","state_id":"NJ"},{"zip":"08060","fips":"34005","name":"Burlington County","state_id":"NJ"},{"zip":"08061","fips":"34015","name":"Gloucester County","state_id":"NJ"},{"zip":"08062","fips":"34015","name":"Gloucester County","state_id":"NJ"},{"zip":"08063","fips":"34015","name":"Gloucester County","state_id":"NJ"},{"zip":"08064","fips":"34005","name":"Burlington County","state_id":"NJ"},{"zip":"08065","fips":"34005","name":"Burlington County","state_id":"NJ"},{"zip":"08065","fips":"34007","name":"Camden County","state_id":"NJ"},{"zip":"08066","fips":"34015","name":"Gloucester County","state_id":"NJ"},{"zip":"08067","fips":"34033","name":"Salem County","state_id":"NJ"},{"zip":"08068","fips":"34005","name":"Burlington County","state_id":"NJ"},{"zip":"08069","fips":"34033","name":"Salem County","state_id":"NJ"},{"zip":"08070","fips":"34033","name":"Salem County","state_id":"NJ"},{"zip":"08071","fips":"34015","name":"Gloucester County","state_id":"NJ"},{"zip":"08072","fips":"34033","name":"Salem County","state_id":"NJ"},{"zip":"08073","fips":"34005","name":"Burlington County","state_id":"NJ"},{"zip":"08074","fips":"34015","name":"Gloucester County","state_id":"NJ"},{"zip":"08075","fips":"34005","name":"Burlington County","state_id":"NJ"},{"zip":"08077","fips":"34005","name":"Burlington County","state_id":"NJ"},{"zip":"08078","fips":"34007","name":"Camden County","state_id":"NJ"},{"zip":"08079","fips":"34033","name":"Salem County","state_id":"NJ"},{"zip":"08080","fips":"34007","name":"Camden County","state_id":"NJ"},{"zip":"08080","fips":"34015","name":"Gloucester County","state_id":"NJ"},{"zip":"08081","fips":"34007","name":"Camden County","state_id":"NJ"},{"zip":"08081","fips":"34015","name":"Gloucester County","state_id":"NJ"},{"zip":"08083","fips":"34007","name":"Camden County","state_id":"NJ"},{"zip":"08084","fips":"34007","name":"Camden County","state_id":"NJ"},{"zip":"08085","fips":"34033","name":"Salem County","state_id":"NJ"},{"zip":"08085","fips":"34015","name":"Gloucester County","state_id":"NJ"},{"zip":"08086","fips":"34015","name":"Gloucester County","state_id":"NJ"},{"zip":"08087","fips":"34005","name":"Burlington County","state_id":"NJ"},{"zip":"08087","fips":"34029","name":"Ocean County","state_id":"NJ"},{"zip":"08088","fips":"34005","name":"Burlington County","state_id":"NJ"},{"zip":"08089","fips":"34007","name":"Camden County","state_id":"NJ"},{"zip":"08090","fips":"34015","name":"Gloucester County","state_id":"NJ"},{"zip":"08091","fips":"34005","name":"Burlington County","state_id":"NJ"},{"zip":"08091","fips":"34007","name":"Camden County","state_id":"NJ"},{"zip":"08092","fips":"34029","name":"Ocean County","state_id":"NJ"},{"zip":"08093","fips":"34015","name":"Gloucester County","state_id":"NJ"},{"zip":"08094","fips":"34001","name":"Atlantic County","state_id":"NJ"},{"zip":"08094","fips":"34015","name":"Gloucester County","state_id":"NJ"},{"zip":"08095","fips":"34007","name":"Camden County","state_id":"NJ"},{"zip":"08096","fips":"34015","name":"Gloucester County","state_id":"NJ"},{"zip":"08097","fips":"34015","name":"Gloucester County","state_id":"NJ"},{"zip":"08098","fips":"34015","name":"Gloucester County","state_id":"NJ"},{"zip":"08098","fips":"34033","name":"Salem County","state_id":"NJ"},{"zip":"08099","fips":"34007","name":"Camden County","state_id":"NJ"}]
