[{"zip":"08201","fips":"34001","name":"Atlantic County","state_id":"NJ"},{"zip":"08202","fips":"34009","name":"Cape May County","state_id":"NJ"},{"zip":"08203","fips":"34001","name":"Atlantic County","state_id":"NJ"},{"zip":"08204","fips":"34009","name":"Cape May County","state_id":"NJ"},{"zip":"08205","fips":"34001","name":"Atlantic County","state_id":"NJ"},{"zip":"08210","fips":"34009","name":"Cape May County","state_id":"NJ"},{"zip":"08212","fips":"34009","name":"Cape May County","state_id":"NJ"},{"zip":"08213","fips":"34001","name":"Atlantic County","state_id":"NJ"},{"zip":"08214","fips":"34009","name":"Cape May County","state_id":"NJ"},{"zip":"08215","fips":"34005","name":"Burlington County","state_id":"NJ"},{"zip":"08215","fips":"34001","name":"Atlantic County","state_id":"NJ"},{"zip":"08217","fips":"34001","name":"Atlantic County","state_id":"NJ"},{"zip":"08218","fips":"34009","name":"Cape May County","state_id":"NJ"},{"zip":"08219","fips":"34009","name":"Cape May County","state_id":"NJ"},{"zip":"08220","fips":"34001","name":"Atlantic County","state_id":"NJ"},{"zip":"08221","fips":"34001","name":"Atlantic County","state_id":"NJ"},{"zip":"08223","fips":"34009","name":"Cape May County","state_id":"NJ"},{"zip":"08224","fips":"34005","name":"Burlington County","state_id":"NJ"},{"zip":"08225","fips":"34001","name":"Atlantic County","state_id":"NJ"},{"zip":"08226","fips":"34009","name":"Cape May County","state_id":"NJ"},{"zip":"08230","fips":"34009","name":"Cape May County","state_id":"NJ"},{"zip":"08231","fips":"34001","name":"Atlantic County","state_id":"NJ"},{"zip":"08232","fips":"34001","name":"Atlantic County","state_id":"NJ"},{"zip":"08234","fips":"34001","name":"Atlantic County","state_id":"NJ"},{"zip":"08240","fips":"34001","name":"Atlantic County","state_id":"NJ"},{"zip":"08241","fips":"34001","name":"Atlantic County","state_id":"NJ"},{"zip":"08242","fips":"34009","name":"Cape May County","state_id":"NJ"},{"zip":"08243","fips":"34009","name":"Cape May County","state_id":"NJ"},{"zip":"08244","fips":"34001","name":"Atlantic County","state_id":"NJ"},{"zip":"08245","fips":"34009","name":"Cape May County","state_id":"NJ"},{"zip":"08246","fips":"34009","name":"Cape May County","state_id":"NJ"},{"zip":"08247","fips":"34009","name":"Cape May County","state_id":"NJ"},{"zip":"08248","fips":"34009","name":"Cape May County","state_id":"NJ"},{"zip":"08250","fips":"34009","name":"Cape May County","state_id":"NJ"},{"zip":"08251","fips":"34009","name":"Cape May County","state_id":"NJ"},{"zip":"08252","fips":"34009","name":"Cape May County","state_id":"NJ"},{"zip":"08260","fips":"34009","name":"Cape May County","state_id":"NJ"},{"zip":"08270","fips":"34001","name":"Atlantic County","state_id":"NJ"},{"zip":"08270","fips":"34011","name":"Cumberland County","state_id":"NJ"},{"zip":"08270","fips":"34009","name":"Cape May County","state_id":"NJ"}]
