[{"zip":"08302","fips":"34011","name":"Cumberland County","state_id":"NJ"},{"zip":"08302","fips":"34033","name":"Salem County","state_id":"NJ"},{"zip":"08310","fips":"34001","name":"Atlantic County","state_id":"NJ"},{"zip":"08311","fips":"34011","name":"Cumberland County","state_id":"NJ"},{"zip":"08312","fips":"34015","name":"Gloucester County","state_id":"NJ"},{"zip":"08313","fips":"34011","name":"Cumberland County","state_id":"NJ"},{"zip":"08314","fips":"34009","name":"Cape May County","state_id":"NJ"},{"zip":"08314","fips":"34011","name":"Cumberland County","state_id":"NJ"},{"zip":"08315","fips":"34011","name":"Cumberland County","state_id":"NJ"},{"zip":"08316","fips":"34011","name":"Cumberland County","state_id":"NJ"},{"zip":"08317","fips":"34001","name":"Atlantic County","state_id":"NJ"},{"zip":"08318","fips":"34011","name":"Cumberland County","state_id":"NJ"},{"zip":"08318","fips":"34033","name":"Salem County","state_id":"NJ"},{"zip":"08319","fips":"34001","name":"Atlantic County","state_id":"NJ"},{"zip":"08320","fips":"34011","name":"Cumberland County","state_id":"NJ"},{"zip":"08321","fips":"34011","name":"Cumberland County","state_id":"NJ"},{"zip":"08322","fips":"34015","name":"Gloucester County","state_id":"NJ"},{"zip":"08323","fips":"34011","name":"Cumberland County","state_id":"NJ"},{"zip":"08324","fips":"34011","name":"Cumberland County","state_id":"NJ"},{"zip":"08326","fips":"34001","name":"Atlantic County","state_id":"NJ"},{"zip":"08327","fips":"34011","name":"Cumberland County","state_id":"NJ"},{"zip":"08328","fips":"34015","name":"Gloucester County","state_id":"NJ"},{"zip":"08329","fips":"34011","name":"Cumberland County","state_id":"NJ"},{"zip":"08330","fips":"34001","name":"Atlantic County","state_id":"NJ"},{"zip":"08332","fips":"34011","name":"Cumberland County","state_id":"NJ"},{"zip":"08340","fips":"34001","name":"Atlantic County","state_id":"NJ"},{"zip":"08340","fips":"34011","name":"Cumberland County","state_id":"NJ"},{"zip":"08341","fips":"34001","name":"Atlantic County","state_id":"NJ"},{"zip":"08342","fips":"34001","name":"Atlantic County","state_id":"NJ"},{"zip":"08343","fips":"34033","name":"Salem County","state_id":"NJ"},{"zip":"08343","fips":"34015","name":"Gloucester County","state_id":"NJ"},{"zip":"08344","fips":"34001","name":"Atlantic County","state_id":"NJ"},{"zip":"08344","fips":"34011","name":"Cumberland County","state_id":"NJ"},{"zip":"08344","fips":"34015","name":"Gloucester County","state_id":"NJ"},{"zip":"08344","fips":"34033","name":"Salem County","state_id":"NJ"},{"zip":"08345","fips":"34011","name":"Cumberland County","state_id":"NJ"},{"zip":"08346","fips":"34001","name":"Atlantic County","state_id":"NJ"},{"zip":"08347","fips":"34033","name":"Salem County","state_id":"NJ"},{"zip":"08348","fips":"34011","name":"Cumberland County","state_id":"NJ"},{"zip":"08349","fips":"34011","name":"Cumberland County","state_id":"NJ"},{"zip":"08350","fips":"34001","name":"Atlantic County","state_id":"NJ"},{"zip":"08352","fips":"34011","name":"Cumberland County","state_id":"NJ"},{"zip":"08353","fips":"34011","name":"Cumberland County","state_id":"NJ"},{"zip":"08360","fips":"34015","name":"Gloucester County","state_id":"NJ"},{"zip":"08360","fips":"34011","name":"Cumberland County","state_id":"NJ"},{"zip":"08360","fips":"34001","name":"Atlantic County","state_id":"NJ"},{"zip":"08361","fips":"34001","name":"Atlantic County","state_id":"NJ"},{"zip":"08361","fips":"34011","name":"Cumberland County","state_id":"NJ"},{"zip":"08362","fips":"34011","name":"Cumberland County","state_id":"NJ"}]
