[{"zip":"08501","fips":"34021","name":"Mercer County","state_id":"NJ"},{"zip":"08501","fips":"34005","name":"Burlington County","state_id":"NJ"},{"zip":"08501","fips":"34025","name":"Monmouth County","state_id":"NJ"},{"zip":"08502","fips":"34035","name":"Somerset County","state_id":"NJ"},{"zip":"08504","fips":"34035","name":"Somerset County","state_id":"NJ"},{"zip":"08505","fips":"34005","name":"Burlington County","state_id":"NJ"},{"zip":"08510","fips":"34025","name":"Monmouth County","state_id":"NJ"},{"zip":"08511","fips":"34005","name":"Burlington County","state_id":"NJ"},{"zip":"08512","fips":"34023","name":"Middlesex County","state_id":"NJ"},{"zip":"08512","fips":"34021","name":"Mercer County","state_id":"NJ"},{"zip":"08514","fips":"34025","name":"Monmouth County","state_id":"NJ"},{"zip":"08514","fips":"34029","name":"Ocean County","state_id":"NJ"},{"zip":"08515","fips":"34005","name":"Burlington County","state_id":"NJ"},{"zip":"08518","fips":"34005","name":"Burlington County","state_id":"NJ"},{"zip":"08520","fips":"34021","name":"Mercer County","state_id":"NJ"},{"zip":"08520","fips":"34023","name":"Middlesex County","state_id":"NJ"},{"zip":"08520","fips":"34025","name":"Monmouth County","state_id":"NJ"},{"zip":"08525","fips":"34019","name":"Hunterdon County","state_id":"NJ"},{"zip":"08525","fips":"34021","name":"Mercer County","state_id":"NJ"},{"zip":"08525","fips":"34035","name":"Somerset County","state_id":"NJ"},{"zip":"08527","fips":"34025","name":"Monmouth County","state_id":"NJ"},{"zip":"08527","fips":"34029","name":"Ocean County","state_id":"NJ"},{"zip":"08528","fips":"34035","name":"Somerset County","state_id":"NJ"},{"zip":"08528","fips":"34023","name":"Middlesex County","state_id":"NJ"},{"zip":"08530","fips":"34019","name":"Hunterdon County","state_id":"NJ"},{"zip":"08530","fips":"34021","name":"Mercer County","state_id":"NJ"},{"zip":"08533","fips":"34005","name":"Burlington County","state_id":"NJ"},{"zip":"08533","fips":"34029","name":"Ocean County","state_id":"NJ"},{"zip":"08534","fips":"34021","name":"Mercer County","state_id":"NJ"},{"zip":"08535","fips":"34025","name":"Monmouth County","state_id":"NJ"},{"zip":"08536","fips":"34023","name":"Middlesex County","state_id":"NJ"},{"zip":"08540","fips":"34035","name":"Somerset County","state_id":"NJ"},{"zip":"08540","fips":"34021","name":"Mercer County","state_id":"NJ"},{"zip":"08540","fips":"34023","name":"Middlesex County","state_id":"NJ"},{"zip":"08542","fips":"34021","name":"Mercer County","state_id":"NJ"},{"zip":"08543","fips":"34021","name":"Mercer County","state_id":"NJ"},{"zip":"08544","fips":"34021","name":"Mercer County","state_id":"NJ"},{"zip":"08550","fips":"34021","name":"Mercer County","state_id":"NJ"},{"zip":"08551","fips":"34019","name":"Hunterdon County","state_id":"NJ"},{"zip":"08553","fips":"34035","name":"Somerset County","state_id":"NJ"},{"zip":"08554","fips":"34005","name":"Burlington County","state_id":"NJ"},{"zip":"08555","fips":"34025","name":"Monmouth County","state_id":"NJ"},{"zip":"08556","fips":"34019","name":"Hunterdon County","state_id":"NJ"},{"zip":"08557","fips":"34019","name":"Hunterdon County","state_id":"NJ"},{"zip":"08558","fips":"34021","name":"Mercer County","state_id":"NJ"},{"zip":"08558","fips":"34019","name":"Hunterdon County","state_id":"NJ"},{"zip":"08558","fips":"34035","name":"Somerset County","state_id":"NJ"},{"zip":"08559","fips":"34019","name":"Hunterdon County","state_id":"NJ"},{"zip":"08560","fips":"34021","name":"Mercer County","state_id":"NJ"},{"zip":"08560","fips":"34019","name":"Hunterdon County","state_id":"NJ"},{"zip":"08561","fips":"34021","name":"Mercer County","state_id":"NJ"},{"zip":"08562","fips":"34025","name":"Monmouth County","state_id":"NJ"},{"zip":"08562","fips":"34005","name":"Burlington County","state_id":"NJ"}]
