[{"zip":"08601","fips":"34021","name":"Mercer County","state_id":"NJ"},{"zip":"08602","fips":"34021","name":"Mercer County","state_id":"NJ"},{"zip":"08603","fips":"34021","name":"Mercer County","state_id":"NJ"},{"zip":"08604","fips":"34021","name":"Mercer County","state_id":"NJ"},{"zip":"08605","fips":"34021","name":"Mercer County","state_id":"NJ"},{"zip":"08606","fips":"34021","name":"Mercer County","state_id":"NJ"},{"zip":"08607","fips":"34021","name":"Mercer County","state_id":"NJ"},{"zip":"08608","fips":"34021","name":"Mercer County","state_id":"NJ"},{"zip":"08609","fips":"34021","name":"Mercer County","state_id":"NJ"},{"zip":"08610","fips":"34005","name":"Burlington County","state_id":"NJ"},{"zip":"08610","fips":"34021","name":"Mercer County","state_id":"NJ"},{"zip":"08611","fips":"34021","name":"Mercer County","state_id":"NJ"},{"zip":"08618","fips":"34021","name":"Mercer County","state_id":"NJ"},{"zip":"08619","fips":"34021","name":"Mercer County","state_id":"NJ"},{"zip":"08620","fips":"34021","name":"Mercer County","state_id":"NJ"},{"zip":"08620","fips":"34005","name":"Burlington County","state_id":"NJ"},{"zip":"08620","fips":"34025","name":"Monmouth County","state_id":"NJ"},{"zip":"08628","fips":"34021","name":"Mercer County","state_id":"NJ"},{"zip":"08629","fips":"34021","name":"Mercer County","state_id":"NJ"},{"zip":"08638","fips":"34021","name":"Mercer County","state_id":"NJ"},{"zip":"08640","fips":"34005","name":"Burlington County","state_id":"NJ"},{"zip":"08641","fips":"34005","name":"Burlington County","state_id":"NJ"},{"zip":"08648","fips":"34021","name":"Mercer County","state_id":"NJ"},{"zip":"08650","fips":"34021","name":"Mercer County","state_id":"NJ"},{"zip":"08690","fips":"34021","name":"Mercer County","state_id":"NJ"},{"zip":"08691","fips":"34021","name":"Mercer County","state_id":"NJ"},{"zip":"08691","fips":"34025","name":"Monmouth County","state_id":"NJ"}]
