[{"zip":"08701","fips":"34029","name":"Ocean County","state_id":"NJ"},{"zip":"08720","fips":"34025","name":"Monmouth County","state_id":"NJ"},{"zip":"08721","fips":"34029","name":"Ocean County","state_id":"NJ"},{"zip":"08722","fips":"34029","name":"Ocean County","state_id":"NJ"},{"zip":"08723","fips":"34029","name":"Ocean County","state_id":"NJ"},{"zip":"08724","fips":"34025","name":"Monmouth County","state_id":"NJ"},{"zip":"08724","fips":"34029","name":"Ocean County","state_id":"NJ"},{"zip":"08730","fips":"34025","name":"Monmouth County","state_id":"NJ"},{"zip":"08731","fips":"34029","name":"Ocean County","state_id":"NJ"},{"zip":"08732","fips":"34029","name":"Ocean County","state_id":"NJ"},{"zip":"08733","fips":"34029","name":"Ocean County","state_id":"NJ"},{"zip":"08734","fips":"34029","name":"Ocean County","state_id":"NJ"},{"zip":"08735","fips":"34029","name":"Ocean County","state_id":"NJ"},{"zip":"08736","fips":"34025","name":"Monmouth County","state_id":"NJ"},{"zip":"08738","fips":"34029","name":"Ocean County","state_id":"NJ"},{"zip":"08739","fips":"34029","name":"Ocean County","state_id":"NJ"},{"zip":"08740","fips":"34029","name":"Ocean County","state_id":"NJ"},{"zip":"08741","fips":"34029","name":"Ocean County","state_id":"NJ"},{"zip":"08742","fips":"34029","name":"Ocean County","state_id":"NJ"},{"zip":"08750","fips":"34025","name":"Monmouth County","state_id":"NJ"},{"zip":"08751","fips":"34029","name":"Ocean County","state_id":"NJ"},{"zip":"08752","fips":"34029","name":"Ocean County","state_id":"NJ"},{"zip":"08753","fips":"34029","name":"Ocean County","state_id":"NJ"},{"zip":"08754","fips":"34029","name":"Ocean County","state_id":"NJ"},{"zip":"08755","fips":"34029","name":"Ocean County","state_id":"NJ"},{"zip":"08757","fips":"34029","name":"Ocean County","state_id":"NJ"},{"zip":"08758","fips":"34029","name":"Ocean County","state_id":"NJ"},{"zip":"08759","fips":"34029","name":"Ocean County","state_id":"NJ"}]
