[{"zip":"30002","fips":"13089","name":"DeKalb County","state_id":"GA"},{"zip":"30003","fips":"13135","name":"Gwinnett County","state_id":"GA"},{"zip":"30004","fips":"13117","name":"Forsyth County","state_id":"GA"},{"zip":"30004","fips":"13057","name":"Cherokee County","state_id":"GA"},{"zip":"30004","fips":"13121","name":"Fulton County","state_id":"GA"},{"zip":"30005","fips":"13121","name":"Fulton County","state_id":"GA"},{"zip":"30005","fips":"13117","name":"Forsyth County","state_id":"GA"},{"zip":"30006","fips":"13067","name":"Cobb County","state_id":"GA"},{"zip":"30007","fips":"13067","name":"Cobb County","state_id":"GA"},{"zip":"30008","fips":"13067","name":"Cobb County","state_id":"GA"},{"zip":"30009","fips":"13121","name":"Fulton County","state_id":"GA"},{"zip":"30010","fips":"13135","name":"Gwinnett County","state_id":"GA"},{"zip":"30011","fips":"13013","name":"Barrow County","state_id":"GA"},{"zip":"30011","fips":"13135","name":"Gwinnett County","state_id":"GA"},{"zip":"30012","fips":"13297","name":"Walton County","state_id":"GA"},{"zip":"30012","fips":"13135","name":"Gwinnett County","state_id":"GA"},{"zip":"30012","fips":"13089","name":"DeKalb County","state_id":"GA"},{"zip":"30012","fips":"13247","name":"Rockdale County","state_id":"GA"},{"zip":"30013","fips":"13217","name":"Newton County","state_id":"GA"},{"zip":"30013","fips":"13247","name":"Rockdale County","state_id":"GA"},{"zip":"30014","fips":"13217","name":"Newton County","state_id":"GA"},{"zip":"30014","fips":"13297","name":"Walton County","state_id":"GA"},{"zip":"30014","fips":"13159","name":"Jasper County","state_id":"GA"},{"zip":"30015","fips":"13217","name":"Newton County","state_id":"GA"},{"zip":"30016","fips":"13247","name":"Rockdale County","state_id":"GA"},{"zip":"30016","fips":"13217","name":"Newton County","state_id":"GA"},{"zip":"30017","fips":"13135","name":"Gwinnett County","state_id":"GA"},{"zip":"30018","fips":"13297","name":"Walton County","state_id":"GA"},{"zip":"30019","fips":"13135","name":"Gwinnett County","state_id":"GA"},{"zip":"30019","fips":"13297","name":"Walton County","state_id":"GA"},{"zip":"30021","fips":"13089","name":"DeKalb County","state_id":"GA"},{"zip":"30022","fips":"13121","name":"Fulton County","state_id":"GA"},{"zip":"30023","fips":"13121","name":"Fulton County","state_id":"GA"},{"zip":"30024","fips":"13121","name":"Fulton County","state_id":"GA"},{"zip":"30024","fips":"13135","name":"Gwinnett County","state_id":"GA"},{"zip":"30024","fips":"13117","name":"Forsyth County","state_id":"GA"},{"zip":"30025","fips":"13297","name":"Walton County","state_id":"GA"},{"zip":"30025","fips":"13211","name":"Morgan County","state_id":"GA"},{"zip":"30025","fips":"13217","name":"Newton County","state_id":"GA"},{"zip":"30028","fips":"13057","name":"Cherokee County","state_id":"GA"},{"zip":"30028","fips":"13117","name":"Forsyth County","state_id":"GA"},{"zip":"30028","fips":"13085","name":"Dawson County","state_id":"GA"},{"zip":"30030","fips":"13089","name":"DeKalb County","state_id":"GA"},{"zip":"30031","fips":"13089","name":"DeKalb County","state_id":"GA"},{"zip":"30032","fips":"13089","name":"DeKalb County","state_id":"GA"},{"zip":"30033","fips":"13089","name":"DeKalb County","state_id":"GA"},{"zip":"30034","fips":"13089","name":"DeKalb County","state_id":"GA"},{"zip":"30035","fips":"13089","name":"DeKalb County","state_id":"GA"},{"zip":"30036","fips":"13089","name":"DeKalb County","state_id":"GA"},{"zip":"30037","fips":"13089","name":"DeKalb County","state_id":"GA"},{"zip":"30038","fips":"13089","name":"DeKalb County","state_id":"GA"},{"zip":"30039","fips":"13135","name":"Gwinnett County","state_id":"GA"},{"zip":"30039","fips":"13247","name":"Rockdale County","state_id":"GA"},{"zip":"30039","fips":"13089","name":"DeKalb County","state_id":"GA"},{"zip":"30040","fips":"13117","name":"Forsyth County","state_id":"GA"},{"zip":"30040","fips":"13057","name":"Cherokee County","state_id":"GA"},{"zip":"30041","fips":"13117","name":"Forsyth County","state_id":"GA"},{"zip":"30042","fips":"13135","name":"Gwinnett County","state_id":"GA"},{"zip":"30043","fips":"13135","name":"Gwinnett County","state_id":"GA"},{"zip":"30044","fips":"13135","name":"Gwinnett County","state_id":"GA"},{"zip":"30045","fips":"13135","name":"Gwinnett County","state_id":"GA"},{"zip":"30046","fips":"13135","name":"Gwinnett County","state_id":"GA"},{"zip":"30047","fips":"13135","name":"Gwinnett County","state_id":"GA"},{"zip":"30048","fips":"13135","name":"Gwinnett County","state_id":"GA"},{"zip":"30049","fips":"13135","name":"Gwinnett County","state_id":"GA"},{"zip":"30052","fips":"13217","name":"Newton County","state_id":"GA"},{"zip":"30052","fips":"13135","name":"Gwinnett County","state_id":"GA"},{"zip":"30052","fips":"13297","name":"Walton County","state_id":"GA"},{"zip":"30052","fips":"13247","name":"Rockdale County","state_id":"GA"},{"zip":"30054","fips":"13297","name":"Walton County","state_id":"GA"},{"zip":"30054","fips":"13217","name":"Newton County","state_id":"GA"},{"zip":"30055","fips":"13211","name":"Morgan County","state_id":"GA"},{"zip":"30055","fips":"13217","name":"Newton County","state_id":"GA"},{"zip":"30055","fips":"13159","name":"Jasper County","state_id":"GA"},{"zip":"30056","fips":"13217","name":"Newton County","state_id":"GA"},{"zip":"30056","fips":"13159","name":"Jasper County","state_id":"GA"},{"zip":"30056","fips":"13211","name":"Morgan County","state_id":"GA"},{"zip":"30058","fips":"13089","name":"DeKalb County","state_id":"GA"},{"zip":"30058","fips":"13135","name":"Gwinnett County","state_id":"GA"},{"zip":"30058","fips":"13247","name":"Rockdale County","state_id":"GA"},{"zip":"30060","fips":"13067","name":"Cobb County","state_id":"GA"},{"zip":"30061","fips":"13067","name":"Cobb County","state_id":"GA"},{"zip":"30062","fips":"13067","name":"Cobb County","state_id":"GA"},{"zip":"30063","fips":"13067","name":"Cobb County","state_id":"GA"},{"zip":"30064","fips":"13067","name":"Cobb County","state_id":"GA"},{"zip":"30065","fips":"13067","name":"Cobb County","state_id":"GA"},{"zip":"30066","fips":"13067","name":"Cobb County","state_id":"GA"},{"zip":"30066","fips":"13057","name":"Cherokee County","state_id":"GA"},{"zip":"30067","fips":"13067","name":"Cobb County","state_id":"GA"},{"zip":"30068","fips":"13067","name":"Cobb County","state_id":"GA"},{"zip":"30069","fips":"13067","name":"Cobb County","state_id":"GA"},{"zip":"30070","fips":"13217","name":"Newton County","state_id":"GA"},{"zip":"30071","fips":"13135","name":"Gwinnett County","state_id":"GA"},{"zip":"30072","fips":"13089","name":"DeKalb County","state_id":"GA"},{"zip":"30074","fips":"13089","name":"DeKalb County","state_id":"GA"},{"zip":"30075","fips":"13057","name":"Cherokee County","state_id":"GA"},{"zip":"30075","fips":"13121","name":"Fulton County","state_id":"GA"},{"zip":"30075","fips":"13067","name":"Cobb County","state_id":"GA"},{"zip":"30076","fips":"13121","name":"Fulton County","state_id":"GA"},{"zip":"30077","fips":"13121","name":"Fulton County","state_id":"GA"},{"zip":"30078","fips":"13135","name":"Gwinnett County","state_id":"GA"},{"zip":"30079","fips":"13089","name":"DeKalb County","state_id":"GA"},{"zip":"30080","fips":"13067","name":"Cobb County","state_id":"GA"},{"zip":"30081","fips":"13067","name":"Cobb County","state_id":"GA"},{"zip":"30082","fips":"13067","name":"Cobb County","state_id":"GA"},{"zip":"30083","fips":"13089","name":"DeKalb County","state_id":"GA"},{"zip":"30084","fips":"13135","name":"Gwinnett County","state_id":"GA"},{"zip":"30084","fips":"13089","name":"DeKalb County","state_id":"GA"},{"zip":"30085","fips":"13089","name":"DeKalb County","state_id":"GA"},{"zip":"30086","fips":"13089","name":"DeKalb County","state_id":"GA"},{"zip":"30087","fips":"13135","name":"Gwinnett County","state_id":"GA"},{"zip":"30087","fips":"13089","name":"DeKalb County","state_id":"GA"},{"zip":"30088","fips":"13089","name":"DeKalb County","state_id":"GA"},{"zip":"30090","fips":"13067","name":"Cobb County","state_id":"GA"},{"zip":"30091","fips":"13135","name":"Gwinnett County","state_id":"GA"},{"zip":"30092","fips":"13135","name":"Gwinnett County","state_id":"GA"},{"zip":"30092","fips":"13121","name":"Fulton County","state_id":"GA"},{"zip":"30093","fips":"13135","name":"Gwinnett County","state_id":"GA"},{"zip":"30093","fips":"13089","name":"DeKalb County","state_id":"GA"},{"zip":"30094","fips":"13089","name":"DeKalb County","state_id":"GA"},{"zip":"30094","fips":"13247","name":"Rockdale County","state_id":"GA"},{"zip":"30094","fips":"13217","name":"Newton County","state_id":"GA"},{"zip":"30095","fips":"13135","name":"Gwinnett County","state_id":"GA"},{"zip":"30096","fips":"13135","name":"Gwinnett County","state_id":"GA"},{"zip":"30097","fips":"13135","name":"Gwinnett County","state_id":"GA"},{"zip":"30097","fips":"13117","name":"Forsyth County","state_id":"GA"},{"zip":"30097","fips":"13121","name":"Fulton County","state_id":"GA"},{"zip":"30098","fips":"13121","name":"Fulton County","state_id":"GA"},{"zip":"30099","fips":"13135","name":"Gwinnett County","state_id":"GA"}]
