[{"zip":"30101","fips":"13223","name":"Paulding County","state_id":"GA"},{"zip":"30101","fips":"13057","name":"Cherokee County","state_id":"GA"},{"zip":"30101","fips":"13067","name":"Cobb County","state_id":"GA"},{"zip":"30101","fips":"13015","name":"Bartow County","state_id":"GA"},{"zip":"30102","fips":"13015","name":"Bartow County","state_id":"GA"},{"zip":"30102","fips":"13057","name":"Cherokee County","state_id":"GA"},{"zip":"30102","fips":"13067","name":"Cobb County","state_id":"GA"},{"zip":"30103","fips":"13129","name":"Gordon County","state_id":"GA"},{"zip":"30103","fips":"13015","name":"Bartow County","state_id":"GA"},{"zip":"30103","fips":"13115","name":"Floyd County","state_id":"GA"},{"zip":"30104","fips":"13015","name":"Bartow County","state_id":"GA"},{"zip":"30104","fips":"13233","name":"Polk County","state_id":"GA"},{"zip":"30104","fips":"13115","name":"Floyd County","state_id":"GA"},{"zip":"30105","fips":"13115","name":"Floyd County","state_id":"GA"},{"zip":"30105","fips":"13055","name":"Chattooga County","state_id":"GA"},{"zip":"30106","fips":"13097","name":"Douglas County","state_id":"GA"},{"zip":"30106","fips":"13067","name":"Cobb County","state_id":"GA"},{"zip":"30107","fips":"13117","name":"Forsyth County","state_id":"GA"},{"zip":"30107","fips":"13057","name":"Cherokee County","state_id":"GA"},{"zip":"30107","fips":"13227","name":"Pickens County","state_id":"GA"},{"zip":"30108","fips":"13149","name":"Heard County","state_id":"GA"},{"zip":"30108","fips":"13045","name":"Carroll County","state_id":"GA"},{"zip":"30109","fips":"13045","name":"Carroll County","state_id":"GA"},{"zip":"30110","fips":"13143","name":"Haralson County","state_id":"GA"},{"zip":"30110","fips":"13045","name":"Carroll County","state_id":"GA"},{"zip":"30111","fips":"13067","name":"Cobb County","state_id":"GA"},{"zip":"30112","fips":"13045","name":"Carroll County","state_id":"GA"},{"zip":"30113","fips":"13143","name":"Haralson County","state_id":"GA"},{"zip":"30113","fips":"13223","name":"Paulding County","state_id":"GA"},{"zip":"30113","fips":"13233","name":"Polk County","state_id":"GA"},{"zip":"30114","fips":"13057","name":"Cherokee County","state_id":"GA"},{"zip":"30115","fips":"13057","name":"Cherokee County","state_id":"GA"},{"zip":"30116","fips":"13045","name":"Carroll County","state_id":"GA"},{"zip":"30117","fips":"13045","name":"Carroll County","state_id":"GA"},{"zip":"30118","fips":"13045","name":"Carroll County","state_id":"GA"},{"zip":"30119","fips":"13045","name":"Carroll County","state_id":"GA"},{"zip":"30120","fips":"13015","name":"Bartow County","state_id":"GA"},{"zip":"30120","fips":"13223","name":"Paulding County","state_id":"GA"},{"zip":"30121","fips":"13015","name":"Bartow County","state_id":"GA"},{"zip":"30122","fips":"13097","name":"Douglas County","state_id":"GA"},{"zip":"30122","fips":"13067","name":"Cobb County","state_id":"GA"},{"zip":"30123","fips":"13015","name":"Bartow County","state_id":"GA"},{"zip":"30124","fips":"13115","name":"Floyd County","state_id":"GA"},{"zip":"30124","fips":"13233","name":"Polk County","state_id":"GA"},{"zip":"30125","fips":"13115","name":"Floyd County","state_id":"GA"},{"zip":"30125","fips":"13233","name":"Polk County","state_id":"GA"},{"zip":"30126","fips":"13067","name":"Cobb County","state_id":"GA"},{"zip":"30127","fips":"13067","name":"Cobb County","state_id":"GA"},{"zip":"30127","fips":"13097","name":"Douglas County","state_id":"GA"},{"zip":"30127","fips":"13223","name":"Paulding County","state_id":"GA"},{"zip":"30129","fips":"13115","name":"Floyd County","state_id":"GA"},{"zip":"30132","fips":"13223","name":"Paulding County","state_id":"GA"},{"zip":"30132","fips":"13015","name":"Bartow County","state_id":"GA"},{"zip":"30133","fips":"13097","name":"Douglas County","state_id":"GA"},{"zip":"30134","fips":"13223","name":"Paulding County","state_id":"GA"},{"zip":"30134","fips":"13097","name":"Douglas County","state_id":"GA"},{"zip":"30135","fips":"13097","name":"Douglas County","state_id":"GA"},{"zip":"30137","fips":"13015","name":"Bartow County","state_id":"GA"},{"zip":"30138","fips":"13233","name":"Polk County","state_id":"GA"},{"zip":"30139","fips":"13227","name":"Pickens County","state_id":"GA"},{"zip":"30139","fips":"13129","name":"Gordon County","state_id":"GA"},{"zip":"30139","fips":"13015","name":"Bartow County","state_id":"GA"},{"zip":"30140","fips":"13143","name":"Haralson County","state_id":"GA"},{"zip":"30141","fips":"13067","name":"Cobb County","state_id":"GA"},{"zip":"30141","fips":"13223","name":"Paulding County","state_id":"GA"},{"zip":"30142","fips":"13057","name":"Cherokee County","state_id":"GA"},{"zip":"30143","fips":"13085","name":"Dawson County","state_id":"GA"},{"zip":"30143","fips":"13227","name":"Pickens County","state_id":"GA"},{"zip":"30143","fips":"13057","name":"Cherokee County","state_id":"GA"},{"zip":"30144","fips":"13067","name":"Cobb County","state_id":"GA"},{"zip":"30145","fips":"13115","name":"Floyd County","state_id":"GA"},{"zip":"30145","fips":"13015","name":"Bartow County","state_id":"GA"},{"zip":"30146","fips":"13057","name":"Cherokee County","state_id":"GA"},{"zip":"30147","fips":"13233","name":"Polk County","state_id":"GA"},{"zip":"30147","fips":"13115","name":"Floyd County","state_id":"GA"},{"zip":"30148","fips":"13085","name":"Dawson County","state_id":"GA"},{"zip":"30148","fips":"13227","name":"Pickens County","state_id":"GA"},{"zip":"30149","fips":"13115","name":"Floyd County","state_id":"GA"},{"zip":"30150","fips":"13045","name":"Carroll County","state_id":"GA"},{"zip":"30151","fips":"13057","name":"Cherokee County","state_id":"GA"},{"zip":"30152","fips":"13067","name":"Cobb County","state_id":"GA"},{"zip":"30153","fips":"13233","name":"Polk County","state_id":"GA"},{"zip":"30153","fips":"13223","name":"Paulding County","state_id":"GA"},{"zip":"30153","fips":"13143","name":"Haralson County","state_id":"GA"},{"zip":"30154","fips":"13097","name":"Douglas County","state_id":"GA"},{"zip":"30156","fips":"13067","name":"Cobb County","state_id":"GA"},{"zip":"30157","fips":"13223","name":"Paulding County","state_id":"GA"},{"zip":"30157","fips":"13067","name":"Cobb County","state_id":"GA"},{"zip":"30160","fips":"13067","name":"Cobb County","state_id":"GA"},{"zip":"30161","fips":"13115","name":"Floyd County","state_id":"GA"},{"zip":"30161","fips":"13015","name":"Bartow County","state_id":"GA"},{"zip":"30162","fips":"13115","name":"Floyd County","state_id":"GA"},{"zip":"30164","fips":"13115","name":"Floyd County","state_id":"GA"},{"zip":"30165","fips":"13115","name":"Floyd County","state_id":"GA"},{"zip":"30165","fips":"13055","name":"Chattooga County","state_id":"GA"},{"zip":"30168","fips":"13067","name":"Cobb County","state_id":"GA"},{"zip":"30168","fips":"13097","name":"Douglas County","state_id":"GA"},{"zip":"30169","fips":"13057","name":"Cherokee County","state_id":"GA"},{"zip":"30170","fips":"13149","name":"Heard County","state_id":"GA"},{"zip":"30170","fips":"13045","name":"Carroll County","state_id":"GA"},{"zip":"30171","fips":"13015","name":"Bartow County","state_id":"GA"},{"zip":"30171","fips":"13129","name":"Gordon County","state_id":"GA"},{"zip":"30172","fips":"13115","name":"Floyd County","state_id":"GA"},{"zip":"30173","fips":"13115","name":"Floyd County","state_id":"GA"},{"zip":"30173","fips":"13233","name":"Polk County","state_id":"GA"},{"zip":"30175","fips":"13123","name":"Gilmer County","state_id":"GA"},{"zip":"30175","fips":"13129","name":"Gordon County","state_id":"GA"},{"zip":"30175","fips":"13227","name":"Pickens County","state_id":"GA"},{"zip":"30176","fips":"13143","name":"Haralson County","state_id":"GA"},{"zip":"30177","fips":"13227","name":"Pickens County","state_id":"GA"},{"zip":"30178","fips":"13015","name":"Bartow County","state_id":"GA"},{"zip":"30178","fips":"13233","name":"Polk County","state_id":"GA"},{"zip":"30178","fips":"13223","name":"Paulding County","state_id":"GA"},{"zip":"30179","fips":"13143","name":"Haralson County","state_id":"GA"},{"zip":"30179","fips":"13045","name":"Carroll County","state_id":"GA"},{"zip":"30179","fips":"13223","name":"Paulding County","state_id":"GA"},{"zip":"30180","fips":"13223","name":"Paulding County","state_id":"GA"},{"zip":"30180","fips":"13097","name":"Douglas County","state_id":"GA"},{"zip":"30180","fips":"13045","name":"Carroll County","state_id":"GA"},{"zip":"30182","fips":"13045","name":"Carroll County","state_id":"GA"},{"zip":"30182","fips":"13143","name":"Haralson County","state_id":"GA"},{"zip":"30183","fips":"13015","name":"Bartow County","state_id":"GA"},{"zip":"30183","fips":"13227","name":"Pickens County","state_id":"GA"},{"zip":"30183","fips":"13057","name":"Cherokee County","state_id":"GA"},{"zip":"30184","fips":"13015","name":"Bartow County","state_id":"GA"},{"zip":"30184","fips":"13057","name":"Cherokee County","state_id":"GA"},{"zip":"30185","fips":"13097","name":"Douglas County","state_id":"GA"},{"zip":"30185","fips":"13045","name":"Carroll County","state_id":"GA"},{"zip":"30187","fips":"13045","name":"Carroll County","state_id":"GA"},{"zip":"30187","fips":"13097","name":"Douglas County","state_id":"GA"},{"zip":"30188","fips":"13121","name":"Fulton County","state_id":"GA"},{"zip":"30188","fips":"13067","name":"Cobb County","state_id":"GA"},{"zip":"30188","fips":"13057","name":"Cherokee County","state_id":"GA"},{"zip":"30189","fips":"13057","name":"Cherokee County","state_id":"GA"}]
