[{"zip":"30204","fips":"13293","name":"Upson County","state_id":"GA"},{"zip":"30204","fips":"13171","name":"Lamar County","state_id":"GA"},{"zip":"30204","fips":"13207","name":"Monroe County","state_id":"GA"},{"zip":"30205","fips":"13255","name":"Spalding County","state_id":"GA"},{"zip":"30205","fips":"13113","name":"Fayette County","state_id":"GA"},{"zip":"30206","fips":"13231","name":"Pike County","state_id":"GA"},{"zip":"30212","fips":"13255","name":"Spalding County","state_id":"GA"},{"zip":"30213","fips":"13113","name":"Fayette County","state_id":"GA"},{"zip":"30213","fips":"13121","name":"Fulton County","state_id":"GA"},{"zip":"30214","fips":"13113","name":"Fayette County","state_id":"GA"},{"zip":"30214","fips":"13121","name":"Fulton County","state_id":"GA"},{"zip":"30215","fips":"13113","name":"Fayette County","state_id":"GA"},{"zip":"30215","fips":"13063","name":"Clayton County","state_id":"GA"},{"zip":"30216","fips":"13035","name":"Butts County","state_id":"GA"},{"zip":"30217","fips":"13149","name":"Heard County","state_id":"GA"},{"zip":"30217","fips":"13285","name":"Troup County","state_id":"GA"},{"zip":"30217","fips":"13077","name":"Coweta County","state_id":"GA"},{"zip":"30218","fips":"13199","name":"Meriwether County","state_id":"GA"},{"zip":"30220","fips":"13285","name":"Troup County","state_id":"GA"},{"zip":"30220","fips":"13077","name":"Coweta County","state_id":"GA"},{"zip":"30220","fips":"13199","name":"Meriwether County","state_id":"GA"},{"zip":"30222","fips":"13199","name":"Meriwether County","state_id":"GA"},{"zip":"30223","fips":"13151","name":"Henry County","state_id":"GA"},{"zip":"30223","fips":"13255","name":"Spalding County","state_id":"GA"},{"zip":"30223","fips":"13035","name":"Butts County","state_id":"GA"},{"zip":"30224","fips":"13035","name":"Butts County","state_id":"GA"},{"zip":"30224","fips":"13231","name":"Pike County","state_id":"GA"},{"zip":"30224","fips":"13171","name":"Lamar County","state_id":"GA"},{"zip":"30224","fips":"13255","name":"Spalding County","state_id":"GA"},{"zip":"30228","fips":"13063","name":"Clayton County","state_id":"GA"},{"zip":"30228","fips":"13151","name":"Henry County","state_id":"GA"},{"zip":"30228","fips":"13255","name":"Spalding County","state_id":"GA"},{"zip":"30229","fips":"13077","name":"Coweta County","state_id":"GA"},{"zip":"30230","fips":"13149","name":"Heard County","state_id":"GA"},{"zip":"30230","fips":"13077","name":"Coweta County","state_id":"GA"},{"zip":"30230","fips":"13199","name":"Meriwether County","state_id":"GA"},{"zip":"30230","fips":"13285","name":"Troup County","state_id":"GA"},{"zip":"30233","fips":"13217","name":"Newton County","state_id":"GA"},{"zip":"30233","fips":"13151","name":"Henry County","state_id":"GA"},{"zip":"30233","fips":"13207","name":"Monroe County","state_id":"GA"},{"zip":"30233","fips":"13171","name":"Lamar County","state_id":"GA"},{"zip":"30233","fips":"13035","name":"Butts County","state_id":"GA"},{"zip":"30234","fips":"13151","name":"Henry County","state_id":"GA"},{"zip":"30234","fips":"13035","name":"Butts County","state_id":"GA"},{"zip":"30236","fips":"13151","name":"Henry County","state_id":"GA"},{"zip":"30236","fips":"13063","name":"Clayton County","state_id":"GA"},{"zip":"30237","fips":"13063","name":"Clayton County","state_id":"GA"},{"zip":"30238","fips":"13113","name":"Fayette County","state_id":"GA"},{"zip":"30238","fips":"13063","name":"Clayton County","state_id":"GA"},{"zip":"30240","fips":"13285","name":"Troup County","state_id":"GA"},{"zip":"30240","fips":"13149","name":"Heard County","state_id":"GA"},{"zip":"30241","fips":"13285","name":"Troup County","state_id":"GA"},{"zip":"30241","fips":"13199","name":"Meriwether County","state_id":"GA"},{"zip":"30248","fips":"13255","name":"Spalding County","state_id":"GA"},{"zip":"30248","fips":"13151","name":"Henry County","state_id":"GA"},{"zip":"30248","fips":"13035","name":"Butts County","state_id":"GA"},{"zip":"30250","fips":"13063","name":"Clayton County","state_id":"GA"},{"zip":"30251","fips":"13199","name":"Meriwether County","state_id":"GA"},{"zip":"30252","fips":"13247","name":"Rockdale County","state_id":"GA"},{"zip":"30252","fips":"13151","name":"Henry County","state_id":"GA"},{"zip":"30253","fips":"13151","name":"Henry County","state_id":"GA"},{"zip":"30256","fips":"13293","name":"Upson County","state_id":"GA"},{"zip":"30256","fips":"13231","name":"Pike County","state_id":"GA"},{"zip":"30256","fips":"13171","name":"Lamar County","state_id":"GA"},{"zip":"30257","fips":"13231","name":"Pike County","state_id":"GA"},{"zip":"30257","fips":"13171","name":"Lamar County","state_id":"GA"},{"zip":"30258","fips":"13293","name":"Upson County","state_id":"GA"},{"zip":"30258","fips":"13231","name":"Pike County","state_id":"GA"},{"zip":"30259","fips":"13199","name":"Meriwether County","state_id":"GA"},{"zip":"30259","fips":"13077","name":"Coweta County","state_id":"GA"},{"zip":"30260","fips":"13063","name":"Clayton County","state_id":"GA"},{"zip":"30261","fips":"13285","name":"Troup County","state_id":"GA"},{"zip":"30263","fips":"13149","name":"Heard County","state_id":"GA"},{"zip":"30263","fips":"13077","name":"Coweta County","state_id":"GA"},{"zip":"30264","fips":"13077","name":"Coweta County","state_id":"GA"},{"zip":"30265","fips":"13077","name":"Coweta County","state_id":"GA"},{"zip":"30266","fips":"13255","name":"Spalding County","state_id":"GA"},{"zip":"30268","fips":"13077","name":"Coweta County","state_id":"GA"},{"zip":"30268","fips":"13121","name":"Fulton County","state_id":"GA"},{"zip":"30269","fips":"13113","name":"Fayette County","state_id":"GA"},{"zip":"30271","fips":"13077","name":"Coweta County","state_id":"GA"},{"zip":"30272","fips":"13121","name":"Fulton County","state_id":"GA"},{"zip":"30273","fips":"13151","name":"Henry County","state_id":"GA"},{"zip":"30273","fips":"13063","name":"Clayton County","state_id":"GA"},{"zip":"30274","fips":"13063","name":"Clayton County","state_id":"GA"},{"zip":"30275","fips":"13077","name":"Coweta County","state_id":"GA"},{"zip":"30276","fips":"13199","name":"Meriwether County","state_id":"GA"},{"zip":"30276","fips":"13113","name":"Fayette County","state_id":"GA"},{"zip":"30276","fips":"13077","name":"Coweta County","state_id":"GA"},{"zip":"30277","fips":"13077","name":"Coweta County","state_id":"GA"},{"zip":"30281","fips":"13151","name":"Henry County","state_id":"GA"},{"zip":"30281","fips":"13247","name":"Rockdale County","state_id":"GA"},{"zip":"30281","fips":"13063","name":"Clayton County","state_id":"GA"},{"zip":"30284","fips":"13255","name":"Spalding County","state_id":"GA"},{"zip":"30285","fips":"13231","name":"Pike County","state_id":"GA"},{"zip":"30285","fips":"13171","name":"Lamar County","state_id":"GA"},{"zip":"30285","fips":"13293","name":"Upson County","state_id":"GA"},{"zip":"30286","fips":"13293","name":"Upson County","state_id":"GA"},{"zip":"30287","fips":"13063","name":"Clayton County","state_id":"GA"},{"zip":"30288","fips":"13089","name":"DeKalb County","state_id":"GA"},{"zip":"30288","fips":"13063","name":"Clayton County","state_id":"GA"},{"zip":"30289","fips":"13077","name":"Coweta County","state_id":"GA"},{"zip":"30290","fips":"13113","name":"Fayette County","state_id":"GA"},{"zip":"30291","fips":"13121","name":"Fulton County","state_id":"GA"},{"zip":"30292","fips":"13255","name":"Spalding County","state_id":"GA"},{"zip":"30292","fips":"13231","name":"Pike County","state_id":"GA"},{"zip":"30293","fips":"13199","name":"Meriwether County","state_id":"GA"},{"zip":"30294","fips":"13151","name":"Henry County","state_id":"GA"},{"zip":"30294","fips":"13063","name":"Clayton County","state_id":"GA"},{"zip":"30294","fips":"13089","name":"DeKalb County","state_id":"GA"},{"zip":"30294","fips":"13247","name":"Rockdale County","state_id":"GA"},{"zip":"30295","fips":"13231","name":"Pike County","state_id":"GA"},{"zip":"30295","fips":"13171","name":"Lamar County","state_id":"GA"},{"zip":"30296","fips":"13063","name":"Clayton County","state_id":"GA"},{"zip":"30296","fips":"13121","name":"Fulton County","state_id":"GA"},{"zip":"30297","fips":"13063","name":"Clayton County","state_id":"GA"},{"zip":"30298","fips":"13063","name":"Clayton County","state_id":"GA"}]
