[{"zip":"30301","fips":"13121","name":"Fulton County","state_id":"GA"},{"zip":"30302","fips":"13121","name":"Fulton County","state_id":"GA"},{"zip":"30303","fips":"13121","name":"Fulton County","state_id":"GA"},{"zip":"30304","fips":"13121","name":"Fulton County","state_id":"GA"},{"zip":"30305","fips":"13121","name":"Fulton County","state_id":"GA"},{"zip":"30306","fips":"13089","name":"DeKalb County","state_id":"GA"},{"zip":"30306","fips":"13121","name":"Fulton County","state_id":"GA"},{"zip":"30307","fips":"13089","name":"DeKalb County","state_id":"GA"},{"zip":"30307","fips":"13121","name":"Fulton County","state_id":"GA"},{"zip":"30308","fips":"13121","name":"Fulton County","state_id":"GA"},{"zip":"30309","fips":"13121","name":"Fulton County","state_id":"GA"},{"zip":"30310","fips":"13121","name":"Fulton County","state_id":"GA"},{"zip":"30311","fips":"13121","name":"Fulton County","state_id":"GA"},{"zip":"30312","fips":"13121","name":"Fulton County","state_id":"GA"},{"zip":"30313","fips":"13121","name":"Fulton County","state_id":"GA"},{"zip":"30314","fips":"13121","name":"Fulton County","state_id":"GA"},{"zip":"30315","fips":"13089","name":"DeKalb County","state_id":"GA"},{"zip":"30315","fips":"13121","name":"Fulton County","state_id":"GA"},{"zip":"30316","fips":"13121","name":"Fulton County","state_id":"GA"},{"zip":"30316","fips":"13089","name":"DeKalb County","state_id":"GA"},{"zip":"30317","fips":"13121","name":"Fulton County","state_id":"GA"},{"zip":"30317","fips":"13089","name":"DeKalb County","state_id":"GA"},{"zip":"30318","fips":"13121","name":"Fulton County","state_id":"GA"},{"zip":"30319","fips":"13089","name":"DeKalb County","state_id":"GA"},{"zip":"30319","fips":"13121","name":"Fulton County","state_id":"GA"},{"zip":"30320","fips":"13063","name":"Clayton County","state_id":"GA"},{"zip":"30321","fips":"13121","name":"Fulton County","state_id":"GA"},{"zip":"30322","fips":"13089","name":"DeKalb County","state_id":"GA"},{"zip":"30324","fips":"13121","name":"Fulton County","state_id":"GA"},{"zip":"30324","fips":"13089","name":"DeKalb County","state_id":"GA"},{"zip":"30325","fips":"13121","name":"Fulton County","state_id":"GA"},{"zip":"30326","fips":"13089","name":"DeKalb County","state_id":"GA"},{"zip":"30326","fips":"13121","name":"Fulton County","state_id":"GA"},{"zip":"30327","fips":"13121","name":"Fulton County","state_id":"GA"},{"zip":"30328","fips":"13121","name":"Fulton County","state_id":"GA"},{"zip":"30328","fips":"13089","name":"DeKalb County","state_id":"GA"},{"zip":"30329","fips":"13089","name":"DeKalb County","state_id":"GA"},{"zip":"30331","fips":"13121","name":"Fulton County","state_id":"GA"},{"zip":"30332","fips":"13121","name":"Fulton County","state_id":"GA"},{"zip":"30333","fips":"13089","name":"DeKalb County","state_id":"GA"},{"zip":"30334","fips":"13121","name":"Fulton County","state_id":"GA"},{"zip":"30336","fips":"13121","name":"Fulton County","state_id":"GA"},{"zip":"30337","fips":"13121","name":"Fulton County","state_id":"GA"},{"zip":"30337","fips":"13063","name":"Clayton County","state_id":"GA"},{"zip":"30338","fips":"13089","name":"DeKalb County","state_id":"GA"},{"zip":"30338","fips":"13121","name":"Fulton County","state_id":"GA"},{"zip":"30339","fips":"13067","name":"Cobb County","state_id":"GA"},{"zip":"30339","fips":"13121","name":"Fulton County","state_id":"GA"},{"zip":"30340","fips":"13135","name":"Gwinnett County","state_id":"GA"},{"zip":"30340","fips":"13089","name":"DeKalb County","state_id":"GA"},{"zip":"30341","fips":"13089","name":"DeKalb County","state_id":"GA"},{"zip":"30342","fips":"13121","name":"Fulton County","state_id":"GA"},{"zip":"30343","fips":"13121","name":"Fulton County","state_id":"GA"},{"zip":"30344","fips":"13121","name":"Fulton County","state_id":"GA"},{"zip":"30344","fips":"13063","name":"Clayton County","state_id":"GA"},{"zip":"30345","fips":"13089","name":"DeKalb County","state_id":"GA"},{"zip":"30346","fips":"13121","name":"Fulton County","state_id":"GA"},{"zip":"30346","fips":"13089","name":"DeKalb County","state_id":"GA"},{"zip":"30349","fips":"13063","name":"Clayton County","state_id":"GA"},{"zip":"30349","fips":"13121","name":"Fulton County","state_id":"GA"},{"zip":"30350","fips":"13089","name":"DeKalb County","state_id":"GA"},{"zip":"30350","fips":"13135","name":"Gwinnett County","state_id":"GA"},{"zip":"30350","fips":"13121","name":"Fulton County","state_id":"GA"},{"zip":"30354","fips":"13063","name":"Clayton County","state_id":"GA"},{"zip":"30354","fips":"13121","name":"Fulton County","state_id":"GA"},{"zip":"30355","fips":"13121","name":"Fulton County","state_id":"GA"},{"zip":"30356","fips":"13089","name":"DeKalb County","state_id":"GA"},{"zip":"30357","fips":"13121","name":"Fulton County","state_id":"GA"},{"zip":"30358","fips":"13121","name":"Fulton County","state_id":"GA"},{"zip":"30359","fips":"13089","name":"DeKalb County","state_id":"GA"},{"zip":"30360","fips":"13135","name":"Gwinnett County","state_id":"GA"},{"zip":"30360","fips":"13089","name":"DeKalb County","state_id":"GA"},{"zip":"30361","fips":"13121","name":"Fulton County","state_id":"GA"},{"zip":"30362","fips":"13089","name":"DeKalb County","state_id":"GA"},{"zip":"30363","fips":"13121","name":"Fulton County","state_id":"GA"},{"zip":"30364","fips":"13121","name":"Fulton County","state_id":"GA"},{"zip":"30366","fips":"13089","name":"DeKalb County","state_id":"GA"},{"zip":"30368","fips":"13121","name":"Fulton County","state_id":"GA"},{"zip":"30369","fips":"13121","name":"Fulton County","state_id":"GA"},{"zip":"30377","fips":"13121","name":"Fulton County","state_id":"GA"},{"zip":"30378","fips":"13121","name":"Fulton County","state_id":"GA"},{"zip":"30380","fips":"13121","name":"Fulton County","state_id":"GA"},{"zip":"30385","fips":"13121","name":"Fulton County","state_id":"GA"},{"zip":"30388","fips":"13121","name":"Fulton County","state_id":"GA"},{"zip":"30396","fips":"13121","name":"Fulton County","state_id":"GA"},{"zip":"30398","fips":"13121","name":"Fulton County","state_id":"GA"}]
