[{"zip":"30401","fips":"13107","name":"Emanuel County","state_id":"GA"},{"zip":"30410","fips":"13209","name":"Montgomery County","state_id":"GA"},{"zip":"30411","fips":"13175","name":"Laurens County","state_id":"GA"},{"zip":"30411","fips":"13309","name":"Wheeler County","state_id":"GA"},{"zip":"30412","fips":"13209","name":"Montgomery County","state_id":"GA"},{"zip":"30413","fips":"13167","name":"Johnson County","state_id":"GA"},{"zip":"30413","fips":"13163","name":"Jefferson County","state_id":"GA"},{"zip":"30413","fips":"13303","name":"Washington County","state_id":"GA"},{"zip":"30414","fips":"13109","name":"Evans County","state_id":"GA"},{"zip":"30415","fips":"13031","name":"Bulloch County","state_id":"GA"},{"zip":"30415","fips":"13029","name":"Bryan County","state_id":"GA"},{"zip":"30417","fips":"13109","name":"Evans County","state_id":"GA"},{"zip":"30417","fips":"13031","name":"Bulloch County","state_id":"GA"},{"zip":"30417","fips":"13267","name":"Tattnall County","state_id":"GA"},{"zip":"30420","fips":"13267","name":"Tattnall County","state_id":"GA"},{"zip":"30420","fips":"13109","name":"Evans County","state_id":"GA"},{"zip":"30420","fips":"13043","name":"Candler County","state_id":"GA"},{"zip":"30421","fips":"13267","name":"Tattnall County","state_id":"GA"},{"zip":"30421","fips":"13109","name":"Evans County","state_id":"GA"},{"zip":"30423","fips":"13109","name":"Evans County","state_id":"GA"},{"zip":"30424","fips":"13251","name":"Screven County","state_id":"GA"},{"zip":"30425","fips":"13165","name":"Jenkins County","state_id":"GA"},{"zip":"30425","fips":"13107","name":"Emanuel County","state_id":"GA"},{"zip":"30425","fips":"13031","name":"Bulloch County","state_id":"GA"},{"zip":"30426","fips":"13033","name":"Burke County","state_id":"GA"},{"zip":"30426","fips":"13251","name":"Screven County","state_id":"GA"},{"zip":"30427","fips":"13183","name":"Long County","state_id":"GA"},{"zip":"30427","fips":"13109","name":"Evans County","state_id":"GA"},{"zip":"30427","fips":"13267","name":"Tattnall County","state_id":"GA"},{"zip":"30428","fips":"13309","name":"Wheeler County","state_id":"GA"},{"zip":"30428","fips":"13175","name":"Laurens County","state_id":"GA"},{"zip":"30429","fips":"13109","name":"Evans County","state_id":"GA"},{"zip":"30434","fips":"13033","name":"Burke County","state_id":"GA"},{"zip":"30434","fips":"13163","name":"Jefferson County","state_id":"GA"},{"zip":"30436","fips":"13283","name":"Treutlen County","state_id":"GA"},{"zip":"30436","fips":"13267","name":"Tattnall County","state_id":"GA"},{"zip":"30436","fips":"13279","name":"Toombs County","state_id":"GA"},{"zip":"30436","fips":"13107","name":"Emanuel County","state_id":"GA"},{"zip":"30438","fips":"13267","name":"Tattnall County","state_id":"GA"},{"zip":"30439","fips":"13031","name":"Bulloch County","state_id":"GA"},{"zip":"30439","fips":"13107","name":"Emanuel County","state_id":"GA"},{"zip":"30439","fips":"13043","name":"Candler County","state_id":"GA"},{"zip":"30441","fips":"13165","name":"Jenkins County","state_id":"GA"},{"zip":"30441","fips":"13107","name":"Emanuel County","state_id":"GA"},{"zip":"30441","fips":"13033","name":"Burke County","state_id":"GA"},{"zip":"30442","fips":"13165","name":"Jenkins County","state_id":"GA"},{"zip":"30442","fips":"13033","name":"Burke County","state_id":"GA"},{"zip":"30442","fips":"13107","name":"Emanuel County","state_id":"GA"},{"zip":"30442","fips":"13251","name":"Screven County","state_id":"GA"},{"zip":"30445","fips":"13209","name":"Montgomery County","state_id":"GA"},{"zip":"30446","fips":"13251","name":"Screven County","state_id":"GA"},{"zip":"30446","fips":"13103","name":"Effingham County","state_id":"GA"},{"zip":"30448","fips":"13107","name":"Emanuel County","state_id":"GA"},{"zip":"30449","fips":"13251","name":"Screven County","state_id":"GA"},{"zip":"30450","fips":"13031","name":"Bulloch County","state_id":"GA"},{"zip":"30450","fips":"13107","name":"Emanuel County","state_id":"GA"},{"zip":"30451","fips":"13043","name":"Candler County","state_id":"GA"},{"zip":"30452","fips":"13043","name":"Candler County","state_id":"GA"},{"zip":"30452","fips":"13031","name":"Bulloch County","state_id":"GA"},{"zip":"30452","fips":"13109","name":"Evans County","state_id":"GA"},{"zip":"30453","fips":"13109","name":"Evans County","state_id":"GA"},{"zip":"30453","fips":"13279","name":"Toombs County","state_id":"GA"},{"zip":"30453","fips":"13267","name":"Tattnall County","state_id":"GA"},{"zip":"30454","fips":"13175","name":"Laurens County","state_id":"GA"},{"zip":"30455","fips":"13165","name":"Jenkins County","state_id":"GA"},{"zip":"30455","fips":"13251","name":"Screven County","state_id":"GA"},{"zip":"30456","fips":"13165","name":"Jenkins County","state_id":"GA"},{"zip":"30456","fips":"13033","name":"Burke County","state_id":"GA"},{"zip":"30457","fips":"13107","name":"Emanuel County","state_id":"GA"},{"zip":"30457","fips":"13209","name":"Montgomery County","state_id":"GA"},{"zip":"30457","fips":"13283","name":"Treutlen County","state_id":"GA"},{"zip":"30458","fips":"13031","name":"Bulloch County","state_id":"GA"},{"zip":"30459","fips":"13031","name":"Bulloch County","state_id":"GA"},{"zip":"30460","fips":"13031","name":"Bulloch County","state_id":"GA"},{"zip":"30461","fips":"13031","name":"Bulloch County","state_id":"GA"},{"zip":"30464","fips":"13107","name":"Emanuel County","state_id":"GA"},{"zip":"30467","fips":"13251","name":"Screven County","state_id":"GA"},{"zip":"30470","fips":"13283","name":"Treutlen County","state_id":"GA"},{"zip":"30470","fips":"13209","name":"Montgomery County","state_id":"GA"},{"zip":"30471","fips":"13031","name":"Bulloch County","state_id":"GA"},{"zip":"30471","fips":"13043","name":"Candler County","state_id":"GA"},{"zip":"30471","fips":"13107","name":"Emanuel County","state_id":"GA"},{"zip":"30473","fips":"13279","name":"Toombs County","state_id":"GA"},{"zip":"30473","fips":"13209","name":"Montgomery County","state_id":"GA"},{"zip":"30474","fips":"13209","name":"Montgomery County","state_id":"GA"},{"zip":"30474","fips":"13283","name":"Treutlen County","state_id":"GA"},{"zip":"30474","fips":"13107","name":"Emanuel County","state_id":"GA"},{"zip":"30474","fips":"13279","name":"Toombs County","state_id":"GA"},{"zip":"30477","fips":"13107","name":"Emanuel County","state_id":"GA"},{"zip":"30477","fips":"13163","name":"Jefferson County","state_id":"GA"},{"zip":"30477","fips":"13167","name":"Johnson County","state_id":"GA"},{"zip":"30499","fips":"13267","name":"Tattnall County","state_id":"GA"}]
