[{"zip":"30501","fips":"13139","name":"Hall County","state_id":"GA"},{"zip":"30502","fips":"13139","name":"Hall County","state_id":"GA"},{"zip":"30503","fips":"13139","name":"Hall County","state_id":"GA"},{"zip":"30504","fips":"13139","name":"Hall County","state_id":"GA"},{"zip":"30506","fips":"13117","name":"Forsyth County","state_id":"GA"},{"zip":"30506","fips":"13139","name":"Hall County","state_id":"GA"},{"zip":"30507","fips":"13139","name":"Hall County","state_id":"GA"},{"zip":"30510","fips":"13137","name":"Habersham County","state_id":"GA"},{"zip":"30510","fips":"13139","name":"Hall County","state_id":"GA"},{"zip":"30510","fips":"13011","name":"Banks County","state_id":"GA"},{"zip":"30511","fips":"13011","name":"Banks County","state_id":"GA"},{"zip":"30511","fips":"13137","name":"Habersham County","state_id":"GA"},{"zip":"30512","fips":"13291","name":"Union County","state_id":"GA"},{"zip":"30512","fips":"13187","name":"Lumpkin County","state_id":"GA"},{"zip":"30512","fips":"13111","name":"Fannin County","state_id":"GA"},{"zip":"30513","fips":"13111","name":"Fannin County","state_id":"GA"},{"zip":"30513","fips":"13123","name":"Gilmer County","state_id":"GA"},{"zip":"30514","fips":"13291","name":"Union County","state_id":"GA"},{"zip":"30515","fips":"13135","name":"Gwinnett County","state_id":"GA"},{"zip":"30516","fips":"13119","name":"Franklin County","state_id":"GA"},{"zip":"30516","fips":"13147","name":"Hart County","state_id":"GA"},{"zip":"30517","fips":"13139","name":"Hall County","state_id":"GA"},{"zip":"30517","fips":"13157","name":"Jackson County","state_id":"GA"},{"zip":"30517","fips":"13135","name":"Gwinnett County","state_id":"GA"},{"zip":"30517","fips":"13013","name":"Barrow County","state_id":"GA"},{"zip":"30518","fips":"13139","name":"Hall County","state_id":"GA"},{"zip":"30518","fips":"13135","name":"Gwinnett County","state_id":"GA"},{"zip":"30519","fips":"13135","name":"Gwinnett County","state_id":"GA"},{"zip":"30519","fips":"13139","name":"Hall County","state_id":"GA"},{"zip":"30520","fips":"13119","name":"Franklin County","state_id":"GA"},{"zip":"30520","fips":"13147","name":"Hart County","state_id":"GA"},{"zip":"30521","fips":"13011","name":"Banks County","state_id":"GA"},{"zip":"30521","fips":"13119","name":"Franklin County","state_id":"GA"},{"zip":"30522","fips":"13123","name":"Gilmer County","state_id":"GA"},{"zip":"30522","fips":"13111","name":"Fannin County","state_id":"GA"},{"zip":"30523","fips":"13241","name":"Rabun County","state_id":"GA"},{"zip":"30523","fips":"13311","name":"White County","state_id":"GA"},{"zip":"30523","fips":"13137","name":"Habersham County","state_id":"GA"},{"zip":"30525","fips":"13241","name":"Rabun County","state_id":"GA"},{"zip":"30525","fips":"13281","name":"Towns County","state_id":"GA"},{"zip":"30527","fips":"13139","name":"Hall County","state_id":"GA"},{"zip":"30527","fips":"13311","name":"White County","state_id":"GA"},{"zip":"30528","fips":"13311","name":"White County","state_id":"GA"},{"zip":"30528","fips":"13139","name":"Hall County","state_id":"GA"},{"zip":"30528","fips":"13187","name":"Lumpkin County","state_id":"GA"},{"zip":"30529","fips":"13011","name":"Banks County","state_id":"GA"},{"zip":"30529","fips":"13157","name":"Jackson County","state_id":"GA"},{"zip":"30530","fips":"13119","name":"Franklin County","state_id":"GA"},{"zip":"30530","fips":"13011","name":"Banks County","state_id":"GA"},{"zip":"30530","fips":"13195","name":"Madison County","state_id":"GA"},{"zip":"30530","fips":"13157","name":"Jackson County","state_id":"GA"},{"zip":"30531","fips":"13139","name":"Hall County","state_id":"GA"},{"zip":"30531","fips":"13137","name":"Habersham County","state_id":"GA"},{"zip":"30533","fips":"13139","name":"Hall County","state_id":"GA"},{"zip":"30533","fips":"13085","name":"Dawson County","state_id":"GA"},{"zip":"30533","fips":"13187","name":"Lumpkin County","state_id":"GA"},{"zip":"30533","fips":"13311","name":"White County","state_id":"GA"},{"zip":"30534","fips":"13187","name":"Lumpkin County","state_id":"GA"},{"zip":"30534","fips":"13085","name":"Dawson County","state_id":"GA"},{"zip":"30534","fips":"13057","name":"Cherokee County","state_id":"GA"},{"zip":"30534","fips":"13227","name":"Pickens County","state_id":"GA"},{"zip":"30534","fips":"13117","name":"Forsyth County","state_id":"GA"},{"zip":"30534","fips":"13123","name":"Gilmer County","state_id":"GA"},{"zip":"30535","fips":"13137","name":"Habersham County","state_id":"GA"},{"zip":"30536","fips":"13123","name":"Gilmer County","state_id":"GA"},{"zip":"30536","fips":"13085","name":"Dawson County","state_id":"GA"},{"zip":"30536","fips":"13227","name":"Pickens County","state_id":"GA"},{"zip":"30537","fips":"13241","name":"Rabun County","state_id":"GA"},{"zip":"30538","fips":"13257","name":"Stephens County","state_id":"GA"},{"zip":"30538","fips":"13119","name":"Franklin County","state_id":"GA"},{"zip":"30539","fips":"13123","name":"Gilmer County","state_id":"GA"},{"zip":"30540","fips":"13123","name":"Gilmer County","state_id":"GA"},{"zip":"30540","fips":"13227","name":"Pickens County","state_id":"GA"},{"zip":"30540","fips":"13213","name":"Murray County","state_id":"GA"},{"zip":"30541","fips":"13111","name":"Fannin County","state_id":"GA"},{"zip":"30542","fips":"13139","name":"Hall County","state_id":"GA"},{"zip":"30543","fips":"13139","name":"Hall County","state_id":"GA"},{"zip":"30543","fips":"13011","name":"Banks County","state_id":"GA"},{"zip":"30543","fips":"13157","name":"Jackson County","state_id":"GA"},{"zip":"30545","fips":"13311","name":"White County","state_id":"GA"},{"zip":"30546","fips":"13281","name":"Towns County","state_id":"GA"},{"zip":"30547","fips":"13011","name":"Banks County","state_id":"GA"},{"zip":"30548","fips":"13139","name":"Hall County","state_id":"GA"},{"zip":"30548","fips":"13135","name":"Gwinnett County","state_id":"GA"},{"zip":"30548","fips":"13157","name":"Jackson County","state_id":"GA"},{"zip":"30548","fips":"13013","name":"Barrow County","state_id":"GA"},{"zip":"30549","fips":"13157","name":"Jackson County","state_id":"GA"},{"zip":"30552","fips":"13241","name":"Rabun County","state_id":"GA"},{"zip":"30553","fips":"13147","name":"Hart County","state_id":"GA"},{"zip":"30553","fips":"13119","name":"Franklin County","state_id":"GA"},{"zip":"30554","fips":"13311","name":"White County","state_id":"GA"},{"zip":"30554","fips":"13011","name":"Banks County","state_id":"GA"},{"zip":"30554","fips":"13139","name":"Hall County","state_id":"GA"},{"zip":"30555","fips":"13111","name":"Fannin County","state_id":"GA"},{"zip":"30557","fips":"13119","name":"Franklin County","state_id":"GA"},{"zip":"30557","fips":"13257","name":"Stephens County","state_id":"GA"},{"zip":"30558","fips":"13011","name":"Banks County","state_id":"GA"},{"zip":"30558","fips":"13157","name":"Jackson County","state_id":"GA"},{"zip":"30559","fips":"13111","name":"Fannin County","state_id":"GA"},{"zip":"30560","fips":"13111","name":"Fannin County","state_id":"GA"},{"zip":"30560","fips":"13291","name":"Union County","state_id":"GA"},{"zip":"30562","fips":"13241","name":"Rabun County","state_id":"GA"},{"zip":"30563","fips":"13137","name":"Habersham County","state_id":"GA"},{"zip":"30564","fips":"13187","name":"Lumpkin County","state_id":"GA"},{"zip":"30564","fips":"13139","name":"Hall County","state_id":"GA"},{"zip":"30564","fips":"13311","name":"White County","state_id":"GA"},{"zip":"30565","fips":"13157","name":"Jackson County","state_id":"GA"},{"zip":"30565","fips":"13195","name":"Madison County","state_id":"GA"},{"zip":"30566","fips":"13139","name":"Hall County","state_id":"GA"},{"zip":"30567","fips":"13157","name":"Jackson County","state_id":"GA"},{"zip":"30567","fips":"13139","name":"Hall County","state_id":"GA"},{"zip":"30568","fips":"13241","name":"Rabun County","state_id":"GA"},{"zip":"30571","fips":"13137","name":"Habersham County","state_id":"GA"},{"zip":"30571","fips":"13311","name":"White County","state_id":"GA"},{"zip":"30572","fips":"13291","name":"Union County","state_id":"GA"},{"zip":"30572","fips":"13111","name":"Fannin County","state_id":"GA"},{"zip":"30573","fips":"13241","name":"Rabun County","state_id":"GA"},{"zip":"30575","fips":"13139","name":"Hall County","state_id":"GA"},{"zip":"30575","fips":"13157","name":"Jackson County","state_id":"GA"},{"zip":"30576","fips":"13241","name":"Rabun County","state_id":"GA"},{"zip":"30577","fips":"13011","name":"Banks County","state_id":"GA"},{"zip":"30577","fips":"13119","name":"Franklin County","state_id":"GA"},{"zip":"30577","fips":"13137","name":"Habersham County","state_id":"GA"},{"zip":"30577","fips":"13257","name":"Stephens County","state_id":"GA"},{"zip":"30580","fips":"13137","name":"Habersham County","state_id":"GA"},{"zip":"30581","fips":"13241","name":"Rabun County","state_id":"GA"},{"zip":"30582","fips":"13291","name":"Union County","state_id":"GA"},{"zip":"30582","fips":"13281","name":"Towns County","state_id":"GA"},{"zip":"30597","fips":"13187","name":"Lumpkin County","state_id":"GA"},{"zip":"30598","fips":"13257","name":"Stephens County","state_id":"GA"},{"zip":"30599","fips":"13157","name":"Jackson County","state_id":"GA"}]
