[{"zip":"30701","fips":"13115","name":"Floyd County","state_id":"GA"},{"zip":"30701","fips":"13129","name":"Gordon County","state_id":"GA"},{"zip":"30703","fips":"13129","name":"Gordon County","state_id":"GA"},{"zip":"30705","fips":"13123","name":"Gilmer County","state_id":"GA"},{"zip":"30705","fips":"13213","name":"Murray County","state_id":"GA"},{"zip":"30707","fips":"13295","name":"Walker County","state_id":"GA"},{"zip":"30707","fips":"13047","name":"Catoosa County","state_id":"GA"},{"zip":"30708","fips":"13213","name":"Murray County","state_id":"GA"},{"zip":"30710","fips":"13047","name":"Catoosa County","state_id":"GA"},{"zip":"30710","fips":"13313","name":"Whitfield County","state_id":"GA"},{"zip":"30711","fips":"13213","name":"Murray County","state_id":"GA"},{"zip":"30719","fips":"13313","name":"Whitfield County","state_id":"GA"},{"zip":"30720","fips":"13313","name":"Whitfield County","state_id":"GA"},{"zip":"30721","fips":"13129","name":"Gordon County","state_id":"GA"},{"zip":"30721","fips":"13213","name":"Murray County","state_id":"GA"},{"zip":"30721","fips":"13313","name":"Whitfield County","state_id":"GA"},{"zip":"30722","fips":"13313","name":"Whitfield County","state_id":"GA"},{"zip":"30724","fips":"13213","name":"Murray County","state_id":"GA"},{"zip":"30725","fips":"13295","name":"Walker County","state_id":"GA"},{"zip":"30726","fips":"13047","name":"Catoosa County","state_id":"GA"},{"zip":"30728","fips":"13295","name":"Walker County","state_id":"GA"},{"zip":"30730","fips":"13055","name":"Chattooga County","state_id":"GA"},{"zip":"30731","fips":"13055","name":"Chattooga County","state_id":"GA"},{"zip":"30731","fips":"13295","name":"Walker County","state_id":"GA"},{"zip":"30731","fips":"13083","name":"Dade County","state_id":"GA"},{"zip":"30732","fips":"13129","name":"Gordon County","state_id":"GA"},{"zip":"30733","fips":"13115","name":"Floyd County","state_id":"GA"},{"zip":"30733","fips":"13129","name":"Gordon County","state_id":"GA"},{"zip":"30734","fips":"13129","name":"Gordon County","state_id":"GA"},{"zip":"30734","fips":"13227","name":"Pickens County","state_id":"GA"},{"zip":"30735","fips":"13213","name":"Murray County","state_id":"GA"},{"zip":"30735","fips":"13129","name":"Gordon County","state_id":"GA"},{"zip":"30735","fips":"13313","name":"Whitfield County","state_id":"GA"},{"zip":"30736","fips":"13313","name":"Whitfield County","state_id":"GA"},{"zip":"30736","fips":"13047","name":"Catoosa County","state_id":"GA"},{"zip":"30736","fips":"13295","name":"Walker County","state_id":"GA"},{"zip":"30738","fips":"13083","name":"Dade County","state_id":"GA"},{"zip":"30738","fips":"13295","name":"Walker County","state_id":"GA"},{"zip":"30739","fips":"13047","name":"Catoosa County","state_id":"GA"},{"zip":"30739","fips":"13295","name":"Walker County","state_id":"GA"},{"zip":"30740","fips":"13313","name":"Whitfield County","state_id":"GA"},{"zip":"30740","fips":"13295","name":"Walker County","state_id":"GA"},{"zip":"30741","fips":"13047","name":"Catoosa County","state_id":"GA"},{"zip":"30741","fips":"13295","name":"Walker County","state_id":"GA"},{"zip":"30742","fips":"13047","name":"Catoosa County","state_id":"GA"},{"zip":"30742","fips":"13295","name":"Walker County","state_id":"GA"},{"zip":"30746","fips":"13129","name":"Gordon County","state_id":"GA"},{"zip":"30746","fips":"13295","name":"Walker County","state_id":"GA"},{"zip":"30747","fips":"13295","name":"Walker County","state_id":"GA"},{"zip":"30747","fips":"13055","name":"Chattooga County","state_id":"GA"},{"zip":"30747","fips":"13135","name":"Gwinnett County","state_id":"GA"},{"zip":"30747","fips":"13115","name":"Floyd County","state_id":"GA"},{"zip":"30750","fips":"13083","name":"Dade County","state_id":"GA"},{"zip":"30750","fips":"13295","name":"Walker County","state_id":"GA"},{"zip":"30751","fips":"13213","name":"Murray County","state_id":"GA"},{"zip":"30752","fips":"13083","name":"Dade County","state_id":"GA"},{"zip":"30753","fips":"13055","name":"Chattooga County","state_id":"GA"},{"zip":"30753","fips":"13295","name":"Walker County","state_id":"GA"},{"zip":"30755","fips":"13313","name":"Whitfield County","state_id":"GA"},{"zip":"30755","fips":"13047","name":"Catoosa County","state_id":"GA"},{"zip":"30756","fips":"13313","name":"Whitfield County","state_id":"GA"},{"zip":"30757","fips":"13083","name":"Dade County","state_id":"GA"}]
