[{"zip":"30802","fips":"13189","name":"McDuffie County","state_id":"GA"},{"zip":"30802","fips":"13073","name":"Columbia County","state_id":"GA"},{"zip":"30803","fips":"13125","name":"Glascock County","state_id":"GA"},{"zip":"30803","fips":"13163","name":"Jefferson County","state_id":"GA"},{"zip":"30805","fips":"13033","name":"Burke County","state_id":"GA"},{"zip":"30805","fips":"13245","name":"Richmond County","state_id":"GA"},{"zip":"30806","fips":"13189","name":"McDuffie County","state_id":"GA"},{"zip":"30807","fips":"13301","name":"Warren County","state_id":"GA"},{"zip":"30808","fips":"13189","name":"McDuffie County","state_id":"GA"},{"zip":"30809","fips":"13073","name":"Columbia County","state_id":"GA"},{"zip":"30810","fips":"13301","name":"Warren County","state_id":"GA"},{"zip":"30810","fips":"13125","name":"Glascock County","state_id":"GA"},{"zip":"30810","fips":"13163","name":"Jefferson County","state_id":"GA"},{"zip":"30812","fips":"13245","name":"Richmond County","state_id":"GA"},{"zip":"30813","fips":"13073","name":"Columbia County","state_id":"GA"},{"zip":"30813","fips":"13245","name":"Richmond County","state_id":"GA"},{"zip":"30814","fips":"13073","name":"Columbia County","state_id":"GA"},{"zip":"30814","fips":"13189","name":"McDuffie County","state_id":"GA"},{"zip":"30815","fips":"13245","name":"Richmond County","state_id":"GA"},{"zip":"30815","fips":"13033","name":"Burke County","state_id":"GA"},{"zip":"30816","fips":"13033","name":"Burke County","state_id":"GA"},{"zip":"30816","fips":"13163","name":"Jefferson County","state_id":"GA"},{"zip":"30817","fips":"13317","name":"Wilkes County","state_id":"GA"},{"zip":"30817","fips":"13181","name":"Lincoln County","state_id":"GA"},{"zip":"30818","fips":"13163","name":"Jefferson County","state_id":"GA"},{"zip":"30819","fips":"13301","name":"Warren County","state_id":"GA"},{"zip":"30820","fips":"13303","name":"Washington County","state_id":"GA"},{"zip":"30820","fips":"13125","name":"Glascock County","state_id":"GA"},{"zip":"30820","fips":"13141","name":"Hancock County","state_id":"GA"},{"zip":"30820","fips":"13301","name":"Warren County","state_id":"GA"},{"zip":"30821","fips":"13301","name":"Warren County","state_id":"GA"},{"zip":"30821","fips":"13189","name":"McDuffie County","state_id":"GA"},{"zip":"30822","fips":"13165","name":"Jenkins County","state_id":"GA"},{"zip":"30823","fips":"13125","name":"Glascock County","state_id":"GA"},{"zip":"30823","fips":"13301","name":"Warren County","state_id":"GA"},{"zip":"30823","fips":"13163","name":"Jefferson County","state_id":"GA"},{"zip":"30824","fips":"13301","name":"Warren County","state_id":"GA"},{"zip":"30824","fips":"13073","name":"Columbia County","state_id":"GA"},{"zip":"30824","fips":"13189","name":"McDuffie County","state_id":"GA"},{"zip":"30828","fips":"13189","name":"McDuffie County","state_id":"GA"},{"zip":"30828","fips":"13301","name":"Warren County","state_id":"GA"},{"zip":"30828","fips":"13125","name":"Glascock County","state_id":"GA"},{"zip":"30830","fips":"13033","name":"Burke County","state_id":"GA"},{"zip":"30833","fips":"13033","name":"Burke County","state_id":"GA"},{"zip":"30833","fips":"13163","name":"Jefferson County","state_id":"GA"}]
