[{"zip":"30901","fips":"13245","name":"Richmond County","state_id":"GA"},{"zip":"30903","fips":"13245","name":"Richmond County","state_id":"GA"},{"zip":"30904","fips":"13245","name":"Richmond County","state_id":"GA"},{"zip":"30905","fips":"13245","name":"Richmond County","state_id":"GA"},{"zip":"30906","fips":"13245","name":"Richmond County","state_id":"GA"},{"zip":"30907","fips":"13073","name":"Columbia County","state_id":"GA"},{"zip":"30907","fips":"13245","name":"Richmond County","state_id":"GA"},{"zip":"30909","fips":"13245","name":"Richmond County","state_id":"GA"},{"zip":"30909","fips":"13073","name":"Columbia County","state_id":"GA"},{"zip":"30912","fips":"13245","name":"Richmond County","state_id":"GA"},{"zip":"30914","fips":"13245","name":"Richmond County","state_id":"GA"},{"zip":"30916","fips":"13245","name":"Richmond County","state_id":"GA"},{"zip":"30917","fips":"13073","name":"Columbia County","state_id":"GA"},{"zip":"30919","fips":"13245","name":"Richmond County","state_id":"GA"}]
