[{"zip":"31001","fips":"13017","name":"Ben Hill County","state_id":"GA"},{"zip":"31001","fips":"13315","name":"Wilcox County","state_id":"GA"},{"zip":"31002","fips":"13283","name":"Treutlen County","state_id":"GA"},{"zip":"31002","fips":"13107","name":"Emanuel County","state_id":"GA"},{"zip":"31002","fips":"13167","name":"Johnson County","state_id":"GA"},{"zip":"31002","fips":"13175","name":"Laurens County","state_id":"GA"},{"zip":"31003","fips":"13319","name":"Wilkinson County","state_id":"GA"},{"zip":"31004","fips":"13207","name":"Monroe County","state_id":"GA"},{"zip":"31005","fips":"13153","name":"Houston County","state_id":"GA"},{"zip":"31006","fips":"13269","name":"Taylor County","state_id":"GA"},{"zip":"31007","fips":"13093","name":"Dooly County","state_id":"GA"},{"zip":"31008","fips":"13153","name":"Houston County","state_id":"GA"},{"zip":"31008","fips":"13225","name":"Peach County","state_id":"GA"},{"zip":"31008","fips":"13079","name":"Crawford County","state_id":"GA"},{"zip":"31009","fips":"13175","name":"Laurens County","state_id":"GA"},{"zip":"31010","fips":"13081","name":"Crisp County","state_id":"GA"},{"zip":"31011","fips":"13271","name":"Telfair County","state_id":"GA"},{"zip":"31011","fips":"13175","name":"Laurens County","state_id":"GA"},{"zip":"31011","fips":"13091","name":"Dodge County","state_id":"GA"},{"zip":"31012","fips":"13091","name":"Dodge County","state_id":"GA"},{"zip":"31012","fips":"13175","name":"Laurens County","state_id":"GA"},{"zip":"31012","fips":"13023","name":"Bleckley County","state_id":"GA"},{"zip":"31013","fips":"13153","name":"Houston County","state_id":"GA"},{"zip":"31014","fips":"13235","name":"Pulaski County","state_id":"GA"},{"zip":"31014","fips":"13289","name":"Twiggs County","state_id":"GA"},{"zip":"31014","fips":"13023","name":"Bleckley County","state_id":"GA"},{"zip":"31014","fips":"13091","name":"Dodge County","state_id":"GA"},{"zip":"31015","fips":"13315","name":"Wilcox County","state_id":"GA"},{"zip":"31015","fips":"13081","name":"Crisp County","state_id":"GA"},{"zip":"31015","fips":"13093","name":"Dooly County","state_id":"GA"},{"zip":"31016","fips":"13079","name":"Crawford County","state_id":"GA"},{"zip":"31016","fips":"13171","name":"Lamar County","state_id":"GA"},{"zip":"31016","fips":"13207","name":"Monroe County","state_id":"GA"},{"zip":"31016","fips":"13293","name":"Upson County","state_id":"GA"},{"zip":"31017","fips":"13023","name":"Bleckley County","state_id":"GA"},{"zip":"31017","fips":"13319","name":"Wilkinson County","state_id":"GA"},{"zip":"31017","fips":"13289","name":"Twiggs County","state_id":"GA"},{"zip":"31018","fips":"13303","name":"Washington County","state_id":"GA"},{"zip":"31019","fips":"13175","name":"Laurens County","state_id":"GA"},{"zip":"31020","fips":"13289","name":"Twiggs County","state_id":"GA"},{"zip":"31020","fips":"13021","name":"Bibb County","state_id":"GA"},{"zip":"31021","fips":"13175","name":"Laurens County","state_id":"GA"},{"zip":"31021","fips":"13319","name":"Wilkinson County","state_id":"GA"},{"zip":"31022","fips":"13091","name":"Dodge County","state_id":"GA"},{"zip":"31022","fips":"13175","name":"Laurens County","state_id":"GA"},{"zip":"31022","fips":"13023","name":"Bleckley County","state_id":"GA"},{"zip":"31023","fips":"13235","name":"Pulaski County","state_id":"GA"},{"zip":"31023","fips":"13091","name":"Dodge County","state_id":"GA"},{"zip":"31023","fips":"13023","name":"Bleckley County","state_id":"GA"},{"zip":"31024","fips":"13159","name":"Jasper County","state_id":"GA"},{"zip":"31024","fips":"13237","name":"Putnam County","state_id":"GA"},{"zip":"31025","fips":"13153","name":"Houston County","state_id":"GA"},{"zip":"31026","fips":"13237","name":"Putnam County","state_id":"GA"},{"zip":"31027","fips":"13175","name":"Laurens County","state_id":"GA"},{"zip":"31028","fips":"13153","name":"Houston County","state_id":"GA"},{"zip":"31029","fips":"13207","name":"Monroe County","state_id":"GA"},{"zip":"31029","fips":"13035","name":"Butts County","state_id":"GA"},{"zip":"31030","fips":"13079","name":"Crawford County","state_id":"GA"},{"zip":"31030","fips":"13193","name":"Macon County","state_id":"GA"},{"zip":"31030","fips":"13225","name":"Peach County","state_id":"GA"},{"zip":"31030","fips":"13153","name":"Houston County","state_id":"GA"},{"zip":"31031","fips":"13009","name":"Baldwin County","state_id":"GA"},{"zip":"31031","fips":"13319","name":"Wilkinson County","state_id":"GA"},{"zip":"31031","fips":"13169","name":"Jones County","state_id":"GA"},{"zip":"31031","fips":"13289","name":"Twiggs County","state_id":"GA"},{"zip":"31032","fips":"13169","name":"Jones County","state_id":"GA"},{"zip":"31033","fips":"13009","name":"Baldwin County","state_id":"GA"},{"zip":"31033","fips":"13169","name":"Jones County","state_id":"GA"},{"zip":"31034","fips":"13009","name":"Baldwin County","state_id":"GA"},{"zip":"31035","fips":"13303","name":"Washington County","state_id":"GA"},{"zip":"31035","fips":"13167","name":"Johnson County","state_id":"GA"},{"zip":"31036","fips":"13093","name":"Dooly County","state_id":"GA"},{"zip":"31036","fips":"13091","name":"Dodge County","state_id":"GA"},{"zip":"31036","fips":"13235","name":"Pulaski County","state_id":"GA"},{"zip":"31036","fips":"13023","name":"Bleckley County","state_id":"GA"},{"zip":"31036","fips":"13153","name":"Houston County","state_id":"GA"},{"zip":"31037","fips":"13175","name":"Laurens County","state_id":"GA"},{"zip":"31037","fips":"13271","name":"Telfair County","state_id":"GA"},{"zip":"31037","fips":"13309","name":"Wheeler County","state_id":"GA"},{"zip":"31037","fips":"13091","name":"Dodge County","state_id":"GA"},{"zip":"31038","fips":"13237","name":"Putnam County","state_id":"GA"},{"zip":"31038","fips":"13159","name":"Jasper County","state_id":"GA"},{"zip":"31038","fips":"13169","name":"Jones County","state_id":"GA"},{"zip":"31039","fips":"13269","name":"Taylor County","state_id":"GA"},{"zip":"31040","fips":"13175","name":"Laurens County","state_id":"GA"},{"zip":"31041","fips":"13269","name":"Taylor County","state_id":"GA"},{"zip":"31041","fips":"13193","name":"Macon County","state_id":"GA"},{"zip":"31042","fips":"13319","name":"Wilkinson County","state_id":"GA"},{"zip":"31042","fips":"13175","name":"Laurens County","state_id":"GA"},{"zip":"31044","fips":"13289","name":"Twiggs County","state_id":"GA"},{"zip":"31044","fips":"13319","name":"Wilkinson County","state_id":"GA"},{"zip":"31045","fips":"13141","name":"Hancock County","state_id":"GA"},{"zip":"31045","fips":"13301","name":"Warren County","state_id":"GA"},{"zip":"31046","fips":"13169","name":"Jones County","state_id":"GA"},{"zip":"31046","fips":"13207","name":"Monroe County","state_id":"GA"},{"zip":"31047","fips":"13153","name":"Houston County","state_id":"GA"},{"zip":"31049","fips":"13107","name":"Emanuel County","state_id":"GA"},{"zip":"31049","fips":"13167","name":"Johnson County","state_id":"GA"},{"zip":"31050","fips":"13079","name":"Crawford County","state_id":"GA"},{"zip":"31051","fips":"13093","name":"Dooly County","state_id":"GA"},{"zip":"31052","fips":"13021","name":"Bibb County","state_id":"GA"},{"zip":"31052","fips":"13079","name":"Crawford County","state_id":"GA"},{"zip":"31054","fips":"13319","name":"Wilkinson County","state_id":"GA"},{"zip":"31055","fips":"13271","name":"Telfair County","state_id":"GA"},{"zip":"31057","fips":"13193","name":"Macon County","state_id":"GA"},{"zip":"31058","fips":"13197","name":"Marion County","state_id":"GA"},{"zip":"31058","fips":"13249","name":"Schley County","state_id":"GA"},{"zip":"31058","fips":"13269","name":"Taylor County","state_id":"GA"},{"zip":"31059","fips":"13009","name":"Baldwin County","state_id":"GA"},{"zip":"31060","fips":"13271","name":"Telfair County","state_id":"GA"},{"zip":"31060","fips":"13091","name":"Dodge County","state_id":"GA"},{"zip":"31061","fips":"13237","name":"Putnam County","state_id":"GA"},{"zip":"31061","fips":"13009","name":"Baldwin County","state_id":"GA"},{"zip":"31061","fips":"13141","name":"Hancock County","state_id":"GA"},{"zip":"31061","fips":"13169","name":"Jones County","state_id":"GA"},{"zip":"31061","fips":"13319","name":"Wilkinson County","state_id":"GA"},{"zip":"31062","fips":"13009","name":"Baldwin County","state_id":"GA"},{"zip":"31063","fips":"13093","name":"Dooly County","state_id":"GA"},{"zip":"31063","fips":"13193","name":"Macon County","state_id":"GA"},{"zip":"31064","fips":"13159","name":"Jasper County","state_id":"GA"},{"zip":"31064","fips":"13217","name":"Newton County","state_id":"GA"},{"zip":"31065","fips":"13319","name":"Wilkinson County","state_id":"GA"},{"zip":"31065","fips":"13023","name":"Bleckley County","state_id":"GA"},{"zip":"31065","fips":"13175","name":"Laurens County","state_id":"GA"},{"zip":"31066","fips":"13021","name":"Bibb County","state_id":"GA"},{"zip":"31066","fips":"13207","name":"Monroe County","state_id":"GA"},{"zip":"31066","fips":"13079","name":"Crawford County","state_id":"GA"},{"zip":"31067","fips":"13303","name":"Washington County","state_id":"GA"},{"zip":"31068","fips":"13269","name":"Taylor County","state_id":"GA"},{"zip":"31068","fips":"13249","name":"Schley County","state_id":"GA"},{"zip":"31068","fips":"13193","name":"Macon County","state_id":"GA"},{"zip":"31069","fips":"13225","name":"Peach County","state_id":"GA"},{"zip":"31069","fips":"13153","name":"Houston County","state_id":"GA"},{"zip":"31069","fips":"13193","name":"Macon County","state_id":"GA"},{"zip":"31070","fips":"13093","name":"Dooly County","state_id":"GA"},{"zip":"31071","fips":"13235","name":"Pulaski County","state_id":"GA"},{"zip":"31071","fips":"13315","name":"Wilcox County","state_id":"GA"},{"zip":"31071","fips":"13093","name":"Dooly County","state_id":"GA"},{"zip":"31072","fips":"13081","name":"Crisp County","state_id":"GA"},{"zip":"31072","fips":"13315","name":"Wilcox County","state_id":"GA"},{"zip":"31072","fips":"13093","name":"Dooly County","state_id":"GA"},{"zip":"31075","fips":"13175","name":"Laurens County","state_id":"GA"},{"zip":"31076","fips":"13269","name":"Taylor County","state_id":"GA"},{"zip":"31076","fips":"13225","name":"Peach County","state_id":"GA"},{"zip":"31076","fips":"13193","name":"Macon County","state_id":"GA"},{"zip":"31077","fips":"13091","name":"Dodge County","state_id":"GA"},{"zip":"31077","fips":"13271","name":"Telfair County","state_id":"GA"},{"zip":"31078","fips":"13079","name":"Crawford County","state_id":"GA"},{"zip":"31079","fips":"13315","name":"Wilcox County","state_id":"GA"},{"zip":"31079","fips":"13081","name":"Crisp County","state_id":"GA"},{"zip":"31079","fips":"13017","name":"Ben Hill County","state_id":"GA"},{"zip":"31081","fips":"13269","name":"Taylor County","state_id":"GA"},{"zip":"31081","fips":"13193","name":"Macon County","state_id":"GA"},{"zip":"31081","fips":"13249","name":"Schley County","state_id":"GA"},{"zip":"31082","fips":"13009","name":"Baldwin County","state_id":"GA"},{"zip":"31082","fips":"13303","name":"Washington County","state_id":"GA"},{"zip":"31083","fips":"13271","name":"Telfair County","state_id":"GA"},{"zip":"31085","fips":"13159","name":"Jasper County","state_id":"GA"},{"zip":"31086","fips":"13207","name":"Monroe County","state_id":"GA"},{"zip":"31087","fips":"13303","name":"Washington County","state_id":"GA"},{"zip":"31087","fips":"13141","name":"Hancock County","state_id":"GA"},{"zip":"31087","fips":"13009","name":"Baldwin County","state_id":"GA"},{"zip":"31088","fips":"13153","name":"Houston County","state_id":"GA"},{"zip":"31089","fips":"13303","name":"Washington County","state_id":"GA"},{"zip":"31089","fips":"13167","name":"Johnson County","state_id":"GA"},{"zip":"31090","fips":"13319","name":"Wilkinson County","state_id":"GA"},{"zip":"31091","fips":"13153","name":"Houston County","state_id":"GA"},{"zip":"31091","fips":"13193","name":"Macon County","state_id":"GA"},{"zip":"31091","fips":"13093","name":"Dooly County","state_id":"GA"},{"zip":"31091","fips":"13235","name":"Pulaski County","state_id":"GA"},{"zip":"31092","fips":"13093","name":"Dooly County","state_id":"GA"},{"zip":"31092","fips":"13081","name":"Crisp County","state_id":"GA"},{"zip":"31092","fips":"13315","name":"Wilcox County","state_id":"GA"},{"zip":"31093","fips":"13153","name":"Houston County","state_id":"GA"},{"zip":"31094","fips":"13303","name":"Washington County","state_id":"GA"},{"zip":"31095","fips":"13153","name":"Houston County","state_id":"GA"},{"zip":"31096","fips":"13303","name":"Washington County","state_id":"GA"},{"zip":"31096","fips":"13175","name":"Laurens County","state_id":"GA"},{"zip":"31096","fips":"13167","name":"Johnson County","state_id":"GA"},{"zip":"31097","fips":"13171","name":"Lamar County","state_id":"GA"},{"zip":"31097","fips":"13293","name":"Upson County","state_id":"GA"},{"zip":"31097","fips":"13207","name":"Monroe County","state_id":"GA"},{"zip":"31098","fips":"13153","name":"Houston County","state_id":"GA"}]
