[{"zip":"31301","fips":"13183","name":"Long County","state_id":"GA"},{"zip":"31301","fips":"13179","name":"Liberty County","state_id":"GA"},{"zip":"31302","fips":"13103","name":"Effingham County","state_id":"GA"},{"zip":"31302","fips":"13029","name":"Bryan County","state_id":"GA"},{"zip":"31302","fips":"13051","name":"Chatham County","state_id":"GA"},{"zip":"31303","fips":"13103","name":"Effingham County","state_id":"GA"},{"zip":"31304","fips":"13191","name":"McIntosh County","state_id":"GA"},{"zip":"31305","fips":"13191","name":"McIntosh County","state_id":"GA"},{"zip":"31307","fips":"13103","name":"Effingham County","state_id":"GA"},{"zip":"31308","fips":"13029","name":"Bryan County","state_id":"GA"},{"zip":"31308","fips":"13031","name":"Bulloch County","state_id":"GA"},{"zip":"31309","fips":"13179","name":"Liberty County","state_id":"GA"},{"zip":"31310","fips":"13179","name":"Liberty County","state_id":"GA"},{"zip":"31312","fips":"13103","name":"Effingham County","state_id":"GA"},{"zip":"31313","fips":"13179","name":"Liberty County","state_id":"GA"},{"zip":"31313","fips":"13183","name":"Long County","state_id":"GA"},{"zip":"31314","fips":"13179","name":"Liberty County","state_id":"GA"},{"zip":"31315","fips":"13179","name":"Liberty County","state_id":"GA"},{"zip":"31316","fips":"13179","name":"Liberty County","state_id":"GA"},{"zip":"31316","fips":"13183","name":"Long County","state_id":"GA"},{"zip":"31318","fips":"13103","name":"Effingham County","state_id":"GA"},{"zip":"31319","fips":"13191","name":"McIntosh County","state_id":"GA"},{"zip":"31320","fips":"13179","name":"Liberty County","state_id":"GA"},{"zip":"31321","fips":"13031","name":"Bulloch County","state_id":"GA"},{"zip":"31321","fips":"13029","name":"Bryan County","state_id":"GA"},{"zip":"31322","fips":"13051","name":"Chatham County","state_id":"GA"},{"zip":"31323","fips":"13191","name":"McIntosh County","state_id":"GA"},{"zip":"31323","fips":"13179","name":"Liberty County","state_id":"GA"},{"zip":"31324","fips":"13029","name":"Bryan County","state_id":"GA"},{"zip":"31326","fips":"13103","name":"Effingham County","state_id":"GA"},{"zip":"31327","fips":"13191","name":"McIntosh County","state_id":"GA"},{"zip":"31328","fips":"13051","name":"Chatham County","state_id":"GA"},{"zip":"31329","fips":"13103","name":"Effingham County","state_id":"GA"},{"zip":"31331","fips":"13191","name":"McIntosh County","state_id":"GA"},{"zip":"31333","fips":"13179","name":"Liberty County","state_id":"GA"}]
