[{"zip":"31401","fips":"13051","name":"Chatham County","state_id":"GA"},{"zip":"31402","fips":"13051","name":"Chatham County","state_id":"GA"},{"zip":"31403","fips":"13051","name":"Chatham County","state_id":"GA"},{"zip":"31404","fips":"13051","name":"Chatham County","state_id":"GA"},{"zip":"31405","fips":"13051","name":"Chatham County","state_id":"GA"},{"zip":"31406","fips":"13051","name":"Chatham County","state_id":"GA"},{"zip":"31407","fips":"13103","name":"Effingham County","state_id":"GA"},{"zip":"31407","fips":"13051","name":"Chatham County","state_id":"GA"},{"zip":"31408","fips":"13051","name":"Chatham County","state_id":"GA"},{"zip":"31409","fips":"13051","name":"Chatham County","state_id":"GA"},{"zip":"31410","fips":"13051","name":"Chatham County","state_id":"GA"},{"zip":"31411","fips":"13051","name":"Chatham County","state_id":"GA"},{"zip":"31412","fips":"13051","name":"Chatham County","state_id":"GA"},{"zip":"31414","fips":"13051","name":"Chatham County","state_id":"GA"},{"zip":"31415","fips":"13051","name":"Chatham County","state_id":"GA"},{"zip":"31416","fips":"13051","name":"Chatham County","state_id":"GA"},{"zip":"31418","fips":"13051","name":"Chatham County","state_id":"GA"},{"zip":"31419","fips":"13051","name":"Chatham County","state_id":"GA"},{"zip":"31420","fips":"13051","name":"Chatham County","state_id":"GA"},{"zip":"31421","fips":"13051","name":"Chatham County","state_id":"GA"}]
