[{"zip":"31501","fips":"13299","name":"Ware County","state_id":"GA"},{"zip":"31502","fips":"13299","name":"Ware County","state_id":"GA"},{"zip":"31503","fips":"13229","name":"Pierce County","state_id":"GA"},{"zip":"31503","fips":"13025","name":"Brantley County","state_id":"GA"},{"zip":"31503","fips":"13299","name":"Ware County","state_id":"GA"},{"zip":"31510","fips":"13229","name":"Pierce County","state_id":"GA"},{"zip":"31510","fips":"13005","name":"Bacon County","state_id":"GA"},{"zip":"31510","fips":"13161","name":"Jeff Davis County","state_id":"GA"},{"zip":"31512","fips":"13069","name":"Coffee County","state_id":"GA"},{"zip":"31512","fips":"13155","name":"Irwin County","state_id":"GA"},{"zip":"31513","fips":"13001","name":"Appling County","state_id":"GA"},{"zip":"31513","fips":"13161","name":"Jeff Davis County","state_id":"GA"},{"zip":"31516","fips":"13229","name":"Pierce County","state_id":"GA"},{"zip":"31518","fips":"13305","name":"Wayne County","state_id":"GA"},{"zip":"31518","fips":"13229","name":"Pierce County","state_id":"GA"},{"zip":"31518","fips":"13005","name":"Bacon County","state_id":"GA"},{"zip":"31518","fips":"13001","name":"Appling County","state_id":"GA"},{"zip":"31519","fips":"13069","name":"Coffee County","state_id":"GA"},{"zip":"31519","fips":"13017","name":"Ben Hill County","state_id":"GA"},{"zip":"31519","fips":"13161","name":"Jeff Davis County","state_id":"GA"},{"zip":"31520","fips":"13127","name":"Glynn County","state_id":"GA"},{"zip":"31521","fips":"13127","name":"Glynn County","state_id":"GA"},{"zip":"31522","fips":"13127","name":"Glynn County","state_id":"GA"},{"zip":"31523","fips":"13127","name":"Glynn County","state_id":"GA"},{"zip":"31524","fips":"13127","name":"Glynn County","state_id":"GA"},{"zip":"31525","fips":"13127","name":"Glynn County","state_id":"GA"},{"zip":"31527","fips":"13127","name":"Glynn County","state_id":"GA"},{"zip":"31532","fips":"13069","name":"Coffee County","state_id":"GA"},{"zip":"31532","fips":"13161","name":"Jeff Davis County","state_id":"GA"},{"zip":"31533","fips":"13069","name":"Coffee County","state_id":"GA"},{"zip":"31534","fips":"13069","name":"Coffee County","state_id":"GA"},{"zip":"31535","fips":"13069","name":"Coffee County","state_id":"GA"},{"zip":"31537","fips":"13039","name":"Camden County","state_id":"GA"},{"zip":"31537","fips":"13049","name":"Charlton County","state_id":"GA"},{"zip":"31537","fips":"13025","name":"Brantley County","state_id":"GA"},{"zip":"31539","fips":"13161","name":"Jeff Davis County","state_id":"GA"},{"zip":"31539","fips":"13001","name":"Appling County","state_id":"GA"},{"zip":"31539","fips":"13005","name":"Bacon County","state_id":"GA"},{"zip":"31542","fips":"13025","name":"Brantley County","state_id":"GA"},{"zip":"31543","fips":"13127","name":"Glynn County","state_id":"GA"},{"zip":"31543","fips":"13305","name":"Wayne County","state_id":"GA"},{"zip":"31543","fips":"13025","name":"Brantley County","state_id":"GA"},{"zip":"31544","fips":"13271","name":"Telfair County","state_id":"GA"},{"zip":"31545","fips":"13305","name":"Wayne County","state_id":"GA"},{"zip":"31546","fips":"13305","name":"Wayne County","state_id":"GA"},{"zip":"31547","fips":"13039","name":"Camden County","state_id":"GA"},{"zip":"31548","fips":"13039","name":"Camden County","state_id":"GA"},{"zip":"31549","fips":"13309","name":"Wheeler County","state_id":"GA"},{"zip":"31549","fips":"13271","name":"Telfair County","state_id":"GA"},{"zip":"31550","fips":"13065","name":"Clinch County","state_id":"GA"},{"zip":"31550","fips":"13299","name":"Ware County","state_id":"GA"},{"zip":"31551","fips":"13005","name":"Bacon County","state_id":"GA"},{"zip":"31551","fips":"13229","name":"Pierce County","state_id":"GA"},{"zip":"31552","fips":"13069","name":"Coffee County","state_id":"GA"},{"zip":"31552","fips":"13299","name":"Ware County","state_id":"GA"},{"zip":"31552","fips":"13003","name":"Atkinson County","state_id":"GA"},{"zip":"31553","fips":"13025","name":"Brantley County","state_id":"GA"},{"zip":"31553","fips":"13049","name":"Charlton County","state_id":"GA"},{"zip":"31554","fips":"13005","name":"Bacon County","state_id":"GA"},{"zip":"31554","fips":"13069","name":"Coffee County","state_id":"GA"},{"zip":"31554","fips":"13299","name":"Ware County","state_id":"GA"},{"zip":"31555","fips":"13001","name":"Appling County","state_id":"GA"},{"zip":"31555","fips":"13305","name":"Wayne County","state_id":"GA"},{"zip":"31556","fips":"13229","name":"Pierce County","state_id":"GA"},{"zip":"31557","fips":"13001","name":"Appling County","state_id":"GA"},{"zip":"31557","fips":"13025","name":"Brantley County","state_id":"GA"},{"zip":"31557","fips":"13229","name":"Pierce County","state_id":"GA"},{"zip":"31558","fips":"13039","name":"Camden County","state_id":"GA"},{"zip":"31560","fips":"13001","name":"Appling County","state_id":"GA"},{"zip":"31560","fips":"13305","name":"Wayne County","state_id":"GA"},{"zip":"31561","fips":"13127","name":"Glynn County","state_id":"GA"},{"zip":"31562","fips":"13049","name":"Charlton County","state_id":"GA"},{"zip":"31563","fips":"13001","name":"Appling County","state_id":"GA"},{"zip":"31564","fips":"13299","name":"Ware County","state_id":"GA"},{"zip":"31565","fips":"13025","name":"Brantley County","state_id":"GA"},{"zip":"31565","fips":"13039","name":"Camden County","state_id":"GA"},{"zip":"31566","fips":"13039","name":"Camden County","state_id":"GA"},{"zip":"31566","fips":"13025","name":"Brantley County","state_id":"GA"},{"zip":"31566","fips":"13127","name":"Glynn County","state_id":"GA"},{"zip":"31567","fips":"13069","name":"Coffee County","state_id":"GA"},{"zip":"31568","fips":"13039","name":"Camden County","state_id":"GA"},{"zip":"31569","fips":"13039","name":"Camden County","state_id":"GA"},{"zip":"31598","fips":"13305","name":"Wayne County","state_id":"GA"},{"zip":"31599","fips":"13305","name":"Wayne County","state_id":"GA"}]
