[{"zip":"31601","fips":"13185","name":"Lowndes County","state_id":"GA"},{"zip":"31602","fips":"13185","name":"Lowndes County","state_id":"GA"},{"zip":"31602","fips":"13027","name":"Brooks County","state_id":"GA"},{"zip":"31603","fips":"13185","name":"Lowndes County","state_id":"GA"},{"zip":"31604","fips":"13185","name":"Lowndes County","state_id":"GA"},{"zip":"31605","fips":"13173","name":"Lanier County","state_id":"GA"},{"zip":"31605","fips":"13185","name":"Lowndes County","state_id":"GA"},{"zip":"31606","fips":"13185","name":"Lowndes County","state_id":"GA"},{"zip":"31620","fips":"13075","name":"Cook County","state_id":"GA"},{"zip":"31622","fips":"13019","name":"Berrien County","state_id":"GA"},{"zip":"31623","fips":"13065","name":"Clinch County","state_id":"GA"},{"zip":"31624","fips":"13003","name":"Atkinson County","state_id":"GA"},{"zip":"31624","fips":"13299","name":"Ware County","state_id":"GA"},{"zip":"31624","fips":"13069","name":"Coffee County","state_id":"GA"},{"zip":"31625","fips":"13027","name":"Brooks County","state_id":"GA"},{"zip":"31626","fips":"13027","name":"Brooks County","state_id":"GA"},{"zip":"31626","fips":"13275","name":"Thomas County","state_id":"GA"},{"zip":"31627","fips":"13075","name":"Cook County","state_id":"GA"},{"zip":"31629","fips":"13275","name":"Thomas County","state_id":"GA"},{"zip":"31629","fips":"13027","name":"Brooks County","state_id":"GA"},{"zip":"31630","fips":"13101","name":"Echols County","state_id":"GA"},{"zip":"31630","fips":"13065","name":"Clinch County","state_id":"GA"},{"zip":"31631","fips":"13065","name":"Clinch County","state_id":"GA"},{"zip":"31631","fips":"13101","name":"Echols County","state_id":"GA"},{"zip":"31631","fips":"13299","name":"Ware County","state_id":"GA"},{"zip":"31631","fips":"13049","name":"Charlton County","state_id":"GA"},{"zip":"31632","fips":"13075","name":"Cook County","state_id":"GA"},{"zip":"31632","fips":"13185","name":"Lowndes County","state_id":"GA"},{"zip":"31634","fips":"13065","name":"Clinch County","state_id":"GA"},{"zip":"31635","fips":"13003","name":"Atkinson County","state_id":"GA"},{"zip":"31635","fips":"13019","name":"Berrien County","state_id":"GA"},{"zip":"31635","fips":"13065","name":"Clinch County","state_id":"GA"},{"zip":"31635","fips":"13173","name":"Lanier County","state_id":"GA"},{"zip":"31635","fips":"13185","name":"Lowndes County","state_id":"GA"},{"zip":"31636","fips":"13101","name":"Echols County","state_id":"GA"},{"zip":"31636","fips":"13185","name":"Lowndes County","state_id":"GA"},{"zip":"31637","fips":"13071","name":"Colquitt County","state_id":"GA"},{"zip":"31637","fips":"13075","name":"Cook County","state_id":"GA"},{"zip":"31637","fips":"13019","name":"Berrien County","state_id":"GA"},{"zip":"31637","fips":"13277","name":"Tift County","state_id":"GA"},{"zip":"31638","fips":"13027","name":"Brooks County","state_id":"GA"},{"zip":"31639","fips":"13019","name":"Berrien County","state_id":"GA"},{"zip":"31639","fips":"13173","name":"Lanier County","state_id":"GA"},{"zip":"31641","fips":"13185","name":"Lowndes County","state_id":"GA"},{"zip":"31641","fips":"13173","name":"Lanier County","state_id":"GA"},{"zip":"31642","fips":"13003","name":"Atkinson County","state_id":"GA"},{"zip":"31642","fips":"13069","name":"Coffee County","state_id":"GA"},{"zip":"31642","fips":"13065","name":"Clinch County","state_id":"GA"},{"zip":"31643","fips":"13027","name":"Brooks County","state_id":"GA"},{"zip":"31645","fips":"13019","name":"Berrien County","state_id":"GA"},{"zip":"31645","fips":"13185","name":"Lowndes County","state_id":"GA"},{"zip":"31645","fips":"13173","name":"Lanier County","state_id":"GA"},{"zip":"31647","fips":"13075","name":"Cook County","state_id":"GA"},{"zip":"31648","fips":"13101","name":"Echols County","state_id":"GA"},{"zip":"31649","fips":"13065","name":"Clinch County","state_id":"GA"},{"zip":"31649","fips":"13173","name":"Lanier County","state_id":"GA"},{"zip":"31649","fips":"13101","name":"Echols County","state_id":"GA"},{"zip":"31650","fips":"13003","name":"Atkinson County","state_id":"GA"},{"zip":"31650","fips":"13069","name":"Coffee County","state_id":"GA"},{"zip":"31698","fips":"13185","name":"Lowndes County","state_id":"GA"},{"zip":"31699","fips":"13185","name":"Lowndes County","state_id":"GA"}]
