[{"zip":"31701","fips":"13095","name":"Dougherty County","state_id":"GA"},{"zip":"31701","fips":"13177","name":"Lee County","state_id":"GA"},{"zip":"31702","fips":"13095","name":"Dougherty County","state_id":"GA"},{"zip":"31703","fips":"13095","name":"Dougherty County","state_id":"GA"},{"zip":"31704","fips":"13095","name":"Dougherty County","state_id":"GA"},{"zip":"31705","fips":"13095","name":"Dougherty County","state_id":"GA"},{"zip":"31705","fips":"13205","name":"Mitchell County","state_id":"GA"},{"zip":"31705","fips":"13321","name":"Worth County","state_id":"GA"},{"zip":"31706","fips":"13095","name":"Dougherty County","state_id":"GA"},{"zip":"31707","fips":"13095","name":"Dougherty County","state_id":"GA"},{"zip":"31707","fips":"13177","name":"Lee County","state_id":"GA"},{"zip":"31708","fips":"13095","name":"Dougherty County","state_id":"GA"},{"zip":"31709","fips":"13261","name":"Sumter County","state_id":"GA"},{"zip":"31711","fips":"13249","name":"Schley County","state_id":"GA"},{"zip":"31711","fips":"13193","name":"Macon County","state_id":"GA"},{"zip":"31711","fips":"13261","name":"Sumter County","state_id":"GA"},{"zip":"31712","fips":"13321","name":"Worth County","state_id":"GA"},{"zip":"31712","fips":"13287","name":"Turner County","state_id":"GA"},{"zip":"31712","fips":"13081","name":"Crisp County","state_id":"GA"},{"zip":"31714","fips":"13287","name":"Turner County","state_id":"GA"},{"zip":"31714","fips":"13081","name":"Crisp County","state_id":"GA"},{"zip":"31714","fips":"13321","name":"Worth County","state_id":"GA"},{"zip":"31714","fips":"13277","name":"Tift County","state_id":"GA"},{"zip":"31716","fips":"13205","name":"Mitchell County","state_id":"GA"},{"zip":"31719","fips":"13249","name":"Schley County","state_id":"GA"},{"zip":"31719","fips":"13261","name":"Sumter County","state_id":"GA"},{"zip":"31720","fips":"13275","name":"Thomas County","state_id":"GA"},{"zip":"31721","fips":"13273","name":"Terrell County","state_id":"GA"},{"zip":"31721","fips":"13177","name":"Lee County","state_id":"GA"},{"zip":"31721","fips":"13095","name":"Dougherty County","state_id":"GA"},{"zip":"31721","fips":"13007","name":"Baker County","state_id":"GA"},{"zip":"31722","fips":"13071","name":"Colquitt County","state_id":"GA"},{"zip":"31727","fips":"13277","name":"Tift County","state_id":"GA"},{"zip":"31730","fips":"13131","name":"Grady County","state_id":"GA"},{"zip":"31730","fips":"13071","name":"Colquitt County","state_id":"GA"},{"zip":"31730","fips":"13205","name":"Mitchell County","state_id":"GA"},{"zip":"31730","fips":"13087","name":"Decatur County","state_id":"GA"},{"zip":"31733","fips":"13277","name":"Tift County","state_id":"GA"},{"zip":"31733","fips":"13155","name":"Irwin County","state_id":"GA"},{"zip":"31735","fips":"13261","name":"Sumter County","state_id":"GA"},{"zip":"31738","fips":"13275","name":"Thomas County","state_id":"GA"},{"zip":"31738","fips":"13071","name":"Colquitt County","state_id":"GA"},{"zip":"31743","fips":"13177","name":"Lee County","state_id":"GA"},{"zip":"31743","fips":"13261","name":"Sumter County","state_id":"GA"},{"zip":"31744","fips":"13071","name":"Colquitt County","state_id":"GA"},{"zip":"31744","fips":"13321","name":"Worth County","state_id":"GA"},{"zip":"31744","fips":"13205","name":"Mitchell County","state_id":"GA"},{"zip":"31747","fips":"13071","name":"Colquitt County","state_id":"GA"},{"zip":"31749","fips":"13155","name":"Irwin County","state_id":"GA"},{"zip":"31749","fips":"13277","name":"Tift County","state_id":"GA"},{"zip":"31749","fips":"13019","name":"Berrien County","state_id":"GA"},{"zip":"31750","fips":"13315","name":"Wilcox County","state_id":"GA"},{"zip":"31750","fips":"13155","name":"Irwin County","state_id":"GA"},{"zip":"31750","fips":"13017","name":"Ben Hill County","state_id":"GA"},{"zip":"31753","fips":"13071","name":"Colquitt County","state_id":"GA"},{"zip":"31756","fips":"13071","name":"Colquitt County","state_id":"GA"},{"zip":"31757","fips":"13275","name":"Thomas County","state_id":"GA"},{"zip":"31763","fips":"13177","name":"Lee County","state_id":"GA"},{"zip":"31763","fips":"13095","name":"Dougherty County","state_id":"GA"},{"zip":"31764","fips":"13261","name":"Sumter County","state_id":"GA"},{"zip":"31764","fips":"13177","name":"Lee County","state_id":"GA"},{"zip":"31765","fips":"13275","name":"Thomas County","state_id":"GA"},{"zip":"31765","fips":"13071","name":"Colquitt County","state_id":"GA"},{"zip":"31765","fips":"13131","name":"Grady County","state_id":"GA"},{"zip":"31765","fips":"13205","name":"Mitchell County","state_id":"GA"},{"zip":"31768","fips":"13321","name":"Worth County","state_id":"GA"},{"zip":"31768","fips":"13071","name":"Colquitt County","state_id":"GA"},{"zip":"31769","fips":"13155","name":"Irwin County","state_id":"GA"},{"zip":"31771","fips":"13321","name":"Worth County","state_id":"GA"},{"zip":"31771","fips":"13071","name":"Colquitt County","state_id":"GA"},{"zip":"31772","fips":"13321","name":"Worth County","state_id":"GA"},{"zip":"31773","fips":"13071","name":"Colquitt County","state_id":"GA"},{"zip":"31773","fips":"13131","name":"Grady County","state_id":"GA"},{"zip":"31773","fips":"13275","name":"Thomas County","state_id":"GA"},{"zip":"31774","fips":"13069","name":"Coffee County","state_id":"GA"},{"zip":"31774","fips":"13019","name":"Berrien County","state_id":"GA"},{"zip":"31774","fips":"13155","name":"Irwin County","state_id":"GA"},{"zip":"31775","fips":"13321","name":"Worth County","state_id":"GA"},{"zip":"31775","fips":"13277","name":"Tift County","state_id":"GA"},{"zip":"31775","fips":"13071","name":"Colquitt County","state_id":"GA"},{"zip":"31776","fips":"13071","name":"Colquitt County","state_id":"GA"},{"zip":"31778","fips":"13275","name":"Thomas County","state_id":"GA"},{"zip":"31778","fips":"13027","name":"Brooks County","state_id":"GA"},{"zip":"31778","fips":"13071","name":"Colquitt County","state_id":"GA"},{"zip":"31779","fips":"13275","name":"Thomas County","state_id":"GA"},{"zip":"31779","fips":"13131","name":"Grady County","state_id":"GA"},{"zip":"31779","fips":"13205","name":"Mitchell County","state_id":"GA"},{"zip":"31780","fips":"13261","name":"Sumter County","state_id":"GA"},{"zip":"31780","fips":"13307","name":"Webster County","state_id":"GA"},{"zip":"31781","fips":"13321","name":"Worth County","state_id":"GA"},{"zip":"31782","fips":"13095","name":"Dougherty County","state_id":"GA"},{"zip":"31783","fips":"13017","name":"Ben Hill County","state_id":"GA"},{"zip":"31783","fips":"13155","name":"Irwin County","state_id":"GA"},{"zip":"31783","fips":"13287","name":"Turner County","state_id":"GA"},{"zip":"31784","fips":"13205","name":"Mitchell County","state_id":"GA"},{"zip":"31784","fips":"13071","name":"Colquitt County","state_id":"GA"},{"zip":"31787","fips":"13261","name":"Sumter County","state_id":"GA"},{"zip":"31787","fips":"13177","name":"Lee County","state_id":"GA"},{"zip":"31788","fips":"13071","name":"Colquitt County","state_id":"GA"},{"zip":"31788","fips":"13027","name":"Brooks County","state_id":"GA"},{"zip":"31789","fips":"13071","name":"Colquitt County","state_id":"GA"},{"zip":"31789","fips":"13287","name":"Turner County","state_id":"GA"},{"zip":"31789","fips":"13321","name":"Worth County","state_id":"GA"},{"zip":"31790","fips":"13287","name":"Turner County","state_id":"GA"},{"zip":"31790","fips":"13277","name":"Tift County","state_id":"GA"},{"zip":"31790","fips":"13155","name":"Irwin County","state_id":"GA"},{"zip":"31791","fips":"13095","name":"Dougherty County","state_id":"GA"},{"zip":"31791","fips":"13321","name":"Worth County","state_id":"GA"},{"zip":"31792","fips":"13275","name":"Thomas County","state_id":"GA"},{"zip":"31792","fips":"13131","name":"Grady County","state_id":"GA"},{"zip":"31793","fips":"13277","name":"Tift County","state_id":"GA"},{"zip":"31794","fips":"13019","name":"Berrien County","state_id":"GA"},{"zip":"31794","fips":"13277","name":"Tift County","state_id":"GA"},{"zip":"31795","fips":"13277","name":"Tift County","state_id":"GA"},{"zip":"31795","fips":"13321","name":"Worth County","state_id":"GA"},{"zip":"31796","fips":"13081","name":"Crisp County","state_id":"GA"},{"zip":"31796","fips":"13321","name":"Worth County","state_id":"GA"},{"zip":"31798","fips":"13155","name":"Irwin County","state_id":"GA"},{"zip":"31798","fips":"13069","name":"Coffee County","state_id":"GA"},{"zip":"31798","fips":"13017","name":"Ben Hill County","state_id":"GA"},{"zip":"31799","fips":"13275","name":"Thomas County","state_id":"GA"}]
