[{"zip":"31801","fips":"13263","name":"Talbot County","state_id":"GA"},{"zip":"31801","fips":"13215","name":"Muscogee County","state_id":"GA"},{"zip":"31801","fips":"13197","name":"Marion County","state_id":"GA"},{"zip":"31803","fips":"13307","name":"Webster County","state_id":"GA"},{"zip":"31803","fips":"13249","name":"Schley County","state_id":"GA"},{"zip":"31803","fips":"13197","name":"Marion County","state_id":"GA"},{"zip":"31804","fips":"13215","name":"Muscogee County","state_id":"GA"},{"zip":"31804","fips":"13145","name":"Harris County","state_id":"GA"},{"zip":"31805","fips":"13053","name":"Chattahoochee County","state_id":"GA"},{"zip":"31805","fips":"13259","name":"Stewart County","state_id":"GA"},{"zip":"31805","fips":"13197","name":"Marion County","state_id":"GA"},{"zip":"31806","fips":"13249","name":"Schley County","state_id":"GA"},{"zip":"31806","fips":"13193","name":"Macon County","state_id":"GA"},{"zip":"31806","fips":"13261","name":"Sumter County","state_id":"GA"},{"zip":"31807","fips":"13145","name":"Harris County","state_id":"GA"},{"zip":"31808","fips":"13215","name":"Muscogee County","state_id":"GA"},{"zip":"31808","fips":"13145","name":"Harris County","state_id":"GA"},{"zip":"31810","fips":"13263","name":"Talbot County","state_id":"GA"},{"zip":"31811","fips":"13145","name":"Harris County","state_id":"GA"},{"zip":"31812","fips":"13269","name":"Taylor County","state_id":"GA"},{"zip":"31812","fips":"13263","name":"Talbot County","state_id":"GA"},{"zip":"31815","fips":"13259","name":"Stewart County","state_id":"GA"},{"zip":"31816","fips":"13199","name":"Meriwether County","state_id":"GA"},{"zip":"31816","fips":"13263","name":"Talbot County","state_id":"GA"},{"zip":"31820","fips":"13145","name":"Harris County","state_id":"GA"},{"zip":"31820","fips":"13215","name":"Muscogee County","state_id":"GA"},{"zip":"31821","fips":"13259","name":"Stewart County","state_id":"GA"},{"zip":"31822","fips":"13199","name":"Meriwether County","state_id":"GA"},{"zip":"31822","fips":"13145","name":"Harris County","state_id":"GA"},{"zip":"31822","fips":"13285","name":"Troup County","state_id":"GA"},{"zip":"31823","fips":"13145","name":"Harris County","state_id":"GA"},{"zip":"31824","fips":"13307","name":"Webster County","state_id":"GA"},{"zip":"31824","fips":"13197","name":"Marion County","state_id":"GA"},{"zip":"31825","fips":"13259","name":"Stewart County","state_id":"GA"},{"zip":"31825","fips":"13307","name":"Webster County","state_id":"GA"},{"zip":"31826","fips":"13145","name":"Harris County","state_id":"GA"},{"zip":"31826","fips":"13263","name":"Talbot County","state_id":"GA"},{"zip":"31827","fips":"13263","name":"Talbot County","state_id":"GA"},{"zip":"31829","fips":"13145","name":"Harris County","state_id":"GA"},{"zip":"31829","fips":"13215","name":"Muscogee County","state_id":"GA"},{"zip":"31830","fips":"13145","name":"Harris County","state_id":"GA"},{"zip":"31830","fips":"13199","name":"Meriwether County","state_id":"GA"},{"zip":"31831","fips":"13145","name":"Harris County","state_id":"GA"},{"zip":"31831","fips":"13263","name":"Talbot County","state_id":"GA"},{"zip":"31832","fips":"13307","name":"Webster County","state_id":"GA"},{"zip":"31833","fips":"13285","name":"Troup County","state_id":"GA"},{"zip":"31833","fips":"13145","name":"Harris County","state_id":"GA"},{"zip":"31836","fips":"13263","name":"Talbot County","state_id":"GA"}]
