[{"zip":"31901","fips":"13215","name":"Muscogee County","state_id":"GA"},{"zip":"31902","fips":"13215","name":"Muscogee County","state_id":"GA"},{"zip":"31903","fips":"13215","name":"Muscogee County","state_id":"GA"},{"zip":"31904","fips":"13215","name":"Muscogee County","state_id":"GA"},{"zip":"31905","fips":"13053","name":"Chattahoochee County","state_id":"GA"},{"zip":"31905","fips":"13215","name":"Muscogee County","state_id":"GA"},{"zip":"31906","fips":"13215","name":"Muscogee County","state_id":"GA"},{"zip":"31907","fips":"13215","name":"Muscogee County","state_id":"GA"},{"zip":"31908","fips":"13215","name":"Muscogee County","state_id":"GA"},{"zip":"31909","fips":"13215","name":"Muscogee County","state_id":"GA"},{"zip":"31914","fips":"13215","name":"Muscogee County","state_id":"GA"},{"zip":"31917","fips":"13215","name":"Muscogee County","state_id":"GA"},{"zip":"31995","fips":"13053","name":"Chattahoochee County","state_id":"GA"},{"zip":"31998","fips":"13215","name":"Muscogee County","state_id":"GA"},{"zip":"31999","fips":"13215","name":"Muscogee County","state_id":"GA"}]
