[{"zip":"32003","fips":"12019","name":"Clay County","state_id":"FL"},{"zip":"32004","fips":"12109","name":"St. Johns County","state_id":"FL"},{"zip":"32006","fips":"12019","name":"Clay County","state_id":"FL"},{"zip":"32007","fips":"12107","name":"Putnam County","state_id":"FL"},{"zip":"32008","fips":"12029","name":"Dixie County","state_id":"FL"},{"zip":"32008","fips":"12121","name":"Suwannee County","state_id":"FL"},{"zip":"32008","fips":"12067","name":"Lafayette County","state_id":"FL"},{"zip":"32008","fips":"12041","name":"Gilchrist County","state_id":"FL"},{"zip":"32009","fips":"12089","name":"Nassau County","state_id":"FL"},{"zip":"32011","fips":"12089","name":"Nassau County","state_id":"FL"},{"zip":"32024","fips":"12121","name":"Suwannee County","state_id":"FL"},{"zip":"32024","fips":"12023","name":"Columbia County","state_id":"FL"},{"zip":"32025","fips":"12023","name":"Columbia County","state_id":"FL"},{"zip":"32026","fips":"12007","name":"Bradford County","state_id":"FL"},{"zip":"32033","fips":"12109","name":"St. Johns County","state_id":"FL"},{"zip":"32034","fips":"12089","name":"Nassau County","state_id":"FL"},{"zip":"32035","fips":"12089","name":"Nassau County","state_id":"FL"},{"zip":"32038","fips":"12023","name":"Columbia County","state_id":"FL"},{"zip":"32038","fips":"12121","name":"Suwannee County","state_id":"FL"},{"zip":"32040","fips":"12003","name":"Baker County","state_id":"FL"},{"zip":"32041","fips":"12089","name":"Nassau County","state_id":"FL"},{"zip":"32042","fips":"12007","name":"Bradford County","state_id":"FL"},{"zip":"32043","fips":"12107","name":"Putnam County","state_id":"FL"},{"zip":"32043","fips":"12019","name":"Clay County","state_id":"FL"},{"zip":"32044","fips":"12001","name":"Alachua County","state_id":"FL"},{"zip":"32044","fips":"12007","name":"Bradford County","state_id":"FL"},{"zip":"32046","fips":"12089","name":"Nassau County","state_id":"FL"},{"zip":"32050","fips":"12019","name":"Clay County","state_id":"FL"},{"zip":"32052","fips":"12047","name":"Hamilton County","state_id":"FL"},{"zip":"32053","fips":"12047","name":"Hamilton County","state_id":"FL"},{"zip":"32054","fips":"12007","name":"Bradford County","state_id":"FL"},{"zip":"32054","fips":"12125","name":"Union County","state_id":"FL"},{"zip":"32055","fips":"12121","name":"Suwannee County","state_id":"FL"},{"zip":"32055","fips":"12023","name":"Columbia County","state_id":"FL"},{"zip":"32056","fips":"12023","name":"Columbia County","state_id":"FL"},{"zip":"32058","fips":"12007","name":"Bradford County","state_id":"FL"},{"zip":"32058","fips":"12019","name":"Clay County","state_id":"FL"},{"zip":"32058","fips":"12125","name":"Union County","state_id":"FL"},{"zip":"32059","fips":"12079","name":"Madison County","state_id":"FL"},{"zip":"32060","fips":"12121","name":"Suwannee County","state_id":"FL"},{"zip":"32061","fips":"12023","name":"Columbia County","state_id":"FL"},{"zip":"32062","fips":"12121","name":"Suwannee County","state_id":"FL"},{"zip":"32063","fips":"12003","name":"Baker County","state_id":"FL"},{"zip":"32064","fips":"12121","name":"Suwannee County","state_id":"FL"},{"zip":"32065","fips":"12019","name":"Clay County","state_id":"FL"},{"zip":"32066","fips":"12067","name":"Lafayette County","state_id":"FL"},{"zip":"32067","fips":"12019","name":"Clay County","state_id":"FL"},{"zip":"32068","fips":"12019","name":"Clay County","state_id":"FL"},{"zip":"32071","fips":"12121","name":"Suwannee County","state_id":"FL"},{"zip":"32073","fips":"12019","name":"Clay County","state_id":"FL"},{"zip":"32073","fips":"12031","name":"Duval County","state_id":"FL"},{"zip":"32079","fips":"12019","name":"Clay County","state_id":"FL"},{"zip":"32080","fips":"12035","name":"Flagler County","state_id":"FL"},{"zip":"32080","fips":"12109","name":"St. Johns County","state_id":"FL"},{"zip":"32081","fips":"12109","name":"St. Johns County","state_id":"FL"},{"zip":"32081","fips":"12031","name":"Duval County","state_id":"FL"},{"zip":"32082","fips":"12109","name":"St. Johns County","state_id":"FL"},{"zip":"32082","fips":"12031","name":"Duval County","state_id":"FL"},{"zip":"32083","fips":"12125","name":"Union County","state_id":"FL"},{"zip":"32083","fips":"12007","name":"Bradford County","state_id":"FL"},{"zip":"32084","fips":"12109","name":"St. Johns County","state_id":"FL"},{"zip":"32085","fips":"12109","name":"St. Johns County","state_id":"FL"},{"zip":"32086","fips":"12109","name":"St. Johns County","state_id":"FL"},{"zip":"32086","fips":"12035","name":"Flagler County","state_id":"FL"},{"zip":"32087","fips":"12003","name":"Baker County","state_id":"FL"},{"zip":"32087","fips":"12023","name":"Columbia County","state_id":"FL"},{"zip":"32091","fips":"12007","name":"Bradford County","state_id":"FL"},{"zip":"32091","fips":"12019","name":"Clay County","state_id":"FL"},{"zip":"32092","fips":"12109","name":"St. Johns County","state_id":"FL"},{"zip":"32094","fips":"12121","name":"Suwannee County","state_id":"FL"},{"zip":"32094","fips":"12023","name":"Columbia County","state_id":"FL"},{"zip":"32095","fips":"12109","name":"St. Johns County","state_id":"FL"},{"zip":"32096","fips":"12047","name":"Hamilton County","state_id":"FL"},{"zip":"32096","fips":"12121","name":"Suwannee County","state_id":"FL"},{"zip":"32096","fips":"12023","name":"Columbia County","state_id":"FL"},{"zip":"32097","fips":"12089","name":"Nassau County","state_id":"FL"},{"zip":"32099","fips":"12031","name":"Duval County","state_id":"FL"}]
