[{"zip":"32102","fips":"12069","name":"Lake County","state_id":"FL"},{"zip":"32102","fips":"12127","name":"Volusia County","state_id":"FL"},{"zip":"32105","fips":"12127","name":"Volusia County","state_id":"FL"},{"zip":"32110","fips":"12035","name":"Flagler County","state_id":"FL"},{"zip":"32111","fips":"12083","name":"Marion County","state_id":"FL"},{"zip":"32112","fips":"12127","name":"Volusia County","state_id":"FL"},{"zip":"32112","fips":"12107","name":"Putnam County","state_id":"FL"},{"zip":"32113","fips":"12083","name":"Marion County","state_id":"FL"},{"zip":"32114","fips":"12127","name":"Volusia County","state_id":"FL"},{"zip":"32115","fips":"12127","name":"Volusia County","state_id":"FL"},{"zip":"32117","fips":"12127","name":"Volusia County","state_id":"FL"},{"zip":"32118","fips":"12127","name":"Volusia County","state_id":"FL"},{"zip":"32119","fips":"12127","name":"Volusia County","state_id":"FL"},{"zip":"32120","fips":"12127","name":"Volusia County","state_id":"FL"},{"zip":"32121","fips":"12127","name":"Volusia County","state_id":"FL"},{"zip":"32122","fips":"12127","name":"Volusia County","state_id":"FL"},{"zip":"32124","fips":"12127","name":"Volusia County","state_id":"FL"},{"zip":"32125","fips":"12127","name":"Volusia County","state_id":"FL"},{"zip":"32126","fips":"12127","name":"Volusia County","state_id":"FL"},{"zip":"32127","fips":"12127","name":"Volusia County","state_id":"FL"},{"zip":"32128","fips":"12127","name":"Volusia County","state_id":"FL"},{"zip":"32129","fips":"12127","name":"Volusia County","state_id":"FL"},{"zip":"32130","fips":"12127","name":"Volusia County","state_id":"FL"},{"zip":"32131","fips":"12107","name":"Putnam County","state_id":"FL"},{"zip":"32131","fips":"12109","name":"St. Johns County","state_id":"FL"},{"zip":"32132","fips":"12127","name":"Volusia County","state_id":"FL"},{"zip":"32133","fips":"12083","name":"Marion County","state_id":"FL"},{"zip":"32134","fips":"12107","name":"Putnam County","state_id":"FL"},{"zip":"32134","fips":"12083","name":"Marion County","state_id":"FL"},{"zip":"32134","fips":"12069","name":"Lake County","state_id":"FL"},{"zip":"32135","fips":"12035","name":"Flagler County","state_id":"FL"},{"zip":"32136","fips":"12127","name":"Volusia County","state_id":"FL"},{"zip":"32136","fips":"12035","name":"Flagler County","state_id":"FL"},{"zip":"32137","fips":"12035","name":"Flagler County","state_id":"FL"},{"zip":"32138","fips":"12107","name":"Putnam County","state_id":"FL"},{"zip":"32139","fips":"12107","name":"Putnam County","state_id":"FL"},{"zip":"32140","fips":"12107","name":"Putnam County","state_id":"FL"},{"zip":"32140","fips":"12019","name":"Clay County","state_id":"FL"},{"zip":"32141","fips":"12127","name":"Volusia County","state_id":"FL"},{"zip":"32143","fips":"12035","name":"Flagler County","state_id":"FL"},{"zip":"32145","fips":"12109","name":"St. Johns County","state_id":"FL"},{"zip":"32145","fips":"12035","name":"Flagler County","state_id":"FL"},{"zip":"32145","fips":"12107","name":"Putnam County","state_id":"FL"},{"zip":"32147","fips":"12107","name":"Putnam County","state_id":"FL"},{"zip":"32148","fips":"12107","name":"Putnam County","state_id":"FL"},{"zip":"32158","fips":"12069","name":"Lake County","state_id":"FL"},{"zip":"32159","fips":"12069","name":"Lake County","state_id":"FL"},{"zip":"32159","fips":"12119","name":"Sumter County","state_id":"FL"},{"zip":"32160","fips":"12019","name":"Clay County","state_id":"FL"},{"zip":"32162","fips":"12069","name":"Lake County","state_id":"FL"},{"zip":"32162","fips":"12119","name":"Sumter County","state_id":"FL"},{"zip":"32162","fips":"12083","name":"Marion County","state_id":"FL"},{"zip":"32163","fips":"12069","name":"Lake County","state_id":"FL"},{"zip":"32163","fips":"12119","name":"Sumter County","state_id":"FL"},{"zip":"32164","fips":"12035","name":"Flagler County","state_id":"FL"},{"zip":"32168","fips":"12127","name":"Volusia County","state_id":"FL"},{"zip":"32169","fips":"12127","name":"Volusia County","state_id":"FL"},{"zip":"32170","fips":"12127","name":"Volusia County","state_id":"FL"},{"zip":"32173","fips":"12127","name":"Volusia County","state_id":"FL"},{"zip":"32174","fips":"12127","name":"Volusia County","state_id":"FL"},{"zip":"32174","fips":"12035","name":"Flagler County","state_id":"FL"},{"zip":"32175","fips":"12127","name":"Volusia County","state_id":"FL"},{"zip":"32176","fips":"12127","name":"Volusia County","state_id":"FL"},{"zip":"32177","fips":"12107","name":"Putnam County","state_id":"FL"},{"zip":"32179","fips":"12083","name":"Marion County","state_id":"FL"},{"zip":"32180","fips":"12127","name":"Volusia County","state_id":"FL"},{"zip":"32181","fips":"12107","name":"Putnam County","state_id":"FL"},{"zip":"32182","fips":"12083","name":"Marion County","state_id":"FL"},{"zip":"32185","fips":"12107","name":"Putnam County","state_id":"FL"},{"zip":"32187","fips":"12107","name":"Putnam County","state_id":"FL"},{"zip":"32189","fips":"12107","name":"Putnam County","state_id":"FL"},{"zip":"32190","fips":"12127","name":"Volusia County","state_id":"FL"},{"zip":"32192","fips":"12083","name":"Marion County","state_id":"FL"},{"zip":"32193","fips":"12107","name":"Putnam County","state_id":"FL"},{"zip":"32195","fips":"12069","name":"Lake County","state_id":"FL"},{"zip":"32195","fips":"12083","name":"Marion County","state_id":"FL"},{"zip":"32198","fips":"12127","name":"Volusia County","state_id":"FL"}]
