[{"zip":"32202","fips":"12031","name":"Duval County","state_id":"FL"},{"zip":"32203","fips":"12031","name":"Duval County","state_id":"FL"},{"zip":"32204","fips":"12031","name":"Duval County","state_id":"FL"},{"zip":"32205","fips":"12031","name":"Duval County","state_id":"FL"},{"zip":"32206","fips":"12031","name":"Duval County","state_id":"FL"},{"zip":"32207","fips":"12031","name":"Duval County","state_id":"FL"},{"zip":"32208","fips":"12031","name":"Duval County","state_id":"FL"},{"zip":"32209","fips":"12031","name":"Duval County","state_id":"FL"},{"zip":"32210","fips":"12031","name":"Duval County","state_id":"FL"},{"zip":"32211","fips":"12031","name":"Duval County","state_id":"FL"},{"zip":"32212","fips":"12031","name":"Duval County","state_id":"FL"},{"zip":"32214","fips":"12031","name":"Duval County","state_id":"FL"},{"zip":"32216","fips":"12031","name":"Duval County","state_id":"FL"},{"zip":"32217","fips":"12031","name":"Duval County","state_id":"FL"},{"zip":"32218","fips":"12031","name":"Duval County","state_id":"FL"},{"zip":"32219","fips":"12031","name":"Duval County","state_id":"FL"},{"zip":"32220","fips":"12031","name":"Duval County","state_id":"FL"},{"zip":"32221","fips":"12031","name":"Duval County","state_id":"FL"},{"zip":"32222","fips":"12031","name":"Duval County","state_id":"FL"},{"zip":"32223","fips":"12031","name":"Duval County","state_id":"FL"},{"zip":"32224","fips":"12031","name":"Duval County","state_id":"FL"},{"zip":"32224","fips":"12109","name":"St. Johns County","state_id":"FL"},{"zip":"32225","fips":"12031","name":"Duval County","state_id":"FL"},{"zip":"32226","fips":"12031","name":"Duval County","state_id":"FL"},{"zip":"32227","fips":"12031","name":"Duval County","state_id":"FL"},{"zip":"32228","fips":"12031","name":"Duval County","state_id":"FL"},{"zip":"32229","fips":"12031","name":"Duval County","state_id":"FL"},{"zip":"32233","fips":"12031","name":"Duval County","state_id":"FL"},{"zip":"32234","fips":"12019","name":"Clay County","state_id":"FL"},{"zip":"32234","fips":"12031","name":"Duval County","state_id":"FL"},{"zip":"32234","fips":"12003","name":"Baker County","state_id":"FL"},{"zip":"32234","fips":"12089","name":"Nassau County","state_id":"FL"},{"zip":"32235","fips":"12031","name":"Duval County","state_id":"FL"},{"zip":"32236","fips":"12031","name":"Duval County","state_id":"FL"},{"zip":"32238","fips":"12031","name":"Duval County","state_id":"FL"},{"zip":"32239","fips":"12031","name":"Duval County","state_id":"FL"},{"zip":"32240","fips":"12031","name":"Duval County","state_id":"FL"},{"zip":"32241","fips":"12031","name":"Duval County","state_id":"FL"},{"zip":"32244","fips":"12031","name":"Duval County","state_id":"FL"},{"zip":"32245","fips":"12031","name":"Duval County","state_id":"FL"},{"zip":"32246","fips":"12031","name":"Duval County","state_id":"FL"},{"zip":"32247","fips":"12031","name":"Duval County","state_id":"FL"},{"zip":"32250","fips":"12031","name":"Duval County","state_id":"FL"},{"zip":"32250","fips":"12109","name":"St. Johns County","state_id":"FL"},{"zip":"32254","fips":"12031","name":"Duval County","state_id":"FL"},{"zip":"32255","fips":"12031","name":"Duval County","state_id":"FL"},{"zip":"32256","fips":"12031","name":"Duval County","state_id":"FL"},{"zip":"32257","fips":"12031","name":"Duval County","state_id":"FL"},{"zip":"32258","fips":"12031","name":"Duval County","state_id":"FL"},{"zip":"32259","fips":"12109","name":"St. Johns County","state_id":"FL"},{"zip":"32259","fips":"12031","name":"Duval County","state_id":"FL"},{"zip":"32260","fips":"12109","name":"St. Johns County","state_id":"FL"},{"zip":"32266","fips":"12031","name":"Duval County","state_id":"FL"},{"zip":"32277","fips":"12031","name":"Duval County","state_id":"FL"}]
