[{"zip":"32301","fips":"12073","name":"Leon County","state_id":"FL"},{"zip":"32302","fips":"12073","name":"Leon County","state_id":"FL"},{"zip":"32303","fips":"12073","name":"Leon County","state_id":"FL"},{"zip":"32304","fips":"12073","name":"Leon County","state_id":"FL"},{"zip":"32305","fips":"12073","name":"Leon County","state_id":"FL"},{"zip":"32306","fips":"12073","name":"Leon County","state_id":"FL"},{"zip":"32307","fips":"12073","name":"Leon County","state_id":"FL"},{"zip":"32308","fips":"12073","name":"Leon County","state_id":"FL"},{"zip":"32309","fips":"12073","name":"Leon County","state_id":"FL"},{"zip":"32309","fips":"12065","name":"Jefferson County","state_id":"FL"},{"zip":"32310","fips":"12073","name":"Leon County","state_id":"FL"},{"zip":"32311","fips":"12073","name":"Leon County","state_id":"FL"},{"zip":"32312","fips":"12073","name":"Leon County","state_id":"FL"},{"zip":"32313","fips":"12073","name":"Leon County","state_id":"FL"},{"zip":"32314","fips":"12073","name":"Leon County","state_id":"FL"},{"zip":"32315","fips":"12073","name":"Leon County","state_id":"FL"},{"zip":"32316","fips":"12073","name":"Leon County","state_id":"FL"},{"zip":"32317","fips":"12073","name":"Leon County","state_id":"FL"},{"zip":"32318","fips":"12073","name":"Leon County","state_id":"FL"},{"zip":"32320","fips":"12037","name":"Franklin County","state_id":"FL"},{"zip":"32321","fips":"12037","name":"Franklin County","state_id":"FL"},{"zip":"32321","fips":"12077","name":"Liberty County","state_id":"FL"},{"zip":"32322","fips":"12037","name":"Franklin County","state_id":"FL"},{"zip":"32324","fips":"12039","name":"Gadsden County","state_id":"FL"},{"zip":"32326","fips":"12129","name":"Wakulla County","state_id":"FL"},{"zip":"32327","fips":"12129","name":"Wakulla County","state_id":"FL"},{"zip":"32327","fips":"12073","name":"Leon County","state_id":"FL"},{"zip":"32328","fips":"12037","name":"Franklin County","state_id":"FL"},{"zip":"32330","fips":"12039","name":"Gadsden County","state_id":"FL"},{"zip":"32331","fips":"12065","name":"Jefferson County","state_id":"FL"},{"zip":"32331","fips":"12079","name":"Madison County","state_id":"FL"},{"zip":"32331","fips":"12123","name":"Taylor County","state_id":"FL"},{"zip":"32332","fips":"12039","name":"Gadsden County","state_id":"FL"},{"zip":"32333","fips":"12039","name":"Gadsden County","state_id":"FL"},{"zip":"32334","fips":"12077","name":"Liberty County","state_id":"FL"},{"zip":"32336","fips":"12123","name":"Taylor County","state_id":"FL"},{"zip":"32336","fips":"12065","name":"Jefferson County","state_id":"FL"},{"zip":"32336","fips":"12079","name":"Madison County","state_id":"FL"},{"zip":"32337","fips":"12065","name":"Jefferson County","state_id":"FL"},{"zip":"32340","fips":"12079","name":"Madison County","state_id":"FL"},{"zip":"32343","fips":"12039","name":"Gadsden County","state_id":"FL"},{"zip":"32344","fips":"12073","name":"Leon County","state_id":"FL"},{"zip":"32344","fips":"12065","name":"Jefferson County","state_id":"FL"},{"zip":"32345","fips":"12065","name":"Jefferson County","state_id":"FL"},{"zip":"32346","fips":"12129","name":"Wakulla County","state_id":"FL"},{"zip":"32346","fips":"12037","name":"Franklin County","state_id":"FL"},{"zip":"32347","fips":"12123","name":"Taylor County","state_id":"FL"},{"zip":"32348","fips":"12123","name":"Taylor County","state_id":"FL"},{"zip":"32350","fips":"12079","name":"Madison County","state_id":"FL"},{"zip":"32351","fips":"12077","name":"Liberty County","state_id":"FL"},{"zip":"32351","fips":"12039","name":"Gadsden County","state_id":"FL"},{"zip":"32352","fips":"12039","name":"Gadsden County","state_id":"FL"},{"zip":"32355","fips":"12129","name":"Wakulla County","state_id":"FL"},{"zip":"32356","fips":"12123","name":"Taylor County","state_id":"FL"},{"zip":"32357","fips":"12123","name":"Taylor County","state_id":"FL"},{"zip":"32358","fips":"12037","name":"Franklin County","state_id":"FL"},{"zip":"32358","fips":"12129","name":"Wakulla County","state_id":"FL"},{"zip":"32359","fips":"12029","name":"Dixie County","state_id":"FL"},{"zip":"32359","fips":"12123","name":"Taylor County","state_id":"FL"},{"zip":"32360","fips":"12077","name":"Liberty County","state_id":"FL"},{"zip":"32361","fips":"12065","name":"Jefferson County","state_id":"FL"},{"zip":"32362","fips":"12073","name":"Leon County","state_id":"FL"},{"zip":"32395","fips":"12073","name":"Leon County","state_id":"FL"},{"zip":"32399","fips":"12073","name":"Leon County","state_id":"FL"}]
