[{"zip":"32401","fips":"12005","name":"Bay County","state_id":"FL"},{"zip":"32402","fips":"12005","name":"Bay County","state_id":"FL"},{"zip":"32403","fips":"12005","name":"Bay County","state_id":"FL"},{"zip":"32404","fips":"12005","name":"Bay County","state_id":"FL"},{"zip":"32405","fips":"12005","name":"Bay County","state_id":"FL"},{"zip":"32406","fips":"12005","name":"Bay County","state_id":"FL"},{"zip":"32407","fips":"12005","name":"Bay County","state_id":"FL"},{"zip":"32408","fips":"12005","name":"Bay County","state_id":"FL"},{"zip":"32409","fips":"12005","name":"Bay County","state_id":"FL"},{"zip":"32410","fips":"12005","name":"Bay County","state_id":"FL"},{"zip":"32411","fips":"12005","name":"Bay County","state_id":"FL"},{"zip":"32413","fips":"12005","name":"Bay County","state_id":"FL"},{"zip":"32413","fips":"12131","name":"Walton County","state_id":"FL"},{"zip":"32417","fips":"12005","name":"Bay County","state_id":"FL"},{"zip":"32420","fips":"12013","name":"Calhoun County","state_id":"FL"},{"zip":"32420","fips":"12063","name":"Jackson County","state_id":"FL"},{"zip":"32420","fips":"12133","name":"Washington County","state_id":"FL"},{"zip":"32421","fips":"12013","name":"Calhoun County","state_id":"FL"},{"zip":"32422","fips":"12131","name":"Walton County","state_id":"FL"},{"zip":"32423","fips":"12063","name":"Jackson County","state_id":"FL"},{"zip":"32424","fips":"12013","name":"Calhoun County","state_id":"FL"},{"zip":"32425","fips":"12059","name":"Holmes County","state_id":"FL"},{"zip":"32425","fips":"12133","name":"Washington County","state_id":"FL"},{"zip":"32426","fips":"12063","name":"Jackson County","state_id":"FL"},{"zip":"32427","fips":"12133","name":"Washington County","state_id":"FL"},{"zip":"32428","fips":"12005","name":"Bay County","state_id":"FL"},{"zip":"32428","fips":"12133","name":"Washington County","state_id":"FL"},{"zip":"32428","fips":"12063","name":"Jackson County","state_id":"FL"},{"zip":"32430","fips":"12013","name":"Calhoun County","state_id":"FL"},{"zip":"32431","fips":"12133","name":"Washington County","state_id":"FL"},{"zip":"32431","fips":"12063","name":"Jackson County","state_id":"FL"},{"zip":"32432","fips":"12063","name":"Jackson County","state_id":"FL"},{"zip":"32433","fips":"12131","name":"Walton County","state_id":"FL"},{"zip":"32435","fips":"12131","name":"Walton County","state_id":"FL"},{"zip":"32437","fips":"12133","name":"Washington County","state_id":"FL"},{"zip":"32437","fips":"12005","name":"Bay County","state_id":"FL"},{"zip":"32438","fips":"12005","name":"Bay County","state_id":"FL"},{"zip":"32438","fips":"12063","name":"Jackson County","state_id":"FL"},{"zip":"32438","fips":"12133","name":"Washington County","state_id":"FL"},{"zip":"32438","fips":"12013","name":"Calhoun County","state_id":"FL"},{"zip":"32439","fips":"12131","name":"Walton County","state_id":"FL"},{"zip":"32440","fips":"12059","name":"Holmes County","state_id":"FL"},{"zip":"32440","fips":"12063","name":"Jackson County","state_id":"FL"},{"zip":"32442","fips":"12013","name":"Calhoun County","state_id":"FL"},{"zip":"32442","fips":"12063","name":"Jackson County","state_id":"FL"},{"zip":"32443","fips":"12063","name":"Jackson County","state_id":"FL"},{"zip":"32444","fips":"12005","name":"Bay County","state_id":"FL"},{"zip":"32445","fips":"12063","name":"Jackson County","state_id":"FL"},{"zip":"32446","fips":"12063","name":"Jackson County","state_id":"FL"},{"zip":"32447","fips":"12063","name":"Jackson County","state_id":"FL"},{"zip":"32448","fips":"12063","name":"Jackson County","state_id":"FL"},{"zip":"32448","fips":"12013","name":"Calhoun County","state_id":"FL"},{"zip":"32449","fips":"12013","name":"Calhoun County","state_id":"FL"},{"zip":"32455","fips":"12131","name":"Walton County","state_id":"FL"},{"zip":"32455","fips":"12059","name":"Holmes County","state_id":"FL"},{"zip":"32456","fips":"12045","name":"Gulf County","state_id":"FL"},{"zip":"32456","fips":"12005","name":"Bay County","state_id":"FL"},{"zip":"32459","fips":"12131","name":"Walton County","state_id":"FL"},{"zip":"32460","fips":"12063","name":"Jackson County","state_id":"FL"},{"zip":"32461","fips":"12131","name":"Walton County","state_id":"FL"},{"zip":"32462","fips":"12133","name":"Washington County","state_id":"FL"},{"zip":"32462","fips":"12005","name":"Bay County","state_id":"FL"},{"zip":"32462","fips":"12131","name":"Walton County","state_id":"FL"},{"zip":"32463","fips":"12133","name":"Washington County","state_id":"FL"},{"zip":"32464","fips":"12059","name":"Holmes County","state_id":"FL"},{"zip":"32464","fips":"12131","name":"Walton County","state_id":"FL"},{"zip":"32465","fips":"12005","name":"Bay County","state_id":"FL"},{"zip":"32465","fips":"12013","name":"Calhoun County","state_id":"FL"},{"zip":"32465","fips":"12045","name":"Gulf County","state_id":"FL"},{"zip":"32466","fips":"12013","name":"Calhoun County","state_id":"FL"},{"zip":"32466","fips":"12133","name":"Washington County","state_id":"FL"},{"zip":"32466","fips":"12005","name":"Bay County","state_id":"FL"}]
