[{"zip":"32501","fips":"12033","name":"Escambia County","state_id":"FL"},{"zip":"32502","fips":"12033","name":"Escambia County","state_id":"FL"},{"zip":"32503","fips":"12033","name":"Escambia County","state_id":"FL"},{"zip":"32504","fips":"12033","name":"Escambia County","state_id":"FL"},{"zip":"32505","fips":"12033","name":"Escambia County","state_id":"FL"},{"zip":"32506","fips":"12033","name":"Escambia County","state_id":"FL"},{"zip":"32507","fips":"12033","name":"Escambia County","state_id":"FL"},{"zip":"32508","fips":"12033","name":"Escambia County","state_id":"FL"},{"zip":"32509","fips":"12033","name":"Escambia County","state_id":"FL"},{"zip":"32511","fips":"12033","name":"Escambia County","state_id":"FL"},{"zip":"32512","fips":"12033","name":"Escambia County","state_id":"FL"},{"zip":"32513","fips":"12033","name":"Escambia County","state_id":"FL"},{"zip":"32514","fips":"12033","name":"Escambia County","state_id":"FL"},{"zip":"32516","fips":"12033","name":"Escambia County","state_id":"FL"},{"zip":"32520","fips":"12033","name":"Escambia County","state_id":"FL"},{"zip":"32522","fips":"12033","name":"Escambia County","state_id":"FL"},{"zip":"32523","fips":"12033","name":"Escambia County","state_id":"FL"},{"zip":"32524","fips":"12033","name":"Escambia County","state_id":"FL"},{"zip":"32526","fips":"12033","name":"Escambia County","state_id":"FL"},{"zip":"32530","fips":"12113","name":"Santa Rosa County","state_id":"FL"},{"zip":"32531","fips":"12091","name":"Okaloosa County","state_id":"FL"},{"zip":"32531","fips":"12113","name":"Santa Rosa County","state_id":"FL"},{"zip":"32533","fips":"12033","name":"Escambia County","state_id":"FL"},{"zip":"32534","fips":"12033","name":"Escambia County","state_id":"FL"},{"zip":"32535","fips":"12033","name":"Escambia County","state_id":"FL"},{"zip":"32536","fips":"12091","name":"Okaloosa County","state_id":"FL"},{"zip":"32538","fips":"12131","name":"Walton County","state_id":"FL"},{"zip":"32539","fips":"12091","name":"Okaloosa County","state_id":"FL"},{"zip":"32539","fips":"12131","name":"Walton County","state_id":"FL"},{"zip":"32540","fips":"12091","name":"Okaloosa County","state_id":"FL"},{"zip":"32541","fips":"12091","name":"Okaloosa County","state_id":"FL"},{"zip":"32542","fips":"12091","name":"Okaloosa County","state_id":"FL"},{"zip":"32544","fips":"12091","name":"Okaloosa County","state_id":"FL"},{"zip":"32547","fips":"12091","name":"Okaloosa County","state_id":"FL"},{"zip":"32548","fips":"12091","name":"Okaloosa County","state_id":"FL"},{"zip":"32549","fips":"12091","name":"Okaloosa County","state_id":"FL"},{"zip":"32550","fips":"12131","name":"Walton County","state_id":"FL"},{"zip":"32559","fips":"12033","name":"Escambia County","state_id":"FL"},{"zip":"32560","fips":"12033","name":"Escambia County","state_id":"FL"},{"zip":"32561","fips":"12113","name":"Santa Rosa County","state_id":"FL"},{"zip":"32561","fips":"12033","name":"Escambia County","state_id":"FL"},{"zip":"32562","fips":"12113","name":"Santa Rosa County","state_id":"FL"},{"zip":"32563","fips":"12113","name":"Santa Rosa County","state_id":"FL"},{"zip":"32564","fips":"12091","name":"Okaloosa County","state_id":"FL"},{"zip":"32564","fips":"12113","name":"Santa Rosa County","state_id":"FL"},{"zip":"32565","fips":"12113","name":"Santa Rosa County","state_id":"FL"},{"zip":"32566","fips":"12113","name":"Santa Rosa County","state_id":"FL"},{"zip":"32567","fips":"12131","name":"Walton County","state_id":"FL"},{"zip":"32567","fips":"12091","name":"Okaloosa County","state_id":"FL"},{"zip":"32568","fips":"12033","name":"Escambia County","state_id":"FL"},{"zip":"32569","fips":"12091","name":"Okaloosa County","state_id":"FL"},{"zip":"32569","fips":"12113","name":"Santa Rosa County","state_id":"FL"},{"zip":"32570","fips":"12113","name":"Santa Rosa County","state_id":"FL"},{"zip":"32571","fips":"12113","name":"Santa Rosa County","state_id":"FL"},{"zip":"32572","fips":"12113","name":"Santa Rosa County","state_id":"FL"},{"zip":"32577","fips":"12033","name":"Escambia County","state_id":"FL"},{"zip":"32578","fips":"12091","name":"Okaloosa County","state_id":"FL"},{"zip":"32578","fips":"12131","name":"Walton County","state_id":"FL"},{"zip":"32579","fips":"12091","name":"Okaloosa County","state_id":"FL"},{"zip":"32580","fips":"12091","name":"Okaloosa County","state_id":"FL"},{"zip":"32583","fips":"12113","name":"Santa Rosa County","state_id":"FL"},{"zip":"32588","fips":"12091","name":"Okaloosa County","state_id":"FL"},{"zip":"32591","fips":"12033","name":"Escambia County","state_id":"FL"}]
