[{"zip":"32601","fips":"12001","name":"Alachua County","state_id":"FL"},{"zip":"32603","fips":"12001","name":"Alachua County","state_id":"FL"},{"zip":"32604","fips":"12001","name":"Alachua County","state_id":"FL"},{"zip":"32605","fips":"12001","name":"Alachua County","state_id":"FL"},{"zip":"32606","fips":"12001","name":"Alachua County","state_id":"FL"},{"zip":"32607","fips":"12001","name":"Alachua County","state_id":"FL"},{"zip":"32608","fips":"12001","name":"Alachua County","state_id":"FL"},{"zip":"32609","fips":"12007","name":"Bradford County","state_id":"FL"},{"zip":"32609","fips":"12001","name":"Alachua County","state_id":"FL"},{"zip":"32610","fips":"12001","name":"Alachua County","state_id":"FL"},{"zip":"32611","fips":"12001","name":"Alachua County","state_id":"FL"},{"zip":"32612","fips":"12001","name":"Alachua County","state_id":"FL"},{"zip":"32614","fips":"12001","name":"Alachua County","state_id":"FL"},{"zip":"32615","fips":"12001","name":"Alachua County","state_id":"FL"},{"zip":"32617","fips":"12083","name":"Marion County","state_id":"FL"},{"zip":"32618","fips":"12075","name":"Levy County","state_id":"FL"},{"zip":"32618","fips":"12001","name":"Alachua County","state_id":"FL"},{"zip":"32619","fips":"12041","name":"Gilchrist County","state_id":"FL"},{"zip":"32621","fips":"12075","name":"Levy County","state_id":"FL"},{"zip":"32622","fips":"12001","name":"Alachua County","state_id":"FL"},{"zip":"32622","fips":"12007","name":"Bradford County","state_id":"FL"},{"zip":"32625","fips":"12075","name":"Levy County","state_id":"FL"},{"zip":"32626","fips":"12075","name":"Levy County","state_id":"FL"},{"zip":"32627","fips":"12001","name":"Alachua County","state_id":"FL"},{"zip":"32628","fips":"12029","name":"Dixie County","state_id":"FL"},{"zip":"32631","fips":"12001","name":"Alachua County","state_id":"FL"},{"zip":"32633","fips":"12001","name":"Alachua County","state_id":"FL"},{"zip":"32634","fips":"12083","name":"Marion County","state_id":"FL"},{"zip":"32635","fips":"12001","name":"Alachua County","state_id":"FL"},{"zip":"32639","fips":"12075","name":"Levy County","state_id":"FL"},{"zip":"32640","fips":"12107","name":"Putnam County","state_id":"FL"},{"zip":"32640","fips":"12001","name":"Alachua County","state_id":"FL"},{"zip":"32641","fips":"12001","name":"Alachua County","state_id":"FL"},{"zip":"32643","fips":"12001","name":"Alachua County","state_id":"FL"},{"zip":"32643","fips":"12023","name":"Columbia County","state_id":"FL"},{"zip":"32643","fips":"12041","name":"Gilchrist County","state_id":"FL"},{"zip":"32644","fips":"12075","name":"Levy County","state_id":"FL"},{"zip":"32648","fips":"12029","name":"Dixie County","state_id":"FL"},{"zip":"32653","fips":"12001","name":"Alachua County","state_id":"FL"},{"zip":"32654","fips":"12001","name":"Alachua County","state_id":"FL"},{"zip":"32656","fips":"12107","name":"Putnam County","state_id":"FL"},{"zip":"32656","fips":"12019","name":"Clay County","state_id":"FL"},{"zip":"32656","fips":"12007","name":"Bradford County","state_id":"FL"},{"zip":"32658","fips":"12001","name":"Alachua County","state_id":"FL"},{"zip":"32662","fips":"12001","name":"Alachua County","state_id":"FL"},{"zip":"32663","fips":"12083","name":"Marion County","state_id":"FL"},{"zip":"32664","fips":"12083","name":"Marion County","state_id":"FL"},{"zip":"32666","fips":"12019","name":"Clay County","state_id":"FL"},{"zip":"32666","fips":"12007","name":"Bradford County","state_id":"FL"},{"zip":"32666","fips":"12001","name":"Alachua County","state_id":"FL"},{"zip":"32666","fips":"12107","name":"Putnam County","state_id":"FL"},{"zip":"32667","fips":"12001","name":"Alachua County","state_id":"FL"},{"zip":"32667","fips":"12083","name":"Marion County","state_id":"FL"},{"zip":"32668","fips":"12075","name":"Levy County","state_id":"FL"},{"zip":"32668","fips":"12083","name":"Marion County","state_id":"FL"},{"zip":"32669","fips":"12001","name":"Alachua County","state_id":"FL"},{"zip":"32669","fips":"12075","name":"Levy County","state_id":"FL"},{"zip":"32669","fips":"12041","name":"Gilchrist County","state_id":"FL"},{"zip":"32680","fips":"12029","name":"Dixie County","state_id":"FL"},{"zip":"32681","fips":"12083","name":"Marion County","state_id":"FL"},{"zip":"32683","fips":"12075","name":"Levy County","state_id":"FL"},{"zip":"32686","fips":"12083","name":"Marion County","state_id":"FL"},{"zip":"32692","fips":"12029","name":"Dixie County","state_id":"FL"},{"zip":"32693","fips":"12075","name":"Levy County","state_id":"FL"},{"zip":"32693","fips":"12041","name":"Gilchrist County","state_id":"FL"},{"zip":"32694","fips":"12001","name":"Alachua County","state_id":"FL"},{"zip":"32696","fips":"12075","name":"Levy County","state_id":"FL"},{"zip":"32696","fips":"12083","name":"Marion County","state_id":"FL"},{"zip":"32696","fips":"12001","name":"Alachua County","state_id":"FL"},{"zip":"32697","fips":"12125","name":"Union County","state_id":"FL"}]
