[{"zip":"32701","fips":"12117","name":"Seminole County","state_id":"FL"},{"zip":"32702","fips":"12083","name":"Marion County","state_id":"FL"},{"zip":"32702","fips":"12069","name":"Lake County","state_id":"FL"},{"zip":"32703","fips":"12117","name":"Seminole County","state_id":"FL"},{"zip":"32703","fips":"12095","name":"Orange County","state_id":"FL"},{"zip":"32704","fips":"12095","name":"Orange County","state_id":"FL"},{"zip":"32706","fips":"12127","name":"Volusia County","state_id":"FL"},{"zip":"32707","fips":"12117","name":"Seminole County","state_id":"FL"},{"zip":"32708","fips":"12117","name":"Seminole County","state_id":"FL"},{"zip":"32709","fips":"12095","name":"Orange County","state_id":"FL"},{"zip":"32710","fips":"12095","name":"Orange County","state_id":"FL"},{"zip":"32712","fips":"12095","name":"Orange County","state_id":"FL"},{"zip":"32713","fips":"12127","name":"Volusia County","state_id":"FL"},{"zip":"32714","fips":"12117","name":"Seminole County","state_id":"FL"},{"zip":"32715","fips":"12117","name":"Seminole County","state_id":"FL"},{"zip":"32716","fips":"12117","name":"Seminole County","state_id":"FL"},{"zip":"32718","fips":"12117","name":"Seminole County","state_id":"FL"},{"zip":"32719","fips":"12117","name":"Seminole County","state_id":"FL"},{"zip":"32720","fips":"12069","name":"Lake County","state_id":"FL"},{"zip":"32720","fips":"12127","name":"Volusia County","state_id":"FL"},{"zip":"32721","fips":"12127","name":"Volusia County","state_id":"FL"},{"zip":"32723","fips":"12127","name":"Volusia County","state_id":"FL"},{"zip":"32724","fips":"12127","name":"Volusia County","state_id":"FL"},{"zip":"32725","fips":"12127","name":"Volusia County","state_id":"FL"},{"zip":"32726","fips":"12069","name":"Lake County","state_id":"FL"},{"zip":"32727","fips":"12069","name":"Lake County","state_id":"FL"},{"zip":"32728","fips":"12127","name":"Volusia County","state_id":"FL"},{"zip":"32730","fips":"12117","name":"Seminole County","state_id":"FL"},{"zip":"32732","fips":"12117","name":"Seminole County","state_id":"FL"},{"zip":"32732","fips":"12127","name":"Volusia County","state_id":"FL"},{"zip":"32733","fips":"12095","name":"Orange County","state_id":"FL"},{"zip":"32735","fips":"12069","name":"Lake County","state_id":"FL"},{"zip":"32736","fips":"12069","name":"Lake County","state_id":"FL"},{"zip":"32738","fips":"12127","name":"Volusia County","state_id":"FL"},{"zip":"32739","fips":"12127","name":"Volusia County","state_id":"FL"},{"zip":"32744","fips":"12127","name":"Volusia County","state_id":"FL"},{"zip":"32746","fips":"12117","name":"Seminole County","state_id":"FL"},{"zip":"32747","fips":"12117","name":"Seminole County","state_id":"FL"},{"zip":"32750","fips":"12117","name":"Seminole County","state_id":"FL"},{"zip":"32751","fips":"12095","name":"Orange County","state_id":"FL"},{"zip":"32751","fips":"12117","name":"Seminole County","state_id":"FL"},{"zip":"32752","fips":"12117","name":"Seminole County","state_id":"FL"},{"zip":"32753","fips":"12127","name":"Volusia County","state_id":"FL"},{"zip":"32754","fips":"12009","name":"Brevard County","state_id":"FL"},{"zip":"32754","fips":"12127","name":"Volusia County","state_id":"FL"},{"zip":"32756","fips":"12069","name":"Lake County","state_id":"FL"},{"zip":"32757","fips":"12069","name":"Lake County","state_id":"FL"},{"zip":"32757","fips":"12095","name":"Orange County","state_id":"FL"},{"zip":"32759","fips":"12127","name":"Volusia County","state_id":"FL"},{"zip":"32762","fips":"12117","name":"Seminole County","state_id":"FL"},{"zip":"32763","fips":"12127","name":"Volusia County","state_id":"FL"},{"zip":"32764","fips":"12127","name":"Volusia County","state_id":"FL"},{"zip":"32765","fips":"12117","name":"Seminole County","state_id":"FL"},{"zip":"32765","fips":"12095","name":"Orange County","state_id":"FL"},{"zip":"32766","fips":"12117","name":"Seminole County","state_id":"FL"},{"zip":"32767","fips":"12069","name":"Lake County","state_id":"FL"},{"zip":"32768","fips":"12095","name":"Orange County","state_id":"FL"},{"zip":"32771","fips":"12117","name":"Seminole County","state_id":"FL"},{"zip":"32772","fips":"12117","name":"Seminole County","state_id":"FL"},{"zip":"32773","fips":"12117","name":"Seminole County","state_id":"FL"},{"zip":"32774","fips":"12127","name":"Volusia County","state_id":"FL"},{"zip":"32775","fips":"12009","name":"Brevard County","state_id":"FL"},{"zip":"32776","fips":"12069","name":"Lake County","state_id":"FL"},{"zip":"32776","fips":"12095","name":"Orange County","state_id":"FL"},{"zip":"32777","fips":"12095","name":"Orange County","state_id":"FL"},{"zip":"32778","fips":"12069","name":"Lake County","state_id":"FL"},{"zip":"32779","fips":"12117","name":"Seminole County","state_id":"FL"},{"zip":"32780","fips":"12009","name":"Brevard County","state_id":"FL"},{"zip":"32781","fips":"12009","name":"Brevard County","state_id":"FL"},{"zip":"32783","fips":"12009","name":"Brevard County","state_id":"FL"},{"zip":"32784","fips":"12083","name":"Marion County","state_id":"FL"},{"zip":"32784","fips":"12069","name":"Lake County","state_id":"FL"},{"zip":"32789","fips":"12095","name":"Orange County","state_id":"FL"},{"zip":"32790","fips":"12095","name":"Orange County","state_id":"FL"},{"zip":"32791","fips":"12117","name":"Seminole County","state_id":"FL"},{"zip":"32792","fips":"12117","name":"Seminole County","state_id":"FL"},{"zip":"32792","fips":"12095","name":"Orange County","state_id":"FL"},{"zip":"32793","fips":"12095","name":"Orange County","state_id":"FL"},{"zip":"32794","fips":"12095","name":"Orange County","state_id":"FL"},{"zip":"32795","fips":"12117","name":"Seminole County","state_id":"FL"},{"zip":"32796","fips":"12009","name":"Brevard County","state_id":"FL"},{"zip":"32798","fips":"12095","name":"Orange County","state_id":"FL"},{"zip":"32799","fips":"12117","name":"Seminole County","state_id":"FL"}]
