[{"zip":"32801","fips":"12095","name":"Orange County","state_id":"FL"},{"zip":"32802","fips":"12095","name":"Orange County","state_id":"FL"},{"zip":"32803","fips":"12095","name":"Orange County","state_id":"FL"},{"zip":"32804","fips":"12095","name":"Orange County","state_id":"FL"},{"zip":"32805","fips":"12095","name":"Orange County","state_id":"FL"},{"zip":"32806","fips":"12095","name":"Orange County","state_id":"FL"},{"zip":"32807","fips":"12095","name":"Orange County","state_id":"FL"},{"zip":"32808","fips":"12095","name":"Orange County","state_id":"FL"},{"zip":"32809","fips":"12095","name":"Orange County","state_id":"FL"},{"zip":"32810","fips":"12095","name":"Orange County","state_id":"FL"},{"zip":"32811","fips":"12095","name":"Orange County","state_id":"FL"},{"zip":"32812","fips":"12095","name":"Orange County","state_id":"FL"},{"zip":"32814","fips":"12095","name":"Orange County","state_id":"FL"},{"zip":"32815","fips":"12009","name":"Brevard County","state_id":"FL"},{"zip":"32816","fips":"12095","name":"Orange County","state_id":"FL"},{"zip":"32817","fips":"12095","name":"Orange County","state_id":"FL"},{"zip":"32818","fips":"12095","name":"Orange County","state_id":"FL"},{"zip":"32819","fips":"12095","name":"Orange County","state_id":"FL"},{"zip":"32820","fips":"12095","name":"Orange County","state_id":"FL"},{"zip":"32821","fips":"12095","name":"Orange County","state_id":"FL"},{"zip":"32821","fips":"12097","name":"Osceola County","state_id":"FL"},{"zip":"32822","fips":"12095","name":"Orange County","state_id":"FL"},{"zip":"32824","fips":"12095","name":"Orange County","state_id":"FL"},{"zip":"32825","fips":"12095","name":"Orange County","state_id":"FL"},{"zip":"32826","fips":"12095","name":"Orange County","state_id":"FL"},{"zip":"32827","fips":"12095","name":"Orange County","state_id":"FL"},{"zip":"32828","fips":"12095","name":"Orange County","state_id":"FL"},{"zip":"32829","fips":"12095","name":"Orange County","state_id":"FL"},{"zip":"32830","fips":"12097","name":"Osceola County","state_id":"FL"},{"zip":"32830","fips":"12095","name":"Orange County","state_id":"FL"},{"zip":"32831","fips":"12095","name":"Orange County","state_id":"FL"},{"zip":"32832","fips":"12095","name":"Orange County","state_id":"FL"},{"zip":"32833","fips":"12095","name":"Orange County","state_id":"FL"},{"zip":"32834","fips":"12095","name":"Orange County","state_id":"FL"},{"zip":"32835","fips":"12095","name":"Orange County","state_id":"FL"},{"zip":"32836","fips":"12095","name":"Orange County","state_id":"FL"},{"zip":"32837","fips":"12097","name":"Osceola County","state_id":"FL"},{"zip":"32837","fips":"12095","name":"Orange County","state_id":"FL"},{"zip":"32839","fips":"12095","name":"Orange County","state_id":"FL"},{"zip":"32853","fips":"12095","name":"Orange County","state_id":"FL"},{"zip":"32854","fips":"12095","name":"Orange County","state_id":"FL"},{"zip":"32855","fips":"12095","name":"Orange County","state_id":"FL"},{"zip":"32856","fips":"12095","name":"Orange County","state_id":"FL"},{"zip":"32857","fips":"12095","name":"Orange County","state_id":"FL"},{"zip":"32858","fips":"12095","name":"Orange County","state_id":"FL"},{"zip":"32859","fips":"12095","name":"Orange County","state_id":"FL"},{"zip":"32860","fips":"12095","name":"Orange County","state_id":"FL"},{"zip":"32861","fips":"12095","name":"Orange County","state_id":"FL"},{"zip":"32862","fips":"12095","name":"Orange County","state_id":"FL"},{"zip":"32867","fips":"12095","name":"Orange County","state_id":"FL"},{"zip":"32868","fips":"12095","name":"Orange County","state_id":"FL"},{"zip":"32869","fips":"12095","name":"Orange County","state_id":"FL"},{"zip":"32872","fips":"12095","name":"Orange County","state_id":"FL"},{"zip":"32877","fips":"12095","name":"Orange County","state_id":"FL"},{"zip":"32878","fips":"12095","name":"Orange County","state_id":"FL"},{"zip":"32899","fips":"12009","name":"Brevard County","state_id":"FL"}]
