[{"zip":"32901","fips":"12009","name":"Brevard County","state_id":"FL"},{"zip":"32902","fips":"12009","name":"Brevard County","state_id":"FL"},{"zip":"32903","fips":"12009","name":"Brevard County","state_id":"FL"},{"zip":"32904","fips":"12009","name":"Brevard County","state_id":"FL"},{"zip":"32905","fips":"12009","name":"Brevard County","state_id":"FL"},{"zip":"32906","fips":"12009","name":"Brevard County","state_id":"FL"},{"zip":"32907","fips":"12009","name":"Brevard County","state_id":"FL"},{"zip":"32908","fips":"12009","name":"Brevard County","state_id":"FL"},{"zip":"32909","fips":"12009","name":"Brevard County","state_id":"FL"},{"zip":"32910","fips":"12009","name":"Brevard County","state_id":"FL"},{"zip":"32911","fips":"12009","name":"Brevard County","state_id":"FL"},{"zip":"32912","fips":"12009","name":"Brevard County","state_id":"FL"},{"zip":"32920","fips":"12009","name":"Brevard County","state_id":"FL"},{"zip":"32922","fips":"12009","name":"Brevard County","state_id":"FL"},{"zip":"32923","fips":"12009","name":"Brevard County","state_id":"FL"},{"zip":"32924","fips":"12009","name":"Brevard County","state_id":"FL"},{"zip":"32925","fips":"12009","name":"Brevard County","state_id":"FL"},{"zip":"32926","fips":"12009","name":"Brevard County","state_id":"FL"},{"zip":"32927","fips":"12009","name":"Brevard County","state_id":"FL"},{"zip":"32931","fips":"12009","name":"Brevard County","state_id":"FL"},{"zip":"32932","fips":"12009","name":"Brevard County","state_id":"FL"},{"zip":"32934","fips":"12009","name":"Brevard County","state_id":"FL"},{"zip":"32935","fips":"12009","name":"Brevard County","state_id":"FL"},{"zip":"32936","fips":"12009","name":"Brevard County","state_id":"FL"},{"zip":"32937","fips":"12009","name":"Brevard County","state_id":"FL"},{"zip":"32940","fips":"12009","name":"Brevard County","state_id":"FL"},{"zip":"32941","fips":"12009","name":"Brevard County","state_id":"FL"},{"zip":"32948","fips":"12009","name":"Brevard County","state_id":"FL"},{"zip":"32948","fips":"12061","name":"Indian River County","state_id":"FL"},{"zip":"32949","fips":"12009","name":"Brevard County","state_id":"FL"},{"zip":"32950","fips":"12009","name":"Brevard County","state_id":"FL"},{"zip":"32951","fips":"12009","name":"Brevard County","state_id":"FL"},{"zip":"32952","fips":"12009","name":"Brevard County","state_id":"FL"},{"zip":"32953","fips":"12009","name":"Brevard County","state_id":"FL"},{"zip":"32954","fips":"12009","name":"Brevard County","state_id":"FL"},{"zip":"32955","fips":"12009","name":"Brevard County","state_id":"FL"},{"zip":"32956","fips":"12009","name":"Brevard County","state_id":"FL"},{"zip":"32957","fips":"12061","name":"Indian River County","state_id":"FL"},{"zip":"32958","fips":"12061","name":"Indian River County","state_id":"FL"},{"zip":"32959","fips":"12009","name":"Brevard County","state_id":"FL"},{"zip":"32960","fips":"12061","name":"Indian River County","state_id":"FL"},{"zip":"32961","fips":"12061","name":"Indian River County","state_id":"FL"},{"zip":"32962","fips":"12061","name":"Indian River County","state_id":"FL"},{"zip":"32963","fips":"12061","name":"Indian River County","state_id":"FL"},{"zip":"32964","fips":"12061","name":"Indian River County","state_id":"FL"},{"zip":"32965","fips":"12061","name":"Indian River County","state_id":"FL"},{"zip":"32966","fips":"12061","name":"Indian River County","state_id":"FL"},{"zip":"32967","fips":"12061","name":"Indian River County","state_id":"FL"},{"zip":"32968","fips":"12061","name":"Indian River County","state_id":"FL"},{"zip":"32969","fips":"12061","name":"Indian River County","state_id":"FL"},{"zip":"32970","fips":"12061","name":"Indian River County","state_id":"FL"},{"zip":"32971","fips":"12061","name":"Indian River County","state_id":"FL"},{"zip":"32976","fips":"12009","name":"Brevard County","state_id":"FL"},{"zip":"32978","fips":"12061","name":"Indian River County","state_id":"FL"}]
