[{"zip":"33101","fips":"12086","name":"Miami-Dade County","state_id":"FL"},{"zip":"33106","fips":"12086","name":"Miami-Dade County","state_id":"FL"},{"zip":"33109","fips":"12086","name":"Miami-Dade County","state_id":"FL"},{"zip":"33112","fips":"12086","name":"Miami-Dade County","state_id":"FL"},{"zip":"33114","fips":"12086","name":"Miami-Dade County","state_id":"FL"},{"zip":"33116","fips":"12086","name":"Miami-Dade County","state_id":"FL"},{"zip":"33119","fips":"12086","name":"Miami-Dade County","state_id":"FL"},{"zip":"33122","fips":"12086","name":"Miami-Dade County","state_id":"FL"},{"zip":"33124","fips":"12086","name":"Miami-Dade County","state_id":"FL"},{"zip":"33125","fips":"12086","name":"Miami-Dade County","state_id":"FL"},{"zip":"33126","fips":"12086","name":"Miami-Dade County","state_id":"FL"},{"zip":"33127","fips":"12086","name":"Miami-Dade County","state_id":"FL"},{"zip":"33128","fips":"12086","name":"Miami-Dade County","state_id":"FL"},{"zip":"33129","fips":"12086","name":"Miami-Dade County","state_id":"FL"},{"zip":"33130","fips":"12086","name":"Miami-Dade County","state_id":"FL"},{"zip":"33131","fips":"12086","name":"Miami-Dade County","state_id":"FL"},{"zip":"33132","fips":"12086","name":"Miami-Dade County","state_id":"FL"},{"zip":"33133","fips":"12086","name":"Miami-Dade County","state_id":"FL"},{"zip":"33134","fips":"12086","name":"Miami-Dade County","state_id":"FL"},{"zip":"33135","fips":"12086","name":"Miami-Dade County","state_id":"FL"},{"zip":"33136","fips":"12086","name":"Miami-Dade County","state_id":"FL"},{"zip":"33137","fips":"12086","name":"Miami-Dade County","state_id":"FL"},{"zip":"33138","fips":"12086","name":"Miami-Dade County","state_id":"FL"},{"zip":"33139","fips":"12086","name":"Miami-Dade County","state_id":"FL"},{"zip":"33140","fips":"12086","name":"Miami-Dade County","state_id":"FL"},{"zip":"33141","fips":"12086","name":"Miami-Dade County","state_id":"FL"},{"zip":"33142","fips":"12086","name":"Miami-Dade County","state_id":"FL"},{"zip":"33143","fips":"12086","name":"Miami-Dade County","state_id":"FL"},{"zip":"33144","fips":"12086","name":"Miami-Dade County","state_id":"FL"},{"zip":"33145","fips":"12086","name":"Miami-Dade County","state_id":"FL"},{"zip":"33146","fips":"12086","name":"Miami-Dade County","state_id":"FL"},{"zip":"33147","fips":"12086","name":"Miami-Dade County","state_id":"FL"},{"zip":"33149","fips":"12086","name":"Miami-Dade County","state_id":"FL"},{"zip":"33150","fips":"12086","name":"Miami-Dade County","state_id":"FL"},{"zip":"33152","fips":"12086","name":"Miami-Dade County","state_id":"FL"},{"zip":"33153","fips":"12086","name":"Miami-Dade County","state_id":"FL"},{"zip":"33154","fips":"12086","name":"Miami-Dade County","state_id":"FL"},{"zip":"33155","fips":"12086","name":"Miami-Dade County","state_id":"FL"},{"zip":"33156","fips":"12086","name":"Miami-Dade County","state_id":"FL"},{"zip":"33157","fips":"12086","name":"Miami-Dade County","state_id":"FL"},{"zip":"33158","fips":"12086","name":"Miami-Dade County","state_id":"FL"},{"zip":"33160","fips":"12086","name":"Miami-Dade County","state_id":"FL"},{"zip":"33161","fips":"12086","name":"Miami-Dade County","state_id":"FL"},{"zip":"33162","fips":"12086","name":"Miami-Dade County","state_id":"FL"},{"zip":"33163","fips":"12086","name":"Miami-Dade County","state_id":"FL"},{"zip":"33164","fips":"12086","name":"Miami-Dade County","state_id":"FL"},{"zip":"33165","fips":"12086","name":"Miami-Dade County","state_id":"FL"},{"zip":"33166","fips":"12086","name":"Miami-Dade County","state_id":"FL"},{"zip":"33167","fips":"12086","name":"Miami-Dade County","state_id":"FL"},{"zip":"33168","fips":"12086","name":"Miami-Dade County","state_id":"FL"},{"zip":"33169","fips":"12086","name":"Miami-Dade County","state_id":"FL"},{"zip":"33170","fips":"12086","name":"Miami-Dade County","state_id":"FL"},{"zip":"33172","fips":"12086","name":"Miami-Dade County","state_id":"FL"},{"zip":"33173","fips":"12086","name":"Miami-Dade County","state_id":"FL"},{"zip":"33174","fips":"12086","name":"Miami-Dade County","state_id":"FL"},{"zip":"33175","fips":"12086","name":"Miami-Dade County","state_id":"FL"},{"zip":"33176","fips":"12086","name":"Miami-Dade County","state_id":"FL"},{"zip":"33177","fips":"12086","name":"Miami-Dade County","state_id":"FL"},{"zip":"33178","fips":"12086","name":"Miami-Dade County","state_id":"FL"},{"zip":"33179","fips":"12086","name":"Miami-Dade County","state_id":"FL"},{"zip":"33179","fips":"12011","name":"Broward County","state_id":"FL"},{"zip":"33180","fips":"12086","name":"Miami-Dade County","state_id":"FL"},{"zip":"33181","fips":"12086","name":"Miami-Dade County","state_id":"FL"},{"zip":"33182","fips":"12086","name":"Miami-Dade County","state_id":"FL"},{"zip":"33183","fips":"12086","name":"Miami-Dade County","state_id":"FL"},{"zip":"33184","fips":"12086","name":"Miami-Dade County","state_id":"FL"},{"zip":"33185","fips":"12086","name":"Miami-Dade County","state_id":"FL"},{"zip":"33186","fips":"12086","name":"Miami-Dade County","state_id":"FL"},{"zip":"33187","fips":"12086","name":"Miami-Dade County","state_id":"FL"},{"zip":"33189","fips":"12086","name":"Miami-Dade County","state_id":"FL"},{"zip":"33190","fips":"12086","name":"Miami-Dade County","state_id":"FL"},{"zip":"33191","fips":"12086","name":"Miami-Dade County","state_id":"FL"},{"zip":"33192","fips":"12086","name":"Miami-Dade County","state_id":"FL"},{"zip":"33193","fips":"12086","name":"Miami-Dade County","state_id":"FL"},{"zip":"33194","fips":"12086","name":"Miami-Dade County","state_id":"FL"},{"zip":"33195","fips":"12086","name":"Miami-Dade County","state_id":"FL"},{"zip":"33196","fips":"12086","name":"Miami-Dade County","state_id":"FL"},{"zip":"33197","fips":"12086","name":"Miami-Dade County","state_id":"FL"},{"zip":"33198","fips":"12086","name":"Miami-Dade County","state_id":"FL"},{"zip":"33199","fips":"12086","name":"Miami-Dade County","state_id":"FL"}]
