[{"zip":"33401","fips":"12099","name":"Palm Beach County","state_id":"FL"},{"zip":"33402","fips":"12099","name":"Palm Beach County","state_id":"FL"},{"zip":"33403","fips":"12099","name":"Palm Beach County","state_id":"FL"},{"zip":"33404","fips":"12099","name":"Palm Beach County","state_id":"FL"},{"zip":"33405","fips":"12099","name":"Palm Beach County","state_id":"FL"},{"zip":"33406","fips":"12099","name":"Palm Beach County","state_id":"FL"},{"zip":"33407","fips":"12099","name":"Palm Beach County","state_id":"FL"},{"zip":"33408","fips":"12099","name":"Palm Beach County","state_id":"FL"},{"zip":"33409","fips":"12099","name":"Palm Beach County","state_id":"FL"},{"zip":"33410","fips":"12099","name":"Palm Beach County","state_id":"FL"},{"zip":"33411","fips":"12099","name":"Palm Beach County","state_id":"FL"},{"zip":"33412","fips":"12099","name":"Palm Beach County","state_id":"FL"},{"zip":"33413","fips":"12099","name":"Palm Beach County","state_id":"FL"},{"zip":"33414","fips":"12099","name":"Palm Beach County","state_id":"FL"},{"zip":"33415","fips":"12099","name":"Palm Beach County","state_id":"FL"},{"zip":"33416","fips":"12099","name":"Palm Beach County","state_id":"FL"},{"zip":"33417","fips":"12099","name":"Palm Beach County","state_id":"FL"},{"zip":"33418","fips":"12099","name":"Palm Beach County","state_id":"FL"},{"zip":"33419","fips":"12099","name":"Palm Beach County","state_id":"FL"},{"zip":"33420","fips":"12099","name":"Palm Beach County","state_id":"FL"},{"zip":"33421","fips":"12099","name":"Palm Beach County","state_id":"FL"},{"zip":"33422","fips":"12099","name":"Palm Beach County","state_id":"FL"},{"zip":"33424","fips":"12099","name":"Palm Beach County","state_id":"FL"},{"zip":"33425","fips":"12099","name":"Palm Beach County","state_id":"FL"},{"zip":"33426","fips":"12099","name":"Palm Beach County","state_id":"FL"},{"zip":"33427","fips":"12099","name":"Palm Beach County","state_id":"FL"},{"zip":"33428","fips":"12099","name":"Palm Beach County","state_id":"FL"},{"zip":"33429","fips":"12099","name":"Palm Beach County","state_id":"FL"},{"zip":"33430","fips":"12099","name":"Palm Beach County","state_id":"FL"},{"zip":"33431","fips":"12099","name":"Palm Beach County","state_id":"FL"},{"zip":"33432","fips":"12099","name":"Palm Beach County","state_id":"FL"},{"zip":"33433","fips":"12099","name":"Palm Beach County","state_id":"FL"},{"zip":"33434","fips":"12099","name":"Palm Beach County","state_id":"FL"},{"zip":"33435","fips":"12099","name":"Palm Beach County","state_id":"FL"},{"zip":"33436","fips":"12099","name":"Palm Beach County","state_id":"FL"},{"zip":"33437","fips":"12099","name":"Palm Beach County","state_id":"FL"},{"zip":"33438","fips":"12085","name":"Martin County","state_id":"FL"},{"zip":"33438","fips":"12099","name":"Palm Beach County","state_id":"FL"},{"zip":"33440","fips":"12099","name":"Palm Beach County","state_id":"FL"},{"zip":"33440","fips":"12051","name":"Hendry County","state_id":"FL"},{"zip":"33441","fips":"12011","name":"Broward County","state_id":"FL"},{"zip":"33442","fips":"12011","name":"Broward County","state_id":"FL"},{"zip":"33443","fips":"12011","name":"Broward County","state_id":"FL"},{"zip":"33444","fips":"12099","name":"Palm Beach County","state_id":"FL"},{"zip":"33445","fips":"12099","name":"Palm Beach County","state_id":"FL"},{"zip":"33446","fips":"12099","name":"Palm Beach County","state_id":"FL"},{"zip":"33448","fips":"12099","name":"Palm Beach County","state_id":"FL"},{"zip":"33449","fips":"12099","name":"Palm Beach County","state_id":"FL"},{"zip":"33454","fips":"12099","name":"Palm Beach County","state_id":"FL"},{"zip":"33455","fips":"12085","name":"Martin County","state_id":"FL"},{"zip":"33458","fips":"12099","name":"Palm Beach County","state_id":"FL"},{"zip":"33458","fips":"12085","name":"Martin County","state_id":"FL"},{"zip":"33459","fips":"12099","name":"Palm Beach County","state_id":"FL"},{"zip":"33460","fips":"12099","name":"Palm Beach County","state_id":"FL"},{"zip":"33461","fips":"12099","name":"Palm Beach County","state_id":"FL"},{"zip":"33462","fips":"12099","name":"Palm Beach County","state_id":"FL"},{"zip":"33463","fips":"12099","name":"Palm Beach County","state_id":"FL"},{"zip":"33464","fips":"12099","name":"Palm Beach County","state_id":"FL"},{"zip":"33465","fips":"12099","name":"Palm Beach County","state_id":"FL"},{"zip":"33466","fips":"12099","name":"Palm Beach County","state_id":"FL"},{"zip":"33467","fips":"12099","name":"Palm Beach County","state_id":"FL"},{"zip":"33468","fips":"12099","name":"Palm Beach County","state_id":"FL"},{"zip":"33469","fips":"12099","name":"Palm Beach County","state_id":"FL"},{"zip":"33469","fips":"12085","name":"Martin County","state_id":"FL"},{"zip":"33470","fips":"12099","name":"Palm Beach County","state_id":"FL"},{"zip":"33471","fips":"12043","name":"Glades County","state_id":"FL"},{"zip":"33471","fips":"12051","name":"Hendry County","state_id":"FL"},{"zip":"33472","fips":"12099","name":"Palm Beach County","state_id":"FL"},{"zip":"33473","fips":"12099","name":"Palm Beach County","state_id":"FL"},{"zip":"33474","fips":"12099","name":"Palm Beach County","state_id":"FL"},{"zip":"33475","fips":"12085","name":"Martin County","state_id":"FL"},{"zip":"33476","fips":"12099","name":"Palm Beach County","state_id":"FL"},{"zip":"33477","fips":"12099","name":"Palm Beach County","state_id":"FL"},{"zip":"33478","fips":"12099","name":"Palm Beach County","state_id":"FL"},{"zip":"33478","fips":"12085","name":"Martin County","state_id":"FL"},{"zip":"33480","fips":"12099","name":"Palm Beach County","state_id":"FL"},{"zip":"33481","fips":"12099","name":"Palm Beach County","state_id":"FL"},{"zip":"33482","fips":"12099","name":"Palm Beach County","state_id":"FL"},{"zip":"33483","fips":"12099","name":"Palm Beach County","state_id":"FL"},{"zip":"33484","fips":"12099","name":"Palm Beach County","state_id":"FL"},{"zip":"33486","fips":"12099","name":"Palm Beach County","state_id":"FL"},{"zip":"33487","fips":"12099","name":"Palm Beach County","state_id":"FL"},{"zip":"33488","fips":"12099","name":"Palm Beach County","state_id":"FL"},{"zip":"33493","fips":"12099","name":"Palm Beach County","state_id":"FL"},{"zip":"33496","fips":"12099","name":"Palm Beach County","state_id":"FL"},{"zip":"33497","fips":"12099","name":"Palm Beach County","state_id":"FL"},{"zip":"33498","fips":"12099","name":"Palm Beach County","state_id":"FL"},{"zip":"33499","fips":"12099","name":"Palm Beach County","state_id":"FL"}]
