[{"zip":"33503","fips":"12057","name":"Hillsborough County","state_id":"FL"},{"zip":"33508","fips":"12057","name":"Hillsborough County","state_id":"FL"},{"zip":"33509","fips":"12057","name":"Hillsborough County","state_id":"FL"},{"zip":"33510","fips":"12057","name":"Hillsborough County","state_id":"FL"},{"zip":"33511","fips":"12057","name":"Hillsborough County","state_id":"FL"},{"zip":"33513","fips":"12119","name":"Sumter County","state_id":"FL"},{"zip":"33514","fips":"12119","name":"Sumter County","state_id":"FL"},{"zip":"33521","fips":"12119","name":"Sumter County","state_id":"FL"},{"zip":"33523","fips":"12101","name":"Pasco County","state_id":"FL"},{"zip":"33523","fips":"12053","name":"Hernando County","state_id":"FL"},{"zip":"33524","fips":"12101","name":"Pasco County","state_id":"FL"},{"zip":"33525","fips":"12101","name":"Pasco County","state_id":"FL"},{"zip":"33526","fips":"12101","name":"Pasco County","state_id":"FL"},{"zip":"33527","fips":"12057","name":"Hillsborough County","state_id":"FL"},{"zip":"33530","fips":"12057","name":"Hillsborough County","state_id":"FL"},{"zip":"33534","fips":"12057","name":"Hillsborough County","state_id":"FL"},{"zip":"33537","fips":"12101","name":"Pasco County","state_id":"FL"},{"zip":"33538","fips":"12119","name":"Sumter County","state_id":"FL"},{"zip":"33539","fips":"12101","name":"Pasco County","state_id":"FL"},{"zip":"33540","fips":"12101","name":"Pasco County","state_id":"FL"},{"zip":"33540","fips":"12057","name":"Hillsborough County","state_id":"FL"},{"zip":"33541","fips":"12101","name":"Pasco County","state_id":"FL"},{"zip":"33542","fips":"12101","name":"Pasco County","state_id":"FL"},{"zip":"33543","fips":"12101","name":"Pasco County","state_id":"FL"},{"zip":"33544","fips":"12101","name":"Pasco County","state_id":"FL"},{"zip":"33544","fips":"12057","name":"Hillsborough County","state_id":"FL"},{"zip":"33545","fips":"12101","name":"Pasco County","state_id":"FL"},{"zip":"33547","fips":"12057","name":"Hillsborough County","state_id":"FL"},{"zip":"33547","fips":"12105","name":"Polk County","state_id":"FL"},{"zip":"33548","fips":"12101","name":"Pasco County","state_id":"FL"},{"zip":"33548","fips":"12057","name":"Hillsborough County","state_id":"FL"},{"zip":"33549","fips":"12057","name":"Hillsborough County","state_id":"FL"},{"zip":"33549","fips":"12101","name":"Pasco County","state_id":"FL"},{"zip":"33550","fips":"12057","name":"Hillsborough County","state_id":"FL"},{"zip":"33556","fips":"12101","name":"Pasco County","state_id":"FL"},{"zip":"33556","fips":"12057","name":"Hillsborough County","state_id":"FL"},{"zip":"33558","fips":"12101","name":"Pasco County","state_id":"FL"},{"zip":"33558","fips":"12057","name":"Hillsborough County","state_id":"FL"},{"zip":"33559","fips":"12057","name":"Hillsborough County","state_id":"FL"},{"zip":"33559","fips":"12101","name":"Pasco County","state_id":"FL"},{"zip":"33563","fips":"12057","name":"Hillsborough County","state_id":"FL"},{"zip":"33564","fips":"12057","name":"Hillsborough County","state_id":"FL"},{"zip":"33565","fips":"12057","name":"Hillsborough County","state_id":"FL"},{"zip":"33566","fips":"12057","name":"Hillsborough County","state_id":"FL"},{"zip":"33567","fips":"12057","name":"Hillsborough County","state_id":"FL"},{"zip":"33568","fips":"12057","name":"Hillsborough County","state_id":"FL"},{"zip":"33569","fips":"12057","name":"Hillsborough County","state_id":"FL"},{"zip":"33570","fips":"12057","name":"Hillsborough County","state_id":"FL"},{"zip":"33571","fips":"12057","name":"Hillsborough County","state_id":"FL"},{"zip":"33572","fips":"12057","name":"Hillsborough County","state_id":"FL"},{"zip":"33573","fips":"12057","name":"Hillsborough County","state_id":"FL"},{"zip":"33574","fips":"12101","name":"Pasco County","state_id":"FL"},{"zip":"33576","fips":"12101","name":"Pasco County","state_id":"FL"},{"zip":"33578","fips":"12057","name":"Hillsborough County","state_id":"FL"},{"zip":"33579","fips":"12057","name":"Hillsborough County","state_id":"FL"},{"zip":"33583","fips":"12057","name":"Hillsborough County","state_id":"FL"},{"zip":"33584","fips":"12057","name":"Hillsborough County","state_id":"FL"},{"zip":"33585","fips":"12119","name":"Sumter County","state_id":"FL"},{"zip":"33586","fips":"12057","name":"Hillsborough County","state_id":"FL"},{"zip":"33587","fips":"12057","name":"Hillsborough County","state_id":"FL"},{"zip":"33592","fips":"12057","name":"Hillsborough County","state_id":"FL"},{"zip":"33593","fips":"12101","name":"Pasco County","state_id":"FL"},{"zip":"33594","fips":"12057","name":"Hillsborough County","state_id":"FL"},{"zip":"33595","fips":"12057","name":"Hillsborough County","state_id":"FL"},{"zip":"33596","fips":"12057","name":"Hillsborough County","state_id":"FL"},{"zip":"33597","fips":"12101","name":"Pasco County","state_id":"FL"},{"zip":"33597","fips":"12119","name":"Sumter County","state_id":"FL"},{"zip":"33597","fips":"12053","name":"Hernando County","state_id":"FL"},{"zip":"33598","fips":"12081","name":"Manatee County","state_id":"FL"},{"zip":"33598","fips":"12057","name":"Hillsborough County","state_id":"FL"}]
