[{"zip":"33601","fips":"12057","name":"Hillsborough County","state_id":"FL"},{"zip":"33602","fips":"12057","name":"Hillsborough County","state_id":"FL"},{"zip":"33603","fips":"12057","name":"Hillsborough County","state_id":"FL"},{"zip":"33604","fips":"12057","name":"Hillsborough County","state_id":"FL"},{"zip":"33605","fips":"12057","name":"Hillsborough County","state_id":"FL"},{"zip":"33606","fips":"12057","name":"Hillsborough County","state_id":"FL"},{"zip":"33607","fips":"12057","name":"Hillsborough County","state_id":"FL"},{"zip":"33609","fips":"12057","name":"Hillsborough County","state_id":"FL"},{"zip":"33610","fips":"12057","name":"Hillsborough County","state_id":"FL"},{"zip":"33611","fips":"12057","name":"Hillsborough County","state_id":"FL"},{"zip":"33612","fips":"12057","name":"Hillsborough County","state_id":"FL"},{"zip":"33613","fips":"12057","name":"Hillsborough County","state_id":"FL"},{"zip":"33614","fips":"12057","name":"Hillsborough County","state_id":"FL"},{"zip":"33615","fips":"12057","name":"Hillsborough County","state_id":"FL"},{"zip":"33616","fips":"12057","name":"Hillsborough County","state_id":"FL"},{"zip":"33617","fips":"12057","name":"Hillsborough County","state_id":"FL"},{"zip":"33618","fips":"12057","name":"Hillsborough County","state_id":"FL"},{"zip":"33619","fips":"12057","name":"Hillsborough County","state_id":"FL"},{"zip":"33620","fips":"12057","name":"Hillsborough County","state_id":"FL"},{"zip":"33621","fips":"12057","name":"Hillsborough County","state_id":"FL"},{"zip":"33622","fips":"12057","name":"Hillsborough County","state_id":"FL"},{"zip":"33623","fips":"12057","name":"Hillsborough County","state_id":"FL"},{"zip":"33624","fips":"12057","name":"Hillsborough County","state_id":"FL"},{"zip":"33625","fips":"12057","name":"Hillsborough County","state_id":"FL"},{"zip":"33626","fips":"12057","name":"Hillsborough County","state_id":"FL"},{"zip":"33626","fips":"12103","name":"Pinellas County","state_id":"FL"},{"zip":"33629","fips":"12057","name":"Hillsborough County","state_id":"FL"},{"zip":"33630","fips":"12057","name":"Hillsborough County","state_id":"FL"},{"zip":"33634","fips":"12057","name":"Hillsborough County","state_id":"FL"},{"zip":"33635","fips":"12057","name":"Hillsborough County","state_id":"FL"},{"zip":"33637","fips":"12057","name":"Hillsborough County","state_id":"FL"},{"zip":"33646","fips":"12057","name":"Hillsborough County","state_id":"FL"},{"zip":"33647","fips":"12057","name":"Hillsborough County","state_id":"FL"},{"zip":"33672","fips":"12057","name":"Hillsborough County","state_id":"FL"},{"zip":"33673","fips":"12057","name":"Hillsborough County","state_id":"FL"},{"zip":"33674","fips":"12057","name":"Hillsborough County","state_id":"FL"},{"zip":"33675","fips":"12057","name":"Hillsborough County","state_id":"FL"},{"zip":"33677","fips":"12057","name":"Hillsborough County","state_id":"FL"},{"zip":"33679","fips":"12057","name":"Hillsborough County","state_id":"FL"},{"zip":"33680","fips":"12057","name":"Hillsborough County","state_id":"FL"},{"zip":"33681","fips":"12057","name":"Hillsborough County","state_id":"FL"},{"zip":"33682","fips":"12057","name":"Hillsborough County","state_id":"FL"},{"zip":"33684","fips":"12057","name":"Hillsborough County","state_id":"FL"},{"zip":"33685","fips":"12057","name":"Hillsborough County","state_id":"FL"},{"zip":"33687","fips":"12057","name":"Hillsborough County","state_id":"FL"},{"zip":"33688","fips":"12057","name":"Hillsborough County","state_id":"FL"},{"zip":"33689","fips":"12057","name":"Hillsborough County","state_id":"FL"},{"zip":"33694","fips":"12057","name":"Hillsborough County","state_id":"FL"}]
