[{"zip":"33801","fips":"12105","name":"Polk County","state_id":"FL"},{"zip":"33802","fips":"12105","name":"Polk County","state_id":"FL"},{"zip":"33803","fips":"12105","name":"Polk County","state_id":"FL"},{"zip":"33804","fips":"12105","name":"Polk County","state_id":"FL"},{"zip":"33805","fips":"12105","name":"Polk County","state_id":"FL"},{"zip":"33806","fips":"12105","name":"Polk County","state_id":"FL"},{"zip":"33807","fips":"12105","name":"Polk County","state_id":"FL"},{"zip":"33809","fips":"12101","name":"Pasco County","state_id":"FL"},{"zip":"33809","fips":"12105","name":"Polk County","state_id":"FL"},{"zip":"33810","fips":"12105","name":"Polk County","state_id":"FL"},{"zip":"33810","fips":"12057","name":"Hillsborough County","state_id":"FL"},{"zip":"33811","fips":"12105","name":"Polk County","state_id":"FL"},{"zip":"33812","fips":"12105","name":"Polk County","state_id":"FL"},{"zip":"33813","fips":"12105","name":"Polk County","state_id":"FL"},{"zip":"33815","fips":"12105","name":"Polk County","state_id":"FL"},{"zip":"33820","fips":"12105","name":"Polk County","state_id":"FL"},{"zip":"33823","fips":"12105","name":"Polk County","state_id":"FL"},{"zip":"33825","fips":"12105","name":"Polk County","state_id":"FL"},{"zip":"33825","fips":"12055","name":"Highlands County","state_id":"FL"},{"zip":"33827","fips":"12105","name":"Polk County","state_id":"FL"},{"zip":"33830","fips":"12105","name":"Polk County","state_id":"FL"},{"zip":"33831","fips":"12105","name":"Polk County","state_id":"FL"},{"zip":"33834","fips":"12049","name":"Hardee County","state_id":"FL"},{"zip":"33834","fips":"12105","name":"Polk County","state_id":"FL"},{"zip":"33835","fips":"12105","name":"Polk County","state_id":"FL"},{"zip":"33836","fips":"12105","name":"Polk County","state_id":"FL"},{"zip":"33837","fips":"12105","name":"Polk County","state_id":"FL"},{"zip":"33838","fips":"12105","name":"Polk County","state_id":"FL"},{"zip":"33839","fips":"12105","name":"Polk County","state_id":"FL"},{"zip":"33840","fips":"12105","name":"Polk County","state_id":"FL"},{"zip":"33841","fips":"12105","name":"Polk County","state_id":"FL"},{"zip":"33841","fips":"12049","name":"Hardee County","state_id":"FL"},{"zip":"33843","fips":"12105","name":"Polk County","state_id":"FL"},{"zip":"33843","fips":"12055","name":"Highlands County","state_id":"FL"},{"zip":"33844","fips":"12105","name":"Polk County","state_id":"FL"},{"zip":"33845","fips":"12105","name":"Polk County","state_id":"FL"},{"zip":"33846","fips":"12105","name":"Polk County","state_id":"FL"},{"zip":"33847","fips":"12105","name":"Polk County","state_id":"FL"},{"zip":"33848","fips":"12097","name":"Osceola County","state_id":"FL"},{"zip":"33849","fips":"12105","name":"Polk County","state_id":"FL"},{"zip":"33849","fips":"12101","name":"Pasco County","state_id":"FL"},{"zip":"33850","fips":"12105","name":"Polk County","state_id":"FL"},{"zip":"33851","fips":"12105","name":"Polk County","state_id":"FL"},{"zip":"33852","fips":"12055","name":"Highlands County","state_id":"FL"},{"zip":"33853","fips":"12105","name":"Polk County","state_id":"FL"},{"zip":"33854","fips":"12105","name":"Polk County","state_id":"FL"},{"zip":"33855","fips":"12105","name":"Polk County","state_id":"FL"},{"zip":"33856","fips":"12105","name":"Polk County","state_id":"FL"},{"zip":"33857","fips":"12055","name":"Highlands County","state_id":"FL"},{"zip":"33858","fips":"12105","name":"Polk County","state_id":"FL"},{"zip":"33859","fips":"12105","name":"Polk County","state_id":"FL"},{"zip":"33860","fips":"12105","name":"Polk County","state_id":"FL"},{"zip":"33860","fips":"12057","name":"Hillsborough County","state_id":"FL"},{"zip":"33862","fips":"12055","name":"Highlands County","state_id":"FL"},{"zip":"33863","fips":"12105","name":"Polk County","state_id":"FL"},{"zip":"33865","fips":"12049","name":"Hardee County","state_id":"FL"},{"zip":"33865","fips":"12027","name":"DeSoto County","state_id":"FL"},{"zip":"33867","fips":"12105","name":"Polk County","state_id":"FL"},{"zip":"33868","fips":"12105","name":"Polk County","state_id":"FL"},{"zip":"33870","fips":"12055","name":"Highlands County","state_id":"FL"},{"zip":"33871","fips":"12055","name":"Highlands County","state_id":"FL"},{"zip":"33872","fips":"12055","name":"Highlands County","state_id":"FL"},{"zip":"33873","fips":"12049","name":"Hardee County","state_id":"FL"},{"zip":"33875","fips":"12055","name":"Highlands County","state_id":"FL"},{"zip":"33876","fips":"12055","name":"Highlands County","state_id":"FL"},{"zip":"33877","fips":"12105","name":"Polk County","state_id":"FL"},{"zip":"33880","fips":"12105","name":"Polk County","state_id":"FL"},{"zip":"33881","fips":"12105","name":"Polk County","state_id":"FL"},{"zip":"33882","fips":"12105","name":"Polk County","state_id":"FL"},{"zip":"33883","fips":"12105","name":"Polk County","state_id":"FL"},{"zip":"33884","fips":"12105","name":"Polk County","state_id":"FL"},{"zip":"33885","fips":"12105","name":"Polk County","state_id":"FL"},{"zip":"33890","fips":"12055","name":"Highlands County","state_id":"FL"},{"zip":"33890","fips":"12049","name":"Hardee County","state_id":"FL"},{"zip":"33896","fips":"12097","name":"Osceola County","state_id":"FL"},{"zip":"33896","fips":"12105","name":"Polk County","state_id":"FL"},{"zip":"33897","fips":"12097","name":"Osceola County","state_id":"FL"},{"zip":"33897","fips":"12105","name":"Polk County","state_id":"FL"},{"zip":"33898","fips":"12105","name":"Polk County","state_id":"FL"}]
