[{"zip":"33901","fips":"12071","name":"Lee County","state_id":"FL"},{"zip":"33902","fips":"12071","name":"Lee County","state_id":"FL"},{"zip":"33903","fips":"12071","name":"Lee County","state_id":"FL"},{"zip":"33904","fips":"12071","name":"Lee County","state_id":"FL"},{"zip":"33905","fips":"12071","name":"Lee County","state_id":"FL"},{"zip":"33906","fips":"12071","name":"Lee County","state_id":"FL"},{"zip":"33907","fips":"12071","name":"Lee County","state_id":"FL"},{"zip":"33908","fips":"12071","name":"Lee County","state_id":"FL"},{"zip":"33909","fips":"12071","name":"Lee County","state_id":"FL"},{"zip":"33910","fips":"12071","name":"Lee County","state_id":"FL"},{"zip":"33912","fips":"12071","name":"Lee County","state_id":"FL"},{"zip":"33913","fips":"12071","name":"Lee County","state_id":"FL"},{"zip":"33914","fips":"12071","name":"Lee County","state_id":"FL"},{"zip":"33915","fips":"12071","name":"Lee County","state_id":"FL"},{"zip":"33916","fips":"12071","name":"Lee County","state_id":"FL"},{"zip":"33917","fips":"12015","name":"Charlotte County","state_id":"FL"},{"zip":"33917","fips":"12071","name":"Lee County","state_id":"FL"},{"zip":"33918","fips":"12071","name":"Lee County","state_id":"FL"},{"zip":"33919","fips":"12071","name":"Lee County","state_id":"FL"},{"zip":"33920","fips":"12071","name":"Lee County","state_id":"FL"},{"zip":"33921","fips":"12071","name":"Lee County","state_id":"FL"},{"zip":"33922","fips":"12071","name":"Lee County","state_id":"FL"},{"zip":"33924","fips":"12071","name":"Lee County","state_id":"FL"},{"zip":"33928","fips":"12071","name":"Lee County","state_id":"FL"},{"zip":"33928","fips":"12021","name":"Collier County","state_id":"FL"},{"zip":"33929","fips":"12071","name":"Lee County","state_id":"FL"},{"zip":"33930","fips":"12051","name":"Hendry County","state_id":"FL"},{"zip":"33931","fips":"12071","name":"Lee County","state_id":"FL"},{"zip":"33932","fips":"12071","name":"Lee County","state_id":"FL"},{"zip":"33935","fips":"12043","name":"Glades County","state_id":"FL"},{"zip":"33935","fips":"12051","name":"Hendry County","state_id":"FL"},{"zip":"33936","fips":"12071","name":"Lee County","state_id":"FL"},{"zip":"33936","fips":"12051","name":"Hendry County","state_id":"FL"},{"zip":"33938","fips":"12015","name":"Charlotte County","state_id":"FL"},{"zip":"33944","fips":"12043","name":"Glades County","state_id":"FL"},{"zip":"33945","fips":"12071","name":"Lee County","state_id":"FL"},{"zip":"33946","fips":"12015","name":"Charlotte County","state_id":"FL"},{"zip":"33947","fips":"12015","name":"Charlotte County","state_id":"FL"},{"zip":"33948","fips":"12015","name":"Charlotte County","state_id":"FL"},{"zip":"33949","fips":"12015","name":"Charlotte County","state_id":"FL"},{"zip":"33950","fips":"12015","name":"Charlotte County","state_id":"FL"},{"zip":"33951","fips":"12015","name":"Charlotte County","state_id":"FL"},{"zip":"33952","fips":"12015","name":"Charlotte County","state_id":"FL"},{"zip":"33953","fips":"12015","name":"Charlotte County","state_id":"FL"},{"zip":"33954","fips":"12015","name":"Charlotte County","state_id":"FL"},{"zip":"33955","fips":"12071","name":"Lee County","state_id":"FL"},{"zip":"33955","fips":"12015","name":"Charlotte County","state_id":"FL"},{"zip":"33956","fips":"12071","name":"Lee County","state_id":"FL"},{"zip":"33957","fips":"12071","name":"Lee County","state_id":"FL"},{"zip":"33960","fips":"12055","name":"Highlands County","state_id":"FL"},{"zip":"33960","fips":"12043","name":"Glades County","state_id":"FL"},{"zip":"33965","fips":"12071","name":"Lee County","state_id":"FL"},{"zip":"33966","fips":"12071","name":"Lee County","state_id":"FL"},{"zip":"33967","fips":"12071","name":"Lee County","state_id":"FL"},{"zip":"33970","fips":"12071","name":"Lee County","state_id":"FL"},{"zip":"33971","fips":"12071","name":"Lee County","state_id":"FL"},{"zip":"33972","fips":"12071","name":"Lee County","state_id":"FL"},{"zip":"33973","fips":"12071","name":"Lee County","state_id":"FL"},{"zip":"33974","fips":"12071","name":"Lee County","state_id":"FL"},{"zip":"33975","fips":"12051","name":"Hendry County","state_id":"FL"},{"zip":"33976","fips":"12071","name":"Lee County","state_id":"FL"},{"zip":"33980","fips":"12015","name":"Charlotte County","state_id":"FL"},{"zip":"33981","fips":"12015","name":"Charlotte County","state_id":"FL"},{"zip":"33982","fips":"12015","name":"Charlotte County","state_id":"FL"},{"zip":"33983","fips":"12015","name":"Charlotte County","state_id":"FL"},{"zip":"33990","fips":"12071","name":"Lee County","state_id":"FL"},{"zip":"33991","fips":"12071","name":"Lee County","state_id":"FL"},{"zip":"33993","fips":"12071","name":"Lee County","state_id":"FL"},{"zip":"33994","fips":"12071","name":"Lee County","state_id":"FL"}]
