[{"zip":"34101","fips":"12021","name":"Collier County","state_id":"FL"},{"zip":"34102","fips":"12021","name":"Collier County","state_id":"FL"},{"zip":"34103","fips":"12021","name":"Collier County","state_id":"FL"},{"zip":"34104","fips":"12021","name":"Collier County","state_id":"FL"},{"zip":"34105","fips":"12021","name":"Collier County","state_id":"FL"},{"zip":"34106","fips":"12021","name":"Collier County","state_id":"FL"},{"zip":"34107","fips":"12021","name":"Collier County","state_id":"FL"},{"zip":"34108","fips":"12021","name":"Collier County","state_id":"FL"},{"zip":"34109","fips":"12021","name":"Collier County","state_id":"FL"},{"zip":"34110","fips":"12021","name":"Collier County","state_id":"FL"},{"zip":"34110","fips":"12071","name":"Lee County","state_id":"FL"},{"zip":"34112","fips":"12021","name":"Collier County","state_id":"FL"},{"zip":"34113","fips":"12021","name":"Collier County","state_id":"FL"},{"zip":"34114","fips":"12021","name":"Collier County","state_id":"FL"},{"zip":"34116","fips":"12021","name":"Collier County","state_id":"FL"},{"zip":"34117","fips":"12021","name":"Collier County","state_id":"FL"},{"zip":"34119","fips":"12021","name":"Collier County","state_id":"FL"},{"zip":"34119","fips":"12071","name":"Lee County","state_id":"FL"},{"zip":"34120","fips":"12021","name":"Collier County","state_id":"FL"},{"zip":"34133","fips":"12071","name":"Lee County","state_id":"FL"},{"zip":"34134","fips":"12071","name":"Lee County","state_id":"FL"},{"zip":"34134","fips":"12021","name":"Collier County","state_id":"FL"},{"zip":"34135","fips":"12021","name":"Collier County","state_id":"FL"},{"zip":"34135","fips":"12071","name":"Lee County","state_id":"FL"},{"zip":"34136","fips":"12071","name":"Lee County","state_id":"FL"},{"zip":"34138","fips":"12021","name":"Collier County","state_id":"FL"},{"zip":"34139","fips":"12021","name":"Collier County","state_id":"FL"},{"zip":"34140","fips":"12021","name":"Collier County","state_id":"FL"},{"zip":"34141","fips":"12021","name":"Collier County","state_id":"FL"},{"zip":"34142","fips":"12021","name":"Collier County","state_id":"FL"},{"zip":"34142","fips":"12051","name":"Hendry County","state_id":"FL"},{"zip":"34145","fips":"12021","name":"Collier County","state_id":"FL"},{"zip":"34146","fips":"12021","name":"Collier County","state_id":"FL"}]
