[{"zip":"34201","fips":"12081","name":"Manatee County","state_id":"FL"},{"zip":"34202","fips":"12081","name":"Manatee County","state_id":"FL"},{"zip":"34203","fips":"12081","name":"Manatee County","state_id":"FL"},{"zip":"34204","fips":"12081","name":"Manatee County","state_id":"FL"},{"zip":"34205","fips":"12081","name":"Manatee County","state_id":"FL"},{"zip":"34206","fips":"12081","name":"Manatee County","state_id":"FL"},{"zip":"34207","fips":"12081","name":"Manatee County","state_id":"FL"},{"zip":"34208","fips":"12081","name":"Manatee County","state_id":"FL"},{"zip":"34209","fips":"12081","name":"Manatee County","state_id":"FL"},{"zip":"34210","fips":"12081","name":"Manatee County","state_id":"FL"},{"zip":"34211","fips":"12081","name":"Manatee County","state_id":"FL"},{"zip":"34212","fips":"12081","name":"Manatee County","state_id":"FL"},{"zip":"34215","fips":"12081","name":"Manatee County","state_id":"FL"},{"zip":"34216","fips":"12081","name":"Manatee County","state_id":"FL"},{"zip":"34217","fips":"12081","name":"Manatee County","state_id":"FL"},{"zip":"34219","fips":"12081","name":"Manatee County","state_id":"FL"},{"zip":"34220","fips":"12081","name":"Manatee County","state_id":"FL"},{"zip":"34221","fips":"12081","name":"Manatee County","state_id":"FL"},{"zip":"34222","fips":"12081","name":"Manatee County","state_id":"FL"},{"zip":"34223","fips":"12015","name":"Charlotte County","state_id":"FL"},{"zip":"34223","fips":"12115","name":"Sarasota County","state_id":"FL"},{"zip":"34224","fips":"12115","name":"Sarasota County","state_id":"FL"},{"zip":"34224","fips":"12015","name":"Charlotte County","state_id":"FL"},{"zip":"34228","fips":"12115","name":"Sarasota County","state_id":"FL"},{"zip":"34228","fips":"12081","name":"Manatee County","state_id":"FL"},{"zip":"34229","fips":"12115","name":"Sarasota County","state_id":"FL"},{"zip":"34230","fips":"12115","name":"Sarasota County","state_id":"FL"},{"zip":"34231","fips":"12115","name":"Sarasota County","state_id":"FL"},{"zip":"34232","fips":"12115","name":"Sarasota County","state_id":"FL"},{"zip":"34233","fips":"12115","name":"Sarasota County","state_id":"FL"},{"zip":"34234","fips":"12115","name":"Sarasota County","state_id":"FL"},{"zip":"34235","fips":"12115","name":"Sarasota County","state_id":"FL"},{"zip":"34236","fips":"12115","name":"Sarasota County","state_id":"FL"},{"zip":"34237","fips":"12115","name":"Sarasota County","state_id":"FL"},{"zip":"34238","fips":"12115","name":"Sarasota County","state_id":"FL"},{"zip":"34239","fips":"12115","name":"Sarasota County","state_id":"FL"},{"zip":"34240","fips":"12115","name":"Sarasota County","state_id":"FL"},{"zip":"34241","fips":"12115","name":"Sarasota County","state_id":"FL"},{"zip":"34242","fips":"12115","name":"Sarasota County","state_id":"FL"},{"zip":"34243","fips":"12115","name":"Sarasota County","state_id":"FL"},{"zip":"34243","fips":"12081","name":"Manatee County","state_id":"FL"},{"zip":"34249","fips":"12115","name":"Sarasota County","state_id":"FL"},{"zip":"34250","fips":"12081","name":"Manatee County","state_id":"FL"},{"zip":"34251","fips":"12081","name":"Manatee County","state_id":"FL"},{"zip":"34251","fips":"12115","name":"Sarasota County","state_id":"FL"},{"zip":"34260","fips":"12081","name":"Manatee County","state_id":"FL"},{"zip":"34264","fips":"12081","name":"Manatee County","state_id":"FL"},{"zip":"34266","fips":"12081","name":"Manatee County","state_id":"FL"},{"zip":"34266","fips":"12055","name":"Highlands County","state_id":"FL"},{"zip":"34266","fips":"12015","name":"Charlotte County","state_id":"FL"},{"zip":"34266","fips":"12115","name":"Sarasota County","state_id":"FL"},{"zip":"34266","fips":"12027","name":"DeSoto County","state_id":"FL"},{"zip":"34267","fips":"12027","name":"DeSoto County","state_id":"FL"},{"zip":"34268","fips":"12027","name":"DeSoto County","state_id":"FL"},{"zip":"34269","fips":"12015","name":"Charlotte County","state_id":"FL"},{"zip":"34269","fips":"12027","name":"DeSoto County","state_id":"FL"},{"zip":"34270","fips":"12081","name":"Manatee County","state_id":"FL"},{"zip":"34272","fips":"12115","name":"Sarasota County","state_id":"FL"},{"zip":"34274","fips":"12115","name":"Sarasota County","state_id":"FL"},{"zip":"34275","fips":"12115","name":"Sarasota County","state_id":"FL"},{"zip":"34276","fips":"12115","name":"Sarasota County","state_id":"FL"},{"zip":"34277","fips":"12115","name":"Sarasota County","state_id":"FL"},{"zip":"34280","fips":"12081","name":"Manatee County","state_id":"FL"},{"zip":"34282","fips":"12081","name":"Manatee County","state_id":"FL"},{"zip":"34284","fips":"12115","name":"Sarasota County","state_id":"FL"},{"zip":"34285","fips":"12115","name":"Sarasota County","state_id":"FL"},{"zip":"34286","fips":"12115","name":"Sarasota County","state_id":"FL"},{"zip":"34287","fips":"12015","name":"Charlotte County","state_id":"FL"},{"zip":"34287","fips":"12115","name":"Sarasota County","state_id":"FL"},{"zip":"34288","fips":"12115","name":"Sarasota County","state_id":"FL"},{"zip":"34289","fips":"12115","name":"Sarasota County","state_id":"FL"},{"zip":"34290","fips":"12115","name":"Sarasota County","state_id":"FL"},{"zip":"34291","fips":"12115","name":"Sarasota County","state_id":"FL"},{"zip":"34292","fips":"12115","name":"Sarasota County","state_id":"FL"},{"zip":"34293","fips":"12115","name":"Sarasota County","state_id":"FL"},{"zip":"34295","fips":"12115","name":"Sarasota County","state_id":"FL"}]
