[{"zip":"34420","fips":"12083","name":"Marion County","state_id":"FL"},{"zip":"34423","fips":"12017","name":"Citrus County","state_id":"FL"},{"zip":"34428","fips":"12017","name":"Citrus County","state_id":"FL"},{"zip":"34429","fips":"12017","name":"Citrus County","state_id":"FL"},{"zip":"34430","fips":"12083","name":"Marion County","state_id":"FL"},{"zip":"34431","fips":"12075","name":"Levy County","state_id":"FL"},{"zip":"34431","fips":"12083","name":"Marion County","state_id":"FL"},{"zip":"34432","fips":"12083","name":"Marion County","state_id":"FL"},{"zip":"34433","fips":"12017","name":"Citrus County","state_id":"FL"},{"zip":"34434","fips":"12017","name":"Citrus County","state_id":"FL"},{"zip":"34436","fips":"12017","name":"Citrus County","state_id":"FL"},{"zip":"34441","fips":"12017","name":"Citrus County","state_id":"FL"},{"zip":"34442","fips":"12017","name":"Citrus County","state_id":"FL"},{"zip":"34445","fips":"12017","name":"Citrus County","state_id":"FL"},{"zip":"34446","fips":"12017","name":"Citrus County","state_id":"FL"},{"zip":"34447","fips":"12017","name":"Citrus County","state_id":"FL"},{"zip":"34448","fips":"12017","name":"Citrus County","state_id":"FL"},{"zip":"34449","fips":"12017","name":"Citrus County","state_id":"FL"},{"zip":"34449","fips":"12075","name":"Levy County","state_id":"FL"},{"zip":"34450","fips":"12017","name":"Citrus County","state_id":"FL"},{"zip":"34451","fips":"12017","name":"Citrus County","state_id":"FL"},{"zip":"34452","fips":"12017","name":"Citrus County","state_id":"FL"},{"zip":"34453","fips":"12017","name":"Citrus County","state_id":"FL"},{"zip":"34460","fips":"12017","name":"Citrus County","state_id":"FL"},{"zip":"34461","fips":"12017","name":"Citrus County","state_id":"FL"},{"zip":"34464","fips":"12017","name":"Citrus County","state_id":"FL"},{"zip":"34465","fips":"12017","name":"Citrus County","state_id":"FL"},{"zip":"34470","fips":"12083","name":"Marion County","state_id":"FL"},{"zip":"34471","fips":"12083","name":"Marion County","state_id":"FL"},{"zip":"34472","fips":"12083","name":"Marion County","state_id":"FL"},{"zip":"34473","fips":"12083","name":"Marion County","state_id":"FL"},{"zip":"34474","fips":"12083","name":"Marion County","state_id":"FL"},{"zip":"34475","fips":"12083","name":"Marion County","state_id":"FL"},{"zip":"34476","fips":"12083","name":"Marion County","state_id":"FL"},{"zip":"34477","fips":"12083","name":"Marion County","state_id":"FL"},{"zip":"34478","fips":"12083","name":"Marion County","state_id":"FL"},{"zip":"34479","fips":"12083","name":"Marion County","state_id":"FL"},{"zip":"34480","fips":"12083","name":"Marion County","state_id":"FL"},{"zip":"34481","fips":"12083","name":"Marion County","state_id":"FL"},{"zip":"34482","fips":"12083","name":"Marion County","state_id":"FL"},{"zip":"34483","fips":"12083","name":"Marion County","state_id":"FL"},{"zip":"34484","fips":"12119","name":"Sumter County","state_id":"FL"},{"zip":"34484","fips":"12083","name":"Marion County","state_id":"FL"},{"zip":"34487","fips":"12017","name":"Citrus County","state_id":"FL"},{"zip":"34488","fips":"12083","name":"Marion County","state_id":"FL"},{"zip":"34489","fips":"12083","name":"Marion County","state_id":"FL"},{"zip":"34491","fips":"12119","name":"Sumter County","state_id":"FL"},{"zip":"34491","fips":"12083","name":"Marion County","state_id":"FL"},{"zip":"34492","fips":"12083","name":"Marion County","state_id":"FL"},{"zip":"34498","fips":"12075","name":"Levy County","state_id":"FL"}]
