[{"zip":"34601","fips":"12053","name":"Hernando County","state_id":"FL"},{"zip":"34601","fips":"12017","name":"Citrus County","state_id":"FL"},{"zip":"34602","fips":"12053","name":"Hernando County","state_id":"FL"},{"zip":"34603","fips":"12053","name":"Hernando County","state_id":"FL"},{"zip":"34604","fips":"12053","name":"Hernando County","state_id":"FL"},{"zip":"34604","fips":"12101","name":"Pasco County","state_id":"FL"},{"zip":"34605","fips":"12053","name":"Hernando County","state_id":"FL"},{"zip":"34606","fips":"12053","name":"Hernando County","state_id":"FL"},{"zip":"34607","fips":"12053","name":"Hernando County","state_id":"FL"},{"zip":"34608","fips":"12053","name":"Hernando County","state_id":"FL"},{"zip":"34609","fips":"12101","name":"Pasco County","state_id":"FL"},{"zip":"34609","fips":"12053","name":"Hernando County","state_id":"FL"},{"zip":"34610","fips":"12101","name":"Pasco County","state_id":"FL"},{"zip":"34611","fips":"12053","name":"Hernando County","state_id":"FL"},{"zip":"34613","fips":"12053","name":"Hernando County","state_id":"FL"},{"zip":"34614","fips":"12053","name":"Hernando County","state_id":"FL"},{"zip":"34636","fips":"12053","name":"Hernando County","state_id":"FL"},{"zip":"34637","fips":"12101","name":"Pasco County","state_id":"FL"},{"zip":"34638","fips":"12101","name":"Pasco County","state_id":"FL"},{"zip":"34639","fips":"12101","name":"Pasco County","state_id":"FL"},{"zip":"34652","fips":"12101","name":"Pasco County","state_id":"FL"},{"zip":"34653","fips":"12101","name":"Pasco County","state_id":"FL"},{"zip":"34654","fips":"12101","name":"Pasco County","state_id":"FL"},{"zip":"34655","fips":"12101","name":"Pasco County","state_id":"FL"},{"zip":"34656","fips":"12101","name":"Pasco County","state_id":"FL"},{"zip":"34660","fips":"12103","name":"Pinellas County","state_id":"FL"},{"zip":"34661","fips":"12053","name":"Hernando County","state_id":"FL"},{"zip":"34667","fips":"12101","name":"Pasco County","state_id":"FL"},{"zip":"34668","fips":"12101","name":"Pasco County","state_id":"FL"},{"zip":"34669","fips":"12101","name":"Pasco County","state_id":"FL"},{"zip":"34673","fips":"12101","name":"Pasco County","state_id":"FL"},{"zip":"34674","fips":"12101","name":"Pasco County","state_id":"FL"},{"zip":"34677","fips":"12103","name":"Pinellas County","state_id":"FL"},{"zip":"34679","fips":"12101","name":"Pasco County","state_id":"FL"},{"zip":"34680","fips":"12101","name":"Pasco County","state_id":"FL"},{"zip":"34681","fips":"12103","name":"Pinellas County","state_id":"FL"},{"zip":"34682","fips":"12103","name":"Pinellas County","state_id":"FL"},{"zip":"34683","fips":"12103","name":"Pinellas County","state_id":"FL"},{"zip":"34684","fips":"12103","name":"Pinellas County","state_id":"FL"},{"zip":"34685","fips":"12103","name":"Pinellas County","state_id":"FL"},{"zip":"34688","fips":"12103","name":"Pinellas County","state_id":"FL"},{"zip":"34689","fips":"12103","name":"Pinellas County","state_id":"FL"},{"zip":"34689","fips":"12101","name":"Pasco County","state_id":"FL"},{"zip":"34690","fips":"12101","name":"Pasco County","state_id":"FL"},{"zip":"34691","fips":"12101","name":"Pasco County","state_id":"FL"},{"zip":"34692","fips":"12101","name":"Pasco County","state_id":"FL"},{"zip":"34695","fips":"12103","name":"Pinellas County","state_id":"FL"},{"zip":"34697","fips":"12103","name":"Pinellas County","state_id":"FL"},{"zip":"34698","fips":"12103","name":"Pinellas County","state_id":"FL"}]
