[{"zip":"34705","fips":"12069","name":"Lake County","state_id":"FL"},{"zip":"34711","fips":"12069","name":"Lake County","state_id":"FL"},{"zip":"34712","fips":"12069","name":"Lake County","state_id":"FL"},{"zip":"34713","fips":"12069","name":"Lake County","state_id":"FL"},{"zip":"34714","fips":"12105","name":"Polk County","state_id":"FL"},{"zip":"34714","fips":"12069","name":"Lake County","state_id":"FL"},{"zip":"34714","fips":"12097","name":"Osceola County","state_id":"FL"},{"zip":"34715","fips":"12069","name":"Lake County","state_id":"FL"},{"zip":"34729","fips":"12069","name":"Lake County","state_id":"FL"},{"zip":"34731","fips":"12069","name":"Lake County","state_id":"FL"},{"zip":"34731","fips":"12119","name":"Sumter County","state_id":"FL"},{"zip":"34734","fips":"12095","name":"Orange County","state_id":"FL"},{"zip":"34736","fips":"12069","name":"Lake County","state_id":"FL"},{"zip":"34737","fips":"12069","name":"Lake County","state_id":"FL"},{"zip":"34739","fips":"12097","name":"Osceola County","state_id":"FL"},{"zip":"34740","fips":"12095","name":"Orange County","state_id":"FL"},{"zip":"34741","fips":"12097","name":"Osceola County","state_id":"FL"},{"zip":"34742","fips":"12097","name":"Osceola County","state_id":"FL"},{"zip":"34743","fips":"12097","name":"Osceola County","state_id":"FL"},{"zip":"34744","fips":"12097","name":"Osceola County","state_id":"FL"},{"zip":"34745","fips":"12097","name":"Osceola County","state_id":"FL"},{"zip":"34746","fips":"12097","name":"Osceola County","state_id":"FL"},{"zip":"34747","fips":"12097","name":"Osceola County","state_id":"FL"},{"zip":"34747","fips":"12095","name":"Orange County","state_id":"FL"},{"zip":"34748","fips":"12069","name":"Lake County","state_id":"FL"},{"zip":"34749","fips":"12069","name":"Lake County","state_id":"FL"},{"zip":"34753","fips":"12069","name":"Lake County","state_id":"FL"},{"zip":"34755","fips":"12069","name":"Lake County","state_id":"FL"},{"zip":"34756","fips":"12069","name":"Lake County","state_id":"FL"},{"zip":"34758","fips":"12097","name":"Osceola County","state_id":"FL"},{"zip":"34759","fips":"12097","name":"Osceola County","state_id":"FL"},{"zip":"34759","fips":"12105","name":"Polk County","state_id":"FL"},{"zip":"34760","fips":"12095","name":"Orange County","state_id":"FL"},{"zip":"34761","fips":"12095","name":"Orange County","state_id":"FL"},{"zip":"34762","fips":"12069","name":"Lake County","state_id":"FL"},{"zip":"34769","fips":"12097","name":"Osceola County","state_id":"FL"},{"zip":"34770","fips":"12097","name":"Osceola County","state_id":"FL"},{"zip":"34771","fips":"12097","name":"Osceola County","state_id":"FL"},{"zip":"34772","fips":"12097","name":"Osceola County","state_id":"FL"},{"zip":"34773","fips":"12097","name":"Osceola County","state_id":"FL"},{"zip":"34777","fips":"12095","name":"Orange County","state_id":"FL"},{"zip":"34778","fips":"12095","name":"Orange County","state_id":"FL"},{"zip":"34785","fips":"12119","name":"Sumter County","state_id":"FL"},{"zip":"34786","fips":"12095","name":"Orange County","state_id":"FL"},{"zip":"34787","fips":"12069","name":"Lake County","state_id":"FL"},{"zip":"34787","fips":"12095","name":"Orange County","state_id":"FL"},{"zip":"34788","fips":"12069","name":"Lake County","state_id":"FL"},{"zip":"34789","fips":"12069","name":"Lake County","state_id":"FL"},{"zip":"34797","fips":"12069","name":"Lake County","state_id":"FL"}]
