[{"zip":"34945","fips":"12111","name":"St. Lucie County","state_id":"FL"},{"zip":"34946","fips":"12111","name":"St. Lucie County","state_id":"FL"},{"zip":"34947","fips":"12111","name":"St. Lucie County","state_id":"FL"},{"zip":"34948","fips":"12111","name":"St. Lucie County","state_id":"FL"},{"zip":"34949","fips":"12111","name":"St. Lucie County","state_id":"FL"},{"zip":"34950","fips":"12111","name":"St. Lucie County","state_id":"FL"},{"zip":"34951","fips":"12061","name":"Indian River County","state_id":"FL"},{"zip":"34951","fips":"12111","name":"St. Lucie County","state_id":"FL"},{"zip":"34952","fips":"12111","name":"St. Lucie County","state_id":"FL"},{"zip":"34953","fips":"12111","name":"St. Lucie County","state_id":"FL"},{"zip":"34954","fips":"12111","name":"St. Lucie County","state_id":"FL"},{"zip":"34956","fips":"12085","name":"Martin County","state_id":"FL"},{"zip":"34957","fips":"12085","name":"Martin County","state_id":"FL"},{"zip":"34957","fips":"12111","name":"St. Lucie County","state_id":"FL"},{"zip":"34958","fips":"12085","name":"Martin County","state_id":"FL"},{"zip":"34972","fips":"12097","name":"Osceola County","state_id":"FL"},{"zip":"34972","fips":"12111","name":"St. Lucie County","state_id":"FL"},{"zip":"34972","fips":"12093","name":"Okeechobee County","state_id":"FL"},{"zip":"34973","fips":"12093","name":"Okeechobee County","state_id":"FL"},{"zip":"34974","fips":"12093","name":"Okeechobee County","state_id":"FL"},{"zip":"34974","fips":"12085","name":"Martin County","state_id":"FL"},{"zip":"34974","fips":"12043","name":"Glades County","state_id":"FL"},{"zip":"34974","fips":"12055","name":"Highlands County","state_id":"FL"},{"zip":"34979","fips":"12111","name":"St. Lucie County","state_id":"FL"},{"zip":"34981","fips":"12111","name":"St. Lucie County","state_id":"FL"},{"zip":"34982","fips":"12111","name":"St. Lucie County","state_id":"FL"},{"zip":"34983","fips":"12111","name":"St. Lucie County","state_id":"FL"},{"zip":"34984","fips":"12111","name":"St. Lucie County","state_id":"FL"},{"zip":"34985","fips":"12111","name":"St. Lucie County","state_id":"FL"},{"zip":"34986","fips":"12111","name":"St. Lucie County","state_id":"FL"},{"zip":"34987","fips":"12111","name":"St. Lucie County","state_id":"FL"},{"zip":"34988","fips":"12111","name":"St. Lucie County","state_id":"FL"},{"zip":"34990","fips":"12111","name":"St. Lucie County","state_id":"FL"},{"zip":"34990","fips":"12085","name":"Martin County","state_id":"FL"},{"zip":"34991","fips":"12085","name":"Martin County","state_id":"FL"},{"zip":"34992","fips":"12085","name":"Martin County","state_id":"FL"},{"zip":"34994","fips":"12085","name":"Martin County","state_id":"FL"},{"zip":"34995","fips":"12085","name":"Martin County","state_id":"FL"},{"zip":"34996","fips":"12085","name":"Martin County","state_id":"FL"},{"zip":"34997","fips":"12085","name":"Martin County","state_id":"FL"}]
