[{"zip":"35004","fips":"01115","name":"St. Clair County","state_id":"AL"},{"zip":"35005","fips":"01073","name":"Jefferson County","state_id":"AL"},{"zip":"35006","fips":"01127","name":"Walker County","state_id":"AL"},{"zip":"35006","fips":"01125","name":"Tuscaloosa County","state_id":"AL"},{"zip":"35006","fips":"01073","name":"Jefferson County","state_id":"AL"},{"zip":"35007","fips":"01117","name":"Shelby County","state_id":"AL"},{"zip":"35010","fips":"01037","name":"Coosa County","state_id":"AL"},{"zip":"35010","fips":"01051","name":"Elmore County","state_id":"AL"},{"zip":"35010","fips":"01123","name":"Tallapoosa County","state_id":"AL"},{"zip":"35013","fips":"01009","name":"Blount County","state_id":"AL"},{"zip":"35014","fips":"01121","name":"Talladega County","state_id":"AL"},{"zip":"35015","fips":"01073","name":"Jefferson County","state_id":"AL"},{"zip":"35016","fips":"01095","name":"Marshall County","state_id":"AL"},{"zip":"35016","fips":"01009","name":"Blount County","state_id":"AL"},{"zip":"35016","fips":"01043","name":"Cullman County","state_id":"AL"},{"zip":"35016","fips":"01103","name":"Morgan County","state_id":"AL"},{"zip":"35019","fips":"01103","name":"Morgan County","state_id":"AL"},{"zip":"35019","fips":"01043","name":"Cullman County","state_id":"AL"},{"zip":"35020","fips":"01073","name":"Jefferson County","state_id":"AL"},{"zip":"35021","fips":"01073","name":"Jefferson County","state_id":"AL"},{"zip":"35022","fips":"01117","name":"Shelby County","state_id":"AL"},{"zip":"35022","fips":"01073","name":"Jefferson County","state_id":"AL"},{"zip":"35023","fips":"01073","name":"Jefferson County","state_id":"AL"},{"zip":"35031","fips":"01095","name":"Marshall County","state_id":"AL"},{"zip":"35031","fips":"01009","name":"Blount County","state_id":"AL"},{"zip":"35032","fips":"01121","name":"Talladega County","state_id":"AL"},{"zip":"35033","fips":"01127","name":"Walker County","state_id":"AL"},{"zip":"35033","fips":"01043","name":"Cullman County","state_id":"AL"},{"zip":"35034","fips":"01007","name":"Bibb County","state_id":"AL"},{"zip":"35034","fips":"01105","name":"Perry County","state_id":"AL"},{"zip":"35035","fips":"01007","name":"Bibb County","state_id":"AL"},{"zip":"35035","fips":"01117","name":"Shelby County","state_id":"AL"},{"zip":"35036","fips":"01073","name":"Jefferson County","state_id":"AL"},{"zip":"35038","fips":"01127","name":"Walker County","state_id":"AL"},{"zip":"35040","fips":"01021","name":"Chilton County","state_id":"AL"},{"zip":"35040","fips":"01117","name":"Shelby County","state_id":"AL"},{"zip":"35042","fips":"01007","name":"Bibb County","state_id":"AL"},{"zip":"35042","fips":"01105","name":"Perry County","state_id":"AL"},{"zip":"35043","fips":"01117","name":"Shelby County","state_id":"AL"},{"zip":"35044","fips":"01121","name":"Talladega County","state_id":"AL"},{"zip":"35045","fips":"01021","name":"Chilton County","state_id":"AL"},{"zip":"35046","fips":"01037","name":"Coosa County","state_id":"AL"},{"zip":"35046","fips":"01021","name":"Chilton County","state_id":"AL"},{"zip":"35048","fips":"01073","name":"Jefferson County","state_id":"AL"},{"zip":"35049","fips":"01009","name":"Blount County","state_id":"AL"},{"zip":"35051","fips":"01117","name":"Shelby County","state_id":"AL"},{"zip":"35052","fips":"01115","name":"St. Clair County","state_id":"AL"},{"zip":"35053","fips":"01133","name":"Winston County","state_id":"AL"},{"zip":"35053","fips":"01043","name":"Cullman County","state_id":"AL"},{"zip":"35054","fips":"01115","name":"St. Clair County","state_id":"AL"},{"zip":"35055","fips":"01043","name":"Cullman County","state_id":"AL"},{"zip":"35056","fips":"01043","name":"Cullman County","state_id":"AL"},{"zip":"35057","fips":"01043","name":"Cullman County","state_id":"AL"},{"zip":"35058","fips":"01103","name":"Morgan County","state_id":"AL"},{"zip":"35058","fips":"01043","name":"Cullman County","state_id":"AL"},{"zip":"35060","fips":"01073","name":"Jefferson County","state_id":"AL"},{"zip":"35061","fips":"01073","name":"Jefferson County","state_id":"AL"},{"zip":"35062","fips":"01073","name":"Jefferson County","state_id":"AL"},{"zip":"35062","fips":"01127","name":"Walker County","state_id":"AL"},{"zip":"35063","fips":"01009","name":"Blount County","state_id":"AL"},{"zip":"35063","fips":"01127","name":"Walker County","state_id":"AL"},{"zip":"35063","fips":"01073","name":"Jefferson County","state_id":"AL"},{"zip":"35064","fips":"01073","name":"Jefferson County","state_id":"AL"},{"zip":"35068","fips":"01073","name":"Jefferson County","state_id":"AL"},{"zip":"35070","fips":"01043","name":"Cullman County","state_id":"AL"},{"zip":"35071","fips":"01073","name":"Jefferson County","state_id":"AL"},{"zip":"35072","fips":"01121","name":"Talladega County","state_id":"AL"},{"zip":"35072","fips":"01123","name":"Tallapoosa County","state_id":"AL"},{"zip":"35072","fips":"01027","name":"Clay County","state_id":"AL"},{"zip":"35072","fips":"01037","name":"Coosa County","state_id":"AL"},{"zip":"35073","fips":"01073","name":"Jefferson County","state_id":"AL"},{"zip":"35074","fips":"01007","name":"Bibb County","state_id":"AL"},{"zip":"35077","fips":"01043","name":"Cullman County","state_id":"AL"},{"zip":"35078","fips":"01117","name":"Shelby County","state_id":"AL"},{"zip":"35079","fips":"01009","name":"Blount County","state_id":"AL"},{"zip":"35079","fips":"01073","name":"Jefferson County","state_id":"AL"},{"zip":"35080","fips":"01007","name":"Bibb County","state_id":"AL"},{"zip":"35080","fips":"01073","name":"Jefferson County","state_id":"AL"},{"zip":"35080","fips":"01117","name":"Shelby County","state_id":"AL"},{"zip":"35082","fips":"01027","name":"Clay County","state_id":"AL"},{"zip":"35082","fips":"01121","name":"Talladega County","state_id":"AL"},{"zip":"35083","fips":"01043","name":"Cullman County","state_id":"AL"},{"zip":"35085","fips":"01021","name":"Chilton County","state_id":"AL"},{"zip":"35087","fips":"01095","name":"Marshall County","state_id":"AL"},{"zip":"35087","fips":"01103","name":"Morgan County","state_id":"AL"},{"zip":"35087","fips":"01043","name":"Cullman County","state_id":"AL"},{"zip":"35089","fips":"01037","name":"Coosa County","state_id":"AL"},{"zip":"35089","fips":"01123","name":"Tallapoosa County","state_id":"AL"},{"zip":"35091","fips":"01073","name":"Jefferson County","state_id":"AL"},{"zip":"35094","fips":"01117","name":"Shelby County","state_id":"AL"},{"zip":"35094","fips":"01073","name":"Jefferson County","state_id":"AL"},{"zip":"35094","fips":"01115","name":"St. Clair County","state_id":"AL"},{"zip":"35096","fips":"01121","name":"Talladega County","state_id":"AL"},{"zip":"35096","fips":"01015","name":"Calhoun County","state_id":"AL"},{"zip":"35097","fips":"01009","name":"Blount County","state_id":"AL"},{"zip":"35098","fips":"01133","name":"Winston County","state_id":"AL"},{"zip":"35098","fips":"01043","name":"Cullman County","state_id":"AL"}]
