[{"zip":"35111","fips":"01125","name":"Tuscaloosa County","state_id":"AL"},{"zip":"35111","fips":"01073","name":"Jefferson County","state_id":"AL"},{"zip":"35111","fips":"01007","name":"Bibb County","state_id":"AL"},{"zip":"35112","fips":"01115","name":"St. Clair County","state_id":"AL"},{"zip":"35114","fips":"01117","name":"Shelby County","state_id":"AL"},{"zip":"35115","fips":"01021","name":"Chilton County","state_id":"AL"},{"zip":"35115","fips":"01007","name":"Bibb County","state_id":"AL"},{"zip":"35115","fips":"01117","name":"Shelby County","state_id":"AL"},{"zip":"35116","fips":"01073","name":"Jefferson County","state_id":"AL"},{"zip":"35117","fips":"01073","name":"Jefferson County","state_id":"AL"},{"zip":"35118","fips":"01073","name":"Jefferson County","state_id":"AL"},{"zip":"35119","fips":"01073","name":"Jefferson County","state_id":"AL"},{"zip":"35120","fips":"01115","name":"St. Clair County","state_id":"AL"},{"zip":"35121","fips":"01115","name":"St. Clair County","state_id":"AL"},{"zip":"35121","fips":"01009","name":"Blount County","state_id":"AL"},{"zip":"35121","fips":"01055","name":"Etowah County","state_id":"AL"},{"zip":"35123","fips":"01073","name":"Jefferson County","state_id":"AL"},{"zip":"35124","fips":"01117","name":"Shelby County","state_id":"AL"},{"zip":"35125","fips":"01115","name":"St. Clair County","state_id":"AL"},{"zip":"35126","fips":"01073","name":"Jefferson County","state_id":"AL"},{"zip":"35126","fips":"01009","name":"Blount County","state_id":"AL"},{"zip":"35127","fips":"01073","name":"Jefferson County","state_id":"AL"},{"zip":"35128","fips":"01117","name":"Shelby County","state_id":"AL"},{"zip":"35128","fips":"01115","name":"St. Clair County","state_id":"AL"},{"zip":"35130","fips":"01127","name":"Walker County","state_id":"AL"},{"zip":"35130","fips":"01073","name":"Jefferson County","state_id":"AL"},{"zip":"35131","fips":"01115","name":"St. Clair County","state_id":"AL"},{"zip":"35133","fips":"01009","name":"Blount County","state_id":"AL"},{"zip":"35133","fips":"01073","name":"Jefferson County","state_id":"AL"},{"zip":"35133","fips":"01115","name":"St. Clair County","state_id":"AL"},{"zip":"35135","fips":"01115","name":"St. Clair County","state_id":"AL"},{"zip":"35136","fips":"01051","name":"Elmore County","state_id":"AL"},{"zip":"35136","fips":"01037","name":"Coosa County","state_id":"AL"},{"zip":"35137","fips":"01117","name":"Shelby County","state_id":"AL"},{"zip":"35139","fips":"01073","name":"Jefferson County","state_id":"AL"},{"zip":"35142","fips":"01073","name":"Jefferson County","state_id":"AL"},{"zip":"35143","fips":"01117","name":"Shelby County","state_id":"AL"},{"zip":"35146","fips":"01009","name":"Blount County","state_id":"AL"},{"zip":"35146","fips":"01073","name":"Jefferson County","state_id":"AL"},{"zip":"35146","fips":"01115","name":"St. Clair County","state_id":"AL"},{"zip":"35147","fips":"01117","name":"Shelby County","state_id":"AL"},{"zip":"35148","fips":"01127","name":"Walker County","state_id":"AL"},{"zip":"35148","fips":"01073","name":"Jefferson County","state_id":"AL"},{"zip":"35149","fips":"01121","name":"Talladega County","state_id":"AL"},{"zip":"35150","fips":"01037","name":"Coosa County","state_id":"AL"},{"zip":"35150","fips":"01121","name":"Talladega County","state_id":"AL"},{"zip":"35151","fips":"01037","name":"Coosa County","state_id":"AL"},{"zip":"35151","fips":"01121","name":"Talladega County","state_id":"AL"},{"zip":"35160","fips":"01121","name":"Talladega County","state_id":"AL"},{"zip":"35160","fips":"01027","name":"Clay County","state_id":"AL"},{"zip":"35171","fips":"01021","name":"Chilton County","state_id":"AL"},{"zip":"35172","fips":"01073","name":"Jefferson County","state_id":"AL"},{"zip":"35172","fips":"01009","name":"Blount County","state_id":"AL"},{"zip":"35173","fips":"01073","name":"Jefferson County","state_id":"AL"},{"zip":"35173","fips":"01115","name":"St. Clair County","state_id":"AL"},{"zip":"35175","fips":"01103","name":"Morgan County","state_id":"AL"},{"zip":"35175","fips":"01095","name":"Marshall County","state_id":"AL"},{"zip":"35176","fips":"01117","name":"Shelby County","state_id":"AL"},{"zip":"35178","fips":"01117","name":"Shelby County","state_id":"AL"},{"zip":"35178","fips":"01115","name":"St. Clair County","state_id":"AL"},{"zip":"35179","fips":"01043","name":"Cullman County","state_id":"AL"},{"zip":"35179","fips":"01133","name":"Winston County","state_id":"AL"},{"zip":"35179","fips":"01103","name":"Morgan County","state_id":"AL"},{"zip":"35180","fips":"01073","name":"Jefferson County","state_id":"AL"},{"zip":"35180","fips":"01009","name":"Blount County","state_id":"AL"},{"zip":"35181","fips":"01073","name":"Jefferson County","state_id":"AL"},{"zip":"35182","fips":"01115","name":"St. Clair County","state_id":"AL"},{"zip":"35183","fips":"01037","name":"Coosa County","state_id":"AL"},{"zip":"35184","fips":"01007","name":"Bibb County","state_id":"AL"},{"zip":"35184","fips":"01125","name":"Tuscaloosa County","state_id":"AL"},{"zip":"35184","fips":"01117","name":"Shelby County","state_id":"AL"},{"zip":"35185","fips":"01117","name":"Shelby County","state_id":"AL"},{"zip":"35186","fips":"01117","name":"Shelby County","state_id":"AL"},{"zip":"35187","fips":"01117","name":"Shelby County","state_id":"AL"},{"zip":"35188","fips":"01007","name":"Bibb County","state_id":"AL"},{"zip":"35188","fips":"01125","name":"Tuscaloosa County","state_id":"AL"}]
