[{"zip":"35401","fips":"01125","name":"Tuscaloosa County","state_id":"AL"},{"zip":"35402","fips":"01125","name":"Tuscaloosa County","state_id":"AL"},{"zip":"35403","fips":"01125","name":"Tuscaloosa County","state_id":"AL"},{"zip":"35404","fips":"01125","name":"Tuscaloosa County","state_id":"AL"},{"zip":"35405","fips":"01125","name":"Tuscaloosa County","state_id":"AL"},{"zip":"35406","fips":"01125","name":"Tuscaloosa County","state_id":"AL"},{"zip":"35407","fips":"01125","name":"Tuscaloosa County","state_id":"AL"},{"zip":"35440","fips":"01125","name":"Tuscaloosa County","state_id":"AL"},{"zip":"35441","fips":"01065","name":"Hale County","state_id":"AL"},{"zip":"35442","fips":"01107","name":"Pickens County","state_id":"AL"},{"zip":"35442","fips":"01119","name":"Sumter County","state_id":"AL"},{"zip":"35443","fips":"01063","name":"Greene County","state_id":"AL"},{"zip":"35444","fips":"01125","name":"Tuscaloosa County","state_id":"AL"},{"zip":"35444","fips":"01073","name":"Jefferson County","state_id":"AL"},{"zip":"35446","fips":"01125","name":"Tuscaloosa County","state_id":"AL"},{"zip":"35447","fips":"01107","name":"Pickens County","state_id":"AL"},{"zip":"35448","fips":"01063","name":"Greene County","state_id":"AL"},{"zip":"35449","fips":"01125","name":"Tuscaloosa County","state_id":"AL"},{"zip":"35452","fips":"01125","name":"Tuscaloosa County","state_id":"AL"},{"zip":"35453","fips":"01125","name":"Tuscaloosa County","state_id":"AL"},{"zip":"35456","fips":"01007","name":"Bibb County","state_id":"AL"},{"zip":"35456","fips":"01125","name":"Tuscaloosa County","state_id":"AL"},{"zip":"35457","fips":"01125","name":"Tuscaloosa County","state_id":"AL"},{"zip":"35458","fips":"01125","name":"Tuscaloosa County","state_id":"AL"},{"zip":"35459","fips":"01119","name":"Sumter County","state_id":"AL"},{"zip":"35460","fips":"01119","name":"Sumter County","state_id":"AL"},{"zip":"35461","fips":"01107","name":"Pickens County","state_id":"AL"},{"zip":"35462","fips":"01063","name":"Greene County","state_id":"AL"},{"zip":"35463","fips":"01063","name":"Greene County","state_id":"AL"},{"zip":"35463","fips":"01125","name":"Tuscaloosa County","state_id":"AL"},{"zip":"35464","fips":"01119","name":"Sumter County","state_id":"AL"},{"zip":"35464","fips":"01063","name":"Greene County","state_id":"AL"},{"zip":"35466","fips":"01125","name":"Tuscaloosa County","state_id":"AL"},{"zip":"35466","fips":"01107","name":"Pickens County","state_id":"AL"},{"zip":"35468","fips":"01125","name":"Tuscaloosa County","state_id":"AL"},{"zip":"35469","fips":"01063","name":"Greene County","state_id":"AL"},{"zip":"35469","fips":"01125","name":"Tuscaloosa County","state_id":"AL"},{"zip":"35470","fips":"01119","name":"Sumter County","state_id":"AL"},{"zip":"35471","fips":"01107","name":"Pickens County","state_id":"AL"},{"zip":"35473","fips":"01125","name":"Tuscaloosa County","state_id":"AL"},{"zip":"35474","fips":"01065","name":"Hale County","state_id":"AL"},{"zip":"35474","fips":"01125","name":"Tuscaloosa County","state_id":"AL"},{"zip":"35475","fips":"01125","name":"Tuscaloosa County","state_id":"AL"},{"zip":"35476","fips":"01125","name":"Tuscaloosa County","state_id":"AL"},{"zip":"35477","fips":"01119","name":"Sumter County","state_id":"AL"},{"zip":"35478","fips":"01125","name":"Tuscaloosa County","state_id":"AL"},{"zip":"35480","fips":"01125","name":"Tuscaloosa County","state_id":"AL"},{"zip":"35480","fips":"01063","name":"Greene County","state_id":"AL"},{"zip":"35481","fips":"01107","name":"Pickens County","state_id":"AL"},{"zip":"35482","fips":"01125","name":"Tuscaloosa County","state_id":"AL"},{"zip":"35486","fips":"01125","name":"Tuscaloosa County","state_id":"AL"},{"zip":"35490","fips":"01125","name":"Tuscaloosa County","state_id":"AL"},{"zip":"35491","fips":"01063","name":"Greene County","state_id":"AL"}]
