[{"zip":"35501","fips":"01127","name":"Walker County","state_id":"AL"},{"zip":"35502","fips":"01127","name":"Walker County","state_id":"AL"},{"zip":"35503","fips":"01127","name":"Walker County","state_id":"AL"},{"zip":"35503","fips":"01133","name":"Winston County","state_id":"AL"},{"zip":"35504","fips":"01127","name":"Walker County","state_id":"AL"},{"zip":"35540","fips":"01043","name":"Cullman County","state_id":"AL"},{"zip":"35540","fips":"01133","name":"Winston County","state_id":"AL"},{"zip":"35540","fips":"01079","name":"Lawrence County","state_id":"AL"},{"zip":"35541","fips":"01043","name":"Cullman County","state_id":"AL"},{"zip":"35541","fips":"01127","name":"Walker County","state_id":"AL"},{"zip":"35541","fips":"01133","name":"Winston County","state_id":"AL"},{"zip":"35542","fips":"01057","name":"Fayette County","state_id":"AL"},{"zip":"35543","fips":"01093","name":"Marion County","state_id":"AL"},{"zip":"35544","fips":"01075","name":"Lamar County","state_id":"AL"},{"zip":"35545","fips":"01057","name":"Fayette County","state_id":"AL"},{"zip":"35546","fips":"01057","name":"Fayette County","state_id":"AL"},{"zip":"35546","fips":"01125","name":"Tuscaloosa County","state_id":"AL"},{"zip":"35546","fips":"01127","name":"Walker County","state_id":"AL"},{"zip":"35548","fips":"01093","name":"Marion County","state_id":"AL"},{"zip":"35549","fips":"01057","name":"Fayette County","state_id":"AL"},{"zip":"35549","fips":"01127","name":"Walker County","state_id":"AL"},{"zip":"35550","fips":"01127","name":"Walker County","state_id":"AL"},{"zip":"35551","fips":"01133","name":"Winston County","state_id":"AL"},{"zip":"35552","fips":"01075","name":"Lamar County","state_id":"AL"},{"zip":"35552","fips":"01093","name":"Marion County","state_id":"AL"},{"zip":"35553","fips":"01133","name":"Winston County","state_id":"AL"},{"zip":"35554","fips":"01057","name":"Fayette County","state_id":"AL"},{"zip":"35554","fips":"01127","name":"Walker County","state_id":"AL"},{"zip":"35554","fips":"01093","name":"Marion County","state_id":"AL"},{"zip":"35555","fips":"01107","name":"Pickens County","state_id":"AL"},{"zip":"35555","fips":"01057","name":"Fayette County","state_id":"AL"},{"zip":"35555","fips":"01125","name":"Tuscaloosa County","state_id":"AL"},{"zip":"35555","fips":"01075","name":"Lamar County","state_id":"AL"},{"zip":"35559","fips":"01057","name":"Fayette County","state_id":"AL"},{"zip":"35560","fips":"01127","name":"Walker County","state_id":"AL"},{"zip":"35563","fips":"01093","name":"Marion County","state_id":"AL"},{"zip":"35563","fips":"01057","name":"Fayette County","state_id":"AL"},{"zip":"35563","fips":"01075","name":"Lamar County","state_id":"AL"},{"zip":"35564","fips":"01093","name":"Marion County","state_id":"AL"},{"zip":"35564","fips":"01059","name":"Franklin County","state_id":"AL"},{"zip":"35565","fips":"01059","name":"Franklin County","state_id":"AL"},{"zip":"35565","fips":"01133","name":"Winston County","state_id":"AL"},{"zip":"35565","fips":"01093","name":"Marion County","state_id":"AL"},{"zip":"35570","fips":"01093","name":"Marion County","state_id":"AL"},{"zip":"35570","fips":"01075","name":"Lamar County","state_id":"AL"},{"zip":"35571","fips":"01093","name":"Marion County","state_id":"AL"},{"zip":"35571","fips":"01059","name":"Franklin County","state_id":"AL"},{"zip":"35572","fips":"01133","name":"Winston County","state_id":"AL"},{"zip":"35573","fips":"01127","name":"Walker County","state_id":"AL"},{"zip":"35574","fips":"01107","name":"Pickens County","state_id":"AL"},{"zip":"35574","fips":"01057","name":"Fayette County","state_id":"AL"},{"zip":"35574","fips":"01075","name":"Lamar County","state_id":"AL"},{"zip":"35574","fips":"01125","name":"Tuscaloosa County","state_id":"AL"},{"zip":"35575","fips":"01133","name":"Winston County","state_id":"AL"},{"zip":"35576","fips":"01075","name":"Lamar County","state_id":"AL"},{"zip":"35576","fips":"01107","name":"Pickens County","state_id":"AL"},{"zip":"35577","fips":"01133","name":"Winston County","state_id":"AL"},{"zip":"35578","fips":"01127","name":"Walker County","state_id":"AL"},{"zip":"35578","fips":"01133","name":"Winston County","state_id":"AL"},{"zip":"35579","fips":"01057","name":"Fayette County","state_id":"AL"},{"zip":"35579","fips":"01127","name":"Walker County","state_id":"AL"},{"zip":"35579","fips":"01125","name":"Tuscaloosa County","state_id":"AL"},{"zip":"35580","fips":"01127","name":"Walker County","state_id":"AL"},{"zip":"35581","fips":"01093","name":"Marion County","state_id":"AL"},{"zip":"35581","fips":"01059","name":"Franklin County","state_id":"AL"},{"zip":"35582","fips":"01059","name":"Franklin County","state_id":"AL"},{"zip":"35582","fips":"01033","name":"Colbert County","state_id":"AL"},{"zip":"35584","fips":"01127","name":"Walker County","state_id":"AL"},{"zip":"35585","fips":"01059","name":"Franklin County","state_id":"AL"},{"zip":"35586","fips":"01075","name":"Lamar County","state_id":"AL"},{"zip":"35587","fips":"01127","name":"Walker County","state_id":"AL"},{"zip":"35592","fips":"01075","name":"Lamar County","state_id":"AL"},{"zip":"35593","fips":"01093","name":"Marion County","state_id":"AL"},{"zip":"35593","fips":"01059","name":"Franklin County","state_id":"AL"},{"zip":"35594","fips":"01093","name":"Marion County","state_id":"AL"},{"zip":"35594","fips":"01057","name":"Fayette County","state_id":"AL"}]
