[{"zip":"35601","fips":"01103","name":"Morgan County","state_id":"AL"},{"zip":"35602","fips":"01103","name":"Morgan County","state_id":"AL"},{"zip":"35603","fips":"01079","name":"Lawrence County","state_id":"AL"},{"zip":"35603","fips":"01103","name":"Morgan County","state_id":"AL"},{"zip":"35610","fips":"01077","name":"Lauderdale County","state_id":"AL"},{"zip":"35610","fips":"01083","name":"Limestone County","state_id":"AL"},{"zip":"35611","fips":"01083","name":"Limestone County","state_id":"AL"},{"zip":"35612","fips":"01083","name":"Limestone County","state_id":"AL"},{"zip":"35613","fips":"01083","name":"Limestone County","state_id":"AL"},{"zip":"35614","fips":"01083","name":"Limestone County","state_id":"AL"},{"zip":"35614","fips":"01077","name":"Lauderdale County","state_id":"AL"},{"zip":"35615","fips":"01083","name":"Limestone County","state_id":"AL"},{"zip":"35616","fips":"01059","name":"Franklin County","state_id":"AL"},{"zip":"35616","fips":"01033","name":"Colbert County","state_id":"AL"},{"zip":"35617","fips":"01077","name":"Lauderdale County","state_id":"AL"},{"zip":"35618","fips":"01079","name":"Lawrence County","state_id":"AL"},{"zip":"35619","fips":"01103","name":"Morgan County","state_id":"AL"},{"zip":"35619","fips":"01079","name":"Lawrence County","state_id":"AL"},{"zip":"35619","fips":"01043","name":"Cullman County","state_id":"AL"},{"zip":"35620","fips":"01083","name":"Limestone County","state_id":"AL"},{"zip":"35621","fips":"01103","name":"Morgan County","state_id":"AL"},{"zip":"35621","fips":"01043","name":"Cullman County","state_id":"AL"},{"zip":"35622","fips":"01103","name":"Morgan County","state_id":"AL"},{"zip":"35622","fips":"01043","name":"Cullman County","state_id":"AL"},{"zip":"35630","fips":"01077","name":"Lauderdale County","state_id":"AL"},{"zip":"35631","fips":"01077","name":"Lauderdale County","state_id":"AL"},{"zip":"35632","fips":"01077","name":"Lauderdale County","state_id":"AL"},{"zip":"35633","fips":"01077","name":"Lauderdale County","state_id":"AL"},{"zip":"35634","fips":"01077","name":"Lauderdale County","state_id":"AL"},{"zip":"35640","fips":"01103","name":"Morgan County","state_id":"AL"},{"zip":"35643","fips":"01079","name":"Lawrence County","state_id":"AL"},{"zip":"35645","fips":"01077","name":"Lauderdale County","state_id":"AL"},{"zip":"35646","fips":"01033","name":"Colbert County","state_id":"AL"},{"zip":"35647","fips":"01083","name":"Limestone County","state_id":"AL"},{"zip":"35648","fips":"01077","name":"Lauderdale County","state_id":"AL"},{"zip":"35649","fips":"01083","name":"Limestone County","state_id":"AL"},{"zip":"35650","fips":"01079","name":"Lawrence County","state_id":"AL"},{"zip":"35651","fips":"01079","name":"Lawrence County","state_id":"AL"},{"zip":"35651","fips":"01059","name":"Franklin County","state_id":"AL"},{"zip":"35652","fips":"01083","name":"Limestone County","state_id":"AL"},{"zip":"35652","fips":"01077","name":"Lauderdale County","state_id":"AL"},{"zip":"35653","fips":"01033","name":"Colbert County","state_id":"AL"},{"zip":"35653","fips":"01059","name":"Franklin County","state_id":"AL"},{"zip":"35654","fips":"01033","name":"Colbert County","state_id":"AL"},{"zip":"35654","fips":"01059","name":"Franklin County","state_id":"AL"},{"zip":"35654","fips":"01079","name":"Lawrence County","state_id":"AL"},{"zip":"35660","fips":"01033","name":"Colbert County","state_id":"AL"},{"zip":"35661","fips":"01033","name":"Colbert County","state_id":"AL"},{"zip":"35670","fips":"01043","name":"Cullman County","state_id":"AL"},{"zip":"35670","fips":"01103","name":"Morgan County","state_id":"AL"},{"zip":"35671","fips":"01083","name":"Limestone County","state_id":"AL"},{"zip":"35672","fips":"01079","name":"Lawrence County","state_id":"AL"},{"zip":"35672","fips":"01033","name":"Colbert County","state_id":"AL"},{"zip":"35673","fips":"01103","name":"Morgan County","state_id":"AL"},{"zip":"35673","fips":"01079","name":"Lawrence County","state_id":"AL"},{"zip":"35674","fips":"01059","name":"Franklin County","state_id":"AL"},{"zip":"35674","fips":"01033","name":"Colbert County","state_id":"AL"},{"zip":"35677","fips":"01077","name":"Lauderdale County","state_id":"AL"}]
