[{"zip":"35739","fips":"01083","name":"Limestone County","state_id":"AL"},{"zip":"35739","fips":"01089","name":"Madison County","state_id":"AL"},{"zip":"35740","fips":"01071","name":"Jackson County","state_id":"AL"},{"zip":"35741","fips":"01089","name":"Madison County","state_id":"AL"},{"zip":"35742","fips":"01083","name":"Limestone County","state_id":"AL"},{"zip":"35744","fips":"01071","name":"Jackson County","state_id":"AL"},{"zip":"35745","fips":"01071","name":"Jackson County","state_id":"AL"},{"zip":"35746","fips":"01071","name":"Jackson County","state_id":"AL"},{"zip":"35747","fips":"01095","name":"Marshall County","state_id":"AL"},{"zip":"35748","fips":"01071","name":"Jackson County","state_id":"AL"},{"zip":"35748","fips":"01089","name":"Madison County","state_id":"AL"},{"zip":"35749","fips":"01083","name":"Limestone County","state_id":"AL"},{"zip":"35749","fips":"01089","name":"Madison County","state_id":"AL"},{"zip":"35750","fips":"01089","name":"Madison County","state_id":"AL"},{"zip":"35751","fips":"01071","name":"Jackson County","state_id":"AL"},{"zip":"35752","fips":"01071","name":"Jackson County","state_id":"AL"},{"zip":"35754","fips":"01103","name":"Morgan County","state_id":"AL"},{"zip":"35754","fips":"01095","name":"Marshall County","state_id":"AL"},{"zip":"35755","fips":"01071","name":"Jackson County","state_id":"AL"},{"zip":"35755","fips":"01095","name":"Marshall County","state_id":"AL"},{"zip":"35756","fips":"01089","name":"Madison County","state_id":"AL"},{"zip":"35756","fips":"01083","name":"Limestone County","state_id":"AL"},{"zip":"35757","fips":"01083","name":"Limestone County","state_id":"AL"},{"zip":"35757","fips":"01089","name":"Madison County","state_id":"AL"},{"zip":"35758","fips":"01089","name":"Madison County","state_id":"AL"},{"zip":"35759","fips":"01089","name":"Madison County","state_id":"AL"},{"zip":"35760","fips":"01095","name":"Marshall County","state_id":"AL"},{"zip":"35760","fips":"01089","name":"Madison County","state_id":"AL"},{"zip":"35761","fips":"01089","name":"Madison County","state_id":"AL"},{"zip":"35762","fips":"01089","name":"Madison County","state_id":"AL"},{"zip":"35763","fips":"01089","name":"Madison County","state_id":"AL"},{"zip":"35764","fips":"01071","name":"Jackson County","state_id":"AL"},{"zip":"35765","fips":"01071","name":"Jackson County","state_id":"AL"},{"zip":"35765","fips":"01049","name":"DeKalb County","state_id":"AL"},{"zip":"35766","fips":"01071","name":"Jackson County","state_id":"AL"},{"zip":"35767","fips":"01089","name":"Madison County","state_id":"AL"},{"zip":"35768","fips":"01071","name":"Jackson County","state_id":"AL"},{"zip":"35769","fips":"01095","name":"Marshall County","state_id":"AL"},{"zip":"35769","fips":"01071","name":"Jackson County","state_id":"AL"},{"zip":"35771","fips":"01049","name":"DeKalb County","state_id":"AL"},{"zip":"35771","fips":"01071","name":"Jackson County","state_id":"AL"},{"zip":"35772","fips":"01071","name":"Jackson County","state_id":"AL"},{"zip":"35773","fips":"01089","name":"Madison County","state_id":"AL"},{"zip":"35773","fips":"01083","name":"Limestone County","state_id":"AL"},{"zip":"35774","fips":"01071","name":"Jackson County","state_id":"AL"},{"zip":"35775","fips":"01103","name":"Morgan County","state_id":"AL"},{"zip":"35776","fips":"01089","name":"Madison County","state_id":"AL"},{"zip":"35776","fips":"01071","name":"Jackson County","state_id":"AL"},{"zip":"35776","fips":"01095","name":"Marshall County","state_id":"AL"}]
