[{"zip":"35901","fips":"01055","name":"Etowah County","state_id":"AL"},{"zip":"35901","fips":"01019","name":"Cherokee County","state_id":"AL"},{"zip":"35902","fips":"01055","name":"Etowah County","state_id":"AL"},{"zip":"35903","fips":"01115","name":"St. Clair County","state_id":"AL"},{"zip":"35903","fips":"01055","name":"Etowah County","state_id":"AL"},{"zip":"35903","fips":"01019","name":"Cherokee County","state_id":"AL"},{"zip":"35904","fips":"01055","name":"Etowah County","state_id":"AL"},{"zip":"35905","fips":"01055","name":"Etowah County","state_id":"AL"},{"zip":"35905","fips":"01015","name":"Calhoun County","state_id":"AL"},{"zip":"35906","fips":"01115","name":"St. Clair County","state_id":"AL"},{"zip":"35906","fips":"01055","name":"Etowah County","state_id":"AL"},{"zip":"35907","fips":"01055","name":"Etowah County","state_id":"AL"},{"zip":"35950","fips":"01095","name":"Marshall County","state_id":"AL"},{"zip":"35951","fips":"01095","name":"Marshall County","state_id":"AL"},{"zip":"35951","fips":"01049","name":"DeKalb County","state_id":"AL"},{"zip":"35952","fips":"01009","name":"Blount County","state_id":"AL"},{"zip":"35952","fips":"01055","name":"Etowah County","state_id":"AL"},{"zip":"35953","fips":"01115","name":"St. Clair County","state_id":"AL"},{"zip":"35954","fips":"01049","name":"DeKalb County","state_id":"AL"},{"zip":"35954","fips":"01055","name":"Etowah County","state_id":"AL"},{"zip":"35956","fips":"01095","name":"Marshall County","state_id":"AL"},{"zip":"35956","fips":"01049","name":"DeKalb County","state_id":"AL"},{"zip":"35956","fips":"01055","name":"Etowah County","state_id":"AL"},{"zip":"35957","fips":"01055","name":"Etowah County","state_id":"AL"},{"zip":"35957","fips":"01049","name":"DeKalb County","state_id":"AL"},{"zip":"35957","fips":"01009","name":"Blount County","state_id":"AL"},{"zip":"35957","fips":"01095","name":"Marshall County","state_id":"AL"},{"zip":"35958","fips":"01071","name":"Jackson County","state_id":"AL"},{"zip":"35959","fips":"01049","name":"DeKalb County","state_id":"AL"},{"zip":"35959","fips":"01019","name":"Cherokee County","state_id":"AL"},{"zip":"35960","fips":"01019","name":"Cherokee County","state_id":"AL"},{"zip":"35961","fips":"01019","name":"Cherokee County","state_id":"AL"},{"zip":"35961","fips":"01049","name":"DeKalb County","state_id":"AL"},{"zip":"35961","fips":"01055","name":"Etowah County","state_id":"AL"},{"zip":"35962","fips":"01049","name":"DeKalb County","state_id":"AL"},{"zip":"35962","fips":"01095","name":"Marshall County","state_id":"AL"},{"zip":"35963","fips":"01049","name":"DeKalb County","state_id":"AL"},{"zip":"35964","fips":"01095","name":"Marshall County","state_id":"AL"},{"zip":"35966","fips":"01049","name":"DeKalb County","state_id":"AL"},{"zip":"35966","fips":"01071","name":"Jackson County","state_id":"AL"},{"zip":"35967","fips":"01049","name":"DeKalb County","state_id":"AL"},{"zip":"35967","fips":"01019","name":"Cherokee County","state_id":"AL"},{"zip":"35968","fips":"01049","name":"DeKalb County","state_id":"AL"},{"zip":"35971","fips":"01071","name":"Jackson County","state_id":"AL"},{"zip":"35971","fips":"01049","name":"DeKalb County","state_id":"AL"},{"zip":"35972","fips":"01055","name":"Etowah County","state_id":"AL"},{"zip":"35972","fips":"01115","name":"St. Clair County","state_id":"AL"},{"zip":"35973","fips":"01019","name":"Cherokee County","state_id":"AL"},{"zip":"35974","fips":"01049","name":"DeKalb County","state_id":"AL"},{"zip":"35975","fips":"01095","name":"Marshall County","state_id":"AL"},{"zip":"35975","fips":"01049","name":"DeKalb County","state_id":"AL"},{"zip":"35976","fips":"01043","name":"Cullman County","state_id":"AL"},{"zip":"35976","fips":"01095","name":"Marshall County","state_id":"AL"},{"zip":"35976","fips":"01009","name":"Blount County","state_id":"AL"},{"zip":"35978","fips":"01071","name":"Jackson County","state_id":"AL"},{"zip":"35978","fips":"01049","name":"DeKalb County","state_id":"AL"},{"zip":"35979","fips":"01071","name":"Jackson County","state_id":"AL"},{"zip":"35979","fips":"01049","name":"DeKalb County","state_id":"AL"},{"zip":"35980","fips":"01095","name":"Marshall County","state_id":"AL"},{"zip":"35980","fips":"01009","name":"Blount County","state_id":"AL"},{"zip":"35981","fips":"01049","name":"DeKalb County","state_id":"AL"},{"zip":"35983","fips":"01019","name":"Cherokee County","state_id":"AL"},{"zip":"35983","fips":"01049","name":"DeKalb County","state_id":"AL"},{"zip":"35984","fips":"01049","name":"DeKalb County","state_id":"AL"},{"zip":"35984","fips":"01019","name":"Cherokee County","state_id":"AL"},{"zip":"35986","fips":"01049","name":"DeKalb County","state_id":"AL"},{"zip":"35987","fips":"01115","name":"St. Clair County","state_id":"AL"},{"zip":"35988","fips":"01049","name":"DeKalb County","state_id":"AL"},{"zip":"35989","fips":"01049","name":"DeKalb County","state_id":"AL"},{"zip":"35990","fips":"01055","name":"Etowah County","state_id":"AL"}]
