[{"zip":"36003","fips":"01001","name":"Autauga County","state_id":"AL"},{"zip":"36005","fips":"01011","name":"Bullock County","state_id":"AL"},{"zip":"36005","fips":"01109","name":"Pike County","state_id":"AL"},{"zip":"36006","fips":"01001","name":"Autauga County","state_id":"AL"},{"zip":"36006","fips":"01021","name":"Chilton County","state_id":"AL"},{"zip":"36008","fips":"01001","name":"Autauga County","state_id":"AL"},{"zip":"36009","fips":"01041","name":"Crenshaw County","state_id":"AL"},{"zip":"36009","fips":"01031","name":"Coffee County","state_id":"AL"},{"zip":"36010","fips":"01109","name":"Pike County","state_id":"AL"},{"zip":"36010","fips":"01031","name":"Coffee County","state_id":"AL"},{"zip":"36010","fips":"01045","name":"Dale County","state_id":"AL"},{"zip":"36013","fips":"01087","name":"Macon County","state_id":"AL"},{"zip":"36013","fips":"01101","name":"Montgomery County","state_id":"AL"},{"zip":"36015","fips":"01013","name":"Butler County","state_id":"AL"},{"zip":"36016","fips":"01067","name":"Henry County","state_id":"AL"},{"zip":"36016","fips":"01005","name":"Barbour County","state_id":"AL"},{"zip":"36017","fips":"01005","name":"Barbour County","state_id":"AL"},{"zip":"36020","fips":"01051","name":"Elmore County","state_id":"AL"},{"zip":"36022","fips":"01001","name":"Autauga County","state_id":"AL"},{"zip":"36022","fips":"01051","name":"Elmore County","state_id":"AL"},{"zip":"36024","fips":"01051","name":"Elmore County","state_id":"AL"},{"zip":"36025","fips":"01051","name":"Elmore County","state_id":"AL"},{"zip":"36026","fips":"01037","name":"Coosa County","state_id":"AL"},{"zip":"36026","fips":"01051","name":"Elmore County","state_id":"AL"},{"zip":"36027","fips":"01113","name":"Russell County","state_id":"AL"},{"zip":"36027","fips":"01005","name":"Barbour County","state_id":"AL"},{"zip":"36028","fips":"01041","name":"Crenshaw County","state_id":"AL"},{"zip":"36028","fips":"01039","name":"Covington County","state_id":"AL"},{"zip":"36029","fips":"01101","name":"Montgomery County","state_id":"AL"},{"zip":"36029","fips":"01011","name":"Bullock County","state_id":"AL"},{"zip":"36029","fips":"01087","name":"Macon County","state_id":"AL"},{"zip":"36030","fips":"01013","name":"Butler County","state_id":"AL"},{"zip":"36030","fips":"01131","name":"Wilcox County","state_id":"AL"},{"zip":"36031","fips":"01011","name":"Bullock County","state_id":"AL"},{"zip":"36032","fips":"01085","name":"Lowndes County","state_id":"AL"},{"zip":"36032","fips":"01013","name":"Butler County","state_id":"AL"},{"zip":"36032","fips":"01041","name":"Crenshaw County","state_id":"AL"},{"zip":"36033","fips":"01013","name":"Butler County","state_id":"AL"},{"zip":"36033","fips":"01035","name":"Conecuh County","state_id":"AL"},{"zip":"36033","fips":"01099","name":"Monroe County","state_id":"AL"},{"zip":"36034","fips":"01109","name":"Pike County","state_id":"AL"},{"zip":"36034","fips":"01041","name":"Crenshaw County","state_id":"AL"},{"zip":"36034","fips":"01031","name":"Coffee County","state_id":"AL"},{"zip":"36035","fips":"01109","name":"Pike County","state_id":"AL"},{"zip":"36035","fips":"01041","name":"Crenshaw County","state_id":"AL"},{"zip":"36036","fips":"01101","name":"Montgomery County","state_id":"AL"},{"zip":"36036","fips":"01041","name":"Crenshaw County","state_id":"AL"},{"zip":"36037","fips":"01041","name":"Crenshaw County","state_id":"AL"},{"zip":"36037","fips":"01013","name":"Butler County","state_id":"AL"},{"zip":"36038","fips":"01039","name":"Covington County","state_id":"AL"},{"zip":"36039","fips":"01087","name":"Macon County","state_id":"AL"},{"zip":"36040","fips":"01085","name":"Lowndes County","state_id":"AL"},{"zip":"36041","fips":"01101","name":"Montgomery County","state_id":"AL"},{"zip":"36041","fips":"01085","name":"Lowndes County","state_id":"AL"},{"zip":"36041","fips":"01041","name":"Crenshaw County","state_id":"AL"},{"zip":"36042","fips":"01041","name":"Crenshaw County","state_id":"AL"},{"zip":"36042","fips":"01013","name":"Butler County","state_id":"AL"},{"zip":"36043","fips":"01085","name":"Lowndes County","state_id":"AL"},{"zip":"36043","fips":"01101","name":"Montgomery County","state_id":"AL"},{"zip":"36046","fips":"01041","name":"Crenshaw County","state_id":"AL"},{"zip":"36046","fips":"01101","name":"Montgomery County","state_id":"AL"},{"zip":"36047","fips":"01085","name":"Lowndes County","state_id":"AL"},{"zip":"36047","fips":"01101","name":"Montgomery County","state_id":"AL"},{"zip":"36048","fips":"01005","name":"Barbour County","state_id":"AL"},{"zip":"36049","fips":"01109","name":"Pike County","state_id":"AL"},{"zip":"36049","fips":"01041","name":"Crenshaw County","state_id":"AL"},{"zip":"36051","fips":"01001","name":"Autauga County","state_id":"AL"},{"zip":"36051","fips":"01051","name":"Elmore County","state_id":"AL"},{"zip":"36051","fips":"01021","name":"Chilton County","state_id":"AL"},{"zip":"36052","fips":"01011","name":"Bullock County","state_id":"AL"},{"zip":"36052","fips":"01101","name":"Montgomery County","state_id":"AL"},{"zip":"36053","fips":"01005","name":"Barbour County","state_id":"AL"},{"zip":"36053","fips":"01113","name":"Russell County","state_id":"AL"},{"zip":"36053","fips":"01011","name":"Bullock County","state_id":"AL"},{"zip":"36054","fips":"01101","name":"Montgomery County","state_id":"AL"},{"zip":"36054","fips":"01051","name":"Elmore County","state_id":"AL"},{"zip":"36057","fips":"01101","name":"Montgomery County","state_id":"AL"},{"zip":"36064","fips":"01101","name":"Montgomery County","state_id":"AL"},{"zip":"36065","fips":"01101","name":"Montgomery County","state_id":"AL"},{"zip":"36066","fips":"01051","name":"Elmore County","state_id":"AL"},{"zip":"36066","fips":"01001","name":"Autauga County","state_id":"AL"},{"zip":"36067","fips":"01051","name":"Elmore County","state_id":"AL"},{"zip":"36067","fips":"01001","name":"Autauga County","state_id":"AL"},{"zip":"36068","fips":"01001","name":"Autauga County","state_id":"AL"},{"zip":"36069","fips":"01101","name":"Montgomery County","state_id":"AL"},{"zip":"36071","fips":"01041","name":"Crenshaw County","state_id":"AL"},{"zip":"36071","fips":"01013","name":"Butler County","state_id":"AL"},{"zip":"36072","fips":"01005","name":"Barbour County","state_id":"AL"},{"zip":"36075","fips":"01087","name":"Macon County","state_id":"AL"},{"zip":"36078","fips":"01123","name":"Tallapoosa County","state_id":"AL"},{"zip":"36078","fips":"01051","name":"Elmore County","state_id":"AL"},{"zip":"36078","fips":"01087","name":"Macon County","state_id":"AL"},{"zip":"36079","fips":"01031","name":"Coffee County","state_id":"AL"},{"zip":"36079","fips":"01109","name":"Pike County","state_id":"AL"},{"zip":"36080","fips":"01051","name":"Elmore County","state_id":"AL"},{"zip":"36080","fips":"01037","name":"Coosa County","state_id":"AL"},{"zip":"36081","fips":"01011","name":"Bullock County","state_id":"AL"},{"zip":"36081","fips":"01109","name":"Pike County","state_id":"AL"},{"zip":"36082","fips":"01109","name":"Pike County","state_id":"AL"},{"zip":"36083","fips":"01087","name":"Macon County","state_id":"AL"},{"zip":"36087","fips":"01087","name":"Macon County","state_id":"AL"},{"zip":"36088","fips":"01087","name":"Macon County","state_id":"AL"},{"zip":"36089","fips":"01011","name":"Bullock County","state_id":"AL"},{"zip":"36089","fips":"01087","name":"Macon County","state_id":"AL"},{"zip":"36091","fips":"01021","name":"Chilton County","state_id":"AL"},{"zip":"36091","fips":"01001","name":"Autauga County","state_id":"AL"},{"zip":"36092","fips":"01051","name":"Elmore County","state_id":"AL"},{"zip":"36093","fips":"01051","name":"Elmore County","state_id":"AL"}]
