[{"zip":"36101","fips":"01101","name":"Montgomery County","state_id":"AL"},{"zip":"36102","fips":"01101","name":"Montgomery County","state_id":"AL"},{"zip":"36103","fips":"01101","name":"Montgomery County","state_id":"AL"},{"zip":"36104","fips":"01101","name":"Montgomery County","state_id":"AL"},{"zip":"36105","fips":"01101","name":"Montgomery County","state_id":"AL"},{"zip":"36106","fips":"01101","name":"Montgomery County","state_id":"AL"},{"zip":"36107","fips":"01101","name":"Montgomery County","state_id":"AL"},{"zip":"36108","fips":"01101","name":"Montgomery County","state_id":"AL"},{"zip":"36109","fips":"01101","name":"Montgomery County","state_id":"AL"},{"zip":"36110","fips":"01101","name":"Montgomery County","state_id":"AL"},{"zip":"36111","fips":"01101","name":"Montgomery County","state_id":"AL"},{"zip":"36112","fips":"01101","name":"Montgomery County","state_id":"AL"},{"zip":"36113","fips":"01101","name":"Montgomery County","state_id":"AL"},{"zip":"36114","fips":"01101","name":"Montgomery County","state_id":"AL"},{"zip":"36115","fips":"01101","name":"Montgomery County","state_id":"AL"},{"zip":"36116","fips":"01101","name":"Montgomery County","state_id":"AL"},{"zip":"36117","fips":"01101","name":"Montgomery County","state_id":"AL"},{"zip":"36118","fips":"01101","name":"Montgomery County","state_id":"AL"},{"zip":"36119","fips":"01101","name":"Montgomery County","state_id":"AL"},{"zip":"36120","fips":"01101","name":"Montgomery County","state_id":"AL"},{"zip":"36121","fips":"01101","name":"Montgomery County","state_id":"AL"},{"zip":"36123","fips":"01101","name":"Montgomery County","state_id":"AL"},{"zip":"36124","fips":"01101","name":"Montgomery County","state_id":"AL"},{"zip":"36125","fips":"01101","name":"Montgomery County","state_id":"AL"},{"zip":"36130","fips":"01101","name":"Montgomery County","state_id":"AL"},{"zip":"36131","fips":"01101","name":"Montgomery County","state_id":"AL"}]
