[{"zip":"36201","fips":"01015","name":"Calhoun County","state_id":"AL"},{"zip":"36202","fips":"01015","name":"Calhoun County","state_id":"AL"},{"zip":"36203","fips":"01015","name":"Calhoun County","state_id":"AL"},{"zip":"36203","fips":"01121","name":"Talladega County","state_id":"AL"},{"zip":"36204","fips":"01015","name":"Calhoun County","state_id":"AL"},{"zip":"36205","fips":"01015","name":"Calhoun County","state_id":"AL"},{"zip":"36206","fips":"01015","name":"Calhoun County","state_id":"AL"},{"zip":"36207","fips":"01015","name":"Calhoun County","state_id":"AL"},{"zip":"36207","fips":"01029","name":"Cleburne County","state_id":"AL"},{"zip":"36250","fips":"01015","name":"Calhoun County","state_id":"AL"},{"zip":"36251","fips":"01027","name":"Clay County","state_id":"AL"},{"zip":"36253","fips":"01015","name":"Calhoun County","state_id":"AL"},{"zip":"36254","fips":"01015","name":"Calhoun County","state_id":"AL"},{"zip":"36255","fips":"01123","name":"Tallapoosa County","state_id":"AL"},{"zip":"36255","fips":"01027","name":"Clay County","state_id":"AL"},{"zip":"36256","fips":"01027","name":"Clay County","state_id":"AL"},{"zip":"36256","fips":"01123","name":"Tallapoosa County","state_id":"AL"},{"zip":"36257","fips":"01015","name":"Calhoun County","state_id":"AL"},{"zip":"36258","fips":"01027","name":"Clay County","state_id":"AL"},{"zip":"36258","fips":"01029","name":"Cleburne County","state_id":"AL"},{"zip":"36258","fips":"01111","name":"Randolph County","state_id":"AL"},{"zip":"36260","fips":"01015","name":"Calhoun County","state_id":"AL"},{"zip":"36260","fips":"01121","name":"Talladega County","state_id":"AL"},{"zip":"36261","fips":"01029","name":"Cleburne County","state_id":"AL"},{"zip":"36262","fips":"01029","name":"Cleburne County","state_id":"AL"},{"zip":"36263","fips":"01111","name":"Randolph County","state_id":"AL"},{"zip":"36264","fips":"01029","name":"Cleburne County","state_id":"AL"},{"zip":"36264","fips":"01111","name":"Randolph County","state_id":"AL"},{"zip":"36265","fips":"01015","name":"Calhoun County","state_id":"AL"},{"zip":"36266","fips":"01027","name":"Clay County","state_id":"AL"},{"zip":"36266","fips":"01111","name":"Randolph County","state_id":"AL"},{"zip":"36267","fips":"01027","name":"Clay County","state_id":"AL"},{"zip":"36268","fips":"01027","name":"Clay County","state_id":"AL"},{"zip":"36268","fips":"01121","name":"Talladega County","state_id":"AL"},{"zip":"36268","fips":"01029","name":"Cleburne County","state_id":"AL"},{"zip":"36269","fips":"01029","name":"Cleburne County","state_id":"AL"},{"zip":"36271","fips":"01015","name":"Calhoun County","state_id":"AL"},{"zip":"36272","fips":"01015","name":"Calhoun County","state_id":"AL"},{"zip":"36272","fips":"01055","name":"Etowah County","state_id":"AL"},{"zip":"36272","fips":"01019","name":"Cherokee County","state_id":"AL"},{"zip":"36272","fips":"01029","name":"Cleburne County","state_id":"AL"},{"zip":"36273","fips":"01029","name":"Cleburne County","state_id":"AL"},{"zip":"36274","fips":"01111","name":"Randolph County","state_id":"AL"},{"zip":"36274","fips":"01017","name":"Chambers County","state_id":"AL"},{"zip":"36275","fips":"01019","name":"Cherokee County","state_id":"AL"},{"zip":"36276","fips":"01027","name":"Clay County","state_id":"AL"},{"zip":"36276","fips":"01017","name":"Chambers County","state_id":"AL"},{"zip":"36276","fips":"01123","name":"Tallapoosa County","state_id":"AL"},{"zip":"36276","fips":"01111","name":"Randolph County","state_id":"AL"},{"zip":"36277","fips":"01015","name":"Calhoun County","state_id":"AL"},{"zip":"36278","fips":"01111","name":"Randolph County","state_id":"AL"},{"zip":"36279","fips":"01015","name":"Calhoun County","state_id":"AL"},{"zip":"36280","fips":"01111","name":"Randolph County","state_id":"AL"}]
