[{"zip":"36301","fips":"01061","name":"Geneva County","state_id":"AL"},{"zip":"36301","fips":"01069","name":"Houston County","state_id":"AL"},{"zip":"36302","fips":"01069","name":"Houston County","state_id":"AL"},{"zip":"36303","fips":"01069","name":"Houston County","state_id":"AL"},{"zip":"36303","fips":"01045","name":"Dale County","state_id":"AL"},{"zip":"36303","fips":"01067","name":"Henry County","state_id":"AL"},{"zip":"36305","fips":"01061","name":"Geneva County","state_id":"AL"},{"zip":"36305","fips":"01069","name":"Houston County","state_id":"AL"},{"zip":"36310","fips":"01067","name":"Henry County","state_id":"AL"},{"zip":"36311","fips":"01005","name":"Barbour County","state_id":"AL"},{"zip":"36311","fips":"01045","name":"Dale County","state_id":"AL"},{"zip":"36311","fips":"01031","name":"Coffee County","state_id":"AL"},{"zip":"36312","fips":"01069","name":"Houston County","state_id":"AL"},{"zip":"36313","fips":"01061","name":"Geneva County","state_id":"AL"},{"zip":"36314","fips":"01061","name":"Geneva County","state_id":"AL"},{"zip":"36316","fips":"01031","name":"Coffee County","state_id":"AL"},{"zip":"36316","fips":"01061","name":"Geneva County","state_id":"AL"},{"zip":"36317","fips":"01045","name":"Dale County","state_id":"AL"},{"zip":"36317","fips":"01005","name":"Barbour County","state_id":"AL"},{"zip":"36317","fips":"01067","name":"Henry County","state_id":"AL"},{"zip":"36318","fips":"01031","name":"Coffee County","state_id":"AL"},{"zip":"36318","fips":"01061","name":"Geneva County","state_id":"AL"},{"zip":"36319","fips":"01069","name":"Houston County","state_id":"AL"},{"zip":"36319","fips":"01067","name":"Henry County","state_id":"AL"},{"zip":"36320","fips":"01069","name":"Houston County","state_id":"AL"},{"zip":"36321","fips":"01069","name":"Houston County","state_id":"AL"},{"zip":"36322","fips":"01031","name":"Coffee County","state_id":"AL"},{"zip":"36322","fips":"01061","name":"Geneva County","state_id":"AL"},{"zip":"36322","fips":"01045","name":"Dale County","state_id":"AL"},{"zip":"36323","fips":"01031","name":"Coffee County","state_id":"AL"},{"zip":"36323","fips":"01041","name":"Crenshaw County","state_id":"AL"},{"zip":"36323","fips":"01039","name":"Covington County","state_id":"AL"},{"zip":"36330","fips":"01031","name":"Coffee County","state_id":"AL"},{"zip":"36330","fips":"01045","name":"Dale County","state_id":"AL"},{"zip":"36330","fips":"01035","name":"Conecuh County","state_id":"AL"},{"zip":"36340","fips":"01061","name":"Geneva County","state_id":"AL"},{"zip":"36343","fips":"01069","name":"Houston County","state_id":"AL"},{"zip":"36344","fips":"01061","name":"Geneva County","state_id":"AL"},{"zip":"36345","fips":"01069","name":"Houston County","state_id":"AL"},{"zip":"36345","fips":"01045","name":"Dale County","state_id":"AL"},{"zip":"36345","fips":"01067","name":"Henry County","state_id":"AL"},{"zip":"36346","fips":"01031","name":"Coffee County","state_id":"AL"},{"zip":"36349","fips":"01061","name":"Geneva County","state_id":"AL"},{"zip":"36350","fips":"01045","name":"Dale County","state_id":"AL"},{"zip":"36350","fips":"01069","name":"Houston County","state_id":"AL"},{"zip":"36350","fips":"01067","name":"Henry County","state_id":"AL"},{"zip":"36351","fips":"01031","name":"Coffee County","state_id":"AL"},{"zip":"36352","fips":"01045","name":"Dale County","state_id":"AL"},{"zip":"36352","fips":"01069","name":"Houston County","state_id":"AL"},{"zip":"36352","fips":"01061","name":"Geneva County","state_id":"AL"},{"zip":"36353","fips":"01067","name":"Henry County","state_id":"AL"},{"zip":"36353","fips":"01045","name":"Dale County","state_id":"AL"},{"zip":"36360","fips":"01031","name":"Coffee County","state_id":"AL"},{"zip":"36360","fips":"01045","name":"Dale County","state_id":"AL"},{"zip":"36361","fips":"01045","name":"Dale County","state_id":"AL"},{"zip":"36362","fips":"01045","name":"Dale County","state_id":"AL"},{"zip":"36370","fips":"01069","name":"Houston County","state_id":"AL"},{"zip":"36371","fips":"01045","name":"Dale County","state_id":"AL"},{"zip":"36373","fips":"01067","name":"Henry County","state_id":"AL"},{"zip":"36374","fips":"01005","name":"Barbour County","state_id":"AL"},{"zip":"36374","fips":"01045","name":"Dale County","state_id":"AL"},{"zip":"36375","fips":"01069","name":"Houston County","state_id":"AL"},{"zip":"36375","fips":"01061","name":"Geneva County","state_id":"AL"},{"zip":"36376","fips":"01069","name":"Houston County","state_id":"AL"}]
