[{"zip":"36401","fips":"01099","name":"Monroe County","state_id":"AL"},{"zip":"36401","fips":"01035","name":"Conecuh County","state_id":"AL"},{"zip":"36420","fips":"01039","name":"Covington County","state_id":"AL"},{"zip":"36420","fips":"01053","name":"Escambia County","state_id":"AL"},{"zip":"36421","fips":"01035","name":"Conecuh County","state_id":"AL"},{"zip":"36421","fips":"01039","name":"Covington County","state_id":"AL"},{"zip":"36425","fips":"01099","name":"Monroe County","state_id":"AL"},{"zip":"36426","fips":"01053","name":"Escambia County","state_id":"AL"},{"zip":"36426","fips":"01035","name":"Conecuh County","state_id":"AL"},{"zip":"36432","fips":"01053","name":"Escambia County","state_id":"AL"},{"zip":"36432","fips":"01035","name":"Conecuh County","state_id":"AL"},{"zip":"36435","fips":"01131","name":"Wilcox County","state_id":"AL"},{"zip":"36436","fips":"01025","name":"Clarke County","state_id":"AL"},{"zip":"36439","fips":"01099","name":"Monroe County","state_id":"AL"},{"zip":"36441","fips":"01053","name":"Escambia County","state_id":"AL"},{"zip":"36442","fips":"01039","name":"Covington County","state_id":"AL"},{"zip":"36442","fips":"01061","name":"Geneva County","state_id":"AL"},{"zip":"36444","fips":"01099","name":"Monroe County","state_id":"AL"},{"zip":"36445","fips":"01099","name":"Monroe County","state_id":"AL"},{"zip":"36446","fips":"01025","name":"Clarke County","state_id":"AL"},{"zip":"36451","fips":"01025","name":"Clarke County","state_id":"AL"},{"zip":"36453","fips":"01039","name":"Covington County","state_id":"AL"},{"zip":"36453","fips":"01031","name":"Coffee County","state_id":"AL"},{"zip":"36453","fips":"01061","name":"Geneva County","state_id":"AL"},{"zip":"36454","fips":"01035","name":"Conecuh County","state_id":"AL"},{"zip":"36455","fips":"01039","name":"Covington County","state_id":"AL"},{"zip":"36456","fips":"01039","name":"Covington County","state_id":"AL"},{"zip":"36456","fips":"01035","name":"Conecuh County","state_id":"AL"},{"zip":"36456","fips":"01013","name":"Butler County","state_id":"AL"},{"zip":"36458","fips":"01099","name":"Monroe County","state_id":"AL"},{"zip":"36460","fips":"01099","name":"Monroe County","state_id":"AL"},{"zip":"36460","fips":"01035","name":"Conecuh County","state_id":"AL"},{"zip":"36467","fips":"01061","name":"Geneva County","state_id":"AL"},{"zip":"36467","fips":"01039","name":"Covington County","state_id":"AL"},{"zip":"36467","fips":"01031","name":"Coffee County","state_id":"AL"},{"zip":"36467","fips":"01041","name":"Crenshaw County","state_id":"AL"},{"zip":"36470","fips":"01099","name":"Monroe County","state_id":"AL"},{"zip":"36471","fips":"01035","name":"Conecuh County","state_id":"AL"},{"zip":"36471","fips":"01099","name":"Monroe County","state_id":"AL"},{"zip":"36473","fips":"01035","name":"Conecuh County","state_id":"AL"},{"zip":"36474","fips":"01039","name":"Covington County","state_id":"AL"},{"zip":"36474","fips":"01013","name":"Butler County","state_id":"AL"},{"zip":"36474","fips":"01035","name":"Conecuh County","state_id":"AL"},{"zip":"36475","fips":"01053","name":"Escambia County","state_id":"AL"},{"zip":"36475","fips":"01099","name":"Monroe County","state_id":"AL"},{"zip":"36475","fips":"01035","name":"Conecuh County","state_id":"AL"},{"zip":"36476","fips":"01039","name":"Covington County","state_id":"AL"},{"zip":"36477","fips":"01039","name":"Covington County","state_id":"AL"},{"zip":"36477","fips":"01031","name":"Coffee County","state_id":"AL"},{"zip":"36477","fips":"01061","name":"Geneva County","state_id":"AL"},{"zip":"36480","fips":"01003","name":"Baldwin County","state_id":"AL"},{"zip":"36480","fips":"01099","name":"Monroe County","state_id":"AL"},{"zip":"36481","fips":"01099","name":"Monroe County","state_id":"AL"},{"zip":"36482","fips":"01025","name":"Clarke County","state_id":"AL"},{"zip":"36482","fips":"01099","name":"Monroe County","state_id":"AL"},{"zip":"36483","fips":"01039","name":"Covington County","state_id":"AL"},{"zip":"36483","fips":"01053","name":"Escambia County","state_id":"AL"}]
