[{"zip":"36502","fips":"01035","name":"Conecuh County","state_id":"AL"},{"zip":"36502","fips":"01053","name":"Escambia County","state_id":"AL"},{"zip":"36502","fips":"01003","name":"Baldwin County","state_id":"AL"},{"zip":"36502","fips":"01099","name":"Monroe County","state_id":"AL"},{"zip":"36503","fips":"01053","name":"Escambia County","state_id":"AL"},{"zip":"36505","fips":"01097","name":"Mobile County","state_id":"AL"},{"zip":"36507","fips":"01003","name":"Baldwin County","state_id":"AL"},{"zip":"36509","fips":"01097","name":"Mobile County","state_id":"AL"},{"zip":"36511","fips":"01003","name":"Baldwin County","state_id":"AL"},{"zip":"36512","fips":"01097","name":"Mobile County","state_id":"AL"},{"zip":"36513","fips":"01129","name":"Washington County","state_id":"AL"},{"zip":"36518","fips":"01129","name":"Washington County","state_id":"AL"},{"zip":"36521","fips":"01097","name":"Mobile County","state_id":"AL"},{"zip":"36522","fips":"01129","name":"Washington County","state_id":"AL"},{"zip":"36522","fips":"01097","name":"Mobile County","state_id":"AL"},{"zip":"36523","fips":"01097","name":"Mobile County","state_id":"AL"},{"zip":"36524","fips":"01025","name":"Clarke County","state_id":"AL"},{"zip":"36525","fips":"01097","name":"Mobile County","state_id":"AL"},{"zip":"36526","fips":"01003","name":"Baldwin County","state_id":"AL"},{"zip":"36527","fips":"01003","name":"Baldwin County","state_id":"AL"},{"zip":"36528","fips":"01097","name":"Mobile County","state_id":"AL"},{"zip":"36529","fips":"01129","name":"Washington County","state_id":"AL"},{"zip":"36530","fips":"01003","name":"Baldwin County","state_id":"AL"},{"zip":"36532","fips":"01003","name":"Baldwin County","state_id":"AL"},{"zip":"36533","fips":"01003","name":"Baldwin County","state_id":"AL"},{"zip":"36535","fips":"01003","name":"Baldwin County","state_id":"AL"},{"zip":"36536","fips":"01003","name":"Baldwin County","state_id":"AL"},{"zip":"36538","fips":"01129","name":"Washington County","state_id":"AL"},{"zip":"36539","fips":"01129","name":"Washington County","state_id":"AL"},{"zip":"36540","fips":"01025","name":"Clarke County","state_id":"AL"},{"zip":"36541","fips":"01097","name":"Mobile County","state_id":"AL"},{"zip":"36542","fips":"01003","name":"Baldwin County","state_id":"AL"},{"zip":"36543","fips":"01053","name":"Escambia County","state_id":"AL"},{"zip":"36544","fips":"01097","name":"Mobile County","state_id":"AL"},{"zip":"36545","fips":"01025","name":"Clarke County","state_id":"AL"},{"zip":"36547","fips":"01003","name":"Baldwin County","state_id":"AL"},{"zip":"36548","fips":"01129","name":"Washington County","state_id":"AL"},{"zip":"36549","fips":"01003","name":"Baldwin County","state_id":"AL"},{"zip":"36550","fips":"01003","name":"Baldwin County","state_id":"AL"},{"zip":"36551","fips":"01003","name":"Baldwin County","state_id":"AL"},{"zip":"36553","fips":"01129","name":"Washington County","state_id":"AL"},{"zip":"36555","fips":"01003","name":"Baldwin County","state_id":"AL"},{"zip":"36556","fips":"01129","name":"Washington County","state_id":"AL"},{"zip":"36558","fips":"01129","name":"Washington County","state_id":"AL"},{"zip":"36558","fips":"01023","name":"Choctaw County","state_id":"AL"},{"zip":"36559","fips":"01003","name":"Baldwin County","state_id":"AL"},{"zip":"36560","fips":"01097","name":"Mobile County","state_id":"AL"},{"zip":"36561","fips":"01003","name":"Baldwin County","state_id":"AL"},{"zip":"36562","fips":"01003","name":"Baldwin County","state_id":"AL"},{"zip":"36562","fips":"01053","name":"Escambia County","state_id":"AL"},{"zip":"36564","fips":"01003","name":"Baldwin County","state_id":"AL"},{"zip":"36567","fips":"01003","name":"Baldwin County","state_id":"AL"},{"zip":"36568","fips":"01097","name":"Mobile County","state_id":"AL"},{"zip":"36569","fips":"01129","name":"Washington County","state_id":"AL"},{"zip":"36571","fips":"01097","name":"Mobile County","state_id":"AL"},{"zip":"36572","fips":"01097","name":"Mobile County","state_id":"AL"},{"zip":"36574","fips":"01003","name":"Baldwin County","state_id":"AL"},{"zip":"36575","fips":"01097","name":"Mobile County","state_id":"AL"},{"zip":"36576","fips":"01003","name":"Baldwin County","state_id":"AL"},{"zip":"36577","fips":"01003","name":"Baldwin County","state_id":"AL"},{"zip":"36578","fips":"01003","name":"Baldwin County","state_id":"AL"},{"zip":"36579","fips":"01003","name":"Baldwin County","state_id":"AL"},{"zip":"36580","fips":"01003","name":"Baldwin County","state_id":"AL"},{"zip":"36581","fips":"01129","name":"Washington County","state_id":"AL"},{"zip":"36582","fips":"01097","name":"Mobile County","state_id":"AL"},{"zip":"36583","fips":"01129","name":"Washington County","state_id":"AL"},{"zip":"36584","fips":"01129","name":"Washington County","state_id":"AL"},{"zip":"36585","fips":"01129","name":"Washington County","state_id":"AL"},{"zip":"36587","fips":"01097","name":"Mobile County","state_id":"AL"},{"zip":"36590","fips":"01097","name":"Mobile County","state_id":"AL"}]
