[{"zip":"36701","fips":"01085","name":"Lowndes County","state_id":"AL"},{"zip":"36701","fips":"01105","name":"Perry County","state_id":"AL"},{"zip":"36701","fips":"01047","name":"Dallas County","state_id":"AL"},{"zip":"36703","fips":"01001","name":"Autauga County","state_id":"AL"},{"zip":"36703","fips":"01047","name":"Dallas County","state_id":"AL"},{"zip":"36720","fips":"01131","name":"Wilcox County","state_id":"AL"},{"zip":"36722","fips":"01091","name":"Marengo County","state_id":"AL"},{"zip":"36722","fips":"01131","name":"Wilcox County","state_id":"AL"},{"zip":"36723","fips":"01131","name":"Wilcox County","state_id":"AL"},{"zip":"36726","fips":"01131","name":"Wilcox County","state_id":"AL"},{"zip":"36727","fips":"01025","name":"Clarke County","state_id":"AL"},{"zip":"36728","fips":"01091","name":"Marengo County","state_id":"AL"},{"zip":"36728","fips":"01131","name":"Wilcox County","state_id":"AL"},{"zip":"36728","fips":"01105","name":"Perry County","state_id":"AL"},{"zip":"36732","fips":"01091","name":"Marengo County","state_id":"AL"},{"zip":"36736","fips":"01091","name":"Marengo County","state_id":"AL"},{"zip":"36738","fips":"01091","name":"Marengo County","state_id":"AL"},{"zip":"36738","fips":"01065","name":"Hale County","state_id":"AL"},{"zip":"36740","fips":"01063","name":"Greene County","state_id":"AL"},{"zip":"36741","fips":"01131","name":"Wilcox County","state_id":"AL"},{"zip":"36742","fips":"01065","name":"Hale County","state_id":"AL"},{"zip":"36742","fips":"01091","name":"Marengo County","state_id":"AL"},{"zip":"36744","fips":"01065","name":"Hale County","state_id":"AL"},{"zip":"36745","fips":"01091","name":"Marengo County","state_id":"AL"},{"zip":"36748","fips":"01091","name":"Marengo County","state_id":"AL"},{"zip":"36749","fips":"01001","name":"Autauga County","state_id":"AL"},{"zip":"36749","fips":"01047","name":"Dallas County","state_id":"AL"},{"zip":"36750","fips":"01021","name":"Chilton County","state_id":"AL"},{"zip":"36750","fips":"01007","name":"Bibb County","state_id":"AL"},{"zip":"36751","fips":"01091","name":"Marengo County","state_id":"AL"},{"zip":"36751","fips":"01025","name":"Clarke County","state_id":"AL"},{"zip":"36751","fips":"01099","name":"Monroe County","state_id":"AL"},{"zip":"36751","fips":"01131","name":"Wilcox County","state_id":"AL"},{"zip":"36752","fips":"01085","name":"Lowndes County","state_id":"AL"},{"zip":"36753","fips":"01131","name":"Wilcox County","state_id":"AL"},{"zip":"36754","fips":"01091","name":"Marengo County","state_id":"AL"},{"zip":"36756","fips":"01065","name":"Hale County","state_id":"AL"},{"zip":"36756","fips":"01105","name":"Perry County","state_id":"AL"},{"zip":"36758","fips":"01047","name":"Dallas County","state_id":"AL"},{"zip":"36758","fips":"01001","name":"Autauga County","state_id":"AL"},{"zip":"36758","fips":"01021","name":"Chilton County","state_id":"AL"},{"zip":"36759","fips":"01047","name":"Dallas County","state_id":"AL"},{"zip":"36759","fips":"01105","name":"Perry County","state_id":"AL"},{"zip":"36761","fips":"01085","name":"Lowndes County","state_id":"AL"},{"zip":"36761","fips":"01131","name":"Wilcox County","state_id":"AL"},{"zip":"36761","fips":"01047","name":"Dallas County","state_id":"AL"},{"zip":"36763","fips":"01091","name":"Marengo County","state_id":"AL"},{"zip":"36764","fips":"01091","name":"Marengo County","state_id":"AL"},{"zip":"36765","fips":"01105","name":"Perry County","state_id":"AL"},{"zip":"36765","fips":"01065","name":"Hale County","state_id":"AL"},{"zip":"36766","fips":"01131","name":"Wilcox County","state_id":"AL"},{"zip":"36767","fips":"01047","name":"Dallas County","state_id":"AL"},{"zip":"36768","fips":"01035","name":"Conecuh County","state_id":"AL"},{"zip":"36768","fips":"01131","name":"Wilcox County","state_id":"AL"},{"zip":"36768","fips":"01099","name":"Monroe County","state_id":"AL"},{"zip":"36769","fips":"01091","name":"Marengo County","state_id":"AL"},{"zip":"36769","fips":"01131","name":"Wilcox County","state_id":"AL"},{"zip":"36773","fips":"01091","name":"Marengo County","state_id":"AL"},{"zip":"36773","fips":"01105","name":"Perry County","state_id":"AL"},{"zip":"36773","fips":"01047","name":"Dallas County","state_id":"AL"},{"zip":"36775","fips":"01047","name":"Dallas County","state_id":"AL"},{"zip":"36775","fips":"01085","name":"Lowndes County","state_id":"AL"},{"zip":"36776","fips":"01065","name":"Hale County","state_id":"AL"},{"zip":"36782","fips":"01091","name":"Marengo County","state_id":"AL"},{"zip":"36783","fips":"01091","name":"Marengo County","state_id":"AL"},{"zip":"36783","fips":"01131","name":"Wilcox County","state_id":"AL"},{"zip":"36784","fips":"01131","name":"Wilcox County","state_id":"AL"},{"zip":"36784","fips":"01091","name":"Marengo County","state_id":"AL"},{"zip":"36784","fips":"01025","name":"Clarke County","state_id":"AL"},{"zip":"36785","fips":"01085","name":"Lowndes County","state_id":"AL"},{"zip":"36785","fips":"01047","name":"Dallas County","state_id":"AL"},{"zip":"36786","fips":"01105","name":"Perry County","state_id":"AL"},{"zip":"36786","fips":"01091","name":"Marengo County","state_id":"AL"},{"zip":"36786","fips":"01065","name":"Hale County","state_id":"AL"},{"zip":"36790","fips":"01021","name":"Chilton County","state_id":"AL"},{"zip":"36792","fips":"01007","name":"Bibb County","state_id":"AL"},{"zip":"36792","fips":"01021","name":"Chilton County","state_id":"AL"},{"zip":"36793","fips":"01021","name":"Chilton County","state_id":"AL"},{"zip":"36793","fips":"01007","name":"Bibb County","state_id":"AL"},{"zip":"36793","fips":"01105","name":"Perry County","state_id":"AL"}]
