[{"zip":"36801","fips":"01017","name":"Chambers County","state_id":"AL"},{"zip":"36801","fips":"01081","name":"Lee County","state_id":"AL"},{"zip":"36803","fips":"01081","name":"Lee County","state_id":"AL"},{"zip":"36804","fips":"01081","name":"Lee County","state_id":"AL"},{"zip":"36804","fips":"01113","name":"Russell County","state_id":"AL"},{"zip":"36804","fips":"01087","name":"Macon County","state_id":"AL"},{"zip":"36830","fips":"01087","name":"Macon County","state_id":"AL"},{"zip":"36830","fips":"01081","name":"Lee County","state_id":"AL"},{"zip":"36830","fips":"01011","name":"Bullock County","state_id":"AL"},{"zip":"36831","fips":"01081","name":"Lee County","state_id":"AL"},{"zip":"36832","fips":"01087","name":"Macon County","state_id":"AL"},{"zip":"36832","fips":"01081","name":"Lee County","state_id":"AL"},{"zip":"36849","fips":"01081","name":"Lee County","state_id":"AL"},{"zip":"36849","fips":"01123","name":"Tallapoosa County","state_id":"AL"},{"zip":"36850","fips":"01017","name":"Chambers County","state_id":"AL"},{"zip":"36850","fips":"01123","name":"Tallapoosa County","state_id":"AL"},{"zip":"36850","fips":"01081","name":"Lee County","state_id":"AL"},{"zip":"36851","fips":"01113","name":"Russell County","state_id":"AL"},{"zip":"36852","fips":"01017","name":"Chambers County","state_id":"AL"},{"zip":"36852","fips":"01081","name":"Lee County","state_id":"AL"},{"zip":"36853","fips":"01123","name":"Tallapoosa County","state_id":"AL"},{"zip":"36854","fips":"01081","name":"Lee County","state_id":"AL"},{"zip":"36854","fips":"01017","name":"Chambers County","state_id":"AL"},{"zip":"36855","fips":"01017","name":"Chambers County","state_id":"AL"},{"zip":"36856","fips":"01113","name":"Russell County","state_id":"AL"},{"zip":"36858","fips":"01113","name":"Russell County","state_id":"AL"},{"zip":"36860","fips":"01011","name":"Bullock County","state_id":"AL"},{"zip":"36860","fips":"01087","name":"Macon County","state_id":"AL"},{"zip":"36860","fips":"01113","name":"Russell County","state_id":"AL"},{"zip":"36861","fips":"01123","name":"Tallapoosa County","state_id":"AL"},{"zip":"36862","fips":"01017","name":"Chambers County","state_id":"AL"},{"zip":"36863","fips":"01017","name":"Chambers County","state_id":"AL"},{"zip":"36865","fips":"01081","name":"Lee County","state_id":"AL"},{"zip":"36866","fips":"01087","name":"Macon County","state_id":"AL"},{"zip":"36866","fips":"01081","name":"Lee County","state_id":"AL"},{"zip":"36866","fips":"01123","name":"Tallapoosa County","state_id":"AL"},{"zip":"36867","fips":"01081","name":"Lee County","state_id":"AL"},{"zip":"36867","fips":"01113","name":"Russell County","state_id":"AL"},{"zip":"36868","fips":"01113","name":"Russell County","state_id":"AL"},{"zip":"36869","fips":"01113","name":"Russell County","state_id":"AL"},{"zip":"36870","fips":"01113","name":"Russell County","state_id":"AL"},{"zip":"36870","fips":"01081","name":"Lee County","state_id":"AL"},{"zip":"36871","fips":"01113","name":"Russell County","state_id":"AL"},{"zip":"36874","fips":"01081","name":"Lee County","state_id":"AL"},{"zip":"36874","fips":"01113","name":"Russell County","state_id":"AL"},{"zip":"36875","fips":"01113","name":"Russell County","state_id":"AL"},{"zip":"36877","fips":"01113","name":"Russell County","state_id":"AL"},{"zip":"36877","fips":"01081","name":"Lee County","state_id":"AL"},{"zip":"36879","fips":"01017","name":"Chambers County","state_id":"AL"},{"zip":"36879","fips":"01081","name":"Lee County","state_id":"AL"},{"zip":"36879","fips":"01123","name":"Tallapoosa County","state_id":"AL"}]
