[{"zip":"36901","fips":"01119","name":"Sumter County","state_id":"AL"},{"zip":"36904","fips":"01023","name":"Choctaw County","state_id":"AL"},{"zip":"36904","fips":"01091","name":"Marengo County","state_id":"AL"},{"zip":"36907","fips":"01119","name":"Sumter County","state_id":"AL"},{"zip":"36908","fips":"01023","name":"Choctaw County","state_id":"AL"},{"zip":"36910","fips":"01023","name":"Choctaw County","state_id":"AL"},{"zip":"36912","fips":"01119","name":"Sumter County","state_id":"AL"},{"zip":"36912","fips":"01023","name":"Choctaw County","state_id":"AL"},{"zip":"36913","fips":"01023","name":"Choctaw County","state_id":"AL"},{"zip":"36915","fips":"01023","name":"Choctaw County","state_id":"AL"},{"zip":"36916","fips":"01023","name":"Choctaw County","state_id":"AL"},{"zip":"36919","fips":"01023","name":"Choctaw County","state_id":"AL"},{"zip":"36921","fips":"01023","name":"Choctaw County","state_id":"AL"},{"zip":"36922","fips":"01023","name":"Choctaw County","state_id":"AL"},{"zip":"36922","fips":"01119","name":"Sumter County","state_id":"AL"},{"zip":"36925","fips":"01119","name":"Sumter County","state_id":"AL"}]
