[{"zip":"37010","fips":"47125","name":"Montgomery County","state_id":"TN"},{"zip":"37010","fips":"47147","name":"Robertson County","state_id":"TN"},{"zip":"37011","fips":"47037","name":"Davidson County","state_id":"TN"},{"zip":"37012","fips":"47189","name":"Wilson County","state_id":"TN"},{"zip":"37012","fips":"47041","name":"DeKalb County","state_id":"TN"},{"zip":"37012","fips":"47159","name":"Smith County","state_id":"TN"},{"zip":"37013","fips":"47037","name":"Davidson County","state_id":"TN"},{"zip":"37014","fips":"47187","name":"Williamson County","state_id":"TN"},{"zip":"37014","fips":"47149","name":"Rutherford County","state_id":"TN"},{"zip":"37015","fips":"47125","name":"Montgomery County","state_id":"TN"},{"zip":"37015","fips":"47021","name":"Cheatham County","state_id":"TN"},{"zip":"37015","fips":"47037","name":"Davidson County","state_id":"TN"},{"zip":"37016","fips":"47189","name":"Wilson County","state_id":"TN"},{"zip":"37016","fips":"47015","name":"Cannon County","state_id":"TN"},{"zip":"37018","fips":"47003","name":"Bedford County","state_id":"TN"},{"zip":"37018","fips":"47031","name":"Coffee County","state_id":"TN"},{"zip":"37018","fips":"47015","name":"Cannon County","state_id":"TN"},{"zip":"37019","fips":"47117","name":"Marshall County","state_id":"TN"},{"zip":"37020","fips":"47149","name":"Rutherford County","state_id":"TN"},{"zip":"37020","fips":"47003","name":"Bedford County","state_id":"TN"},{"zip":"37022","fips":"47111","name":"Macon County","state_id":"TN"},{"zip":"37022","fips":"47169","name":"Trousdale County","state_id":"TN"},{"zip":"37022","fips":"47165","name":"Sumner County","state_id":"TN"},{"zip":"37023","fips":"47161","name":"Stewart County","state_id":"TN"},{"zip":"37024","fips":"47037","name":"Davidson County","state_id":"TN"},{"zip":"37025","fips":"47081","name":"Hickman County","state_id":"TN"},{"zip":"37025","fips":"47187","name":"Williamson County","state_id":"TN"},{"zip":"37025","fips":"47043","name":"Dickson County","state_id":"TN"},{"zip":"37026","fips":"47031","name":"Coffee County","state_id":"TN"},{"zip":"37026","fips":"47015","name":"Cannon County","state_id":"TN"},{"zip":"37027","fips":"47037","name":"Davidson County","state_id":"TN"},{"zip":"37027","fips":"47187","name":"Williamson County","state_id":"TN"},{"zip":"37028","fips":"47161","name":"Stewart County","state_id":"TN"},{"zip":"37029","fips":"47043","name":"Dickson County","state_id":"TN"},{"zip":"37030","fips":"47159","name":"Smith County","state_id":"TN"},{"zip":"37030","fips":"47087","name":"Jackson County","state_id":"TN"},{"zip":"37031","fips":"47165","name":"Sumner County","state_id":"TN"},{"zip":"37031","fips":"47169","name":"Trousdale County","state_id":"TN"},{"zip":"37032","fips":"47021","name":"Cheatham County","state_id":"TN"},{"zip":"37032","fips":"47125","name":"Montgomery County","state_id":"TN"},{"zip":"37032","fips":"47147","name":"Robertson County","state_id":"TN"},{"zip":"37033","fips":"47135","name":"Perry County","state_id":"TN"},{"zip":"37033","fips":"47081","name":"Hickman County","state_id":"TN"},{"zip":"37034","fips":"47117","name":"Marshall County","state_id":"TN"},{"zip":"37034","fips":"47003","name":"Bedford County","state_id":"TN"},{"zip":"37035","fips":"47125","name":"Montgomery County","state_id":"TN"},{"zip":"37035","fips":"47021","name":"Cheatham County","state_id":"TN"},{"zip":"37036","fips":"47021","name":"Cheatham County","state_id":"TN"},{"zip":"37036","fips":"47043","name":"Dickson County","state_id":"TN"},{"zip":"37037","fips":"47031","name":"Coffee County","state_id":"TN"},{"zip":"37037","fips":"47015","name":"Cannon County","state_id":"TN"},{"zip":"37037","fips":"47149","name":"Rutherford County","state_id":"TN"},{"zip":"37040","fips":"47125","name":"Montgomery County","state_id":"TN"},{"zip":"37041","fips":"47125","name":"Montgomery County","state_id":"TN"},{"zip":"37042","fips":"47125","name":"Montgomery County","state_id":"TN"},{"zip":"37043","fips":"47125","name":"Montgomery County","state_id":"TN"},{"zip":"37043","fips":"47147","name":"Robertson County","state_id":"TN"},{"zip":"37043","fips":"47021","name":"Cheatham County","state_id":"TN"},{"zip":"37044","fips":"47125","name":"Montgomery County","state_id":"TN"},{"zip":"37046","fips":"47149","name":"Rutherford County","state_id":"TN"},{"zip":"37046","fips":"47187","name":"Williamson County","state_id":"TN"},{"zip":"37046","fips":"47117","name":"Marshall County","state_id":"TN"},{"zip":"37047","fips":"47117","name":"Marshall County","state_id":"TN"},{"zip":"37047","fips":"47055","name":"Giles County","state_id":"TN"},{"zip":"37047","fips":"47103","name":"Lincoln County","state_id":"TN"},{"zip":"37048","fips":"47147","name":"Robertson County","state_id":"TN"},{"zip":"37048","fips":"47165","name":"Sumner County","state_id":"TN"},{"zip":"37049","fips":"47165","name":"Sumner County","state_id":"TN"},{"zip":"37049","fips":"47147","name":"Robertson County","state_id":"TN"},{"zip":"37050","fips":"47161","name":"Stewart County","state_id":"TN"},{"zip":"37050","fips":"47083","name":"Houston County","state_id":"TN"},{"zip":"37050","fips":"47125","name":"Montgomery County","state_id":"TN"},{"zip":"37051","fips":"47043","name":"Dickson County","state_id":"TN"},{"zip":"37051","fips":"47083","name":"Houston County","state_id":"TN"},{"zip":"37051","fips":"47125","name":"Montgomery County","state_id":"TN"},{"zip":"37052","fips":"47125","name":"Montgomery County","state_id":"TN"},{"zip":"37052","fips":"47043","name":"Dickson County","state_id":"TN"},{"zip":"37055","fips":"47081","name":"Hickman County","state_id":"TN"},{"zip":"37055","fips":"47043","name":"Dickson County","state_id":"TN"},{"zip":"37056","fips":"47043","name":"Dickson County","state_id":"TN"},{"zip":"37057","fips":"47159","name":"Smith County","state_id":"TN"},{"zip":"37057","fips":"47169","name":"Trousdale County","state_id":"TN"},{"zip":"37057","fips":"47111","name":"Macon County","state_id":"TN"},{"zip":"37058","fips":"47161","name":"Stewart County","state_id":"TN"},{"zip":"37059","fips":"47041","name":"DeKalb County","state_id":"TN"},{"zip":"37060","fips":"47117","name":"Marshall County","state_id":"TN"},{"zip":"37060","fips":"47003","name":"Bedford County","state_id":"TN"},{"zip":"37060","fips":"47149","name":"Rutherford County","state_id":"TN"},{"zip":"37060","fips":"47187","name":"Williamson County","state_id":"TN"},{"zip":"37061","fips":"47161","name":"Stewart County","state_id":"TN"},{"zip":"37061","fips":"47083","name":"Houston County","state_id":"TN"},{"zip":"37061","fips":"47125","name":"Montgomery County","state_id":"TN"},{"zip":"37061","fips":"47085","name":"Humphreys County","state_id":"TN"},{"zip":"37062","fips":"47187","name":"Williamson County","state_id":"TN"},{"zip":"37062","fips":"47043","name":"Dickson County","state_id":"TN"},{"zip":"37062","fips":"47021","name":"Cheatham County","state_id":"TN"},{"zip":"37063","fips":"47149","name":"Rutherford County","state_id":"TN"},{"zip":"37064","fips":"47187","name":"Williamson County","state_id":"TN"},{"zip":"37064","fips":"47037","name":"Davidson County","state_id":"TN"},{"zip":"37065","fips":"47187","name":"Williamson County","state_id":"TN"},{"zip":"37066","fips":"47165","name":"Sumner County","state_id":"TN"},{"zip":"37067","fips":"47187","name":"Williamson County","state_id":"TN"},{"zip":"37068","fips":"47187","name":"Williamson County","state_id":"TN"},{"zip":"37069","fips":"47187","name":"Williamson County","state_id":"TN"},{"zip":"37070","fips":"47037","name":"Davidson County","state_id":"TN"},{"zip":"37071","fips":"47189","name":"Wilson County","state_id":"TN"},{"zip":"37072","fips":"47165","name":"Sumner County","state_id":"TN"},{"zip":"37072","fips":"47037","name":"Davidson County","state_id":"TN"},{"zip":"37072","fips":"47147","name":"Robertson County","state_id":"TN"},{"zip":"37073","fips":"47147","name":"Robertson County","state_id":"TN"},{"zip":"37073","fips":"47165","name":"Sumner County","state_id":"TN"},{"zip":"37073","fips":"47037","name":"Davidson County","state_id":"TN"},{"zip":"37074","fips":"47169","name":"Trousdale County","state_id":"TN"},{"zip":"37074","fips":"47111","name":"Macon County","state_id":"TN"},{"zip":"37074","fips":"47159","name":"Smith County","state_id":"TN"},{"zip":"37075","fips":"47165","name":"Sumner County","state_id":"TN"},{"zip":"37076","fips":"47189","name":"Wilson County","state_id":"TN"},{"zip":"37076","fips":"47037","name":"Davidson County","state_id":"TN"},{"zip":"37077","fips":"47165","name":"Sumner County","state_id":"TN"},{"zip":"37078","fips":"47085","name":"Humphreys County","state_id":"TN"},{"zip":"37079","fips":"47125","name":"Montgomery County","state_id":"TN"},{"zip":"37079","fips":"47161","name":"Stewart County","state_id":"TN"},{"zip":"37080","fips":"47037","name":"Davidson County","state_id":"TN"},{"zip":"37080","fips":"47147","name":"Robertson County","state_id":"TN"},{"zip":"37080","fips":"47021","name":"Cheatham County","state_id":"TN"},{"zip":"37082","fips":"47187","name":"Williamson County","state_id":"TN"},{"zip":"37082","fips":"47021","name":"Cheatham County","state_id":"TN"},{"zip":"37083","fips":"47111","name":"Macon County","state_id":"TN"},{"zip":"37085","fips":"47189","name":"Wilson County","state_id":"TN"},{"zip":"37085","fips":"47149","name":"Rutherford County","state_id":"TN"},{"zip":"37086","fips":"47149","name":"Rutherford County","state_id":"TN"},{"zip":"37086","fips":"47037","name":"Davidson County","state_id":"TN"},{"zip":"37087","fips":"47159","name":"Smith County","state_id":"TN"},{"zip":"37087","fips":"47169","name":"Trousdale County","state_id":"TN"},{"zip":"37087","fips":"47189","name":"Wilson County","state_id":"TN"},{"zip":"37088","fips":"47189","name":"Wilson County","state_id":"TN"},{"zip":"37089","fips":"47149","name":"Rutherford County","state_id":"TN"},{"zip":"37090","fips":"47159","name":"Smith County","state_id":"TN"},{"zip":"37090","fips":"47189","name":"Wilson County","state_id":"TN"},{"zip":"37090","fips":"47149","name":"Rutherford County","state_id":"TN"},{"zip":"37091","fips":"47117","name":"Marshall County","state_id":"TN"},{"zip":"37091","fips":"47003","name":"Bedford County","state_id":"TN"},{"zip":"37091","fips":"47119","name":"Maury County","state_id":"TN"},{"zip":"37095","fips":"47189","name":"Wilson County","state_id":"TN"},{"zip":"37095","fips":"47041","name":"DeKalb County","state_id":"TN"},{"zip":"37095","fips":"47015","name":"Cannon County","state_id":"TN"},{"zip":"37096","fips":"47181","name":"Wayne County","state_id":"TN"},{"zip":"37096","fips":"47135","name":"Perry County","state_id":"TN"},{"zip":"37096","fips":"47081","name":"Hickman County","state_id":"TN"},{"zip":"37096","fips":"47101","name":"Lewis County","state_id":"TN"},{"zip":"37097","fips":"47135","name":"Perry County","state_id":"TN"},{"zip":"37097","fips":"47081","name":"Hickman County","state_id":"TN"},{"zip":"37097","fips":"47085","name":"Humphreys County","state_id":"TN"},{"zip":"37098","fips":"47081","name":"Hickman County","state_id":"TN"}]
