[{"zip":"37101","fips":"47081","name":"Hickman County","state_id":"TN"},{"zip":"37101","fips":"47043","name":"Dickson County","state_id":"TN"},{"zip":"37101","fips":"47085","name":"Humphreys County","state_id":"TN"},{"zip":"37101","fips":"47083","name":"Houston County","state_id":"TN"},{"zip":"37110","fips":"47061","name":"Grundy County","state_id":"TN"},{"zip":"37110","fips":"47177","name":"Warren County","state_id":"TN"},{"zip":"37110","fips":"47015","name":"Cannon County","state_id":"TN"},{"zip":"37110","fips":"47153","name":"Sequatchie County","state_id":"TN"},{"zip":"37110","fips":"47175","name":"Van Buren County","state_id":"TN"},{"zip":"37115","fips":"47037","name":"Davidson County","state_id":"TN"},{"zip":"37116","fips":"47037","name":"Davidson County","state_id":"TN"},{"zip":"37118","fips":"47189","name":"Wilson County","state_id":"TN"},{"zip":"37118","fips":"47015","name":"Cannon County","state_id":"TN"},{"zip":"37118","fips":"47149","name":"Rutherford County","state_id":"TN"},{"zip":"37119","fips":"47165","name":"Sumner County","state_id":"TN"},{"zip":"37121","fips":"47189","name":"Wilson County","state_id":"TN"},{"zip":"37122","fips":"47037","name":"Davidson County","state_id":"TN"},{"zip":"37122","fips":"47149","name":"Rutherford County","state_id":"TN"},{"zip":"37122","fips":"47189","name":"Wilson County","state_id":"TN"},{"zip":"37127","fips":"47149","name":"Rutherford County","state_id":"TN"},{"zip":"37128","fips":"47149","name":"Rutherford County","state_id":"TN"},{"zip":"37129","fips":"47149","name":"Rutherford County","state_id":"TN"},{"zip":"37130","fips":"47149","name":"Rutherford County","state_id":"TN"},{"zip":"37131","fips":"47149","name":"Rutherford County","state_id":"TN"},{"zip":"37132","fips":"47149","name":"Rutherford County","state_id":"TN"},{"zip":"37133","fips":"47149","name":"Rutherford County","state_id":"TN"},{"zip":"37134","fips":"47085","name":"Humphreys County","state_id":"TN"},{"zip":"37135","fips":"47037","name":"Davidson County","state_id":"TN"},{"zip":"37135","fips":"47187","name":"Williamson County","state_id":"TN"},{"zip":"37135","fips":"47149","name":"Rutherford County","state_id":"TN"},{"zip":"37137","fips":"47081","name":"Hickman County","state_id":"TN"},{"zip":"37138","fips":"47189","name":"Wilson County","state_id":"TN"},{"zip":"37138","fips":"47037","name":"Davidson County","state_id":"TN"},{"zip":"37140","fips":"47081","name":"Hickman County","state_id":"TN"},{"zip":"37141","fips":"47147","name":"Robertson County","state_id":"TN"},{"zip":"37142","fips":"47125","name":"Montgomery County","state_id":"TN"},{"zip":"37143","fips":"47021","name":"Cheatham County","state_id":"TN"},{"zip":"37143","fips":"47037","name":"Davidson County","state_id":"TN"},{"zip":"37144","fips":"47127","name":"Moore County","state_id":"TN"},{"zip":"37144","fips":"47055","name":"Giles County","state_id":"TN"},{"zip":"37144","fips":"47003","name":"Bedford County","state_id":"TN"},{"zip":"37144","fips":"47103","name":"Lincoln County","state_id":"TN"},{"zip":"37144","fips":"47117","name":"Marshall County","state_id":"TN"},{"zip":"37145","fips":"47111","name":"Macon County","state_id":"TN"},{"zip":"37145","fips":"47087","name":"Jackson County","state_id":"TN"},{"zip":"37145","fips":"47159","name":"Smith County","state_id":"TN"},{"zip":"37146","fips":"47021","name":"Cheatham County","state_id":"TN"},{"zip":"37146","fips":"47147","name":"Robertson County","state_id":"TN"},{"zip":"37148","fips":"47147","name":"Robertson County","state_id":"TN"},{"zip":"37148","fips":"47165","name":"Sumner County","state_id":"TN"},{"zip":"37149","fips":"47149","name":"Rutherford County","state_id":"TN"},{"zip":"37149","fips":"47015","name":"Cannon County","state_id":"TN"},{"zip":"37150","fips":"47111","name":"Macon County","state_id":"TN"},{"zip":"37150","fips":"47027","name":"Clay County","state_id":"TN"},{"zip":"37150","fips":"47087","name":"Jackson County","state_id":"TN"},{"zip":"37151","fips":"47159","name":"Smith County","state_id":"TN"},{"zip":"37152","fips":"47147","name":"Robertson County","state_id":"TN"},{"zip":"37153","fips":"47149","name":"Rutherford County","state_id":"TN"},{"zip":"37153","fips":"47003","name":"Bedford County","state_id":"TN"},{"zip":"37160","fips":"47051","name":"Franklin County","state_id":"TN"},{"zip":"37160","fips":"47149","name":"Rutherford County","state_id":"TN"},{"zip":"37160","fips":"47003","name":"Bedford County","state_id":"TN"},{"zip":"37160","fips":"47127","name":"Moore County","state_id":"TN"},{"zip":"37161","fips":"47003","name":"Bedford County","state_id":"TN"},{"zip":"37165","fips":"47043","name":"Dickson County","state_id":"TN"},{"zip":"37166","fips":"47177","name":"Warren County","state_id":"TN"},{"zip":"37166","fips":"47041","name":"DeKalb County","state_id":"TN"},{"zip":"37166","fips":"47015","name":"Cannon County","state_id":"TN"},{"zip":"37167","fips":"47149","name":"Rutherford County","state_id":"TN"},{"zip":"37171","fips":"47043","name":"Dickson County","state_id":"TN"},{"zip":"37171","fips":"47125","name":"Montgomery County","state_id":"TN"},{"zip":"37172","fips":"47147","name":"Robertson County","state_id":"TN"},{"zip":"37174","fips":"47119","name":"Maury County","state_id":"TN"},{"zip":"37174","fips":"47187","name":"Williamson County","state_id":"TN"},{"zip":"37174","fips":"47117","name":"Marshall County","state_id":"TN"},{"zip":"37175","fips":"47083","name":"Houston County","state_id":"TN"},{"zip":"37175","fips":"47161","name":"Stewart County","state_id":"TN"},{"zip":"37178","fips":"47083","name":"Houston County","state_id":"TN"},{"zip":"37178","fips":"47161","name":"Stewart County","state_id":"TN"},{"zip":"37179","fips":"47187","name":"Williamson County","state_id":"TN"},{"zip":"37180","fips":"47003","name":"Bedford County","state_id":"TN"},{"zip":"37180","fips":"47149","name":"Rutherford County","state_id":"TN"},{"zip":"37180","fips":"47117","name":"Marshall County","state_id":"TN"},{"zip":"37181","fips":"47043","name":"Dickson County","state_id":"TN"},{"zip":"37181","fips":"47083","name":"Houston County","state_id":"TN"},{"zip":"37183","fips":"47127","name":"Moore County","state_id":"TN"},{"zip":"37183","fips":"47031","name":"Coffee County","state_id":"TN"},{"zip":"37183","fips":"47003","name":"Bedford County","state_id":"TN"},{"zip":"37184","fips":"47189","name":"Wilson County","state_id":"TN"},{"zip":"37184","fips":"47041","name":"DeKalb County","state_id":"TN"},{"zip":"37184","fips":"47159","name":"Smith County","state_id":"TN"},{"zip":"37185","fips":"47085","name":"Humphreys County","state_id":"TN"},{"zip":"37185","fips":"47083","name":"Houston County","state_id":"TN"},{"zip":"37186","fips":"47111","name":"Macon County","state_id":"TN"},{"zip":"37186","fips":"47165","name":"Sumner County","state_id":"TN"},{"zip":"37187","fips":"47021","name":"Cheatham County","state_id":"TN"},{"zip":"37187","fips":"47043","name":"Dickson County","state_id":"TN"},{"zip":"37188","fips":"47147","name":"Robertson County","state_id":"TN"},{"zip":"37188","fips":"47165","name":"Sumner County","state_id":"TN"},{"zip":"37189","fips":"47037","name":"Davidson County","state_id":"TN"},{"zip":"37190","fips":"47177","name":"Warren County","state_id":"TN"},{"zip":"37190","fips":"47015","name":"Cannon County","state_id":"TN"},{"zip":"37191","fips":"47125","name":"Montgomery County","state_id":"TN"}]
