[{"zip":"37201","fips":"47037","name":"Davidson County","state_id":"TN"},{"zip":"37202","fips":"47037","name":"Davidson County","state_id":"TN"},{"zip":"37203","fips":"47037","name":"Davidson County","state_id":"TN"},{"zip":"37204","fips":"47037","name":"Davidson County","state_id":"TN"},{"zip":"37205","fips":"47037","name":"Davidson County","state_id":"TN"},{"zip":"37206","fips":"47037","name":"Davidson County","state_id":"TN"},{"zip":"37207","fips":"47037","name":"Davidson County","state_id":"TN"},{"zip":"37208","fips":"47037","name":"Davidson County","state_id":"TN"},{"zip":"37209","fips":"47021","name":"Cheatham County","state_id":"TN"},{"zip":"37209","fips":"47037","name":"Davidson County","state_id":"TN"},{"zip":"37210","fips":"47037","name":"Davidson County","state_id":"TN"},{"zip":"37211","fips":"47187","name":"Williamson County","state_id":"TN"},{"zip":"37211","fips":"47037","name":"Davidson County","state_id":"TN"},{"zip":"37212","fips":"47037","name":"Davidson County","state_id":"TN"},{"zip":"37213","fips":"47037","name":"Davidson County","state_id":"TN"},{"zip":"37214","fips":"47037","name":"Davidson County","state_id":"TN"},{"zip":"37215","fips":"47037","name":"Davidson County","state_id":"TN"},{"zip":"37215","fips":"47187","name":"Williamson County","state_id":"TN"},{"zip":"37216","fips":"47037","name":"Davidson County","state_id":"TN"},{"zip":"37217","fips":"47037","name":"Davidson County","state_id":"TN"},{"zip":"37218","fips":"47037","name":"Davidson County","state_id":"TN"},{"zip":"37219","fips":"47037","name":"Davidson County","state_id":"TN"},{"zip":"37220","fips":"47037","name":"Davidson County","state_id":"TN"},{"zip":"37221","fips":"47187","name":"Williamson County","state_id":"TN"},{"zip":"37221","fips":"47037","name":"Davidson County","state_id":"TN"},{"zip":"37222","fips":"47037","name":"Davidson County","state_id":"TN"},{"zip":"37224","fips":"47037","name":"Davidson County","state_id":"TN"},{"zip":"37227","fips":"47037","name":"Davidson County","state_id":"TN"},{"zip":"37228","fips":"47037","name":"Davidson County","state_id":"TN"},{"zip":"37229","fips":"47037","name":"Davidson County","state_id":"TN"},{"zip":"37232","fips":"47037","name":"Davidson County","state_id":"TN"},{"zip":"37234","fips":"47037","name":"Davidson County","state_id":"TN"},{"zip":"37235","fips":"47037","name":"Davidson County","state_id":"TN"},{"zip":"37236","fips":"47037","name":"Davidson County","state_id":"TN"},{"zip":"37238","fips":"47037","name":"Davidson County","state_id":"TN"},{"zip":"37240","fips":"47037","name":"Davidson County","state_id":"TN"},{"zip":"37242","fips":"47037","name":"Davidson County","state_id":"TN"},{"zip":"37243","fips":"47037","name":"Davidson County","state_id":"TN"},{"zip":"37246","fips":"47037","name":"Davidson County","state_id":"TN"},{"zip":"37250","fips":"47037","name":"Davidson County","state_id":"TN"}]
