[{"zip":"37301","fips":"47061","name":"Grundy County","state_id":"TN"},{"zip":"37302","fips":"47065","name":"Hamilton County","state_id":"TN"},{"zip":"37303","fips":"47107","name":"McMinn County","state_id":"TN"},{"zip":"37304","fips":"47065","name":"Hamilton County","state_id":"TN"},{"zip":"37305","fips":"47061","name":"Grundy County","state_id":"TN"},{"zip":"37306","fips":"47051","name":"Franklin County","state_id":"TN"},{"zip":"37306","fips":"47127","name":"Moore County","state_id":"TN"},{"zip":"37307","fips":"47139","name":"Polk County","state_id":"TN"},{"zip":"37308","fips":"47121","name":"Meigs County","state_id":"TN"},{"zip":"37308","fips":"47065","name":"Hamilton County","state_id":"TN"},{"zip":"37309","fips":"47139","name":"Polk County","state_id":"TN"},{"zip":"37309","fips":"47107","name":"McMinn County","state_id":"TN"},{"zip":"37310","fips":"47139","name":"Polk County","state_id":"TN"},{"zip":"37310","fips":"47011","name":"Bradley County","state_id":"TN"},{"zip":"37311","fips":"47011","name":"Bradley County","state_id":"TN"},{"zip":"37311","fips":"47065","name":"Hamilton County","state_id":"TN"},{"zip":"37312","fips":"47011","name":"Bradley County","state_id":"TN"},{"zip":"37313","fips":"47061","name":"Grundy County","state_id":"TN"},{"zip":"37314","fips":"47123","name":"Monroe County","state_id":"TN"},{"zip":"37315","fips":"47065","name":"Hamilton County","state_id":"TN"},{"zip":"37317","fips":"47139","name":"Polk County","state_id":"TN"},{"zip":"37318","fips":"47051","name":"Franklin County","state_id":"TN"},{"zip":"37320","fips":"47011","name":"Bradley County","state_id":"TN"},{"zip":"37321","fips":"47143","name":"Rhea County","state_id":"TN"},{"zip":"37321","fips":"47121","name":"Meigs County","state_id":"TN"},{"zip":"37321","fips":"47007","name":"Bledsoe County","state_id":"TN"},{"zip":"37322","fips":"47107","name":"McMinn County","state_id":"TN"},{"zip":"37322","fips":"47121","name":"Meigs County","state_id":"TN"},{"zip":"37323","fips":"47011","name":"Bradley County","state_id":"TN"},{"zip":"37323","fips":"47139","name":"Polk County","state_id":"TN"},{"zip":"37324","fips":"47051","name":"Franklin County","state_id":"TN"},{"zip":"37325","fips":"47107","name":"McMinn County","state_id":"TN"},{"zip":"37325","fips":"47139","name":"Polk County","state_id":"TN"},{"zip":"37326","fips":"47139","name":"Polk County","state_id":"TN"},{"zip":"37327","fips":"47153","name":"Sequatchie County","state_id":"TN"},{"zip":"37327","fips":"47007","name":"Bledsoe County","state_id":"TN"},{"zip":"37328","fips":"47103","name":"Lincoln County","state_id":"TN"},{"zip":"37328","fips":"47051","name":"Franklin County","state_id":"TN"},{"zip":"37329","fips":"47123","name":"Monroe County","state_id":"TN"},{"zip":"37329","fips":"47107","name":"McMinn County","state_id":"TN"},{"zip":"37330","fips":"47051","name":"Franklin County","state_id":"TN"},{"zip":"37330","fips":"47031","name":"Coffee County","state_id":"TN"},{"zip":"37331","fips":"47139","name":"Polk County","state_id":"TN"},{"zip":"37331","fips":"47107","name":"McMinn County","state_id":"TN"},{"zip":"37332","fips":"47007","name":"Bledsoe County","state_id":"TN"},{"zip":"37332","fips":"47143","name":"Rhea County","state_id":"TN"},{"zip":"37333","fips":"47139","name":"Polk County","state_id":"TN"},{"zip":"37334","fips":"47103","name":"Lincoln County","state_id":"TN"},{"zip":"37334","fips":"47003","name":"Bedford County","state_id":"TN"},{"zip":"37334","fips":"47127","name":"Moore County","state_id":"TN"},{"zip":"37335","fips":"47051","name":"Franklin County","state_id":"TN"},{"zip":"37335","fips":"47103","name":"Lincoln County","state_id":"TN"},{"zip":"37336","fips":"47011","name":"Bradley County","state_id":"TN"},{"zip":"37336","fips":"47121","name":"Meigs County","state_id":"TN"},{"zip":"37336","fips":"47065","name":"Hamilton County","state_id":"TN"},{"zip":"37337","fips":"47035","name":"Cumberland County","state_id":"TN"},{"zip":"37337","fips":"47007","name":"Bledsoe County","state_id":"TN"},{"zip":"37337","fips":"47143","name":"Rhea County","state_id":"TN"},{"zip":"37338","fips":"47007","name":"Bledsoe County","state_id":"TN"},{"zip":"37338","fips":"47153","name":"Sequatchie County","state_id":"TN"},{"zip":"37338","fips":"47143","name":"Rhea County","state_id":"TN"},{"zip":"37338","fips":"47065","name":"Hamilton County","state_id":"TN"},{"zip":"37339","fips":"47061","name":"Grundy County","state_id":"TN"},{"zip":"37340","fips":"47115","name":"Marion County","state_id":"TN"},{"zip":"37341","fips":"47065","name":"Hamilton County","state_id":"TN"},{"zip":"37342","fips":"47031","name":"Coffee County","state_id":"TN"},{"zip":"37343","fips":"47065","name":"Hamilton County","state_id":"TN"},{"zip":"37345","fips":"47051","name":"Franklin County","state_id":"TN"},{"zip":"37345","fips":"47103","name":"Lincoln County","state_id":"TN"},{"zip":"37347","fips":"47115","name":"Marion County","state_id":"TN"},{"zip":"37348","fips":"47103","name":"Lincoln County","state_id":"TN"},{"zip":"37350","fips":"47065","name":"Hamilton County","state_id":"TN"},{"zip":"37351","fips":"47065","name":"Hamilton County","state_id":"TN"},{"zip":"37352","fips":"47127","name":"Moore County","state_id":"TN"},{"zip":"37352","fips":"47051","name":"Franklin County","state_id":"TN"},{"zip":"37353","fips":"47065","name":"Hamilton County","state_id":"TN"},{"zip":"37353","fips":"47011","name":"Bradley County","state_id":"TN"},{"zip":"37354","fips":"47107","name":"McMinn County","state_id":"TN"},{"zip":"37354","fips":"47123","name":"Monroe County","state_id":"TN"},{"zip":"37355","fips":"47031","name":"Coffee County","state_id":"TN"},{"zip":"37355","fips":"47051","name":"Franklin County","state_id":"TN"},{"zip":"37356","fips":"47115","name":"Marion County","state_id":"TN"},{"zip":"37356","fips":"47061","name":"Grundy County","state_id":"TN"},{"zip":"37356","fips":"47051","name":"Franklin County","state_id":"TN"},{"zip":"37357","fips":"47061","name":"Grundy County","state_id":"TN"},{"zip":"37357","fips":"47177","name":"Warren County","state_id":"TN"},{"zip":"37357","fips":"47015","name":"Cannon County","state_id":"TN"},{"zip":"37357","fips":"47031","name":"Coffee County","state_id":"TN"},{"zip":"37359","fips":"47127","name":"Moore County","state_id":"TN"},{"zip":"37359","fips":"47103","name":"Lincoln County","state_id":"TN"},{"zip":"37360","fips":"47127","name":"Moore County","state_id":"TN"},{"zip":"37360","fips":"47031","name":"Coffee County","state_id":"TN"},{"zip":"37360","fips":"47003","name":"Bedford County","state_id":"TN"},{"zip":"37361","fips":"47139","name":"Polk County","state_id":"TN"},{"zip":"37362","fips":"47139","name":"Polk County","state_id":"TN"},{"zip":"37362","fips":"47011","name":"Bradley County","state_id":"TN"},{"zip":"37363","fips":"47065","name":"Hamilton County","state_id":"TN"},{"zip":"37364","fips":"47011","name":"Bradley County","state_id":"TN"},{"zip":"37365","fips":"47061","name":"Grundy County","state_id":"TN"},{"zip":"37365","fips":"47153","name":"Sequatchie County","state_id":"TN"},{"zip":"37365","fips":"47115","name":"Marion County","state_id":"TN"},{"zip":"37366","fips":"47115","name":"Marion County","state_id":"TN"},{"zip":"37366","fips":"47031","name":"Coffee County","state_id":"TN"},{"zip":"37366","fips":"47051","name":"Franklin County","state_id":"TN"},{"zip":"37366","fips":"47061","name":"Grundy County","state_id":"TN"},{"zip":"37367","fips":"47007","name":"Bledsoe County","state_id":"TN"},{"zip":"37367","fips":"47035","name":"Cumberland County","state_id":"TN"},{"zip":"37367","fips":"47153","name":"Sequatchie County","state_id":"TN"},{"zip":"37367","fips":"47175","name":"Van Buren County","state_id":"TN"},{"zip":"37367","fips":"47143","name":"Rhea County","state_id":"TN"},{"zip":"37369","fips":"47139","name":"Polk County","state_id":"TN"},{"zip":"37369","fips":"47123","name":"Monroe County","state_id":"TN"},{"zip":"37370","fips":"47107","name":"McMinn County","state_id":"TN"},{"zip":"37371","fips":"47107","name":"McMinn County","state_id":"TN"},{"zip":"37373","fips":"47065","name":"Hamilton County","state_id":"TN"},{"zip":"37373","fips":"47143","name":"Rhea County","state_id":"TN"},{"zip":"37374","fips":"47061","name":"Grundy County","state_id":"TN"},{"zip":"37374","fips":"47115","name":"Marion County","state_id":"TN"},{"zip":"37375","fips":"47051","name":"Franklin County","state_id":"TN"},{"zip":"37375","fips":"47115","name":"Marion County","state_id":"TN"},{"zip":"37376","fips":"47051","name":"Franklin County","state_id":"TN"},{"zip":"37377","fips":"47153","name":"Sequatchie County","state_id":"TN"},{"zip":"37377","fips":"47115","name":"Marion County","state_id":"TN"},{"zip":"37377","fips":"47065","name":"Hamilton County","state_id":"TN"},{"zip":"37378","fips":"47177","name":"Warren County","state_id":"TN"},{"zip":"37379","fips":"47153","name":"Sequatchie County","state_id":"TN"},{"zip":"37379","fips":"47065","name":"Hamilton County","state_id":"TN"},{"zip":"37379","fips":"47007","name":"Bledsoe County","state_id":"TN"},{"zip":"37380","fips":"47051","name":"Franklin County","state_id":"TN"},{"zip":"37380","fips":"47115","name":"Marion County","state_id":"TN"},{"zip":"37381","fips":"47007","name":"Bledsoe County","state_id":"TN"},{"zip":"37381","fips":"47143","name":"Rhea County","state_id":"TN"},{"zip":"37381","fips":"47035","name":"Cumberland County","state_id":"TN"},{"zip":"37382","fips":"47031","name":"Coffee County","state_id":"TN"},{"zip":"37383","fips":"47051","name":"Franklin County","state_id":"TN"},{"zip":"37384","fips":"47065","name":"Hamilton County","state_id":"TN"},{"zip":"37385","fips":"47123","name":"Monroe County","state_id":"TN"},{"zip":"37385","fips":"47139","name":"Polk County","state_id":"TN"},{"zip":"37387","fips":"47115","name":"Marion County","state_id":"TN"},{"zip":"37387","fips":"47061","name":"Grundy County","state_id":"TN"},{"zip":"37388","fips":"47031","name":"Coffee County","state_id":"TN"},{"zip":"37388","fips":"47003","name":"Bedford County","state_id":"TN"},{"zip":"37388","fips":"47127","name":"Moore County","state_id":"TN"},{"zip":"37388","fips":"47051","name":"Franklin County","state_id":"TN"},{"zip":"37389","fips":"47031","name":"Coffee County","state_id":"TN"},{"zip":"37391","fips":"47139","name":"Polk County","state_id":"TN"},{"zip":"37394","fips":"47177","name":"Warren County","state_id":"TN"},{"zip":"37396","fips":"47115","name":"Marion County","state_id":"TN"},{"zip":"37397","fips":"47153","name":"Sequatchie County","state_id":"TN"},{"zip":"37397","fips":"47115","name":"Marion County","state_id":"TN"},{"zip":"37397","fips":"47061","name":"Grundy County","state_id":"TN"},{"zip":"37398","fips":"47127","name":"Moore County","state_id":"TN"},{"zip":"37398","fips":"47051","name":"Franklin County","state_id":"TN"}]
