[{"zip":"37601","fips":"47179","name":"Washington County","state_id":"TN"},{"zip":"37601","fips":"47019","name":"Carter County","state_id":"TN"},{"zip":"37601","fips":"47171","name":"Unicoi County","state_id":"TN"},{"zip":"37602","fips":"47179","name":"Washington County","state_id":"TN"},{"zip":"37604","fips":"47019","name":"Carter County","state_id":"TN"},{"zip":"37604","fips":"47179","name":"Washington County","state_id":"TN"},{"zip":"37605","fips":"47179","name":"Washington County","state_id":"TN"},{"zip":"37614","fips":"47179","name":"Washington County","state_id":"TN"},{"zip":"37615","fips":"47163","name":"Sullivan County","state_id":"TN"},{"zip":"37615","fips":"47179","name":"Washington County","state_id":"TN"},{"zip":"37616","fips":"47059","name":"Greene County","state_id":"TN"},{"zip":"37617","fips":"47163","name":"Sullivan County","state_id":"TN"},{"zip":"37618","fips":"47163","name":"Sullivan County","state_id":"TN"},{"zip":"37620","fips":"47163","name":"Sullivan County","state_id":"TN"},{"zip":"37621","fips":"47163","name":"Sullivan County","state_id":"TN"},{"zip":"37625","fips":"47163","name":"Sullivan County","state_id":"TN"},{"zip":"37640","fips":"47019","name":"Carter County","state_id":"TN"},{"zip":"37640","fips":"47091","name":"Johnson County","state_id":"TN"},{"zip":"37641","fips":"47179","name":"Washington County","state_id":"TN"},{"zip":"37641","fips":"47059","name":"Greene County","state_id":"TN"},{"zip":"37642","fips":"47073","name":"Hawkins County","state_id":"TN"},{"zip":"37643","fips":"47019","name":"Carter County","state_id":"TN"},{"zip":"37643","fips":"47091","name":"Johnson County","state_id":"TN"},{"zip":"37643","fips":"47171","name":"Unicoi County","state_id":"TN"},{"zip":"37645","fips":"47073","name":"Hawkins County","state_id":"TN"},{"zip":"37650","fips":"47179","name":"Washington County","state_id":"TN"},{"zip":"37650","fips":"47171","name":"Unicoi County","state_id":"TN"},{"zip":"37656","fips":"47059","name":"Greene County","state_id":"TN"},{"zip":"37656","fips":"47179","name":"Washington County","state_id":"TN"},{"zip":"37656","fips":"47163","name":"Sullivan County","state_id":"TN"},{"zip":"37657","fips":"47171","name":"Unicoi County","state_id":"TN"},{"zip":"37658","fips":"47171","name":"Unicoi County","state_id":"TN"},{"zip":"37658","fips":"47019","name":"Carter County","state_id":"TN"},{"zip":"37659","fips":"47163","name":"Sullivan County","state_id":"TN"},{"zip":"37659","fips":"47179","name":"Washington County","state_id":"TN"},{"zip":"37660","fips":"47073","name":"Hawkins County","state_id":"TN"},{"zip":"37660","fips":"47163","name":"Sullivan County","state_id":"TN"},{"zip":"37662","fips":"47163","name":"Sullivan County","state_id":"TN"},{"zip":"37663","fips":"47179","name":"Washington County","state_id":"TN"},{"zip":"37663","fips":"47163","name":"Sullivan County","state_id":"TN"},{"zip":"37664","fips":"47163","name":"Sullivan County","state_id":"TN"},{"zip":"37665","fips":"47163","name":"Sullivan County","state_id":"TN"},{"zip":"37669","fips":"47163","name":"Sullivan County","state_id":"TN"},{"zip":"37680","fips":"47091","name":"Johnson County","state_id":"TN"},{"zip":"37681","fips":"47179","name":"Washington County","state_id":"TN"},{"zip":"37681","fips":"47059","name":"Greene County","state_id":"TN"},{"zip":"37682","fips":"47019","name":"Carter County","state_id":"TN"},{"zip":"37683","fips":"47019","name":"Carter County","state_id":"TN"},{"zip":"37683","fips":"47091","name":"Johnson County","state_id":"TN"},{"zip":"37684","fips":"47179","name":"Washington County","state_id":"TN"},{"zip":"37686","fips":"47163","name":"Sullivan County","state_id":"TN"},{"zip":"37686","fips":"47179","name":"Washington County","state_id":"TN"},{"zip":"37687","fips":"47019","name":"Carter County","state_id":"TN"},{"zip":"37688","fips":"47019","name":"Carter County","state_id":"TN"},{"zip":"37688","fips":"47091","name":"Johnson County","state_id":"TN"},{"zip":"37690","fips":"47179","name":"Washington County","state_id":"TN"},{"zip":"37691","fips":"47091","name":"Johnson County","state_id":"TN"},{"zip":"37692","fips":"47171","name":"Unicoi County","state_id":"TN"},{"zip":"37692","fips":"47019","name":"Carter County","state_id":"TN"},{"zip":"37694","fips":"47019","name":"Carter County","state_id":"TN"},{"zip":"37694","fips":"47179","name":"Washington County","state_id":"TN"},{"zip":"37694","fips":"47163","name":"Sullivan County","state_id":"TN"},{"zip":"37699","fips":"47163","name":"Sullivan County","state_id":"TN"}]
