[{"zip":"37701","fips":"47009","name":"Blount County","state_id":"TN"},{"zip":"37705","fips":"47001","name":"Anderson County","state_id":"TN"},{"zip":"37705","fips":"47173","name":"Union County","state_id":"TN"},{"zip":"37707","fips":"47025","name":"Claiborne County","state_id":"TN"},{"zip":"37708","fips":"47057","name":"Grainger County","state_id":"TN"},{"zip":"37709","fips":"47093","name":"Knox County","state_id":"TN"},{"zip":"37709","fips":"47057","name":"Grainger County","state_id":"TN"},{"zip":"37710","fips":"47001","name":"Anderson County","state_id":"TN"},{"zip":"37711","fips":"47063","name":"Hamblen County","state_id":"TN"},{"zip":"37711","fips":"47059","name":"Greene County","state_id":"TN"},{"zip":"37711","fips":"47073","name":"Hawkins County","state_id":"TN"},{"zip":"37713","fips":"47029","name":"Cocke County","state_id":"TN"},{"zip":"37714","fips":"47013","name":"Campbell County","state_id":"TN"},{"zip":"37715","fips":"47013","name":"Campbell County","state_id":"TN"},{"zip":"37715","fips":"47025","name":"Claiborne County","state_id":"TN"},{"zip":"37716","fips":"47001","name":"Anderson County","state_id":"TN"},{"zip":"37717","fips":"47001","name":"Anderson County","state_id":"TN"},{"zip":"37719","fips":"47129","name":"Morgan County","state_id":"TN"},{"zip":"37721","fips":"47173","name":"Union County","state_id":"TN"},{"zip":"37721","fips":"47093","name":"Knox County","state_id":"TN"},{"zip":"37722","fips":"47155","name":"Sevier County","state_id":"TN"},{"zip":"37722","fips":"47029","name":"Cocke County","state_id":"TN"},{"zip":"37723","fips":"47035","name":"Cumberland County","state_id":"TN"},{"zip":"37724","fips":"47025","name":"Claiborne County","state_id":"TN"},{"zip":"37725","fips":"47155","name":"Sevier County","state_id":"TN"},{"zip":"37725","fips":"47089","name":"Jefferson County","state_id":"TN"},{"zip":"37726","fips":"47129","name":"Morgan County","state_id":"TN"},{"zip":"37726","fips":"47049","name":"Fentress County","state_id":"TN"},{"zip":"37727","fips":"47029","name":"Cocke County","state_id":"TN"},{"zip":"37729","fips":"47013","name":"Campbell County","state_id":"TN"},{"zip":"37730","fips":"47025","name":"Claiborne County","state_id":"TN"},{"zip":"37731","fips":"47067","name":"Hancock County","state_id":"TN"},{"zip":"37731","fips":"47073","name":"Hawkins County","state_id":"TN"},{"zip":"37732","fips":"47151","name":"Scott County","state_id":"TN"},{"zip":"37733","fips":"47129","name":"Morgan County","state_id":"TN"},{"zip":"37737","fips":"47105","name":"Loudon County","state_id":"TN"},{"zip":"37737","fips":"47009","name":"Blount County","state_id":"TN"},{"zip":"37738","fips":"47155","name":"Sevier County","state_id":"TN"},{"zip":"37742","fips":"47105","name":"Loudon County","state_id":"TN"},{"zip":"37742","fips":"47009","name":"Blount County","state_id":"TN"},{"zip":"37743","fips":"47059","name":"Greene County","state_id":"TN"},{"zip":"37743","fips":"47029","name":"Cocke County","state_id":"TN"},{"zip":"37745","fips":"47073","name":"Hawkins County","state_id":"TN"},{"zip":"37745","fips":"47059","name":"Greene County","state_id":"TN"},{"zip":"37748","fips":"47129","name":"Morgan County","state_id":"TN"},{"zip":"37748","fips":"47145","name":"Roane County","state_id":"TN"},{"zip":"37752","fips":"47025","name":"Claiborne County","state_id":"TN"},{"zip":"37752","fips":"47067","name":"Hancock County","state_id":"TN"},{"zip":"37753","fips":"47029","name":"Cocke County","state_id":"TN"},{"zip":"37754","fips":"47173","name":"Union County","state_id":"TN"},{"zip":"37754","fips":"47001","name":"Anderson County","state_id":"TN"},{"zip":"37754","fips":"47093","name":"Knox County","state_id":"TN"},{"zip":"37755","fips":"47151","name":"Scott County","state_id":"TN"},{"zip":"37756","fips":"47013","name":"Campbell County","state_id":"TN"},{"zip":"37756","fips":"47151","name":"Scott County","state_id":"TN"},{"zip":"37757","fips":"47013","name":"Campbell County","state_id":"TN"},{"zip":"37760","fips":"47089","name":"Jefferson County","state_id":"TN"},{"zip":"37762","fips":"47013","name":"Campbell County","state_id":"TN"},{"zip":"37763","fips":"47145","name":"Roane County","state_id":"TN"},{"zip":"37764","fips":"47155","name":"Sevier County","state_id":"TN"},{"zip":"37764","fips":"47093","name":"Knox County","state_id":"TN"},{"zip":"37764","fips":"47089","name":"Jefferson County","state_id":"TN"},{"zip":"37765","fips":"47067","name":"Hancock County","state_id":"TN"},{"zip":"37766","fips":"47013","name":"Campbell County","state_id":"TN"},{"zip":"37769","fips":"47013","name":"Campbell County","state_id":"TN"},{"zip":"37769","fips":"47001","name":"Anderson County","state_id":"TN"},{"zip":"37770","fips":"47129","name":"Morgan County","state_id":"TN"},{"zip":"37771","fips":"47105","name":"Loudon County","state_id":"TN"},{"zip":"37771","fips":"47145","name":"Roane County","state_id":"TN"},{"zip":"37772","fips":"47093","name":"Knox County","state_id":"TN"},{"zip":"37772","fips":"47009","name":"Blount County","state_id":"TN"},{"zip":"37772","fips":"47105","name":"Loudon County","state_id":"TN"},{"zip":"37774","fips":"47105","name":"Loudon County","state_id":"TN"},{"zip":"37774","fips":"47145","name":"Roane County","state_id":"TN"},{"zip":"37774","fips":"47123","name":"Monroe County","state_id":"TN"},{"zip":"37777","fips":"47009","name":"Blount County","state_id":"TN"},{"zip":"37778","fips":"47063","name":"Hamblen County","state_id":"TN"},{"zip":"37779","fips":"47057","name":"Grainger County","state_id":"TN"},{"zip":"37779","fips":"47093","name":"Knox County","state_id":"TN"},{"zip":"37779","fips":"47173","name":"Union County","state_id":"TN"}]
