[{"zip":"37801","fips":"47123","name":"Monroe County","state_id":"TN"},{"zip":"37801","fips":"47105","name":"Loudon County","state_id":"TN"},{"zip":"37801","fips":"47009","name":"Blount County","state_id":"TN"},{"zip":"37802","fips":"47009","name":"Blount County","state_id":"TN"},{"zip":"37803","fips":"47009","name":"Blount County","state_id":"TN"},{"zip":"37804","fips":"47009","name":"Blount County","state_id":"TN"},{"zip":"37806","fips":"47093","name":"Knox County","state_id":"TN"},{"zip":"37806","fips":"47057","name":"Grainger County","state_id":"TN"},{"zip":"37807","fips":"47093","name":"Knox County","state_id":"TN"},{"zip":"37807","fips":"47173","name":"Union County","state_id":"TN"},{"zip":"37809","fips":"47059","name":"Greene County","state_id":"TN"},{"zip":"37810","fips":"47059","name":"Greene County","state_id":"TN"},{"zip":"37811","fips":"47073","name":"Hawkins County","state_id":"TN"},{"zip":"37811","fips":"47057","name":"Grainger County","state_id":"TN"},{"zip":"37813","fips":"47089","name":"Jefferson County","state_id":"TN"},{"zip":"37813","fips":"47063","name":"Hamblen County","state_id":"TN"},{"zip":"37814","fips":"47063","name":"Hamblen County","state_id":"TN"},{"zip":"37815","fips":"47063","name":"Hamblen County","state_id":"TN"},{"zip":"37816","fips":"47063","name":"Hamblen County","state_id":"TN"},{"zip":"37818","fips":"47059","name":"Greene County","state_id":"TN"},{"zip":"37819","fips":"47013","name":"Campbell County","state_id":"TN"},{"zip":"37820","fips":"47155","name":"Sevier County","state_id":"TN"},{"zip":"37820","fips":"47089","name":"Jefferson County","state_id":"TN"},{"zip":"37821","fips":"47089","name":"Jefferson County","state_id":"TN"},{"zip":"37821","fips":"47029","name":"Cocke County","state_id":"TN"},{"zip":"37825","fips":"47173","name":"Union County","state_id":"TN"},{"zip":"37825","fips":"47025","name":"Claiborne County","state_id":"TN"},{"zip":"37826","fips":"47121","name":"Meigs County","state_id":"TN"},{"zip":"37826","fips":"47107","name":"McMinn County","state_id":"TN"},{"zip":"37828","fips":"47001","name":"Anderson County","state_id":"TN"},{"zip":"37829","fips":"47129","name":"Morgan County","state_id":"TN"},{"zip":"37830","fips":"47001","name":"Anderson County","state_id":"TN"},{"zip":"37830","fips":"47093","name":"Knox County","state_id":"TN"},{"zip":"37830","fips":"47145","name":"Roane County","state_id":"TN"},{"zip":"37831","fips":"47001","name":"Anderson County","state_id":"TN"},{"zip":"37840","fips":"47001","name":"Anderson County","state_id":"TN"},{"zip":"37840","fips":"47129","name":"Morgan County","state_id":"TN"},{"zip":"37840","fips":"47145","name":"Roane County","state_id":"TN"},{"zip":"37841","fips":"47151","name":"Scott County","state_id":"TN"},{"zip":"37843","fips":"47029","name":"Cocke County","state_id":"TN"},{"zip":"37845","fips":"47129","name":"Morgan County","state_id":"TN"},{"zip":"37846","fips":"47107","name":"McMinn County","state_id":"TN"},{"zip":"37846","fips":"47145","name":"Roane County","state_id":"TN"},{"zip":"37846","fips":"47121","name":"Meigs County","state_id":"TN"},{"zip":"37846","fips":"47123","name":"Monroe County","state_id":"TN"},{"zip":"37846","fips":"47105","name":"Loudon County","state_id":"TN"},{"zip":"37847","fips":"47151","name":"Scott County","state_id":"TN"},{"zip":"37847","fips":"47013","name":"Campbell County","state_id":"TN"},{"zip":"37848","fips":"47057","name":"Grainger County","state_id":"TN"},{"zip":"37848","fips":"47173","name":"Union County","state_id":"TN"},{"zip":"37849","fips":"47001","name":"Anderson County","state_id":"TN"},{"zip":"37849","fips":"47093","name":"Knox County","state_id":"TN"},{"zip":"37851","fips":"47025","name":"Claiborne County","state_id":"TN"},{"zip":"37852","fips":"47151","name":"Scott County","state_id":"TN"},{"zip":"37852","fips":"47129","name":"Morgan County","state_id":"TN"},{"zip":"37853","fips":"47093","name":"Knox County","state_id":"TN"},{"zip":"37853","fips":"47009","name":"Blount County","state_id":"TN"},{"zip":"37854","fips":"47129","name":"Morgan County","state_id":"TN"},{"zip":"37854","fips":"47035","name":"Cumberland County","state_id":"TN"},{"zip":"37854","fips":"47145","name":"Roane County","state_id":"TN"},{"zip":"37857","fips":"47073","name":"Hawkins County","state_id":"TN"},{"zip":"37857","fips":"47163","name":"Sullivan County","state_id":"TN"},{"zip":"37857","fips":"47059","name":"Greene County","state_id":"TN"},{"zip":"37860","fips":"47063","name":"Hamblen County","state_id":"TN"},{"zip":"37861","fips":"47057","name":"Grainger County","state_id":"TN"},{"zip":"37862","fips":"47155","name":"Sevier County","state_id":"TN"},{"zip":"37863","fips":"47155","name":"Sevier County","state_id":"TN"},{"zip":"37864","fips":"47155","name":"Sevier County","state_id":"TN"},{"zip":"37865","fips":"47009","name":"Blount County","state_id":"TN"},{"zip":"37865","fips":"47155","name":"Sevier County","state_id":"TN"},{"zip":"37866","fips":"47173","name":"Union County","state_id":"TN"},{"zip":"37868","fips":"47155","name":"Sevier County","state_id":"TN"},{"zip":"37869","fips":"47067","name":"Hancock County","state_id":"TN"},{"zip":"37869","fips":"47073","name":"Hawkins County","state_id":"TN"},{"zip":"37869","fips":"47025","name":"Claiborne County","state_id":"TN"},{"zip":"37870","fips":"47013","name":"Campbell County","state_id":"TN"},{"zip":"37870","fips":"47173","name":"Union County","state_id":"TN"},{"zip":"37870","fips":"47025","name":"Claiborne County","state_id":"TN"},{"zip":"37871","fips":"47093","name":"Knox County","state_id":"TN"},{"zip":"37871","fips":"47155","name":"Sevier County","state_id":"TN"},{"zip":"37871","fips":"47089","name":"Jefferson County","state_id":"TN"},{"zip":"37872","fips":"47129","name":"Morgan County","state_id":"TN"},{"zip":"37872","fips":"47151","name":"Scott County","state_id":"TN"},{"zip":"37873","fips":"47073","name":"Hawkins County","state_id":"TN"},{"zip":"37874","fips":"47123","name":"Monroe County","state_id":"TN"},{"zip":"37874","fips":"47145","name":"Roane County","state_id":"TN"},{"zip":"37874","fips":"47105","name":"Loudon County","state_id":"TN"},{"zip":"37874","fips":"47107","name":"McMinn County","state_id":"TN"},{"zip":"37876","fips":"47089","name":"Jefferson County","state_id":"TN"},{"zip":"37876","fips":"47155","name":"Sevier County","state_id":"TN"},{"zip":"37877","fips":"47063","name":"Hamblen County","state_id":"TN"},{"zip":"37877","fips":"47089","name":"Jefferson County","state_id":"TN"},{"zip":"37878","fips":"47009","name":"Blount County","state_id":"TN"},{"zip":"37879","fips":"47067","name":"Hancock County","state_id":"TN"},{"zip":"37879","fips":"47025","name":"Claiborne County","state_id":"TN"},{"zip":"37880","fips":"47121","name":"Meigs County","state_id":"TN"},{"zip":"37880","fips":"47145","name":"Roane County","state_id":"TN"},{"zip":"37880","fips":"47107","name":"McMinn County","state_id":"TN"},{"zip":"37881","fips":"47067","name":"Hancock County","state_id":"TN"},{"zip":"37881","fips":"47025","name":"Claiborne County","state_id":"TN"},{"zip":"37881","fips":"47057","name":"Grainger County","state_id":"TN"},{"zip":"37881","fips":"47073","name":"Hawkins County","state_id":"TN"},{"zip":"37882","fips":"47009","name":"Blount County","state_id":"TN"},{"zip":"37885","fips":"47123","name":"Monroe County","state_id":"TN"},{"zip":"37885","fips":"47105","name":"Loudon County","state_id":"TN"},{"zip":"37886","fips":"47009","name":"Blount County","state_id":"TN"},{"zip":"37887","fips":"47129","name":"Morgan County","state_id":"TN"},{"zip":"37888","fips":"47057","name":"Grainger County","state_id":"TN"},{"zip":"37888","fips":"47173","name":"Union County","state_id":"TN"},{"zip":"37890","fips":"47063","name":"Hamblen County","state_id":"TN"},{"zip":"37890","fips":"47089","name":"Jefferson County","state_id":"TN"},{"zip":"37891","fips":"47063","name":"Hamblen County","state_id":"TN"},{"zip":"37891","fips":"47073","name":"Hawkins County","state_id":"TN"},{"zip":"37892","fips":"47151","name":"Scott County","state_id":"TN"}]
