[{"zip":"37901","fips":"47093","name":"Knox County","state_id":"TN"},{"zip":"37902","fips":"47093","name":"Knox County","state_id":"TN"},{"zip":"37909","fips":"47093","name":"Knox County","state_id":"TN"},{"zip":"37912","fips":"47093","name":"Knox County","state_id":"TN"},{"zip":"37914","fips":"47093","name":"Knox County","state_id":"TN"},{"zip":"37915","fips":"47093","name":"Knox County","state_id":"TN"},{"zip":"37916","fips":"47093","name":"Knox County","state_id":"TN"},{"zip":"37917","fips":"47093","name":"Knox County","state_id":"TN"},{"zip":"37918","fips":"47093","name":"Knox County","state_id":"TN"},{"zip":"37919","fips":"47093","name":"Knox County","state_id":"TN"},{"zip":"37920","fips":"47009","name":"Blount County","state_id":"TN"},{"zip":"37920","fips":"47093","name":"Knox County","state_id":"TN"},{"zip":"37920","fips":"47155","name":"Sevier County","state_id":"TN"},{"zip":"37921","fips":"47093","name":"Knox County","state_id":"TN"},{"zip":"37922","fips":"47105","name":"Loudon County","state_id":"TN"},{"zip":"37922","fips":"47093","name":"Knox County","state_id":"TN"},{"zip":"37923","fips":"47093","name":"Knox County","state_id":"TN"},{"zip":"37924","fips":"47093","name":"Knox County","state_id":"TN"},{"zip":"37927","fips":"47093","name":"Knox County","state_id":"TN"},{"zip":"37928","fips":"47093","name":"Knox County","state_id":"TN"},{"zip":"37929","fips":"47093","name":"Knox County","state_id":"TN"},{"zip":"37930","fips":"47093","name":"Knox County","state_id":"TN"},{"zip":"37931","fips":"47093","name":"Knox County","state_id":"TN"},{"zip":"37931","fips":"47001","name":"Anderson County","state_id":"TN"},{"zip":"37932","fips":"47093","name":"Knox County","state_id":"TN"},{"zip":"37933","fips":"47093","name":"Knox County","state_id":"TN"},{"zip":"37934","fips":"47093","name":"Knox County","state_id":"TN"},{"zip":"37938","fips":"47093","name":"Knox County","state_id":"TN"},{"zip":"37938","fips":"47173","name":"Union County","state_id":"TN"},{"zip":"37938","fips":"47001","name":"Anderson County","state_id":"TN"},{"zip":"37939","fips":"47093","name":"Knox County","state_id":"TN"},{"zip":"37940","fips":"47093","name":"Knox County","state_id":"TN"},{"zip":"37950","fips":"47093","name":"Knox County","state_id":"TN"},{"zip":"37995","fips":"47093","name":"Knox County","state_id":"TN"},{"zip":"37996","fips":"47093","name":"Knox County","state_id":"TN"},{"zip":"37997","fips":"47093","name":"Knox County","state_id":"TN"},{"zip":"37998","fips":"47093","name":"Knox County","state_id":"TN"}]
