[{"zip":"38001","fips":"47033","name":"Crockett County","state_id":"TN"},{"zip":"38002","fips":"47047","name":"Fayette County","state_id":"TN"},{"zip":"38002","fips":"47157","name":"Shelby County","state_id":"TN"},{"zip":"38004","fips":"47167","name":"Tipton County","state_id":"TN"},{"zip":"38004","fips":"47157","name":"Shelby County","state_id":"TN"},{"zip":"38006","fips":"47113","name":"Madison County","state_id":"TN"},{"zip":"38006","fips":"47075","name":"Haywood County","state_id":"TN"},{"zip":"38006","fips":"47033","name":"Crockett County","state_id":"TN"},{"zip":"38007","fips":"47045","name":"Dyer County","state_id":"TN"},{"zip":"38008","fips":"47069","name":"Hardeman County","state_id":"TN"},{"zip":"38011","fips":"47167","name":"Tipton County","state_id":"TN"},{"zip":"38011","fips":"47157","name":"Shelby County","state_id":"TN"},{"zip":"38012","fips":"47075","name":"Haywood County","state_id":"TN"},{"zip":"38014","fips":"47157","name":"Shelby County","state_id":"TN"},{"zip":"38015","fips":"47167","name":"Tipton County","state_id":"TN"},{"zip":"38016","fips":"47157","name":"Shelby County","state_id":"TN"},{"zip":"38017","fips":"47047","name":"Fayette County","state_id":"TN"},{"zip":"38017","fips":"47157","name":"Shelby County","state_id":"TN"},{"zip":"38018","fips":"47157","name":"Shelby County","state_id":"TN"},{"zip":"38019","fips":"47167","name":"Tipton County","state_id":"TN"},{"zip":"38021","fips":"47033","name":"Crockett County","state_id":"TN"},{"zip":"38023","fips":"47167","name":"Tipton County","state_id":"TN"},{"zip":"38024","fips":"47045","name":"Dyer County","state_id":"TN"},{"zip":"38025","fips":"47045","name":"Dyer County","state_id":"TN"},{"zip":"38027","fips":"47157","name":"Shelby County","state_id":"TN"},{"zip":"38028","fips":"47047","name":"Fayette County","state_id":"TN"},{"zip":"38028","fips":"47157","name":"Shelby County","state_id":"TN"},{"zip":"38029","fips":"47157","name":"Shelby County","state_id":"TN"},{"zip":"38030","fips":"47045","name":"Dyer County","state_id":"TN"},{"zip":"38034","fips":"47033","name":"Crockett County","state_id":"TN"},{"zip":"38034","fips":"47045","name":"Dyer County","state_id":"TN"},{"zip":"38036","fips":"47047","name":"Fayette County","state_id":"TN"},{"zip":"38037","fips":"47075","name":"Haywood County","state_id":"TN"},{"zip":"38037","fips":"47097","name":"Lauderdale County","state_id":"TN"},{"zip":"38039","fips":"47069","name":"Hardeman County","state_id":"TN"},{"zip":"38039","fips":"47047","name":"Fayette County","state_id":"TN"},{"zip":"38040","fips":"47045","name":"Dyer County","state_id":"TN"},{"zip":"38040","fips":"47033","name":"Crockett County","state_id":"TN"},{"zip":"38040","fips":"47097","name":"Lauderdale County","state_id":"TN"},{"zip":"38041","fips":"47097","name":"Lauderdale County","state_id":"TN"},{"zip":"38042","fips":"47069","name":"Hardeman County","state_id":"TN"},{"zip":"38042","fips":"47047","name":"Fayette County","state_id":"TN"},{"zip":"38044","fips":"47069","name":"Hardeman County","state_id":"TN"},{"zip":"38044","fips":"47109","name":"McNairy County","state_id":"TN"},{"zip":"38044","fips":"47023","name":"Chester County","state_id":"TN"},{"zip":"38045","fips":"47047","name":"Fayette County","state_id":"TN"},{"zip":"38046","fips":"47047","name":"Fayette County","state_id":"TN"},{"zip":"38047","fips":"47045","name":"Dyer County","state_id":"TN"},{"zip":"38048","fips":"47047","name":"Fayette County","state_id":"TN"},{"zip":"38049","fips":"47167","name":"Tipton County","state_id":"TN"},{"zip":"38049","fips":"47075","name":"Haywood County","state_id":"TN"},{"zip":"38049","fips":"47047","name":"Fayette County","state_id":"TN"},{"zip":"38050","fips":"47033","name":"Crockett County","state_id":"TN"},{"zip":"38052","fips":"47069","name":"Hardeman County","state_id":"TN"},{"zip":"38053","fips":"47157","name":"Shelby County","state_id":"TN"},{"zip":"38053","fips":"47167","name":"Tipton County","state_id":"TN"},{"zip":"38054","fips":"47157","name":"Shelby County","state_id":"TN"},{"zip":"38055","fips":"47157","name":"Shelby County","state_id":"TN"},{"zip":"38057","fips":"47047","name":"Fayette County","state_id":"TN"},{"zip":"38058","fips":"47167","name":"Tipton County","state_id":"TN"},{"zip":"38059","fips":"47053","name":"Gibson County","state_id":"TN"},{"zip":"38059","fips":"47045","name":"Dyer County","state_id":"TN"},{"zip":"38060","fips":"47047","name":"Fayette County","state_id":"TN"},{"zip":"38061","fips":"47069","name":"Hardeman County","state_id":"TN"},{"zip":"38061","fips":"47109","name":"McNairy County","state_id":"TN"},{"zip":"38063","fips":"47097","name":"Lauderdale County","state_id":"TN"},{"zip":"38063","fips":"47075","name":"Haywood County","state_id":"TN"},{"zip":"38066","fips":"47047","name":"Fayette County","state_id":"TN"},{"zip":"38067","fips":"47069","name":"Hardeman County","state_id":"TN"},{"zip":"38068","fips":"47075","name":"Haywood County","state_id":"TN"},{"zip":"38068","fips":"47047","name":"Fayette County","state_id":"TN"},{"zip":"38069","fips":"47075","name":"Haywood County","state_id":"TN"},{"zip":"38069","fips":"47047","name":"Fayette County","state_id":"TN"},{"zip":"38069","fips":"47167","name":"Tipton County","state_id":"TN"},{"zip":"38070","fips":"47045","name":"Dyer County","state_id":"TN"},{"zip":"38071","fips":"47167","name":"Tipton County","state_id":"TN"},{"zip":"38075","fips":"47047","name":"Fayette County","state_id":"TN"},{"zip":"38075","fips":"47069","name":"Hardeman County","state_id":"TN"},{"zip":"38075","fips":"47075","name":"Haywood County","state_id":"TN"},{"zip":"38076","fips":"47047","name":"Fayette County","state_id":"TN"},{"zip":"38077","fips":"47095","name":"Lake County","state_id":"TN"},{"zip":"38079","fips":"47131","name":"Obion County","state_id":"TN"},{"zip":"38079","fips":"47095","name":"Lake County","state_id":"TN"},{"zip":"38080","fips":"47095","name":"Lake County","state_id":"TN"},{"zip":"38080","fips":"47045","name":"Dyer County","state_id":"TN"},{"zip":"38080","fips":"47131","name":"Obion County","state_id":"TN"},{"zip":"38083","fips":"47157","name":"Shelby County","state_id":"TN"},{"zip":"38088","fips":"47157","name":"Shelby County","state_id":"TN"}]
