[{"zip":"38201","fips":"47183","name":"Weakley County","state_id":"TN"},{"zip":"38201","fips":"47017","name":"Carroll County","state_id":"TN"},{"zip":"38201","fips":"47079","name":"Henry County","state_id":"TN"},{"zip":"38220","fips":"47053","name":"Gibson County","state_id":"TN"},{"zip":"38220","fips":"47017","name":"Carroll County","state_id":"TN"},{"zip":"38221","fips":"47005","name":"Benton County","state_id":"TN"},{"zip":"38222","fips":"47079","name":"Henry County","state_id":"TN"},{"zip":"38223","fips":"47079","name":"Henry County","state_id":"TN"},{"zip":"38224","fips":"47079","name":"Henry County","state_id":"TN"},{"zip":"38224","fips":"47183","name":"Weakley County","state_id":"TN"},{"zip":"38225","fips":"47183","name":"Weakley County","state_id":"TN"},{"zip":"38226","fips":"47183","name":"Weakley County","state_id":"TN"},{"zip":"38229","fips":"47079","name":"Henry County","state_id":"TN"},{"zip":"38229","fips":"47183","name":"Weakley County","state_id":"TN"},{"zip":"38230","fips":"47183","name":"Weakley County","state_id":"TN"},{"zip":"38231","fips":"47079","name":"Henry County","state_id":"TN"},{"zip":"38232","fips":"47131","name":"Obion County","state_id":"TN"},{"zip":"38233","fips":"47053","name":"Gibson County","state_id":"TN"},{"zip":"38233","fips":"47131","name":"Obion County","state_id":"TN"},{"zip":"38235","fips":"47017","name":"Carroll County","state_id":"TN"},{"zip":"38236","fips":"47079","name":"Henry County","state_id":"TN"},{"zip":"38237","fips":"47131","name":"Obion County","state_id":"TN"},{"zip":"38237","fips":"47183","name":"Weakley County","state_id":"TN"},{"zip":"38238","fips":"47183","name":"Weakley County","state_id":"TN"},{"zip":"38240","fips":"47045","name":"Dyer County","state_id":"TN"},{"zip":"38240","fips":"47131","name":"Obion County","state_id":"TN"},{"zip":"38241","fips":"47183","name":"Weakley County","state_id":"TN"},{"zip":"38242","fips":"47183","name":"Weakley County","state_id":"TN"},{"zip":"38242","fips":"47079","name":"Henry County","state_id":"TN"},{"zip":"38251","fips":"47079","name":"Henry County","state_id":"TN"},{"zip":"38253","fips":"47131","name":"Obion County","state_id":"TN"},{"zip":"38254","fips":"47131","name":"Obion County","state_id":"TN"},{"zip":"38255","fips":"47183","name":"Weakley County","state_id":"TN"},{"zip":"38255","fips":"47131","name":"Obion County","state_id":"TN"},{"zip":"38256","fips":"47005","name":"Benton County","state_id":"TN"},{"zip":"38256","fips":"47079","name":"Henry County","state_id":"TN"},{"zip":"38257","fips":"47131","name":"Obion County","state_id":"TN"},{"zip":"38257","fips":"47183","name":"Weakley County","state_id":"TN"},{"zip":"38258","fips":"47017","name":"Carroll County","state_id":"TN"},{"zip":"38259","fips":"47045","name":"Dyer County","state_id":"TN"},{"zip":"38259","fips":"47053","name":"Gibson County","state_id":"TN"},{"zip":"38259","fips":"47131","name":"Obion County","state_id":"TN"},{"zip":"38260","fips":"47131","name":"Obion County","state_id":"TN"},{"zip":"38261","fips":"47183","name":"Weakley County","state_id":"TN"},{"zip":"38261","fips":"47131","name":"Obion County","state_id":"TN"},{"zip":"38271","fips":"47131","name":"Obion County","state_id":"TN"},{"zip":"38281","fips":"47131","name":"Obion County","state_id":"TN"}]
