[{"zip":"38301","fips":"47075","name":"Haywood County","state_id":"TN"},{"zip":"38301","fips":"47113","name":"Madison County","state_id":"TN"},{"zip":"38302","fips":"47113","name":"Madison County","state_id":"TN"},{"zip":"38303","fips":"47113","name":"Madison County","state_id":"TN"},{"zip":"38305","fips":"47017","name":"Carroll County","state_id":"TN"},{"zip":"38305","fips":"47113","name":"Madison County","state_id":"TN"},{"zip":"38308","fips":"47113","name":"Madison County","state_id":"TN"},{"zip":"38310","fips":"47109","name":"McNairy County","state_id":"TN"},{"zip":"38310","fips":"47071","name":"Hardin County","state_id":"TN"},{"zip":"38311","fips":"47039","name":"Decatur County","state_id":"TN"},{"zip":"38313","fips":"47077","name":"Henderson County","state_id":"TN"},{"zip":"38313","fips":"47023","name":"Chester County","state_id":"TN"},{"zip":"38313","fips":"47113","name":"Madison County","state_id":"TN"},{"zip":"38315","fips":"47023","name":"Chester County","state_id":"TN"},{"zip":"38315","fips":"47109","name":"McNairy County","state_id":"TN"},{"zip":"38316","fips":"47053","name":"Gibson County","state_id":"TN"},{"zip":"38317","fips":"47017","name":"Carroll County","state_id":"TN"},{"zip":"38317","fips":"47005","name":"Benton County","state_id":"TN"},{"zip":"38318","fips":"47017","name":"Carroll County","state_id":"TN"},{"zip":"38318","fips":"47005","name":"Benton County","state_id":"TN"},{"zip":"38320","fips":"47017","name":"Carroll County","state_id":"TN"},{"zip":"38320","fips":"47005","name":"Benton County","state_id":"TN"},{"zip":"38321","fips":"47077","name":"Henderson County","state_id":"TN"},{"zip":"38321","fips":"47017","name":"Carroll County","state_id":"TN"},{"zip":"38324","fips":"47017","name":"Carroll County","state_id":"TN"},{"zip":"38326","fips":"47071","name":"Hardin County","state_id":"TN"},{"zip":"38327","fips":"47071","name":"Hardin County","state_id":"TN"},{"zip":"38328","fips":"47039","name":"Decatur County","state_id":"TN"},{"zip":"38328","fips":"47077","name":"Henderson County","state_id":"TN"},{"zip":"38329","fips":"47077","name":"Henderson County","state_id":"TN"},{"zip":"38329","fips":"47039","name":"Decatur County","state_id":"TN"},{"zip":"38330","fips":"47053","name":"Gibson County","state_id":"TN"},{"zip":"38331","fips":"47053","name":"Gibson County","state_id":"TN"},{"zip":"38332","fips":"47023","name":"Chester County","state_id":"TN"},{"zip":"38332","fips":"47109","name":"McNairy County","state_id":"TN"},{"zip":"38333","fips":"47005","name":"Benton County","state_id":"TN"},{"zip":"38334","fips":"47023","name":"Chester County","state_id":"TN"},{"zip":"38334","fips":"47109","name":"McNairy County","state_id":"TN"},{"zip":"38336","fips":"47033","name":"Crockett County","state_id":"TN"},{"zip":"38337","fips":"47033","name":"Crockett County","state_id":"TN"},{"zip":"38338","fips":"47053","name":"Gibson County","state_id":"TN"},{"zip":"38339","fips":"47109","name":"McNairy County","state_id":"TN"},{"zip":"38340","fips":"47023","name":"Chester County","state_id":"TN"},{"zip":"38340","fips":"47069","name":"Hardeman County","state_id":"TN"},{"zip":"38341","fips":"47005","name":"Benton County","state_id":"TN"},{"zip":"38341","fips":"47039","name":"Decatur County","state_id":"TN"},{"zip":"38341","fips":"47077","name":"Henderson County","state_id":"TN"},{"zip":"38341","fips":"47017","name":"Carroll County","state_id":"TN"},{"zip":"38342","fips":"47017","name":"Carroll County","state_id":"TN"},{"zip":"38343","fips":"47033","name":"Crockett County","state_id":"TN"},{"zip":"38343","fips":"47053","name":"Gibson County","state_id":"TN"},{"zip":"38343","fips":"47113","name":"Madison County","state_id":"TN"},{"zip":"38344","fips":"47017","name":"Carroll County","state_id":"TN"},{"zip":"38345","fips":"47023","name":"Chester County","state_id":"TN"},{"zip":"38345","fips":"47077","name":"Henderson County","state_id":"TN"},{"zip":"38346","fips":"47053","name":"Gibson County","state_id":"TN"},{"zip":"38347","fips":"47023","name":"Chester County","state_id":"TN"},{"zip":"38348","fips":"47053","name":"Gibson County","state_id":"TN"},{"zip":"38348","fips":"47113","name":"Madison County","state_id":"TN"},{"zip":"38348","fips":"47017","name":"Carroll County","state_id":"TN"},{"zip":"38351","fips":"47077","name":"Henderson County","state_id":"TN"},{"zip":"38351","fips":"47113","name":"Madison County","state_id":"TN"},{"zip":"38352","fips":"47023","name":"Chester County","state_id":"TN"},{"zip":"38352","fips":"47077","name":"Henderson County","state_id":"TN"},{"zip":"38355","fips":"47053","name":"Gibson County","state_id":"TN"},{"zip":"38355","fips":"47113","name":"Madison County","state_id":"TN"},{"zip":"38356","fips":"47113","name":"Madison County","state_id":"TN"},{"zip":"38356","fips":"47069","name":"Hardeman County","state_id":"TN"},{"zip":"38356","fips":"47023","name":"Chester County","state_id":"TN"},{"zip":"38357","fips":"47109","name":"McNairy County","state_id":"TN"},{"zip":"38357","fips":"47071","name":"Hardin County","state_id":"TN"},{"zip":"38358","fips":"47053","name":"Gibson County","state_id":"TN"},{"zip":"38358","fips":"47017","name":"Carroll County","state_id":"TN"},{"zip":"38359","fips":"47023","name":"Chester County","state_id":"TN"},{"zip":"38359","fips":"47109","name":"McNairy County","state_id":"TN"},{"zip":"38359","fips":"47071","name":"Hardin County","state_id":"TN"},{"zip":"38361","fips":"47071","name":"Hardin County","state_id":"TN"},{"zip":"38361","fips":"47109","name":"McNairy County","state_id":"TN"},{"zip":"38362","fips":"47113","name":"Madison County","state_id":"TN"},{"zip":"38363","fips":"47039","name":"Decatur County","state_id":"TN"},{"zip":"38363","fips":"47077","name":"Henderson County","state_id":"TN"},{"zip":"38365","fips":"47071","name":"Hardin County","state_id":"TN"},{"zip":"38366","fips":"47023","name":"Chester County","state_id":"TN"},{"zip":"38366","fips":"47113","name":"Madison County","state_id":"TN"},{"zip":"38367","fips":"47109","name":"McNairy County","state_id":"TN"},{"zip":"38368","fips":"47077","name":"Henderson County","state_id":"TN"},{"zip":"38368","fips":"47023","name":"Chester County","state_id":"TN"},{"zip":"38369","fips":"47053","name":"Gibson County","state_id":"TN"},{"zip":"38370","fips":"47077","name":"Henderson County","state_id":"TN"},{"zip":"38370","fips":"47071","name":"Hardin County","state_id":"TN"},{"zip":"38371","fips":"47071","name":"Hardin County","state_id":"TN"},{"zip":"38371","fips":"47077","name":"Henderson County","state_id":"TN"},{"zip":"38371","fips":"47023","name":"Chester County","state_id":"TN"},{"zip":"38371","fips":"47039","name":"Decatur County","state_id":"TN"},{"zip":"38372","fips":"47071","name":"Hardin County","state_id":"TN"},{"zip":"38374","fips":"47039","name":"Decatur County","state_id":"TN"},{"zip":"38374","fips":"47077","name":"Henderson County","state_id":"TN"},{"zip":"38375","fips":"47109","name":"McNairy County","state_id":"TN"},{"zip":"38376","fips":"47071","name":"Hardin County","state_id":"TN"},{"zip":"38376","fips":"47109","name":"McNairy County","state_id":"TN"},{"zip":"38378","fips":"47113","name":"Madison County","state_id":"TN"},{"zip":"38379","fips":"47071","name":"Hardin County","state_id":"TN"},{"zip":"38379","fips":"47109","name":"McNairy County","state_id":"TN"},{"zip":"38380","fips":"47005","name":"Benton County","state_id":"TN"},{"zip":"38380","fips":"47039","name":"Decatur County","state_id":"TN"},{"zip":"38381","fips":"47069","name":"Hardeman County","state_id":"TN"},{"zip":"38382","fips":"47053","name":"Gibson County","state_id":"TN"},{"zip":"38387","fips":"47017","name":"Carroll County","state_id":"TN"},{"zip":"38387","fips":"47005","name":"Benton County","state_id":"TN"},{"zip":"38388","fips":"47077","name":"Henderson County","state_id":"TN"},{"zip":"38388","fips":"47017","name":"Carroll County","state_id":"TN"},{"zip":"38388","fips":"47039","name":"Decatur County","state_id":"TN"},{"zip":"38389","fips":"47053","name":"Gibson County","state_id":"TN"},{"zip":"38390","fips":"47017","name":"Carroll County","state_id":"TN"},{"zip":"38390","fips":"47077","name":"Henderson County","state_id":"TN"},{"zip":"38391","fips":"47113","name":"Madison County","state_id":"TN"},{"zip":"38392","fips":"47113","name":"Madison County","state_id":"TN"},{"zip":"38392","fips":"47069","name":"Hardeman County","state_id":"TN"},{"zip":"38392","fips":"47075","name":"Haywood County","state_id":"TN"},{"zip":"38393","fips":"47109","name":"McNairy County","state_id":"TN"}]
