[{"zip":"38401","fips":"47119","name":"Maury County","state_id":"TN"},{"zip":"38401","fips":"47187","name":"Williamson County","state_id":"TN"},{"zip":"38401","fips":"47117","name":"Marshall County","state_id":"TN"},{"zip":"38402","fips":"47119","name":"Maury County","state_id":"TN"},{"zip":"38425","fips":"47181","name":"Wayne County","state_id":"TN"},{"zip":"38425","fips":"47135","name":"Perry County","state_id":"TN"},{"zip":"38425","fips":"47071","name":"Hardin County","state_id":"TN"},{"zip":"38449","fips":"47103","name":"Lincoln County","state_id":"TN"},{"zip":"38449","fips":"47055","name":"Giles County","state_id":"TN"},{"zip":"38450","fips":"47181","name":"Wayne County","state_id":"TN"},{"zip":"38451","fips":"47119","name":"Maury County","state_id":"TN"},{"zip":"38451","fips":"47055","name":"Giles County","state_id":"TN"},{"zip":"38451","fips":"47117","name":"Marshall County","state_id":"TN"},{"zip":"38452","fips":"47181","name":"Wayne County","state_id":"TN"},{"zip":"38453","fips":"47055","name":"Giles County","state_id":"TN"},{"zip":"38453","fips":"47103","name":"Lincoln County","state_id":"TN"},{"zip":"38454","fips":"47081","name":"Hickman County","state_id":"TN"},{"zip":"38454","fips":"47119","name":"Maury County","state_id":"TN"},{"zip":"38455","fips":"47055","name":"Giles County","state_id":"TN"},{"zip":"38456","fips":"47099","name":"Lawrence County","state_id":"TN"},{"zip":"38456","fips":"47055","name":"Giles County","state_id":"TN"},{"zip":"38457","fips":"47099","name":"Lawrence County","state_id":"TN"},{"zip":"38459","fips":"47055","name":"Giles County","state_id":"TN"},{"zip":"38459","fips":"47103","name":"Lincoln County","state_id":"TN"},{"zip":"38460","fips":"47055","name":"Giles County","state_id":"TN"},{"zip":"38461","fips":"47119","name":"Maury County","state_id":"TN"},{"zip":"38461","fips":"47101","name":"Lewis County","state_id":"TN"},{"zip":"38461","fips":"47081","name":"Hickman County","state_id":"TN"},{"zip":"38462","fips":"47101","name":"Lewis County","state_id":"TN"},{"zip":"38462","fips":"47081","name":"Hickman County","state_id":"TN"},{"zip":"38463","fips":"47181","name":"Wayne County","state_id":"TN"},{"zip":"38463","fips":"47099","name":"Lawrence County","state_id":"TN"},{"zip":"38464","fips":"47181","name":"Wayne County","state_id":"TN"},{"zip":"38464","fips":"47099","name":"Lawrence County","state_id":"TN"},{"zip":"38464","fips":"47055","name":"Giles County","state_id":"TN"},{"zip":"38468","fips":"47099","name":"Lawrence County","state_id":"TN"},{"zip":"38468","fips":"47055","name":"Giles County","state_id":"TN"},{"zip":"38469","fips":"47099","name":"Lawrence County","state_id":"TN"},{"zip":"38471","fips":"47181","name":"Wayne County","state_id":"TN"},{"zip":"38472","fips":"47055","name":"Giles County","state_id":"TN"},{"zip":"38472","fips":"47119","name":"Maury County","state_id":"TN"},{"zip":"38472","fips":"47117","name":"Marshall County","state_id":"TN"},{"zip":"38473","fips":"47055","name":"Giles County","state_id":"TN"},{"zip":"38473","fips":"47099","name":"Lawrence County","state_id":"TN"},{"zip":"38474","fips":"47119","name":"Maury County","state_id":"TN"},{"zip":"38474","fips":"47099","name":"Lawrence County","state_id":"TN"},{"zip":"38474","fips":"47101","name":"Lewis County","state_id":"TN"},{"zip":"38474","fips":"47055","name":"Giles County","state_id":"TN"},{"zip":"38475","fips":"47071","name":"Hardin County","state_id":"TN"},{"zip":"38475","fips":"47181","name":"Wayne County","state_id":"TN"},{"zip":"38476","fips":"47119","name":"Maury County","state_id":"TN"},{"zip":"38476","fips":"47187","name":"Williamson County","state_id":"TN"},{"zip":"38476","fips":"47081","name":"Hickman County","state_id":"TN"},{"zip":"38477","fips":"47055","name":"Giles County","state_id":"TN"},{"zip":"38478","fips":"47103","name":"Lincoln County","state_id":"TN"},{"zip":"38478","fips":"47055","name":"Giles County","state_id":"TN"},{"zip":"38481","fips":"47099","name":"Lawrence County","state_id":"TN"},{"zip":"38482","fips":"47119","name":"Maury County","state_id":"TN"},{"zip":"38483","fips":"47119","name":"Maury County","state_id":"TN"},{"zip":"38483","fips":"47099","name":"Lawrence County","state_id":"TN"},{"zip":"38483","fips":"47055","name":"Giles County","state_id":"TN"},{"zip":"38483","fips":"47101","name":"Lewis County","state_id":"TN"},{"zip":"38485","fips":"47181","name":"Wayne County","state_id":"TN"},{"zip":"38485","fips":"47101","name":"Lewis County","state_id":"TN"},{"zip":"38486","fips":"47181","name":"Wayne County","state_id":"TN"},{"zip":"38486","fips":"47099","name":"Lawrence County","state_id":"TN"},{"zip":"38487","fips":"47119","name":"Maury County","state_id":"TN"},{"zip":"38487","fips":"47081","name":"Hickman County","state_id":"TN"},{"zip":"38488","fips":"47103","name":"Lincoln County","state_id":"TN"}]
