[{"zip":"38501","fips":"47087","name":"Jackson County","state_id":"TN"},{"zip":"38501","fips":"47133","name":"Overton County","state_id":"TN"},{"zip":"38501","fips":"47141","name":"Putnam County","state_id":"TN"},{"zip":"38502","fips":"47141","name":"Putnam County","state_id":"TN"},{"zip":"38503","fips":"47141","name":"Putnam County","state_id":"TN"},{"zip":"38504","fips":"47151","name":"Scott County","state_id":"TN"},{"zip":"38504","fips":"47049","name":"Fentress County","state_id":"TN"},{"zip":"38506","fips":"47133","name":"Overton County","state_id":"TN"},{"zip":"38506","fips":"47185","name":"White County","state_id":"TN"},{"zip":"38506","fips":"47087","name":"Jackson County","state_id":"TN"},{"zip":"38506","fips":"47141","name":"Putnam County","state_id":"TN"},{"zip":"38541","fips":"47133","name":"Overton County","state_id":"TN"},{"zip":"38541","fips":"47027","name":"Clay County","state_id":"TN"},{"zip":"38542","fips":"47133","name":"Overton County","state_id":"TN"},{"zip":"38543","fips":"47137","name":"Pickett County","state_id":"TN"},{"zip":"38543","fips":"47133","name":"Overton County","state_id":"TN"},{"zip":"38544","fips":"47141","name":"Putnam County","state_id":"TN"},{"zip":"38544","fips":"47041","name":"DeKalb County","state_id":"TN"},{"zip":"38545","fips":"47087","name":"Jackson County","state_id":"TN"},{"zip":"38545","fips":"47141","name":"Putnam County","state_id":"TN"},{"zip":"38547","fips":"47159","name":"Smith County","state_id":"TN"},{"zip":"38548","fips":"47141","name":"Putnam County","state_id":"TN"},{"zip":"38548","fips":"47159","name":"Smith County","state_id":"TN"},{"zip":"38548","fips":"47041","name":"DeKalb County","state_id":"TN"},{"zip":"38549","fips":"47137","name":"Pickett County","state_id":"TN"},{"zip":"38549","fips":"47049","name":"Fentress County","state_id":"TN"},{"zip":"38550","fips":"47177","name":"Warren County","state_id":"TN"},{"zip":"38551","fips":"47133","name":"Overton County","state_id":"TN"},{"zip":"38551","fips":"47027","name":"Clay County","state_id":"TN"},{"zip":"38551","fips":"47087","name":"Jackson County","state_id":"TN"},{"zip":"38552","fips":"47159","name":"Smith County","state_id":"TN"},{"zip":"38553","fips":"47049","name":"Fentress County","state_id":"TN"},{"zip":"38553","fips":"47133","name":"Overton County","state_id":"TN"},{"zip":"38554","fips":"47133","name":"Overton County","state_id":"TN"},{"zip":"38554","fips":"47049","name":"Fentress County","state_id":"TN"},{"zip":"38555","fips":"47035","name":"Cumberland County","state_id":"TN"},{"zip":"38556","fips":"47137","name":"Pickett County","state_id":"TN"},{"zip":"38556","fips":"47049","name":"Fentress County","state_id":"TN"},{"zip":"38557","fips":"47035","name":"Cumberland County","state_id":"TN"},{"zip":"38558","fips":"47035","name":"Cumberland County","state_id":"TN"},{"zip":"38559","fips":"47185","name":"White County","state_id":"TN"},{"zip":"38559","fips":"47175","name":"Van Buren County","state_id":"TN"},{"zip":"38560","fips":"47159","name":"Smith County","state_id":"TN"},{"zip":"38562","fips":"47087","name":"Jackson County","state_id":"TN"},{"zip":"38563","fips":"47159","name":"Smith County","state_id":"TN"},{"zip":"38564","fips":"47087","name":"Jackson County","state_id":"TN"},{"zip":"38564","fips":"47141","name":"Putnam County","state_id":"TN"},{"zip":"38565","fips":"47049","name":"Fentress County","state_id":"TN"},{"zip":"38567","fips":"47041","name":"DeKalb County","state_id":"TN"},{"zip":"38567","fips":"47159","name":"Smith County","state_id":"TN"},{"zip":"38568","fips":"47133","name":"Overton County","state_id":"TN"},{"zip":"38568","fips":"47027","name":"Clay County","state_id":"TN"},{"zip":"38568","fips":"47087","name":"Jackson County","state_id":"TN"},{"zip":"38569","fips":"47041","name":"DeKalb County","state_id":"TN"},{"zip":"38569","fips":"47159","name":"Smith County","state_id":"TN"},{"zip":"38570","fips":"47133","name":"Overton County","state_id":"TN"},{"zip":"38571","fips":"47035","name":"Cumberland County","state_id":"TN"},{"zip":"38572","fips":"47007","name":"Bledsoe County","state_id":"TN"},{"zip":"38572","fips":"47035","name":"Cumberland County","state_id":"TN"},{"zip":"38573","fips":"47027","name":"Clay County","state_id":"TN"},{"zip":"38573","fips":"47133","name":"Overton County","state_id":"TN"},{"zip":"38573","fips":"47137","name":"Pickett County","state_id":"TN"},{"zip":"38574","fips":"47141","name":"Putnam County","state_id":"TN"},{"zip":"38574","fips":"47049","name":"Fentress County","state_id":"TN"},{"zip":"38574","fips":"47035","name":"Cumberland County","state_id":"TN"},{"zip":"38574","fips":"47133","name":"Overton County","state_id":"TN"},{"zip":"38575","fips":"47027","name":"Clay County","state_id":"TN"},{"zip":"38577","fips":"47137","name":"Pickett County","state_id":"TN"},{"zip":"38577","fips":"47049","name":"Fentress County","state_id":"TN"},{"zip":"38578","fips":"47035","name":"Cumberland County","state_id":"TN"},{"zip":"38579","fips":"47185","name":"White County","state_id":"TN"},{"zip":"38580","fips":"47133","name":"Overton County","state_id":"TN"},{"zip":"38581","fips":"47175","name":"Van Buren County","state_id":"TN"},{"zip":"38581","fips":"47041","name":"DeKalb County","state_id":"TN"},{"zip":"38581","fips":"47177","name":"Warren County","state_id":"TN"},{"zip":"38582","fips":"47141","name":"Putnam County","state_id":"TN"},{"zip":"38582","fips":"47041","name":"DeKalb County","state_id":"TN"},{"zip":"38583","fips":"47035","name":"Cumberland County","state_id":"TN"},{"zip":"38583","fips":"47175","name":"Van Buren County","state_id":"TN"},{"zip":"38583","fips":"47185","name":"White County","state_id":"TN"},{"zip":"38583","fips":"47041","name":"DeKalb County","state_id":"TN"},{"zip":"38583","fips":"47141","name":"Putnam County","state_id":"TN"},{"zip":"38585","fips":"47007","name":"Bledsoe County","state_id":"TN"},{"zip":"38585","fips":"47175","name":"Van Buren County","state_id":"TN"},{"zip":"38587","fips":"47185","name":"White County","state_id":"TN"},{"zip":"38588","fips":"47111","name":"Macon County","state_id":"TN"},{"zip":"38588","fips":"47087","name":"Jackson County","state_id":"TN"},{"zip":"38588","fips":"47027","name":"Clay County","state_id":"TN"},{"zip":"38589","fips":"47133","name":"Overton County","state_id":"TN"},{"zip":"38589","fips":"47049","name":"Fentress County","state_id":"TN"}]
