[{"zip":"38601","fips":"28071","name":"Lafayette County","state_id":"MS"},{"zip":"38602","fips":"28137","name":"Tate County","state_id":"MS"},{"zip":"38603","fips":"28139","name":"Tippah County","state_id":"MS"},{"zip":"38603","fips":"28009","name":"Benton County","state_id":"MS"},{"zip":"38606","fips":"28119","name":"Quitman County","state_id":"MS"},{"zip":"38606","fips":"28071","name":"Lafayette County","state_id":"MS"},{"zip":"38606","fips":"28107","name":"Panola County","state_id":"MS"},{"zip":"38610","fips":"28009","name":"Benton County","state_id":"MS"},{"zip":"38610","fips":"28145","name":"Union County","state_id":"MS"},{"zip":"38610","fips":"28139","name":"Tippah County","state_id":"MS"},{"zip":"38611","fips":"28093","name":"Marshall County","state_id":"MS"},{"zip":"38611","fips":"28033","name":"DeSoto County","state_id":"MS"},{"zip":"38614","fips":"28011","name":"Bolivar County","state_id":"MS"},{"zip":"38614","fips":"28027","name":"Coahoma County","state_id":"MS"},{"zip":"38617","fips":"28119","name":"Quitman County","state_id":"MS"},{"zip":"38617","fips":"28027","name":"Coahoma County","state_id":"MS"},{"zip":"38618","fips":"28137","name":"Tate County","state_id":"MS"},{"zip":"38618","fips":"28033","name":"DeSoto County","state_id":"MS"},{"zip":"38618","fips":"28093","name":"Marshall County","state_id":"MS"},{"zip":"38619","fips":"28071","name":"Lafayette County","state_id":"MS"},{"zip":"38619","fips":"28137","name":"Tate County","state_id":"MS"},{"zip":"38619","fips":"28107","name":"Panola County","state_id":"MS"},{"zip":"38620","fips":"28107","name":"Panola County","state_id":"MS"},{"zip":"38621","fips":"28143","name":"Tunica County","state_id":"MS"},{"zip":"38621","fips":"28107","name":"Panola County","state_id":"MS"},{"zip":"38621","fips":"28119","name":"Quitman County","state_id":"MS"},{"zip":"38622","fips":"28119","name":"Quitman County","state_id":"MS"},{"zip":"38623","fips":"28119","name":"Quitman County","state_id":"MS"},{"zip":"38625","fips":"28145","name":"Union County","state_id":"MS"},{"zip":"38625","fips":"28139","name":"Tippah County","state_id":"MS"},{"zip":"38626","fips":"28143","name":"Tunica County","state_id":"MS"},{"zip":"38626","fips":"28027","name":"Coahoma County","state_id":"MS"},{"zip":"38627","fips":"28115","name":"Pontotoc County","state_id":"MS"},{"zip":"38627","fips":"28071","name":"Lafayette County","state_id":"MS"},{"zip":"38627","fips":"28145","name":"Union County","state_id":"MS"},{"zip":"38629","fips":"28139","name":"Tippah County","state_id":"MS"},{"zip":"38629","fips":"28009","name":"Benton County","state_id":"MS"},{"zip":"38631","fips":"28027","name":"Coahoma County","state_id":"MS"},{"zip":"38632","fips":"28137","name":"Tate County","state_id":"MS"},{"zip":"38632","fips":"28033","name":"DeSoto County","state_id":"MS"},{"zip":"38633","fips":"28009","name":"Benton County","state_id":"MS"},{"zip":"38633","fips":"28145","name":"Union County","state_id":"MS"},{"zip":"38635","fips":"28093","name":"Marshall County","state_id":"MS"},{"zip":"38635","fips":"28137","name":"Tate County","state_id":"MS"},{"zip":"38635","fips":"28009","name":"Benton County","state_id":"MS"},{"zip":"38637","fips":"28033","name":"DeSoto County","state_id":"MS"},{"zip":"38638","fips":"28137","name":"Tate County","state_id":"MS"},{"zip":"38639","fips":"28027","name":"Coahoma County","state_id":"MS"},{"zip":"38641","fips":"28143","name":"Tunica County","state_id":"MS"},{"zip":"38641","fips":"28033","name":"DeSoto County","state_id":"MS"},{"zip":"38642","fips":"28009","name":"Benton County","state_id":"MS"},{"zip":"38642","fips":"28093","name":"Marshall County","state_id":"MS"},{"zip":"38643","fips":"28027","name":"Coahoma County","state_id":"MS"},{"zip":"38643","fips":"28119","name":"Quitman County","state_id":"MS"},{"zip":"38643","fips":"28135","name":"Tallahatchie County","state_id":"MS"},{"zip":"38643","fips":"28107","name":"Panola County","state_id":"MS"},{"zip":"38644","fips":"28027","name":"Coahoma County","state_id":"MS"},{"zip":"38645","fips":"28119","name":"Quitman County","state_id":"MS"},{"zip":"38645","fips":"28027","name":"Coahoma County","state_id":"MS"},{"zip":"38646","fips":"28119","name":"Quitman County","state_id":"MS"},{"zip":"38646","fips":"28107","name":"Panola County","state_id":"MS"},{"zip":"38647","fips":"28009","name":"Benton County","state_id":"MS"},{"zip":"38649","fips":"28093","name":"Marshall County","state_id":"MS"},{"zip":"38650","fips":"28009","name":"Benton County","state_id":"MS"},{"zip":"38650","fips":"28139","name":"Tippah County","state_id":"MS"},{"zip":"38650","fips":"28145","name":"Union County","state_id":"MS"},{"zip":"38651","fips":"28033","name":"DeSoto County","state_id":"MS"},{"zip":"38652","fips":"28115","name":"Pontotoc County","state_id":"MS"},{"zip":"38652","fips":"28145","name":"Union County","state_id":"MS"},{"zip":"38654","fips":"28033","name":"DeSoto County","state_id":"MS"},{"zip":"38654","fips":"28093","name":"Marshall County","state_id":"MS"},{"zip":"38655","fips":"28107","name":"Panola County","state_id":"MS"},{"zip":"38655","fips":"28115","name":"Pontotoc County","state_id":"MS"},{"zip":"38655","fips":"28071","name":"Lafayette County","state_id":"MS"},{"zip":"38658","fips":"28107","name":"Panola County","state_id":"MS"},{"zip":"38659","fips":"28145","name":"Union County","state_id":"MS"},{"zip":"38659","fips":"28009","name":"Benton County","state_id":"MS"},{"zip":"38659","fips":"28093","name":"Marshall County","state_id":"MS"},{"zip":"38661","fips":"28093","name":"Marshall County","state_id":"MS"},{"zip":"38663","fips":"28145","name":"Union County","state_id":"MS"},{"zip":"38663","fips":"28117","name":"Prentiss County","state_id":"MS"},{"zip":"38663","fips":"28009","name":"Benton County","state_id":"MS"},{"zip":"38663","fips":"28139","name":"Tippah County","state_id":"MS"},{"zip":"38664","fips":"28143","name":"Tunica County","state_id":"MS"},{"zip":"38665","fips":"28143","name":"Tunica County","state_id":"MS"},{"zip":"38665","fips":"28137","name":"Tate County","state_id":"MS"},{"zip":"38665","fips":"28107","name":"Panola County","state_id":"MS"},{"zip":"38666","fips":"28107","name":"Panola County","state_id":"MS"},{"zip":"38668","fips":"28137","name":"Tate County","state_id":"MS"},{"zip":"38668","fips":"28107","name":"Panola County","state_id":"MS"},{"zip":"38670","fips":"28143","name":"Tunica County","state_id":"MS"},{"zip":"38670","fips":"28107","name":"Panola County","state_id":"MS"},{"zip":"38670","fips":"28119","name":"Quitman County","state_id":"MS"},{"zip":"38671","fips":"28033","name":"DeSoto County","state_id":"MS"},{"zip":"38672","fips":"28033","name":"DeSoto County","state_id":"MS"},{"zip":"38673","fips":"28071","name":"Lafayette County","state_id":"MS"},{"zip":"38674","fips":"28139","name":"Tippah County","state_id":"MS"},{"zip":"38676","fips":"28143","name":"Tunica County","state_id":"MS"},{"zip":"38677","fips":"28071","name":"Lafayette County","state_id":"MS"},{"zip":"38679","fips":"28093","name":"Marshall County","state_id":"MS"},{"zip":"38680","fips":"28033","name":"DeSoto County","state_id":"MS"},{"zip":"38683","fips":"28139","name":"Tippah County","state_id":"MS"},{"zip":"38683","fips":"28003","name":"Alcorn County","state_id":"MS"},{"zip":"38683","fips":"28009","name":"Benton County","state_id":"MS"},{"zip":"38685","fips":"28071","name":"Lafayette County","state_id":"MS"},{"zip":"38685","fips":"28093","name":"Marshall County","state_id":"MS"},{"zip":"38686","fips":"28033","name":"DeSoto County","state_id":"MS"}]
