[{"zip":"38701","fips":"28151","name":"Washington County","state_id":"MS"},{"zip":"38703","fips":"28011","name":"Bolivar County","state_id":"MS"},{"zip":"38703","fips":"28151","name":"Washington County","state_id":"MS"},{"zip":"38720","fips":"28011","name":"Bolivar County","state_id":"MS"},{"zip":"38720","fips":"28027","name":"Coahoma County","state_id":"MS"},{"zip":"38721","fips":"28151","name":"Washington County","state_id":"MS"},{"zip":"38721","fips":"28125","name":"Sharkey County","state_id":"MS"},{"zip":"38722","fips":"28151","name":"Washington County","state_id":"MS"},{"zip":"38723","fips":"28151","name":"Washington County","state_id":"MS"},{"zip":"38725","fips":"28011","name":"Bolivar County","state_id":"MS"},{"zip":"38726","fips":"28011","name":"Bolivar County","state_id":"MS"},{"zip":"38730","fips":"28011","name":"Bolivar County","state_id":"MS"},{"zip":"38731","fips":"28151","name":"Washington County","state_id":"MS"},{"zip":"38732","fips":"28011","name":"Bolivar County","state_id":"MS"},{"zip":"38732","fips":"28133","name":"Sunflower County","state_id":"MS"},{"zip":"38733","fips":"28011","name":"Bolivar County","state_id":"MS"},{"zip":"38736","fips":"28133","name":"Sunflower County","state_id":"MS"},{"zip":"38736","fips":"28083","name":"Leflore County","state_id":"MS"},{"zip":"38737","fips":"28133","name":"Sunflower County","state_id":"MS"},{"zip":"38737","fips":"28083","name":"Leflore County","state_id":"MS"},{"zip":"38737","fips":"28135","name":"Tallahatchie County","state_id":"MS"},{"zip":"38738","fips":"28135","name":"Tallahatchie County","state_id":"MS"},{"zip":"38738","fips":"28133","name":"Sunflower County","state_id":"MS"},{"zip":"38739","fips":"28027","name":"Coahoma County","state_id":"MS"},{"zip":"38740","fips":"28011","name":"Bolivar County","state_id":"MS"},{"zip":"38744","fips":"28055","name":"Issaquena County","state_id":"MS"},{"zip":"38744","fips":"28151","name":"Washington County","state_id":"MS"},{"zip":"38745","fips":"28055","name":"Issaquena County","state_id":"MS"},{"zip":"38746","fips":"28011","name":"Bolivar County","state_id":"MS"},{"zip":"38748","fips":"28151","name":"Washington County","state_id":"MS"},{"zip":"38748","fips":"28125","name":"Sharkey County","state_id":"MS"},{"zip":"38751","fips":"28151","name":"Washington County","state_id":"MS"},{"zip":"38751","fips":"28133","name":"Sunflower County","state_id":"MS"},{"zip":"38753","fips":"28133","name":"Sunflower County","state_id":"MS"},{"zip":"38753","fips":"28053","name":"Humphreys County","state_id":"MS"},{"zip":"38754","fips":"28053","name":"Humphreys County","state_id":"MS"},{"zip":"38754","fips":"28133","name":"Sunflower County","state_id":"MS"},{"zip":"38754","fips":"28151","name":"Washington County","state_id":"MS"},{"zip":"38756","fips":"28133","name":"Sunflower County","state_id":"MS"},{"zip":"38756","fips":"28151","name":"Washington County","state_id":"MS"},{"zip":"38759","fips":"28133","name":"Sunflower County","state_id":"MS"},{"zip":"38759","fips":"28011","name":"Bolivar County","state_id":"MS"},{"zip":"38760","fips":"28151","name":"Washington County","state_id":"MS"},{"zip":"38761","fips":"28083","name":"Leflore County","state_id":"MS"},{"zip":"38761","fips":"28133","name":"Sunflower County","state_id":"MS"},{"zip":"38762","fips":"28011","name":"Bolivar County","state_id":"MS"},{"zip":"38762","fips":"28133","name":"Sunflower County","state_id":"MS"},{"zip":"38764","fips":"28011","name":"Bolivar County","state_id":"MS"},{"zip":"38765","fips":"28125","name":"Sharkey County","state_id":"MS"},{"zip":"38767","fips":"28027","name":"Coahoma County","state_id":"MS"},{"zip":"38768","fips":"28133","name":"Sunflower County","state_id":"MS"},{"zip":"38769","fips":"28011","name":"Bolivar County","state_id":"MS"},{"zip":"38771","fips":"28133","name":"Sunflower County","state_id":"MS"},{"zip":"38772","fips":"28011","name":"Bolivar County","state_id":"MS"},{"zip":"38773","fips":"28151","name":"Washington County","state_id":"MS"},{"zip":"38773","fips":"28133","name":"Sunflower County","state_id":"MS"},{"zip":"38773","fips":"28011","name":"Bolivar County","state_id":"MS"},{"zip":"38774","fips":"28011","name":"Bolivar County","state_id":"MS"},{"zip":"38776","fips":"28151","name":"Washington County","state_id":"MS"},{"zip":"38778","fips":"28133","name":"Sunflower County","state_id":"MS"},{"zip":"38780","fips":"28151","name":"Washington County","state_id":"MS"},{"zip":"38781","fips":"28011","name":"Bolivar County","state_id":"MS"},{"zip":"38782","fips":"28151","name":"Washington County","state_id":"MS"}]
