[{"zip":"38801","fips":"28081","name":"Lee County","state_id":"MS"},{"zip":"38801","fips":"28115","name":"Pontotoc County","state_id":"MS"},{"zip":"38802","fips":"28081","name":"Lee County","state_id":"MS"},{"zip":"38803","fips":"28081","name":"Lee County","state_id":"MS"},{"zip":"38804","fips":"28115","name":"Pontotoc County","state_id":"MS"},{"zip":"38804","fips":"28057","name":"Itawamba County","state_id":"MS"},{"zip":"38804","fips":"28081","name":"Lee County","state_id":"MS"},{"zip":"38820","fips":"28115","name":"Pontotoc County","state_id":"MS"},{"zip":"38821","fips":"28095","name":"Monroe County","state_id":"MS"},{"zip":"38821","fips":"28057","name":"Itawamba County","state_id":"MS"},{"zip":"38824","fips":"28057","name":"Itawamba County","state_id":"MS"},{"zip":"38824","fips":"28081","name":"Lee County","state_id":"MS"},{"zip":"38824","fips":"28117","name":"Prentiss County","state_id":"MS"},{"zip":"38824","fips":"28145","name":"Union County","state_id":"MS"},{"zip":"38824","fips":"28139","name":"Tippah County","state_id":"MS"},{"zip":"38825","fips":"28095","name":"Monroe County","state_id":"MS"},{"zip":"38826","fips":"28081","name":"Lee County","state_id":"MS"},{"zip":"38826","fips":"28115","name":"Pontotoc County","state_id":"MS"},{"zip":"38827","fips":"28141","name":"Tishomingo County","state_id":"MS"},{"zip":"38828","fips":"28115","name":"Pontotoc County","state_id":"MS"},{"zip":"38828","fips":"28145","name":"Union County","state_id":"MS"},{"zip":"38828","fips":"28081","name":"Lee County","state_id":"MS"},{"zip":"38829","fips":"28117","name":"Prentiss County","state_id":"MS"},{"zip":"38829","fips":"28139","name":"Tippah County","state_id":"MS"},{"zip":"38833","fips":"28003","name":"Alcorn County","state_id":"MS"},{"zip":"38833","fips":"28141","name":"Tishomingo County","state_id":"MS"},{"zip":"38833","fips":"28117","name":"Prentiss County","state_id":"MS"},{"zip":"38834","fips":"28003","name":"Alcorn County","state_id":"MS"},{"zip":"38835","fips":"28003","name":"Alcorn County","state_id":"MS"},{"zip":"38838","fips":"28141","name":"Tishomingo County","state_id":"MS"},{"zip":"38839","fips":"28013","name":"Calhoun County","state_id":"MS"},{"zip":"38841","fips":"28145","name":"Union County","state_id":"MS"},{"zip":"38841","fips":"28115","name":"Pontotoc County","state_id":"MS"},{"zip":"38843","fips":"28081","name":"Lee County","state_id":"MS"},{"zip":"38843","fips":"28057","name":"Itawamba County","state_id":"MS"},{"zip":"38844","fips":"28095","name":"Monroe County","state_id":"MS"},{"zip":"38846","fips":"28141","name":"Tishomingo County","state_id":"MS"},{"zip":"38846","fips":"28003","name":"Alcorn County","state_id":"MS"},{"zip":"38847","fips":"28141","name":"Tishomingo County","state_id":"MS"},{"zip":"38847","fips":"28057","name":"Itawamba County","state_id":"MS"},{"zip":"38848","fips":"28095","name":"Monroe County","state_id":"MS"},{"zip":"38848","fips":"28057","name":"Itawamba County","state_id":"MS"},{"zip":"38849","fips":"28057","name":"Itawamba County","state_id":"MS"},{"zip":"38849","fips":"28145","name":"Union County","state_id":"MS"},{"zip":"38849","fips":"28081","name":"Lee County","state_id":"MS"},{"zip":"38850","fips":"28013","name":"Calhoun County","state_id":"MS"},{"zip":"38850","fips":"28017","name":"Chickasaw County","state_id":"MS"},{"zip":"38850","fips":"28115","name":"Pontotoc County","state_id":"MS"},{"zip":"38851","fips":"28017","name":"Chickasaw County","state_id":"MS"},{"zip":"38851","fips":"28013","name":"Calhoun County","state_id":"MS"},{"zip":"38852","fips":"28141","name":"Tishomingo County","state_id":"MS"},{"zip":"38855","fips":"28081","name":"Lee County","state_id":"MS"},{"zip":"38855","fips":"28057","name":"Itawamba County","state_id":"MS"},{"zip":"38856","fips":"28057","name":"Itawamba County","state_id":"MS"},{"zip":"38856","fips":"28117","name":"Prentiss County","state_id":"MS"},{"zip":"38857","fips":"28057","name":"Itawamba County","state_id":"MS"},{"zip":"38857","fips":"28081","name":"Lee County","state_id":"MS"},{"zip":"38858","fips":"28057","name":"Itawamba County","state_id":"MS"},{"zip":"38858","fips":"28095","name":"Monroe County","state_id":"MS"},{"zip":"38858","fips":"28081","name":"Lee County","state_id":"MS"},{"zip":"38859","fips":"28117","name":"Prentiss County","state_id":"MS"},{"zip":"38860","fips":"28095","name":"Monroe County","state_id":"MS"},{"zip":"38860","fips":"28017","name":"Chickasaw County","state_id":"MS"},{"zip":"38860","fips":"28115","name":"Pontotoc County","state_id":"MS"},{"zip":"38860","fips":"28081","name":"Lee County","state_id":"MS"},{"zip":"38862","fips":"28081","name":"Lee County","state_id":"MS"},{"zip":"38863","fips":"28115","name":"Pontotoc County","state_id":"MS"},{"zip":"38863","fips":"28071","name":"Lafayette County","state_id":"MS"},{"zip":"38864","fips":"28115","name":"Pontotoc County","state_id":"MS"},{"zip":"38864","fips":"28013","name":"Calhoun County","state_id":"MS"},{"zip":"38865","fips":"28117","name":"Prentiss County","state_id":"MS"},{"zip":"38865","fips":"28003","name":"Alcorn County","state_id":"MS"},{"zip":"38866","fips":"28081","name":"Lee County","state_id":"MS"},{"zip":"38868","fips":"28017","name":"Chickasaw County","state_id":"MS"},{"zip":"38868","fips":"28115","name":"Pontotoc County","state_id":"MS"},{"zip":"38868","fips":"28095","name":"Monroe County","state_id":"MS"},{"zip":"38868","fips":"28081","name":"Lee County","state_id":"MS"},{"zip":"38869","fips":"28145","name":"Union County","state_id":"MS"},{"zip":"38869","fips":"28115","name":"Pontotoc County","state_id":"MS"},{"zip":"38870","fips":"28095","name":"Monroe County","state_id":"MS"},{"zip":"38870","fips":"28057","name":"Itawamba County","state_id":"MS"},{"zip":"38871","fips":"28145","name":"Union County","state_id":"MS"},{"zip":"38871","fips":"28115","name":"Pontotoc County","state_id":"MS"},{"zip":"38871","fips":"28071","name":"Lafayette County","state_id":"MS"},{"zip":"38873","fips":"28141","name":"Tishomingo County","state_id":"MS"},{"zip":"38873","fips":"28117","name":"Prentiss County","state_id":"MS"},{"zip":"38874","fips":"28115","name":"Pontotoc County","state_id":"MS"},{"zip":"38875","fips":"28017","name":"Chickasaw County","state_id":"MS"},{"zip":"38876","fips":"28057","name":"Itawamba County","state_id":"MS"},{"zip":"38877","fips":"28017","name":"Chickasaw County","state_id":"MS"},{"zip":"38878","fips":"28013","name":"Calhoun County","state_id":"MS"},{"zip":"38878","fips":"28017","name":"Chickasaw County","state_id":"MS"},{"zip":"38879","fips":"28081","name":"Lee County","state_id":"MS"},{"zip":"38880","fips":"28117","name":"Prentiss County","state_id":"MS"}]
