[{"zip":"38901","fips":"28135","name":"Tallahatchie County","state_id":"MS"},{"zip":"38901","fips":"28097","name":"Montgomery County","state_id":"MS"},{"zip":"38901","fips":"28043","name":"Grenada County","state_id":"MS"},{"zip":"38913","fips":"28071","name":"Lafayette County","state_id":"MS"},{"zip":"38913","fips":"28013","name":"Calhoun County","state_id":"MS"},{"zip":"38914","fips":"28043","name":"Grenada County","state_id":"MS"},{"zip":"38914","fips":"28013","name":"Calhoun County","state_id":"MS"},{"zip":"38915","fips":"28013","name":"Calhoun County","state_id":"MS"},{"zip":"38915","fips":"28071","name":"Lafayette County","state_id":"MS"},{"zip":"38916","fips":"28155","name":"Webster County","state_id":"MS"},{"zip":"38916","fips":"28013","name":"Calhoun County","state_id":"MS"},{"zip":"38917","fips":"28015","name":"Carroll County","state_id":"MS"},{"zip":"38920","fips":"28043","name":"Grenada County","state_id":"MS"},{"zip":"38920","fips":"28135","name":"Tallahatchie County","state_id":"MS"},{"zip":"38921","fips":"28135","name":"Tallahatchie County","state_id":"MS"},{"zip":"38922","fips":"28161","name":"Yalobusha County","state_id":"MS"},{"zip":"38922","fips":"28043","name":"Grenada County","state_id":"MS"},{"zip":"38923","fips":"28015","name":"Carroll County","state_id":"MS"},{"zip":"38924","fips":"28083","name":"Leflore County","state_id":"MS"},{"zip":"38924","fips":"28051","name":"Holmes County","state_id":"MS"},{"zip":"38924","fips":"28015","name":"Carroll County","state_id":"MS"},{"zip":"38925","fips":"28015","name":"Carroll County","state_id":"MS"},{"zip":"38925","fips":"28097","name":"Montgomery County","state_id":"MS"},{"zip":"38925","fips":"28043","name":"Grenada County","state_id":"MS"},{"zip":"38925","fips":"28155","name":"Webster County","state_id":"MS"},{"zip":"38927","fips":"28135","name":"Tallahatchie County","state_id":"MS"},{"zip":"38927","fips":"28161","name":"Yalobusha County","state_id":"MS"},{"zip":"38927","fips":"28107","name":"Panola County","state_id":"MS"},{"zip":"38928","fips":"28135","name":"Tallahatchie County","state_id":"MS"},{"zip":"38929","fips":"28155","name":"Webster County","state_id":"MS"},{"zip":"38929","fips":"28013","name":"Calhoun County","state_id":"MS"},{"zip":"38929","fips":"28043","name":"Grenada County","state_id":"MS"},{"zip":"38930","fips":"28015","name":"Carroll County","state_id":"MS"},{"zip":"38930","fips":"28083","name":"Leflore County","state_id":"MS"},{"zip":"38940","fips":"28135","name":"Tallahatchie County","state_id":"MS"},{"zip":"38940","fips":"28015","name":"Carroll County","state_id":"MS"},{"zip":"38940","fips":"28043","name":"Grenada County","state_id":"MS"},{"zip":"38941","fips":"28083","name":"Leflore County","state_id":"MS"},{"zip":"38943","fips":"28015","name":"Carroll County","state_id":"MS"},{"zip":"38944","fips":"28083","name":"Leflore County","state_id":"MS"},{"zip":"38946","fips":"28083","name":"Leflore County","state_id":"MS"},{"zip":"38947","fips":"28015","name":"Carroll County","state_id":"MS"},{"zip":"38948","fips":"28161","name":"Yalobusha County","state_id":"MS"},{"zip":"38948","fips":"28135","name":"Tallahatchie County","state_id":"MS"},{"zip":"38949","fips":"28071","name":"Lafayette County","state_id":"MS"},{"zip":"38950","fips":"28135","name":"Tallahatchie County","state_id":"MS"},{"zip":"38950","fips":"28083","name":"Leflore County","state_id":"MS"},{"zip":"38951","fips":"28013","name":"Calhoun County","state_id":"MS"},{"zip":"38952","fips":"28083","name":"Leflore County","state_id":"MS"},{"zip":"38953","fips":"28043","name":"Grenada County","state_id":"MS"},{"zip":"38953","fips":"28161","name":"Yalobusha County","state_id":"MS"},{"zip":"38953","fips":"28135","name":"Tallahatchie County","state_id":"MS"},{"zip":"38954","fips":"28015","name":"Carroll County","state_id":"MS"},{"zip":"38954","fips":"28083","name":"Leflore County","state_id":"MS"},{"zip":"38954","fips":"28051","name":"Holmes County","state_id":"MS"},{"zip":"38957","fips":"28135","name":"Tallahatchie County","state_id":"MS"},{"zip":"38959","fips":"28083","name":"Leflore County","state_id":"MS"},{"zip":"38960","fips":"28043","name":"Grenada County","state_id":"MS"},{"zip":"38961","fips":"28161","name":"Yalobusha County","state_id":"MS"},{"zip":"38961","fips":"28043","name":"Grenada County","state_id":"MS"},{"zip":"38961","fips":"28135","name":"Tallahatchie County","state_id":"MS"},{"zip":"38962","fips":"28135","name":"Tallahatchie County","state_id":"MS"},{"zip":"38963","fips":"28135","name":"Tallahatchie County","state_id":"MS"},{"zip":"38963","fips":"28133","name":"Sunflower County","state_id":"MS"},{"zip":"38963","fips":"28119","name":"Quitman County","state_id":"MS"},{"zip":"38963","fips":"28027","name":"Coahoma County","state_id":"MS"},{"zip":"38964","fips":"28119","name":"Quitman County","state_id":"MS"},{"zip":"38964","fips":"28135","name":"Tallahatchie County","state_id":"MS"},{"zip":"38965","fips":"28013","name":"Calhoun County","state_id":"MS"},{"zip":"38965","fips":"28071","name":"Lafayette County","state_id":"MS"},{"zip":"38965","fips":"28107","name":"Panola County","state_id":"MS"},{"zip":"38965","fips":"28161","name":"Yalobusha County","state_id":"MS"},{"zip":"38966","fips":"28135","name":"Tallahatchie County","state_id":"MS"},{"zip":"38967","fips":"28097","name":"Montgomery County","state_id":"MS"},{"zip":"38967","fips":"28015","name":"Carroll County","state_id":"MS"}]
