[{"zip":"39038","fips":"28051","name":"Holmes County","state_id":"MS"},{"zip":"39038","fips":"28133","name":"Sunflower County","state_id":"MS"},{"zip":"39038","fips":"28053","name":"Humphreys County","state_id":"MS"},{"zip":"39038","fips":"28083","name":"Leflore County","state_id":"MS"},{"zip":"39039","fips":"28163","name":"Yazoo County","state_id":"MS"},{"zip":"39040","fips":"28163","name":"Yazoo County","state_id":"MS"},{"zip":"39041","fips":"28049","name":"Hinds County","state_id":"MS"},{"zip":"39041","fips":"28089","name":"Madison County","state_id":"MS"},{"zip":"39042","fips":"28121","name":"Rankin County","state_id":"MS"},{"zip":"39042","fips":"28129","name":"Smith County","state_id":"MS"},{"zip":"39043","fips":"28121","name":"Rankin County","state_id":"MS"},{"zip":"39044","fips":"28121","name":"Rankin County","state_id":"MS"},{"zip":"39044","fips":"28127","name":"Simpson County","state_id":"MS"},{"zip":"39045","fips":"28089","name":"Madison County","state_id":"MS"},{"zip":"39046","fips":"28089","name":"Madison County","state_id":"MS"},{"zip":"39047","fips":"28121","name":"Rankin County","state_id":"MS"},{"zip":"39051","fips":"28007","name":"Attala County","state_id":"MS"},{"zip":"39051","fips":"28089","name":"Madison County","state_id":"MS"},{"zip":"39051","fips":"28099","name":"Neshoba County","state_id":"MS"},{"zip":"39051","fips":"28079","name":"Leake County","state_id":"MS"},{"zip":"39054","fips":"28125","name":"Sharkey County","state_id":"MS"},{"zip":"39056","fips":"28049","name":"Hinds County","state_id":"MS"},{"zip":"39057","fips":"28099","name":"Neshoba County","state_id":"MS"},{"zip":"39057","fips":"28101","name":"Newton County","state_id":"MS"},{"zip":"39057","fips":"28123","name":"Scott County","state_id":"MS"},{"zip":"39058","fips":"28049","name":"Hinds County","state_id":"MS"},{"zip":"39059","fips":"28049","name":"Hinds County","state_id":"MS"},{"zip":"39059","fips":"28029","name":"Copiah County","state_id":"MS"},{"zip":"39060","fips":"28049","name":"Hinds County","state_id":"MS"},{"zip":"39061","fips":"28125","name":"Sharkey County","state_id":"MS"},{"zip":"39062","fips":"28127","name":"Simpson County","state_id":"MS"},{"zip":"39063","fips":"28051","name":"Holmes County","state_id":"MS"},{"zip":"39066","fips":"28049","name":"Hinds County","state_id":"MS"},{"zip":"39067","fips":"28007","name":"Attala County","state_id":"MS"},{"zip":"39069","fips":"28037","name":"Franklin County","state_id":"MS"},{"zip":"39069","fips":"28063","name":"Jefferson County","state_id":"MS"},{"zip":"39071","fips":"28089","name":"Madison County","state_id":"MS"},{"zip":"39073","fips":"28121","name":"Rankin County","state_id":"MS"},{"zip":"39073","fips":"28127","name":"Simpson County","state_id":"MS"},{"zip":"39074","fips":"28129","name":"Smith County","state_id":"MS"},{"zip":"39074","fips":"28123","name":"Scott County","state_id":"MS"},{"zip":"39077","fips":"28029","name":"Copiah County","state_id":"MS"},{"zip":"39078","fips":"28029","name":"Copiah County","state_id":"MS"},{"zip":"39079","fips":"28089","name":"Madison County","state_id":"MS"},{"zip":"39079","fips":"28051","name":"Holmes County","state_id":"MS"},{"zip":"39079","fips":"28007","name":"Attala County","state_id":"MS"},{"zip":"39080","fips":"28123","name":"Scott County","state_id":"MS"},{"zip":"39082","fips":"28127","name":"Simpson County","state_id":"MS"},{"zip":"39083","fips":"28085","name":"Lincoln County","state_id":"MS"},{"zip":"39083","fips":"28029","name":"Copiah County","state_id":"MS"},{"zip":"39086","fips":"28029","name":"Copiah County","state_id":"MS"},{"zip":"39086","fips":"28049","name":"Hinds County","state_id":"MS"},{"zip":"39086","fips":"28021","name":"Claiborne County","state_id":"MS"},{"zip":"39087","fips":"28123","name":"Scott County","state_id":"MS"},{"zip":"39088","fips":"28163","name":"Yazoo County","state_id":"MS"},{"zip":"39090","fips":"28079","name":"Leake County","state_id":"MS"},{"zip":"39090","fips":"28159","name":"Winston County","state_id":"MS"},{"zip":"39090","fips":"28007","name":"Attala County","state_id":"MS"},{"zip":"39092","fips":"28123","name":"Scott County","state_id":"MS"},{"zip":"39092","fips":"28129","name":"Smith County","state_id":"MS"},{"zip":"39092","fips":"28101","name":"Newton County","state_id":"MS"},{"zip":"39094","fips":"28079","name":"Leake County","state_id":"MS"},{"zip":"39094","fips":"28121","name":"Rankin County","state_id":"MS"},{"zip":"39094","fips":"28123","name":"Scott County","state_id":"MS"},{"zip":"39095","fips":"28163","name":"Yazoo County","state_id":"MS"},{"zip":"39095","fips":"28051","name":"Holmes County","state_id":"MS"},{"zip":"39096","fips":"28063","name":"Jefferson County","state_id":"MS"},{"zip":"39096","fips":"28021","name":"Claiborne County","state_id":"MS"},{"zip":"39097","fips":"28053","name":"Humphreys County","state_id":"MS"},{"zip":"39097","fips":"28163","name":"Yazoo County","state_id":"MS"},{"zip":"39098","fips":"28123","name":"Scott County","state_id":"MS"}]
