[{"zip":"39108","fips":"28007","name":"Attala County","state_id":"MS"},{"zip":"39108","fips":"28159","name":"Winston County","state_id":"MS"},{"zip":"39108","fips":"28019","name":"Choctaw County","state_id":"MS"},{"zip":"39109","fips":"28079","name":"Leake County","state_id":"MS"},{"zip":"39110","fips":"28089","name":"Madison County","state_id":"MS"},{"zip":"39111","fips":"28127","name":"Simpson County","state_id":"MS"},{"zip":"39111","fips":"28129","name":"Smith County","state_id":"MS"},{"zip":"39113","fips":"28055","name":"Issaquena County","state_id":"MS"},{"zip":"39114","fips":"28127","name":"Simpson County","state_id":"MS"},{"zip":"39114","fips":"28129","name":"Smith County","state_id":"MS"},{"zip":"39114","fips":"28121","name":"Rankin County","state_id":"MS"},{"zip":"39115","fips":"28053","name":"Humphreys County","state_id":"MS"},{"zip":"39116","fips":"28129","name":"Smith County","state_id":"MS"},{"zip":"39117","fips":"28123","name":"Scott County","state_id":"MS"},{"zip":"39117","fips":"28121","name":"Rankin County","state_id":"MS"},{"zip":"39117","fips":"28129","name":"Smith County","state_id":"MS"},{"zip":"39119","fips":"28065","name":"Jefferson Davis County","state_id":"MS"},{"zip":"39119","fips":"28031","name":"Covington County","state_id":"MS"},{"zip":"39119","fips":"28127","name":"Simpson County","state_id":"MS"},{"zip":"39119","fips":"28129","name":"Smith County","state_id":"MS"},{"zip":"39120","fips":"28063","name":"Jefferson County","state_id":"MS"},{"zip":"39120","fips":"28001","name":"Adams County","state_id":"MS"},{"zip":"39121","fips":"28001","name":"Adams County","state_id":"MS"},{"zip":"39122","fips":"28001","name":"Adams County","state_id":"MS"},{"zip":"39130","fips":"28089","name":"Madison County","state_id":"MS"},{"zip":"39140","fips":"28065","name":"Jefferson Davis County","state_id":"MS"},{"zip":"39140","fips":"28127","name":"Simpson County","state_id":"MS"},{"zip":"39140","fips":"28077","name":"Lawrence County","state_id":"MS"},{"zip":"39144","fips":"28029","name":"Copiah County","state_id":"MS"},{"zip":"39144","fips":"28021","name":"Claiborne County","state_id":"MS"},{"zip":"39144","fips":"28063","name":"Jefferson County","state_id":"MS"},{"zip":"39145","fips":"28123","name":"Scott County","state_id":"MS"},{"zip":"39145","fips":"28121","name":"Rankin County","state_id":"MS"},{"zip":"39146","fips":"28163","name":"Yazoo County","state_id":"MS"},{"zip":"39146","fips":"28051","name":"Holmes County","state_id":"MS"},{"zip":"39146","fips":"28089","name":"Madison County","state_id":"MS"},{"zip":"39148","fips":"28121","name":"Rankin County","state_id":"MS"},{"zip":"39149","fips":"28065","name":"Jefferson Davis County","state_id":"MS"},{"zip":"39149","fips":"28127","name":"Simpson County","state_id":"MS"},{"zip":"39150","fips":"28021","name":"Claiborne County","state_id":"MS"},{"zip":"39151","fips":"28121","name":"Rankin County","state_id":"MS"},{"zip":"39152","fips":"28129","name":"Smith County","state_id":"MS"},{"zip":"39152","fips":"28123","name":"Scott County","state_id":"MS"},{"zip":"39153","fips":"28129","name":"Smith County","state_id":"MS"},{"zip":"39154","fips":"28049","name":"Hinds County","state_id":"MS"},{"zip":"39156","fips":"28149","name":"Warren County","state_id":"MS"},{"zip":"39157","fips":"28089","name":"Madison County","state_id":"MS"},{"zip":"39158","fips":"28089","name":"Madison County","state_id":"MS"},{"zip":"39159","fips":"28055","name":"Issaquena County","state_id":"MS"},{"zip":"39159","fips":"28163","name":"Yazoo County","state_id":"MS"},{"zip":"39159","fips":"28125","name":"Sharkey County","state_id":"MS"},{"zip":"39160","fips":"28079","name":"Leake County","state_id":"MS"},{"zip":"39160","fips":"28007","name":"Attala County","state_id":"MS"},{"zip":"39161","fips":"28121","name":"Rankin County","state_id":"MS"},{"zip":"39162","fips":"28149","name":"Warren County","state_id":"MS"},{"zip":"39162","fips":"28163","name":"Yazoo County","state_id":"MS"},{"zip":"39163","fips":"28089","name":"Madison County","state_id":"MS"},{"zip":"39165","fips":"28001","name":"Adams County","state_id":"MS"},{"zip":"39166","fips":"28053","name":"Humphreys County","state_id":"MS"},{"zip":"39166","fips":"28163","name":"Yazoo County","state_id":"MS"},{"zip":"39167","fips":"28121","name":"Rankin County","state_id":"MS"},{"zip":"39168","fips":"28067","name":"Jones County","state_id":"MS"},{"zip":"39168","fips":"28061","name":"Jasper County","state_id":"MS"},{"zip":"39168","fips":"28031","name":"Covington County","state_id":"MS"},{"zip":"39168","fips":"28129","name":"Smith County","state_id":"MS"},{"zip":"39169","fips":"28051","name":"Holmes County","state_id":"MS"},{"zip":"39170","fips":"28049","name":"Hinds County","state_id":"MS"},{"zip":"39170","fips":"28029","name":"Copiah County","state_id":"MS"},{"zip":"39171","fips":"28079","name":"Leake County","state_id":"MS"},{"zip":"39173","fips":"28163","name":"Yazoo County","state_id":"MS"},{"zip":"39174","fips":"28049","name":"Hinds County","state_id":"MS"},{"zip":"39175","fips":"28049","name":"Hinds County","state_id":"MS"},{"zip":"39175","fips":"28021","name":"Claiborne County","state_id":"MS"},{"zip":"39175","fips":"28029","name":"Copiah County","state_id":"MS"},{"zip":"39176","fips":"28007","name":"Attala County","state_id":"MS"},{"zip":"39176","fips":"28015","name":"Carroll County","state_id":"MS"},{"zip":"39176","fips":"28097","name":"Montgomery County","state_id":"MS"},{"zip":"39177","fips":"28055","name":"Issaquena County","state_id":"MS"},{"zip":"39179","fips":"28163","name":"Yazoo County","state_id":"MS"},{"zip":"39180","fips":"28149","name":"Warren County","state_id":"MS"},{"zip":"39181","fips":"28149","name":"Warren County","state_id":"MS"},{"zip":"39182","fips":"28149","name":"Warren County","state_id":"MS"},{"zip":"39183","fips":"28149","name":"Warren County","state_id":"MS"},{"zip":"39189","fips":"28123","name":"Scott County","state_id":"MS"},{"zip":"39189","fips":"28079","name":"Leake County","state_id":"MS"},{"zip":"39190","fips":"28001","name":"Adams County","state_id":"MS"},{"zip":"39191","fips":"28029","name":"Copiah County","state_id":"MS"},{"zip":"39191","fips":"28085","name":"Lincoln County","state_id":"MS"},{"zip":"39191","fips":"28077","name":"Lawrence County","state_id":"MS"},{"zip":"39192","fips":"28007","name":"Attala County","state_id":"MS"},{"zip":"39192","fips":"28051","name":"Holmes County","state_id":"MS"},{"zip":"39192","fips":"28015","name":"Carroll County","state_id":"MS"},{"zip":"39193","fips":"28121","name":"Rankin County","state_id":"MS"},{"zip":"39194","fips":"28163","name":"Yazoo County","state_id":"MS"},{"zip":"39194","fips":"28053","name":"Humphreys County","state_id":"MS"}]
