[{"zip":"39301","fips":"28023","name":"Clarke County","state_id":"MS"},{"zip":"39301","fips":"28075","name":"Lauderdale County","state_id":"MS"},{"zip":"39302","fips":"28075","name":"Lauderdale County","state_id":"MS"},{"zip":"39305","fips":"28075","name":"Lauderdale County","state_id":"MS"},{"zip":"39307","fips":"28023","name":"Clarke County","state_id":"MS"},{"zip":"39307","fips":"28075","name":"Lauderdale County","state_id":"MS"},{"zip":"39309","fips":"28075","name":"Lauderdale County","state_id":"MS"},{"zip":"39320","fips":"28075","name":"Lauderdale County","state_id":"MS"},{"zip":"39320","fips":"28069","name":"Kemper County","state_id":"MS"},{"zip":"39322","fips":"28153","name":"Wayne County","state_id":"MS"},{"zip":"39323","fips":"28101","name":"Newton County","state_id":"MS"},{"zip":"39323","fips":"28075","name":"Lauderdale County","state_id":"MS"},{"zip":"39324","fips":"28153","name":"Wayne County","state_id":"MS"},{"zip":"39325","fips":"28075","name":"Lauderdale County","state_id":"MS"},{"zip":"39325","fips":"28101","name":"Newton County","state_id":"MS"},{"zip":"39325","fips":"28069","name":"Kemper County","state_id":"MS"},{"zip":"39325","fips":"28099","name":"Neshoba County","state_id":"MS"},{"zip":"39326","fips":"28075","name":"Lauderdale County","state_id":"MS"},{"zip":"39326","fips":"28069","name":"Kemper County","state_id":"MS"},{"zip":"39327","fips":"28101","name":"Newton County","state_id":"MS"},{"zip":"39328","fips":"28099","name":"Neshoba County","state_id":"MS"},{"zip":"39328","fips":"28069","name":"Kemper County","state_id":"MS"},{"zip":"39330","fips":"28023","name":"Clarke County","state_id":"MS"},{"zip":"39330","fips":"28075","name":"Lauderdale County","state_id":"MS"},{"zip":"39330","fips":"28061","name":"Jasper County","state_id":"MS"},{"zip":"39330","fips":"28101","name":"Newton County","state_id":"MS"},{"zip":"39332","fips":"28061","name":"Jasper County","state_id":"MS"},{"zip":"39332","fips":"28101","name":"Newton County","state_id":"MS"},{"zip":"39335","fips":"28075","name":"Lauderdale County","state_id":"MS"},{"zip":"39335","fips":"28069","name":"Kemper County","state_id":"MS"},{"zip":"39336","fips":"28101","name":"Newton County","state_id":"MS"},{"zip":"39336","fips":"28061","name":"Jasper County","state_id":"MS"},{"zip":"39337","fips":"28101","name":"Newton County","state_id":"MS"},{"zip":"39337","fips":"28099","name":"Neshoba County","state_id":"MS"},{"zip":"39338","fips":"28061","name":"Jasper County","state_id":"MS"},{"zip":"39338","fips":"28129","name":"Smith County","state_id":"MS"},{"zip":"39339","fips":"28019","name":"Choctaw County","state_id":"MS"},{"zip":"39339","fips":"28159","name":"Winston County","state_id":"MS"},{"zip":"39341","fips":"28103","name":"Noxubee County","state_id":"MS"},{"zip":"39341","fips":"28069","name":"Kemper County","state_id":"MS"},{"zip":"39341","fips":"28159","name":"Winston County","state_id":"MS"},{"zip":"39342","fips":"28075","name":"Lauderdale County","state_id":"MS"},{"zip":"39345","fips":"28101","name":"Newton County","state_id":"MS"},{"zip":"39345","fips":"28061","name":"Jasper County","state_id":"MS"},{"zip":"39346","fips":"28159","name":"Winston County","state_id":"MS"},{"zip":"39346","fips":"28099","name":"Neshoba County","state_id":"MS"},{"zip":"39347","fips":"28023","name":"Clarke County","state_id":"MS"},{"zip":"39347","fips":"28061","name":"Jasper County","state_id":"MS"},{"zip":"39348","fips":"28061","name":"Jasper County","state_id":"MS"},{"zip":"39350","fips":"28159","name":"Winston County","state_id":"MS"},{"zip":"39350","fips":"28099","name":"Neshoba County","state_id":"MS"},{"zip":"39350","fips":"28069","name":"Kemper County","state_id":"MS"},{"zip":"39350","fips":"28079","name":"Leake County","state_id":"MS"},{"zip":"39352","fips":"28069","name":"Kemper County","state_id":"MS"},{"zip":"39354","fips":"28103","name":"Noxubee County","state_id":"MS"},{"zip":"39354","fips":"28099","name":"Neshoba County","state_id":"MS"},{"zip":"39354","fips":"28159","name":"Winston County","state_id":"MS"},{"zip":"39354","fips":"28069","name":"Kemper County","state_id":"MS"},{"zip":"39355","fips":"28023","name":"Clarke County","state_id":"MS"},{"zip":"39356","fips":"28061","name":"Jasper County","state_id":"MS"},{"zip":"39358","fips":"28069","name":"Kemper County","state_id":"MS"},{"zip":"39359","fips":"28123","name":"Scott County","state_id":"MS"},{"zip":"39360","fips":"28023","name":"Clarke County","state_id":"MS"},{"zip":"39360","fips":"28153","name":"Wayne County","state_id":"MS"},{"zip":"39361","fips":"28069","name":"Kemper County","state_id":"MS"},{"zip":"39361","fips":"28103","name":"Noxubee County","state_id":"MS"},{"zip":"39362","fips":"28041","name":"Greene County","state_id":"MS"},{"zip":"39362","fips":"28153","name":"Wayne County","state_id":"MS"},{"zip":"39363","fips":"28023","name":"Clarke County","state_id":"MS"},{"zip":"39364","fips":"28075","name":"Lauderdale County","state_id":"MS"},{"zip":"39365","fips":"28079","name":"Leake County","state_id":"MS"},{"zip":"39365","fips":"28099","name":"Neshoba County","state_id":"MS"},{"zip":"39365","fips":"28123","name":"Scott County","state_id":"MS"},{"zip":"39365","fips":"28101","name":"Newton County","state_id":"MS"},{"zip":"39366","fips":"28023","name":"Clarke County","state_id":"MS"},{"zip":"39366","fips":"28061","name":"Jasper County","state_id":"MS"},{"zip":"39367","fips":"28153","name":"Wayne County","state_id":"MS"},{"zip":"39367","fips":"28023","name":"Clarke County","state_id":"MS"}]
