[{"zip":"39401","fips":"28073","name":"Lamar County","state_id":"MS"},{"zip":"39401","fips":"28035","name":"Forrest County","state_id":"MS"},{"zip":"39401","fips":"28031","name":"Covington County","state_id":"MS"},{"zip":"39401","fips":"28067","name":"Jones County","state_id":"MS"},{"zip":"39402","fips":"28035","name":"Forrest County","state_id":"MS"},{"zip":"39402","fips":"28073","name":"Lamar County","state_id":"MS"},{"zip":"39402","fips":"28031","name":"Covington County","state_id":"MS"},{"zip":"39403","fips":"28035","name":"Forrest County","state_id":"MS"},{"zip":"39404","fips":"28035","name":"Forrest County","state_id":"MS"},{"zip":"39406","fips":"28035","name":"Forrest County","state_id":"MS"},{"zip":"39407","fips":"28035","name":"Forrest County","state_id":"MS"},{"zip":"39421","fips":"28065","name":"Jefferson Davis County","state_id":"MS"},{"zip":"39421","fips":"28091","name":"Marion County","state_id":"MS"},{"zip":"39422","fips":"28061","name":"Jasper County","state_id":"MS"},{"zip":"39422","fips":"28129","name":"Smith County","state_id":"MS"},{"zip":"39423","fips":"28041","name":"Greene County","state_id":"MS"},{"zip":"39423","fips":"28111","name":"Perry County","state_id":"MS"},{"zip":"39425","fips":"28035","name":"Forrest County","state_id":"MS"},{"zip":"39425","fips":"28111","name":"Perry County","state_id":"MS"},{"zip":"39426","fips":"28109","name":"Pearl River County","state_id":"MS"},{"zip":"39426","fips":"28045","name":"Hancock County","state_id":"MS"},{"zip":"39427","fips":"28065","name":"Jefferson Davis County","state_id":"MS"},{"zip":"39428","fips":"28031","name":"Covington County","state_id":"MS"},{"zip":"39429","fips":"28065","name":"Jefferson Davis County","state_id":"MS"},{"zip":"39429","fips":"28091","name":"Marion County","state_id":"MS"},{"zip":"39429","fips":"28073","name":"Lamar County","state_id":"MS"},{"zip":"39436","fips":"28067","name":"Jones County","state_id":"MS"},{"zip":"39437","fips":"28035","name":"Forrest County","state_id":"MS"},{"zip":"39437","fips":"28067","name":"Jones County","state_id":"MS"},{"zip":"39437","fips":"28031","name":"Covington County","state_id":"MS"},{"zip":"39439","fips":"28061","name":"Jasper County","state_id":"MS"},{"zip":"39439","fips":"28023","name":"Clarke County","state_id":"MS"},{"zip":"39439","fips":"28067","name":"Jones County","state_id":"MS"},{"zip":"39439","fips":"28153","name":"Wayne County","state_id":"MS"},{"zip":"39440","fips":"28067","name":"Jones County","state_id":"MS"},{"zip":"39443","fips":"28061","name":"Jasper County","state_id":"MS"},{"zip":"39443","fips":"28153","name":"Wayne County","state_id":"MS"},{"zip":"39443","fips":"28067","name":"Jones County","state_id":"MS"},{"zip":"39451","fips":"28041","name":"Greene County","state_id":"MS"},{"zip":"39452","fips":"28041","name":"Greene County","state_id":"MS"},{"zip":"39452","fips":"28039","name":"George County","state_id":"MS"},{"zip":"39452","fips":"28059","name":"Jackson County","state_id":"MS"},{"zip":"39455","fips":"28109","name":"Pearl River County","state_id":"MS"},{"zip":"39455","fips":"28073","name":"Lamar County","state_id":"MS"},{"zip":"39455","fips":"28091","name":"Marion County","state_id":"MS"},{"zip":"39455","fips":"28035","name":"Forrest County","state_id":"MS"},{"zip":"39455","fips":"28131","name":"Stone County","state_id":"MS"},{"zip":"39456","fips":"28111","name":"Perry County","state_id":"MS"},{"zip":"39456","fips":"28041","name":"Greene County","state_id":"MS"},{"zip":"39456","fips":"28039","name":"George County","state_id":"MS"},{"zip":"39457","fips":"28109","name":"Pearl River County","state_id":"MS"},{"zip":"39459","fips":"28067","name":"Jones County","state_id":"MS"},{"zip":"39459","fips":"28035","name":"Forrest County","state_id":"MS"},{"zip":"39460","fips":"28061","name":"Jasper County","state_id":"MS"},{"zip":"39461","fips":"28041","name":"Greene County","state_id":"MS"},{"zip":"39462","fips":"28111","name":"Perry County","state_id":"MS"},{"zip":"39463","fips":"28109","name":"Pearl River County","state_id":"MS"},{"zip":"39464","fips":"28067","name":"Jones County","state_id":"MS"},{"zip":"39464","fips":"28111","name":"Perry County","state_id":"MS"},{"zip":"39465","fips":"28111","name":"Perry County","state_id":"MS"},{"zip":"39465","fips":"28035","name":"Forrest County","state_id":"MS"},{"zip":"39465","fips":"28067","name":"Jones County","state_id":"MS"},{"zip":"39466","fips":"28045","name":"Hancock County","state_id":"MS"},{"zip":"39466","fips":"28109","name":"Pearl River County","state_id":"MS"},{"zip":"39470","fips":"28045","name":"Hancock County","state_id":"MS"},{"zip":"39470","fips":"28109","name":"Pearl River County","state_id":"MS"},{"zip":"39474","fips":"28077","name":"Lawrence County","state_id":"MS"},{"zip":"39474","fips":"28065","name":"Jefferson Davis County","state_id":"MS"},{"zip":"39474","fips":"28031","name":"Covington County","state_id":"MS"},{"zip":"39475","fips":"28073","name":"Lamar County","state_id":"MS"},{"zip":"39475","fips":"28035","name":"Forrest County","state_id":"MS"},{"zip":"39476","fips":"28067","name":"Jones County","state_id":"MS"},{"zip":"39476","fips":"28153","name":"Wayne County","state_id":"MS"},{"zip":"39476","fips":"28041","name":"Greene County","state_id":"MS"},{"zip":"39476","fips":"28111","name":"Perry County","state_id":"MS"},{"zip":"39477","fips":"28067","name":"Jones County","state_id":"MS"},{"zip":"39478","fips":"28091","name":"Marion County","state_id":"MS"},{"zip":"39478","fips":"28147","name":"Walthall County","state_id":"MS"},{"zip":"39479","fips":"28031","name":"Covington County","state_id":"MS"},{"zip":"39479","fips":"28067","name":"Jones County","state_id":"MS"},{"zip":"39480","fips":"28067","name":"Jones County","state_id":"MS"},{"zip":"39480","fips":"28061","name":"Jasper County","state_id":"MS"},{"zip":"39481","fips":"28061","name":"Jasper County","state_id":"MS"},{"zip":"39482","fips":"28031","name":"Covington County","state_id":"MS"},{"zip":"39482","fips":"28091","name":"Marion County","state_id":"MS"},{"zip":"39482","fips":"28065","name":"Jefferson Davis County","state_id":"MS"},{"zip":"39482","fips":"28073","name":"Lamar County","state_id":"MS"},{"zip":"39483","fips":"28091","name":"Marion County","state_id":"MS"},{"zip":"39483","fips":"28077","name":"Lawrence County","state_id":"MS"},{"zip":"39483","fips":"28147","name":"Walthall County","state_id":"MS"}]
