[{"zip":"39501","fips":"28047","name":"Harrison County","state_id":"MS"},{"zip":"39502","fips":"28047","name":"Harrison County","state_id":"MS"},{"zip":"39503","fips":"28047","name":"Harrison County","state_id":"MS"},{"zip":"39505","fips":"28047","name":"Harrison County","state_id":"MS"},{"zip":"39506","fips":"28047","name":"Harrison County","state_id":"MS"},{"zip":"39507","fips":"28047","name":"Harrison County","state_id":"MS"},{"zip":"39520","fips":"28045","name":"Hancock County","state_id":"MS"},{"zip":"39522","fips":"28045","name":"Hancock County","state_id":"MS"},{"zip":"39525","fips":"28045","name":"Hancock County","state_id":"MS"},{"zip":"39529","fips":"28045","name":"Hancock County","state_id":"MS"},{"zip":"39530","fips":"28047","name":"Harrison County","state_id":"MS"},{"zip":"39531","fips":"28047","name":"Harrison County","state_id":"MS"},{"zip":"39532","fips":"28059","name":"Jackson County","state_id":"MS"},{"zip":"39532","fips":"28047","name":"Harrison County","state_id":"MS"},{"zip":"39533","fips":"28047","name":"Harrison County","state_id":"MS"},{"zip":"39534","fips":"28047","name":"Harrison County","state_id":"MS"},{"zip":"39535","fips":"28047","name":"Harrison County","state_id":"MS"},{"zip":"39540","fips":"28047","name":"Harrison County","state_id":"MS"},{"zip":"39552","fips":"28059","name":"Jackson County","state_id":"MS"},{"zip":"39553","fips":"28059","name":"Jackson County","state_id":"MS"},{"zip":"39555","fips":"28059","name":"Jackson County","state_id":"MS"},{"zip":"39556","fips":"28045","name":"Hancock County","state_id":"MS"},{"zip":"39558","fips":"28045","name":"Hancock County","state_id":"MS"},{"zip":"39560","fips":"28047","name":"Harrison County","state_id":"MS"},{"zip":"39561","fips":"28131","name":"Stone County","state_id":"MS"},{"zip":"39562","fips":"28059","name":"Jackson County","state_id":"MS"},{"zip":"39563","fips":"28059","name":"Jackson County","state_id":"MS"},{"zip":"39564","fips":"28059","name":"Jackson County","state_id":"MS"},{"zip":"39565","fips":"28059","name":"Jackson County","state_id":"MS"},{"zip":"39565","fips":"28047","name":"Harrison County","state_id":"MS"},{"zip":"39566","fips":"28059","name":"Jackson County","state_id":"MS"},{"zip":"39567","fips":"28059","name":"Jackson County","state_id":"MS"},{"zip":"39569","fips":"28059","name":"Jackson County","state_id":"MS"},{"zip":"39571","fips":"28045","name":"Hancock County","state_id":"MS"},{"zip":"39571","fips":"28047","name":"Harrison County","state_id":"MS"},{"zip":"39572","fips":"28045","name":"Hancock County","state_id":"MS"},{"zip":"39573","fips":"28039","name":"George County","state_id":"MS"},{"zip":"39573","fips":"28059","name":"Jackson County","state_id":"MS"},{"zip":"39573","fips":"28045","name":"Hancock County","state_id":"MS"},{"zip":"39573","fips":"28047","name":"Harrison County","state_id":"MS"},{"zip":"39573","fips":"28109","name":"Pearl River County","state_id":"MS"},{"zip":"39573","fips":"28131","name":"Stone County","state_id":"MS"},{"zip":"39574","fips":"28131","name":"Stone County","state_id":"MS"},{"zip":"39574","fips":"28047","name":"Harrison County","state_id":"MS"},{"zip":"39576","fips":"28045","name":"Hancock County","state_id":"MS"},{"zip":"39577","fips":"28035","name":"Forrest County","state_id":"MS"},{"zip":"39577","fips":"28111","name":"Perry County","state_id":"MS"},{"zip":"39577","fips":"28131","name":"Stone County","state_id":"MS"},{"zip":"39581","fips":"28059","name":"Jackson County","state_id":"MS"},{"zip":"39595","fips":"28059","name":"Jackson County","state_id":"MS"}]
