[{"zip":"39601","fips":"28085","name":"Lincoln County","state_id":"MS"},{"zip":"39601","fips":"28037","name":"Franklin County","state_id":"MS"},{"zip":"39602","fips":"28085","name":"Lincoln County","state_id":"MS"},{"zip":"39603","fips":"28085","name":"Lincoln County","state_id":"MS"},{"zip":"39629","fips":"28085","name":"Lincoln County","state_id":"MS"},{"zip":"39629","fips":"28113","name":"Pike County","state_id":"MS"},{"zip":"39630","fips":"28037","name":"Franklin County","state_id":"MS"},{"zip":"39631","fips":"28005","name":"Amite County","state_id":"MS"},{"zip":"39631","fips":"28157","name":"Wilkinson County","state_id":"MS"},{"zip":"39632","fips":"28113","name":"Pike County","state_id":"MS"},{"zip":"39633","fips":"28005","name":"Amite County","state_id":"MS"},{"zip":"39633","fips":"28157","name":"Wilkinson County","state_id":"MS"},{"zip":"39635","fips":"28113","name":"Pike County","state_id":"MS"},{"zip":"39638","fips":"28005","name":"Amite County","state_id":"MS"},{"zip":"39638","fips":"28157","name":"Wilkinson County","state_id":"MS"},{"zip":"39641","fips":"28147","name":"Walthall County","state_id":"MS"},{"zip":"39641","fips":"28085","name":"Lincoln County","state_id":"MS"},{"zip":"39641","fips":"28113","name":"Pike County","state_id":"MS"},{"zip":"39641","fips":"28077","name":"Lawrence County","state_id":"MS"},{"zip":"39643","fips":"28147","name":"Walthall County","state_id":"MS"},{"zip":"39643","fips":"28091","name":"Marion County","state_id":"MS"},{"zip":"39645","fips":"28005","name":"Amite County","state_id":"MS"},{"zip":"39647","fips":"28085","name":"Lincoln County","state_id":"MS"},{"zip":"39647","fips":"28037","name":"Franklin County","state_id":"MS"},{"zip":"39648","fips":"28113","name":"Pike County","state_id":"MS"},{"zip":"39648","fips":"28147","name":"Walthall County","state_id":"MS"},{"zip":"39649","fips":"28113","name":"Pike County","state_id":"MS"},{"zip":"39652","fips":"28113","name":"Pike County","state_id":"MS"},{"zip":"39652","fips":"28005","name":"Amite County","state_id":"MS"},{"zip":"39653","fips":"28063","name":"Jefferson County","state_id":"MS"},{"zip":"39653","fips":"28005","name":"Amite County","state_id":"MS"},{"zip":"39653","fips":"28037","name":"Franklin County","state_id":"MS"},{"zip":"39654","fips":"28085","name":"Lincoln County","state_id":"MS"},{"zip":"39654","fips":"28077","name":"Lawrence County","state_id":"MS"},{"zip":"39654","fips":"28029","name":"Copiah County","state_id":"MS"},{"zip":"39656","fips":"28065","name":"Jefferson Davis County","state_id":"MS"},{"zip":"39656","fips":"28077","name":"Lawrence County","state_id":"MS"},{"zip":"39657","fips":"28147","name":"Walthall County","state_id":"MS"},{"zip":"39657","fips":"28113","name":"Pike County","state_id":"MS"},{"zip":"39657","fips":"28005","name":"Amite County","state_id":"MS"},{"zip":"39661","fips":"28037","name":"Franklin County","state_id":"MS"},{"zip":"39661","fips":"28063","name":"Jefferson County","state_id":"MS"},{"zip":"39661","fips":"28001","name":"Adams County","state_id":"MS"},{"zip":"39662","fips":"28085","name":"Lincoln County","state_id":"MS"},{"zip":"39662","fips":"28077","name":"Lawrence County","state_id":"MS"},{"zip":"39662","fips":"28113","name":"Pike County","state_id":"MS"},{"zip":"39663","fips":"28077","name":"Lawrence County","state_id":"MS"},{"zip":"39663","fips":"28065","name":"Jefferson Davis County","state_id":"MS"},{"zip":"39664","fips":"28085","name":"Lincoln County","state_id":"MS"},{"zip":"39664","fips":"28037","name":"Franklin County","state_id":"MS"},{"zip":"39664","fips":"28005","name":"Amite County","state_id":"MS"},{"zip":"39665","fips":"28077","name":"Lawrence County","state_id":"MS"},{"zip":"39665","fips":"28085","name":"Lincoln County","state_id":"MS"},{"zip":"39666","fips":"28113","name":"Pike County","state_id":"MS"},{"zip":"39666","fips":"28005","name":"Amite County","state_id":"MS"},{"zip":"39666","fips":"28085","name":"Lincoln County","state_id":"MS"},{"zip":"39667","fips":"28113","name":"Pike County","state_id":"MS"},{"zip":"39667","fips":"28147","name":"Walthall County","state_id":"MS"},{"zip":"39667","fips":"28091","name":"Marion County","state_id":"MS"},{"zip":"39668","fips":"28029","name":"Copiah County","state_id":"MS"},{"zip":"39668","fips":"28063","name":"Jefferson County","state_id":"MS"},{"zip":"39668","fips":"28037","name":"Franklin County","state_id":"MS"},{"zip":"39668","fips":"28085","name":"Lincoln County","state_id":"MS"},{"zip":"39669","fips":"28157","name":"Wilkinson County","state_id":"MS"}]
