[{"zip":"39701","fips":"28087","name":"Lowndes County","state_id":"MS"},{"zip":"39701","fips":"28103","name":"Noxubee County","state_id":"MS"},{"zip":"39702","fips":"28087","name":"Lowndes County","state_id":"MS"},{"zip":"39703","fips":"28087","name":"Lowndes County","state_id":"MS"},{"zip":"39704","fips":"28087","name":"Lowndes County","state_id":"MS"},{"zip":"39705","fips":"28087","name":"Lowndes County","state_id":"MS"},{"zip":"39710","fips":"28087","name":"Lowndes County","state_id":"MS"},{"zip":"39730","fips":"28095","name":"Monroe County","state_id":"MS"},{"zip":"39730","fips":"28017","name":"Chickasaw County","state_id":"MS"},{"zip":"39735","fips":"28159","name":"Winston County","state_id":"MS"},{"zip":"39735","fips":"28105","name":"Oktibbeha County","state_id":"MS"},{"zip":"39735","fips":"28019","name":"Choctaw County","state_id":"MS"},{"zip":"39736","fips":"28087","name":"Lowndes County","state_id":"MS"},{"zip":"39737","fips":"28155","name":"Webster County","state_id":"MS"},{"zip":"39739","fips":"28105","name":"Oktibbeha County","state_id":"MS"},{"zip":"39739","fips":"28087","name":"Lowndes County","state_id":"MS"},{"zip":"39739","fips":"28103","name":"Noxubee County","state_id":"MS"},{"zip":"39740","fips":"28095","name":"Monroe County","state_id":"MS"},{"zip":"39740","fips":"28087","name":"Lowndes County","state_id":"MS"},{"zip":"39741","fips":"28025","name":"Clay County","state_id":"MS"},{"zip":"39743","fips":"28105","name":"Oktibbeha County","state_id":"MS"},{"zip":"39743","fips":"28087","name":"Lowndes County","state_id":"MS"},{"zip":"39743","fips":"28103","name":"Noxubee County","state_id":"MS"},{"zip":"39744","fips":"28043","name":"Grenada County","state_id":"MS"},{"zip":"39744","fips":"28155","name":"Webster County","state_id":"MS"},{"zip":"39744","fips":"28019","name":"Choctaw County","state_id":"MS"},{"zip":"39745","fips":"28007","name":"Attala County","state_id":"MS"},{"zip":"39745","fips":"28097","name":"Montgomery County","state_id":"MS"},{"zip":"39745","fips":"28019","name":"Choctaw County","state_id":"MS"},{"zip":"39746","fips":"28095","name":"Monroe County","state_id":"MS"},{"zip":"39747","fips":"28097","name":"Montgomery County","state_id":"MS"},{"zip":"39750","fips":"28025","name":"Clay County","state_id":"MS"},{"zip":"39750","fips":"28019","name":"Choctaw County","state_id":"MS"},{"zip":"39750","fips":"28155","name":"Webster County","state_id":"MS"},{"zip":"39750","fips":"28105","name":"Oktibbeha County","state_id":"MS"},{"zip":"39751","fips":"28155","name":"Webster County","state_id":"MS"},{"zip":"39751","fips":"28017","name":"Chickasaw County","state_id":"MS"},{"zip":"39751","fips":"28025","name":"Clay County","state_id":"MS"},{"zip":"39752","fips":"28019","name":"Choctaw County","state_id":"MS"},{"zip":"39752","fips":"28105","name":"Oktibbeha County","state_id":"MS"},{"zip":"39752","fips":"28155","name":"Webster County","state_id":"MS"},{"zip":"39753","fips":"28087","name":"Lowndes County","state_id":"MS"},{"zip":"39755","fips":"28105","name":"Oktibbeha County","state_id":"MS"},{"zip":"39755","fips":"28025","name":"Clay County","state_id":"MS"},{"zip":"39755","fips":"28155","name":"Webster County","state_id":"MS"},{"zip":"39756","fips":"28017","name":"Chickasaw County","state_id":"MS"},{"zip":"39756","fips":"28025","name":"Clay County","state_id":"MS"},{"zip":"39756","fips":"28095","name":"Monroe County","state_id":"MS"},{"zip":"39759","fips":"28025","name":"Clay County","state_id":"MS"},{"zip":"39759","fips":"28105","name":"Oktibbeha County","state_id":"MS"},{"zip":"39759","fips":"28087","name":"Lowndes County","state_id":"MS"},{"zip":"39760","fips":"28105","name":"Oktibbeha County","state_id":"MS"},{"zip":"39762","fips":"28105","name":"Oktibbeha County","state_id":"MS"},{"zip":"39766","fips":"28087","name":"Lowndes County","state_id":"MS"},{"zip":"39767","fips":"28155","name":"Webster County","state_id":"MS"},{"zip":"39767","fips":"28097","name":"Montgomery County","state_id":"MS"},{"zip":"39767","fips":"28019","name":"Choctaw County","state_id":"MS"},{"zip":"39769","fips":"28105","name":"Oktibbeha County","state_id":"MS"},{"zip":"39769","fips":"28159","name":"Winston County","state_id":"MS"},{"zip":"39769","fips":"28019","name":"Choctaw County","state_id":"MS"},{"zip":"39771","fips":"28155","name":"Webster County","state_id":"MS"},{"zip":"39772","fips":"28007","name":"Attala County","state_id":"MS"},{"zip":"39772","fips":"28019","name":"Choctaw County","state_id":"MS"},{"zip":"39772","fips":"28159","name":"Winston County","state_id":"MS"},{"zip":"39773","fips":"28025","name":"Clay County","state_id":"MS"},{"zip":"39773","fips":"28095","name":"Monroe County","state_id":"MS"},{"zip":"39776","fips":"28025","name":"Clay County","state_id":"MS"},{"zip":"39776","fips":"28017","name":"Chickasaw County","state_id":"MS"}]
