[{"zip":"39813","fips":"13099","name":"Early County","state_id":"GA"},{"zip":"39813","fips":"13007","name":"Baker County","state_id":"GA"},{"zip":"39813","fips":"13037","name":"Calhoun County","state_id":"GA"},{"zip":"39815","fips":"13087","name":"Decatur County","state_id":"GA"},{"zip":"39817","fips":"13087","name":"Decatur County","state_id":"GA"},{"zip":"39818","fips":"13087","name":"Decatur County","state_id":"GA"},{"zip":"39819","fips":"13087","name":"Decatur County","state_id":"GA"},{"zip":"39823","fips":"13201","name":"Miller County","state_id":"GA"},{"zip":"39823","fips":"13061","name":"Clay County","state_id":"GA"},{"zip":"39823","fips":"13099","name":"Early County","state_id":"GA"},{"zip":"39824","fips":"13099","name":"Early County","state_id":"GA"},{"zip":"39824","fips":"13061","name":"Clay County","state_id":"GA"},{"zip":"39825","fips":"13253","name":"Seminole County","state_id":"GA"},{"zip":"39825","fips":"13087","name":"Decatur County","state_id":"GA"},{"zip":"39826","fips":"13273","name":"Terrell County","state_id":"GA"},{"zip":"39827","fips":"13131","name":"Grady County","state_id":"GA"},{"zip":"39828","fips":"13275","name":"Thomas County","state_id":"GA"},{"zip":"39828","fips":"13131","name":"Grady County","state_id":"GA"},{"zip":"39829","fips":"13131","name":"Grady County","state_id":"GA"},{"zip":"39832","fips":"13099","name":"Early County","state_id":"GA"},{"zip":"39834","fips":"13087","name":"Decatur County","state_id":"GA"},{"zip":"39834","fips":"13131","name":"Grady County","state_id":"GA"},{"zip":"39836","fips":"13243","name":"Randolph County","state_id":"GA"},{"zip":"39836","fips":"13061","name":"Clay County","state_id":"GA"},{"zip":"39837","fips":"13099","name":"Early County","state_id":"GA"},{"zip":"39837","fips":"13253","name":"Seminole County","state_id":"GA"},{"zip":"39837","fips":"13201","name":"Miller County","state_id":"GA"},{"zip":"39837","fips":"13007","name":"Baker County","state_id":"GA"},{"zip":"39837","fips":"13087","name":"Decatur County","state_id":"GA"},{"zip":"39840","fips":"13037","name":"Calhoun County","state_id":"GA"},{"zip":"39840","fips":"13243","name":"Randolph County","state_id":"GA"},{"zip":"39841","fips":"13201","name":"Miller County","state_id":"GA"},{"zip":"39841","fips":"13007","name":"Baker County","state_id":"GA"},{"zip":"39841","fips":"13099","name":"Early County","state_id":"GA"},{"zip":"39842","fips":"13177","name":"Lee County","state_id":"GA"},{"zip":"39842","fips":"13095","name":"Dougherty County","state_id":"GA"},{"zip":"39842","fips":"13273","name":"Terrell County","state_id":"GA"},{"zip":"39842","fips":"13037","name":"Calhoun County","state_id":"GA"},{"zip":"39845","fips":"13253","name":"Seminole County","state_id":"GA"},{"zip":"39845","fips":"13099","name":"Early County","state_id":"GA"},{"zip":"39845","fips":"13201","name":"Miller County","state_id":"GA"},{"zip":"39846","fips":"13061","name":"Clay County","state_id":"GA"},{"zip":"39846","fips":"13243","name":"Randolph County","state_id":"GA"},{"zip":"39846","fips":"13037","name":"Calhoun County","state_id":"GA"},{"zip":"39851","fips":"13061","name":"Clay County","state_id":"GA"},{"zip":"39851","fips":"13243","name":"Randolph County","state_id":"GA"},{"zip":"39852","fips":"13087","name":"Decatur County","state_id":"GA"},{"zip":"39854","fips":"13259","name":"Stewart County","state_id":"GA"},{"zip":"39854","fips":"13061","name":"Clay County","state_id":"GA"},{"zip":"39854","fips":"13239","name":"Quitman County","state_id":"GA"},{"zip":"39859","fips":"13201","name":"Miller County","state_id":"GA"},{"zip":"39859","fips":"13253","name":"Seminole County","state_id":"GA"},{"zip":"39861","fips":"13099","name":"Early County","state_id":"GA"},{"zip":"39861","fips":"13253","name":"Seminole County","state_id":"GA"},{"zip":"39862","fips":"13037","name":"Calhoun County","state_id":"GA"},{"zip":"39862","fips":"13273","name":"Terrell County","state_id":"GA"},{"zip":"39862","fips":"13007","name":"Baker County","state_id":"GA"},{"zip":"39866","fips":"13243","name":"Randolph County","state_id":"GA"},{"zip":"39866","fips":"13037","name":"Calhoun County","state_id":"GA"},{"zip":"39867","fips":"13259","name":"Stewart County","state_id":"GA"},{"zip":"39867","fips":"13239","name":"Quitman County","state_id":"GA"},{"zip":"39867","fips":"13061","name":"Clay County","state_id":"GA"},{"zip":"39867","fips":"13243","name":"Randolph County","state_id":"GA"},{"zip":"39870","fips":"13007","name":"Baker County","state_id":"GA"},{"zip":"39877","fips":"13273","name":"Terrell County","state_id":"GA"},{"zip":"39877","fips":"13307","name":"Webster County","state_id":"GA"},{"zip":"39885","fips":"13273","name":"Terrell County","state_id":"GA"},{"zip":"39886","fips":"13273","name":"Terrell County","state_id":"GA"},{"zip":"39886","fips":"13243","name":"Randolph County","state_id":"GA"},{"zip":"39886","fips":"13037","name":"Calhoun County","state_id":"GA"},{"zip":"39897","fips":"13087","name":"Decatur County","state_id":"GA"},{"zip":"39897","fips":"13131","name":"Grady County","state_id":"GA"}]
