[{"zip":"80001","fips":"08059","name":"Jefferson County","state_id":"CO"},{"zip":"80002","fips":"08001","name":"Adams County","state_id":"CO"},{"zip":"80002","fips":"08059","name":"Jefferson County","state_id":"CO"},{"zip":"80003","fips":"08059","name":"Jefferson County","state_id":"CO"},{"zip":"80003","fips":"08001","name":"Adams County","state_id":"CO"},{"zip":"80004","fips":"08059","name":"Jefferson County","state_id":"CO"},{"zip":"80005","fips":"08059","name":"Jefferson County","state_id":"CO"},{"zip":"80006","fips":"08059","name":"Jefferson County","state_id":"CO"},{"zip":"80007","fips":"08059","name":"Jefferson County","state_id":"CO"},{"zip":"80010","fips":"08031","name":"Denver County","state_id":"CO"},{"zip":"80010","fips":"08001","name":"Adams County","state_id":"CO"},{"zip":"80010","fips":"08005","name":"Arapahoe County","state_id":"CO"},{"zip":"80011","fips":"08005","name":"Arapahoe County","state_id":"CO"},{"zip":"80011","fips":"08001","name":"Adams County","state_id":"CO"},{"zip":"80012","fips":"08005","name":"Arapahoe County","state_id":"CO"},{"zip":"80012","fips":"08031","name":"Denver County","state_id":"CO"},{"zip":"80013","fips":"08005","name":"Arapahoe County","state_id":"CO"},{"zip":"80014","fips":"08031","name":"Denver County","state_id":"CO"},{"zip":"80014","fips":"08005","name":"Arapahoe County","state_id":"CO"},{"zip":"80015","fips":"08005","name":"Arapahoe County","state_id":"CO"},{"zip":"80016","fips":"08035","name":"Douglas County","state_id":"CO"},{"zip":"80016","fips":"08005","name":"Arapahoe County","state_id":"CO"},{"zip":"80017","fips":"08005","name":"Arapahoe County","state_id":"CO"},{"zip":"80018","fips":"08005","name":"Arapahoe County","state_id":"CO"},{"zip":"80019","fips":"08005","name":"Arapahoe County","state_id":"CO"},{"zip":"80019","fips":"08001","name":"Adams County","state_id":"CO"},{"zip":"80020","fips":"08001","name":"Adams County","state_id":"CO"},{"zip":"80020","fips":"08013","name":"Boulder County","state_id":"CO"},{"zip":"80020","fips":"08059","name":"Jefferson County","state_id":"CO"},{"zip":"80020","fips":"08014","name":"Broomfield County","state_id":"CO"},{"zip":"80021","fips":"08013","name":"Boulder County","state_id":"CO"},{"zip":"80021","fips":"08059","name":"Jefferson County","state_id":"CO"},{"zip":"80021","fips":"08014","name":"Broomfield County","state_id":"CO"},{"zip":"80022","fips":"08001","name":"Adams County","state_id":"CO"},{"zip":"80022","fips":"08031","name":"Denver County","state_id":"CO"},{"zip":"80023","fips":"08001","name":"Adams County","state_id":"CO"},{"zip":"80023","fips":"08014","name":"Broomfield County","state_id":"CO"},{"zip":"80024","fips":"08001","name":"Adams County","state_id":"CO"},{"zip":"80025","fips":"08013","name":"Boulder County","state_id":"CO"},{"zip":"80026","fips":"08013","name":"Boulder County","state_id":"CO"},{"zip":"80027","fips":"08014","name":"Broomfield County","state_id":"CO"},{"zip":"80027","fips":"08013","name":"Boulder County","state_id":"CO"},{"zip":"80030","fips":"08001","name":"Adams County","state_id":"CO"},{"zip":"80031","fips":"08059","name":"Jefferson County","state_id":"CO"},{"zip":"80031","fips":"08001","name":"Adams County","state_id":"CO"},{"zip":"80033","fips":"08031","name":"Denver County","state_id":"CO"},{"zip":"80033","fips":"08059","name":"Jefferson County","state_id":"CO"},{"zip":"80034","fips":"08059","name":"Jefferson County","state_id":"CO"},{"zip":"80035","fips":"08001","name":"Adams County","state_id":"CO"},{"zip":"80036","fips":"08001","name":"Adams County","state_id":"CO"},{"zip":"80037","fips":"08001","name":"Adams County","state_id":"CO"},{"zip":"80038","fips":"08014","name":"Broomfield County","state_id":"CO"},{"zip":"80040","fips":"08001","name":"Adams County","state_id":"CO"},{"zip":"80041","fips":"08005","name":"Arapahoe County","state_id":"CO"},{"zip":"80042","fips":"08001","name":"Adams County","state_id":"CO"},{"zip":"80044","fips":"08005","name":"Arapahoe County","state_id":"CO"},{"zip":"80045","fips":"08001","name":"Adams County","state_id":"CO"},{"zip":"80045","fips":"08005","name":"Arapahoe County","state_id":"CO"},{"zip":"80046","fips":"08005","name":"Arapahoe County","state_id":"CO"},{"zip":"80047","fips":"08005","name":"Arapahoe County","state_id":"CO"}]
