[{"zip":"80101","fips":"08039","name":"Elbert County","state_id":"CO"},{"zip":"80102","fips":"08001","name":"Adams County","state_id":"CO"},{"zip":"80102","fips":"08005","name":"Arapahoe County","state_id":"CO"},{"zip":"80102","fips":"08039","name":"Elbert County","state_id":"CO"},{"zip":"80103","fips":"08005","name":"Arapahoe County","state_id":"CO"},{"zip":"80103","fips":"08001","name":"Adams County","state_id":"CO"},{"zip":"80104","fips":"08035","name":"Douglas County","state_id":"CO"},{"zip":"80105","fips":"08039","name":"Elbert County","state_id":"CO"},{"zip":"80105","fips":"08005","name":"Arapahoe County","state_id":"CO"},{"zip":"80105","fips":"08001","name":"Adams County","state_id":"CO"},{"zip":"80106","fips":"08035","name":"Douglas County","state_id":"CO"},{"zip":"80106","fips":"08039","name":"Elbert County","state_id":"CO"},{"zip":"80106","fips":"08041","name":"El Paso County","state_id":"CO"},{"zip":"80107","fips":"08039","name":"Elbert County","state_id":"CO"},{"zip":"80107","fips":"08035","name":"Douglas County","state_id":"CO"},{"zip":"80108","fips":"08035","name":"Douglas County","state_id":"CO"},{"zip":"80109","fips":"08035","name":"Douglas County","state_id":"CO"},{"zip":"80110","fips":"08005","name":"Arapahoe County","state_id":"CO"},{"zip":"80110","fips":"08031","name":"Denver County","state_id":"CO"},{"zip":"80111","fips":"08031","name":"Denver County","state_id":"CO"},{"zip":"80111","fips":"08005","name":"Arapahoe County","state_id":"CO"},{"zip":"80112","fips":"08035","name":"Douglas County","state_id":"CO"},{"zip":"80112","fips":"08005","name":"Arapahoe County","state_id":"CO"},{"zip":"80113","fips":"08005","name":"Arapahoe County","state_id":"CO"},{"zip":"80113","fips":"08031","name":"Denver County","state_id":"CO"},{"zip":"80116","fips":"08035","name":"Douglas County","state_id":"CO"},{"zip":"80116","fips":"08039","name":"Elbert County","state_id":"CO"},{"zip":"80117","fips":"08039","name":"Elbert County","state_id":"CO"},{"zip":"80118","fips":"08041","name":"El Paso County","state_id":"CO"},{"zip":"80118","fips":"08035","name":"Douglas County","state_id":"CO"},{"zip":"80120","fips":"08005","name":"Arapahoe County","state_id":"CO"},{"zip":"80121","fips":"08005","name":"Arapahoe County","state_id":"CO"},{"zip":"80122","fips":"08005","name":"Arapahoe County","state_id":"CO"},{"zip":"80123","fips":"08059","name":"Jefferson County","state_id":"CO"},{"zip":"80123","fips":"08031","name":"Denver County","state_id":"CO"},{"zip":"80123","fips":"08005","name":"Arapahoe County","state_id":"CO"},{"zip":"80124","fips":"08035","name":"Douglas County","state_id":"CO"},{"zip":"80125","fips":"08059","name":"Jefferson County","state_id":"CO"},{"zip":"80125","fips":"08035","name":"Douglas County","state_id":"CO"},{"zip":"80126","fips":"08035","name":"Douglas County","state_id":"CO"},{"zip":"80126","fips":"08005","name":"Arapahoe County","state_id":"CO"},{"zip":"80127","fips":"08031","name":"Denver County","state_id":"CO"},{"zip":"80127","fips":"08059","name":"Jefferson County","state_id":"CO"},{"zip":"80128","fips":"08005","name":"Arapahoe County","state_id":"CO"},{"zip":"80128","fips":"08059","name":"Jefferson County","state_id":"CO"},{"zip":"80129","fips":"08035","name":"Douglas County","state_id":"CO"},{"zip":"80129","fips":"08005","name":"Arapahoe County","state_id":"CO"},{"zip":"80130","fips":"08035","name":"Douglas County","state_id":"CO"},{"zip":"80131","fips":"08035","name":"Douglas County","state_id":"CO"},{"zip":"80132","fips":"08041","name":"El Paso County","state_id":"CO"},{"zip":"80133","fips":"08041","name":"El Paso County","state_id":"CO"},{"zip":"80134","fips":"08039","name":"Elbert County","state_id":"CO"},{"zip":"80134","fips":"08035","name":"Douglas County","state_id":"CO"},{"zip":"80135","fips":"08059","name":"Jefferson County","state_id":"CO"},{"zip":"80135","fips":"08035","name":"Douglas County","state_id":"CO"},{"zip":"80135","fips":"08119","name":"Teller County","state_id":"CO"},{"zip":"80136","fips":"08001","name":"Adams County","state_id":"CO"},{"zip":"80136","fips":"08005","name":"Arapahoe County","state_id":"CO"},{"zip":"80137","fips":"08001","name":"Adams County","state_id":"CO"},{"zip":"80137","fips":"08005","name":"Arapahoe County","state_id":"CO"},{"zip":"80138","fips":"08035","name":"Douglas County","state_id":"CO"},{"zip":"80138","fips":"08039","name":"Elbert County","state_id":"CO"},{"zip":"80138","fips":"08005","name":"Arapahoe County","state_id":"CO"},{"zip":"80150","fips":"08005","name":"Arapahoe County","state_id":"CO"},{"zip":"80151","fips":"08005","name":"Arapahoe County","state_id":"CO"},{"zip":"80155","fips":"08005","name":"Arapahoe County","state_id":"CO"},{"zip":"80160","fips":"08005","name":"Arapahoe County","state_id":"CO"},{"zip":"80161","fips":"08005","name":"Arapahoe County","state_id":"CO"},{"zip":"80162","fips":"08059","name":"Jefferson County","state_id":"CO"},{"zip":"80163","fips":"08035","name":"Douglas County","state_id":"CO"},{"zip":"80165","fips":"08005","name":"Arapahoe County","state_id":"CO"},{"zip":"80166","fips":"08005","name":"Arapahoe County","state_id":"CO"}]
