[{"zip":"80201","fips":"08031","name":"Denver County","state_id":"CO"},{"zip":"80202","fips":"08031","name":"Denver County","state_id":"CO"},{"zip":"80203","fips":"08031","name":"Denver County","state_id":"CO"},{"zip":"80204","fips":"08059","name":"Jefferson County","state_id":"CO"},{"zip":"80204","fips":"08031","name":"Denver County","state_id":"CO"},{"zip":"80205","fips":"08031","name":"Denver County","state_id":"CO"},{"zip":"80206","fips":"08031","name":"Denver County","state_id":"CO"},{"zip":"80207","fips":"08031","name":"Denver County","state_id":"CO"},{"zip":"80208","fips":"08031","name":"Denver County","state_id":"CO"},{"zip":"80209","fips":"08031","name":"Denver County","state_id":"CO"},{"zip":"80210","fips":"08031","name":"Denver County","state_id":"CO"},{"zip":"80210","fips":"08005","name":"Arapahoe County","state_id":"CO"},{"zip":"80211","fips":"08031","name":"Denver County","state_id":"CO"},{"zip":"80212","fips":"08001","name":"Adams County","state_id":"CO"},{"zip":"80212","fips":"08031","name":"Denver County","state_id":"CO"},{"zip":"80212","fips":"08059","name":"Jefferson County","state_id":"CO"},{"zip":"80214","fips":"08031","name":"Denver County","state_id":"CO"},{"zip":"80214","fips":"08059","name":"Jefferson County","state_id":"CO"},{"zip":"80215","fips":"08059","name":"Jefferson County","state_id":"CO"},{"zip":"80216","fips":"08001","name":"Adams County","state_id":"CO"},{"zip":"80216","fips":"08031","name":"Denver County","state_id":"CO"},{"zip":"80217","fips":"08031","name":"Denver County","state_id":"CO"},{"zip":"80218","fips":"08031","name":"Denver County","state_id":"CO"},{"zip":"80219","fips":"08031","name":"Denver County","state_id":"CO"},{"zip":"80220","fips":"08005","name":"Arapahoe County","state_id":"CO"},{"zip":"80220","fips":"08031","name":"Denver County","state_id":"CO"},{"zip":"80220","fips":"08001","name":"Adams County","state_id":"CO"},{"zip":"80221","fips":"08001","name":"Adams County","state_id":"CO"},{"zip":"80221","fips":"08031","name":"Denver County","state_id":"CO"},{"zip":"80222","fips":"08031","name":"Denver County","state_id":"CO"},{"zip":"80222","fips":"08005","name":"Arapahoe County","state_id":"CO"},{"zip":"80223","fips":"08031","name":"Denver County","state_id":"CO"},{"zip":"80224","fips":"08031","name":"Denver County","state_id":"CO"},{"zip":"80224","fips":"08005","name":"Arapahoe County","state_id":"CO"},{"zip":"80225","fips":"08059","name":"Jefferson County","state_id":"CO"},{"zip":"80226","fips":"08031","name":"Denver County","state_id":"CO"},{"zip":"80226","fips":"08059","name":"Jefferson County","state_id":"CO"},{"zip":"80227","fips":"08031","name":"Denver County","state_id":"CO"},{"zip":"80227","fips":"08059","name":"Jefferson County","state_id":"CO"},{"zip":"80228","fips":"08059","name":"Jefferson County","state_id":"CO"},{"zip":"80229","fips":"08001","name":"Adams County","state_id":"CO"},{"zip":"80230","fips":"08031","name":"Denver County","state_id":"CO"},{"zip":"80230","fips":"08005","name":"Arapahoe County","state_id":"CO"},{"zip":"80231","fips":"08005","name":"Arapahoe County","state_id":"CO"},{"zip":"80231","fips":"08031","name":"Denver County","state_id":"CO"},{"zip":"80232","fips":"08031","name":"Denver County","state_id":"CO"},{"zip":"80232","fips":"08059","name":"Jefferson County","state_id":"CO"},{"zip":"80233","fips":"08001","name":"Adams County","state_id":"CO"},{"zip":"80234","fips":"08001","name":"Adams County","state_id":"CO"},{"zip":"80234","fips":"08014","name":"Broomfield County","state_id":"CO"},{"zip":"80235","fips":"08059","name":"Jefferson County","state_id":"CO"},{"zip":"80235","fips":"08031","name":"Denver County","state_id":"CO"},{"zip":"80236","fips":"08005","name":"Arapahoe County","state_id":"CO"},{"zip":"80236","fips":"08031","name":"Denver County","state_id":"CO"},{"zip":"80237","fips":"08031","name":"Denver County","state_id":"CO"},{"zip":"80237","fips":"08005","name":"Arapahoe County","state_id":"CO"},{"zip":"80238","fips":"08001","name":"Adams County","state_id":"CO"},{"zip":"80238","fips":"08031","name":"Denver County","state_id":"CO"},{"zip":"80239","fips":"08031","name":"Denver County","state_id":"CO"},{"zip":"80239","fips":"08001","name":"Adams County","state_id":"CO"},{"zip":"80241","fips":"08001","name":"Adams County","state_id":"CO"},{"zip":"80243","fips":"08031","name":"Denver County","state_id":"CO"},{"zip":"80246","fips":"08031","name":"Denver County","state_id":"CO"},{"zip":"80246","fips":"08005","name":"Arapahoe County","state_id":"CO"},{"zip":"80247","fips":"08031","name":"Denver County","state_id":"CO"},{"zip":"80247","fips":"08005","name":"Arapahoe County","state_id":"CO"},{"zip":"80248","fips":"08031","name":"Denver County","state_id":"CO"},{"zip":"80249","fips":"08031","name":"Denver County","state_id":"CO"},{"zip":"80249","fips":"08001","name":"Adams County","state_id":"CO"},{"zip":"80250","fips":"08031","name":"Denver County","state_id":"CO"},{"zip":"80256","fips":"08031","name":"Denver County","state_id":"CO"},{"zip":"80257","fips":"08031","name":"Denver County","state_id":"CO"},{"zip":"80259","fips":"08031","name":"Denver County","state_id":"CO"},{"zip":"80260","fips":"08001","name":"Adams County","state_id":"CO"},{"zip":"80261","fips":"08031","name":"Denver County","state_id":"CO"},{"zip":"80263","fips":"08031","name":"Denver County","state_id":"CO"},{"zip":"80264","fips":"08031","name":"Denver County","state_id":"CO"},{"zip":"80265","fips":"08031","name":"Denver County","state_id":"CO"},{"zip":"80266","fips":"08031","name":"Denver County","state_id":"CO"},{"zip":"80266","fips":"08001","name":"Adams County","state_id":"CO"},{"zip":"80271","fips":"08031","name":"Denver County","state_id":"CO"},{"zip":"80273","fips":"08031","name":"Denver County","state_id":"CO"},{"zip":"80274","fips":"08031","name":"Denver County","state_id":"CO"},{"zip":"80281","fips":"08031","name":"Denver County","state_id":"CO"},{"zip":"80290","fips":"08031","name":"Denver County","state_id":"CO"},{"zip":"80291","fips":"08031","name":"Denver County","state_id":"CO"},{"zip":"80293","fips":"08031","name":"Denver County","state_id":"CO"},{"zip":"80294","fips":"08031","name":"Denver County","state_id":"CO"},{"zip":"80299","fips":"08031","name":"Denver County","state_id":"CO"}]
