[{"zip":"80401","fips":"08059","name":"Jefferson County","state_id":"CO"},{"zip":"80402","fips":"08059","name":"Jefferson County","state_id":"CO"},{"zip":"80403","fips":"08047","name":"Gilpin County","state_id":"CO"},{"zip":"80403","fips":"08013","name":"Boulder County","state_id":"CO"},{"zip":"80403","fips":"08059","name":"Jefferson County","state_id":"CO"},{"zip":"80419","fips":"08059","name":"Jefferson County","state_id":"CO"},{"zip":"80420","fips":"08093","name":"Park County","state_id":"CO"},{"zip":"80421","fips":"08093","name":"Park County","state_id":"CO"},{"zip":"80421","fips":"08059","name":"Jefferson County","state_id":"CO"},{"zip":"80422","fips":"08013","name":"Boulder County","state_id":"CO"},{"zip":"80422","fips":"08047","name":"Gilpin County","state_id":"CO"},{"zip":"80423","fips":"08049","name":"Grand County","state_id":"CO"},{"zip":"80423","fips":"08037","name":"Eagle County","state_id":"CO"},{"zip":"80424","fips":"08117","name":"Summit County","state_id":"CO"},{"zip":"80425","fips":"08059","name":"Jefferson County","state_id":"CO"},{"zip":"80426","fips":"08037","name":"Eagle County","state_id":"CO"},{"zip":"80427","fips":"08047","name":"Gilpin County","state_id":"CO"},{"zip":"80428","fips":"08107","name":"Routt County","state_id":"CO"},{"zip":"80429","fips":"08065","name":"Lake County","state_id":"CO"},{"zip":"80430","fips":"08069","name":"Larimer County","state_id":"CO"},{"zip":"80430","fips":"08057","name":"Jackson County","state_id":"CO"},{"zip":"80432","fips":"08093","name":"Park County","state_id":"CO"},{"zip":"80433","fips":"08035","name":"Douglas County","state_id":"CO"},{"zip":"80433","fips":"08059","name":"Jefferson County","state_id":"CO"},{"zip":"80434","fips":"08057","name":"Jackson County","state_id":"CO"},{"zip":"80435","fips":"08117","name":"Summit County","state_id":"CO"},{"zip":"80436","fips":"08019","name":"Clear Creek County","state_id":"CO"},{"zip":"80437","fips":"08059","name":"Jefferson County","state_id":"CO"},{"zip":"80438","fips":"08019","name":"Clear Creek County","state_id":"CO"},{"zip":"80439","fips":"08019","name":"Clear Creek County","state_id":"CO"},{"zip":"80439","fips":"08059","name":"Jefferson County","state_id":"CO"},{"zip":"80440","fips":"08093","name":"Park County","state_id":"CO"},{"zip":"80442","fips":"08049","name":"Grand County","state_id":"CO"},{"zip":"80443","fips":"08117","name":"Summit County","state_id":"CO"},{"zip":"80444","fips":"08019","name":"Clear Creek County","state_id":"CO"},{"zip":"80446","fips":"08049","name":"Grand County","state_id":"CO"},{"zip":"80447","fips":"08049","name":"Grand County","state_id":"CO"},{"zip":"80448","fips":"08093","name":"Park County","state_id":"CO"},{"zip":"80449","fips":"08093","name":"Park County","state_id":"CO"},{"zip":"80451","fips":"08049","name":"Grand County","state_id":"CO"},{"zip":"80452","fips":"08019","name":"Clear Creek County","state_id":"CO"},{"zip":"80453","fips":"08059","name":"Jefferson County","state_id":"CO"},{"zip":"80454","fips":"08059","name":"Jefferson County","state_id":"CO"},{"zip":"80455","fips":"08013","name":"Boulder County","state_id":"CO"},{"zip":"80456","fips":"08093","name":"Park County","state_id":"CO"},{"zip":"80457","fips":"08059","name":"Jefferson County","state_id":"CO"},{"zip":"80459","fips":"08049","name":"Grand County","state_id":"CO"},{"zip":"80461","fips":"08065","name":"Lake County","state_id":"CO"},{"zip":"80463","fips":"08037","name":"Eagle County","state_id":"CO"},{"zip":"80463","fips":"08107","name":"Routt County","state_id":"CO"},{"zip":"80465","fips":"08059","name":"Jefferson County","state_id":"CO"},{"zip":"80466","fips":"08013","name":"Boulder County","state_id":"CO"},{"zip":"80467","fips":"08107","name":"Routt County","state_id":"CO"},{"zip":"80468","fips":"08049","name":"Grand County","state_id":"CO"},{"zip":"80469","fips":"08107","name":"Routt County","state_id":"CO"},{"zip":"80470","fips":"08093","name":"Park County","state_id":"CO"},{"zip":"80470","fips":"08059","name":"Jefferson County","state_id":"CO"},{"zip":"80471","fips":"08013","name":"Boulder County","state_id":"CO"},{"zip":"80473","fips":"08057","name":"Jackson County","state_id":"CO"},{"zip":"80474","fips":"08047","name":"Gilpin County","state_id":"CO"},{"zip":"80475","fips":"08093","name":"Park County","state_id":"CO"},{"zip":"80476","fips":"08019","name":"Clear Creek County","state_id":"CO"},{"zip":"80477","fips":"08107","name":"Routt County","state_id":"CO"},{"zip":"80478","fips":"08049","name":"Grand County","state_id":"CO"},{"zip":"80479","fips":"08107","name":"Routt County","state_id":"CO"},{"zip":"80480","fips":"08057","name":"Jackson County","state_id":"CO"},{"zip":"80481","fips":"08013","name":"Boulder County","state_id":"CO"},{"zip":"80482","fips":"08049","name":"Grand County","state_id":"CO"},{"zip":"80483","fips":"08107","name":"Routt County","state_id":"CO"},{"zip":"80487","fips":"08107","name":"Routt County","state_id":"CO"},{"zip":"80497","fips":"08117","name":"Summit County","state_id":"CO"},{"zip":"80498","fips":"08117","name":"Summit County","state_id":"CO"},{"zip":"80498","fips":"08037","name":"Eagle County","state_id":"CO"},{"zip":"80498","fips":"08049","name":"Grand County","state_id":"CO"}]
