[{"zip":"80601","fips":"08001","name":"Adams County","state_id":"CO"},{"zip":"80601","fips":"08123","name":"Weld County","state_id":"CO"},{"zip":"80602","fips":"08123","name":"Weld County","state_id":"CO"},{"zip":"80602","fips":"08001","name":"Adams County","state_id":"CO"},{"zip":"80603","fips":"08001","name":"Adams County","state_id":"CO"},{"zip":"80603","fips":"08123","name":"Weld County","state_id":"CO"},{"zip":"80610","fips":"08123","name":"Weld County","state_id":"CO"},{"zip":"80611","fips":"08123","name":"Weld County","state_id":"CO"},{"zip":"80612","fips":"08069","name":"Larimer County","state_id":"CO"},{"zip":"80612","fips":"08123","name":"Weld County","state_id":"CO"},{"zip":"80614","fips":"08001","name":"Adams County","state_id":"CO"},{"zip":"80615","fips":"08123","name":"Weld County","state_id":"CO"},{"zip":"80620","fips":"08123","name":"Weld County","state_id":"CO"},{"zip":"80621","fips":"08123","name":"Weld County","state_id":"CO"},{"zip":"80622","fips":"08123","name":"Weld County","state_id":"CO"},{"zip":"80623","fips":"08123","name":"Weld County","state_id":"CO"},{"zip":"80624","fips":"08123","name":"Weld County","state_id":"CO"},{"zip":"80631","fips":"08123","name":"Weld County","state_id":"CO"},{"zip":"80632","fips":"08123","name":"Weld County","state_id":"CO"},{"zip":"80633","fips":"08123","name":"Weld County","state_id":"CO"},{"zip":"80634","fips":"08123","name":"Weld County","state_id":"CO"},{"zip":"80638","fips":"08123","name":"Weld County","state_id":"CO"},{"zip":"80639","fips":"08123","name":"Weld County","state_id":"CO"},{"zip":"80640","fips":"08001","name":"Adams County","state_id":"CO"},{"zip":"80642","fips":"08001","name":"Adams County","state_id":"CO"},{"zip":"80642","fips":"08123","name":"Weld County","state_id":"CO"},{"zip":"80643","fips":"08123","name":"Weld County","state_id":"CO"},{"zip":"80643","fips":"08001","name":"Adams County","state_id":"CO"},{"zip":"80644","fips":"08123","name":"Weld County","state_id":"CO"},{"zip":"80645","fips":"08123","name":"Weld County","state_id":"CO"},{"zip":"80646","fips":"08123","name":"Weld County","state_id":"CO"},{"zip":"80648","fips":"08123","name":"Weld County","state_id":"CO"},{"zip":"80649","fips":"08123","name":"Weld County","state_id":"CO"},{"zip":"80649","fips":"08087","name":"Morgan County","state_id":"CO"},{"zip":"80650","fips":"08123","name":"Weld County","state_id":"CO"},{"zip":"80651","fips":"08123","name":"Weld County","state_id":"CO"},{"zip":"80652","fips":"08123","name":"Weld County","state_id":"CO"},{"zip":"80653","fips":"08087","name":"Morgan County","state_id":"CO"},{"zip":"80654","fips":"08087","name":"Morgan County","state_id":"CO"},{"zip":"80654","fips":"08123","name":"Weld County","state_id":"CO"},{"zip":"80654","fips":"08001","name":"Adams County","state_id":"CO"}]
