[{"zip":"80701","fips":"08087","name":"Morgan County","state_id":"CO"},{"zip":"80701","fips":"08001","name":"Adams County","state_id":"CO"},{"zip":"80705","fips":"08087","name":"Morgan County","state_id":"CO"},{"zip":"80720","fips":"08121","name":"Washington County","state_id":"CO"},{"zip":"80720","fips":"08075","name":"Logan County","state_id":"CO"},{"zip":"80721","fips":"08095","name":"Phillips County","state_id":"CO"},{"zip":"80721","fips":"08115","name":"Sedgwick County","state_id":"CO"},{"zip":"80722","fips":"08075","name":"Logan County","state_id":"CO"},{"zip":"80723","fips":"08121","name":"Washington County","state_id":"CO"},{"zip":"80723","fips":"08087","name":"Morgan County","state_id":"CO"},{"zip":"80726","fips":"08075","name":"Logan County","state_id":"CO"},{"zip":"80727","fips":"08125","name":"Yuma County","state_id":"CO"},{"zip":"80728","fips":"08075","name":"Logan County","state_id":"CO"},{"zip":"80729","fips":"08123","name":"Weld County","state_id":"CO"},{"zip":"80731","fips":"08115","name":"Sedgwick County","state_id":"CO"},{"zip":"80731","fips":"08075","name":"Logan County","state_id":"CO"},{"zip":"80731","fips":"08125","name":"Yuma County","state_id":"CO"},{"zip":"80731","fips":"08095","name":"Phillips County","state_id":"CO"},{"zip":"80732","fips":"08123","name":"Weld County","state_id":"CO"},{"zip":"80733","fips":"08121","name":"Washington County","state_id":"CO"},{"zip":"80733","fips":"08087","name":"Morgan County","state_id":"CO"},{"zip":"80734","fips":"08095","name":"Phillips County","state_id":"CO"},{"zip":"80734","fips":"08125","name":"Yuma County","state_id":"CO"},{"zip":"80735","fips":"08125","name":"Yuma County","state_id":"CO"},{"zip":"80736","fips":"08075","name":"Logan County","state_id":"CO"},{"zip":"80737","fips":"08115","name":"Sedgwick County","state_id":"CO"},{"zip":"80740","fips":"08121","name":"Washington County","state_id":"CO"},{"zip":"80741","fips":"08123","name":"Weld County","state_id":"CO"},{"zip":"80741","fips":"08121","name":"Washington County","state_id":"CO"},{"zip":"80741","fips":"08075","name":"Logan County","state_id":"CO"},{"zip":"80741","fips":"08087","name":"Morgan County","state_id":"CO"},{"zip":"80742","fips":"08123","name":"Weld County","state_id":"CO"},{"zip":"80742","fips":"08087","name":"Morgan County","state_id":"CO"},{"zip":"80743","fips":"08121","name":"Washington County","state_id":"CO"},{"zip":"80744","fips":"08115","name":"Sedgwick County","state_id":"CO"},{"zip":"80744","fips":"08095","name":"Phillips County","state_id":"CO"},{"zip":"80745","fips":"08075","name":"Logan County","state_id":"CO"},{"zip":"80745","fips":"08123","name":"Weld County","state_id":"CO"},{"zip":"80746","fips":"08095","name":"Phillips County","state_id":"CO"},{"zip":"80747","fips":"08075","name":"Logan County","state_id":"CO"},{"zip":"80749","fips":"08115","name":"Sedgwick County","state_id":"CO"},{"zip":"80750","fips":"08087","name":"Morgan County","state_id":"CO"},{"zip":"80751","fips":"08075","name":"Logan County","state_id":"CO"},{"zip":"80754","fips":"08123","name":"Weld County","state_id":"CO"},{"zip":"80754","fips":"08087","name":"Morgan County","state_id":"CO"},{"zip":"80755","fips":"08125","name":"Yuma County","state_id":"CO"},{"zip":"80757","fips":"08121","name":"Washington County","state_id":"CO"},{"zip":"80758","fips":"08125","name":"Yuma County","state_id":"CO"},{"zip":"80759","fips":"08121","name":"Washington County","state_id":"CO"},{"zip":"80759","fips":"08125","name":"Yuma County","state_id":"CO"}]
