[{"zip":"80801","fips":"08121","name":"Washington County","state_id":"CO"},{"zip":"80802","fips":"08017","name":"Cheyenne County","state_id":"CO"},{"zip":"80804","fips":"08073","name":"Lincoln County","state_id":"CO"},{"zip":"80805","fips":"08063","name":"Kit Carson County","state_id":"CO"},{"zip":"80807","fips":"08125","name":"Yuma County","state_id":"CO"},{"zip":"80807","fips":"08063","name":"Kit Carson County","state_id":"CO"},{"zip":"80808","fips":"08041","name":"El Paso County","state_id":"CO"},{"zip":"80808","fips":"08039","name":"Elbert County","state_id":"CO"},{"zip":"80809","fips":"08041","name":"El Paso County","state_id":"CO"},{"zip":"80810","fips":"08017","name":"Cheyenne County","state_id":"CO"},{"zip":"80812","fips":"08121","name":"Washington County","state_id":"CO"},{"zip":"80812","fips":"08125","name":"Yuma County","state_id":"CO"},{"zip":"80813","fips":"08119","name":"Teller County","state_id":"CO"},{"zip":"80814","fips":"08119","name":"Teller County","state_id":"CO"},{"zip":"80815","fips":"08073","name":"Lincoln County","state_id":"CO"},{"zip":"80815","fips":"08121","name":"Washington County","state_id":"CO"},{"zip":"80815","fips":"08063","name":"Kit Carson County","state_id":"CO"},{"zip":"80816","fips":"08093","name":"Park County","state_id":"CO"},{"zip":"80816","fips":"08119","name":"Teller County","state_id":"CO"},{"zip":"80817","fips":"08041","name":"El Paso County","state_id":"CO"},{"zip":"80817","fips":"08101","name":"Pueblo County","state_id":"CO"},{"zip":"80818","fips":"08073","name":"Lincoln County","state_id":"CO"},{"zip":"80818","fips":"08121","name":"Washington County","state_id":"CO"},{"zip":"80819","fips":"08119","name":"Teller County","state_id":"CO"},{"zip":"80819","fips":"08041","name":"El Paso County","state_id":"CO"},{"zip":"80820","fips":"08093","name":"Park County","state_id":"CO"},{"zip":"80821","fips":"08073","name":"Lincoln County","state_id":"CO"},{"zip":"80822","fips":"08125","name":"Yuma County","state_id":"CO"},{"zip":"80823","fips":"08073","name":"Lincoln County","state_id":"CO"},{"zip":"80824","fips":"08125","name":"Yuma County","state_id":"CO"},{"zip":"80825","fips":"08017","name":"Cheyenne County","state_id":"CO"},{"zip":"80826","fips":"08073","name":"Lincoln County","state_id":"CO"},{"zip":"80827","fips":"08119","name":"Teller County","state_id":"CO"},{"zip":"80827","fips":"08093","name":"Park County","state_id":"CO"},{"zip":"80828","fips":"08073","name":"Lincoln County","state_id":"CO"},{"zip":"80828","fips":"08039","name":"Elbert County","state_id":"CO"},{"zip":"80829","fips":"08041","name":"El Paso County","state_id":"CO"},{"zip":"80830","fips":"08039","name":"Elbert County","state_id":"CO"},{"zip":"80831","fips":"08041","name":"El Paso County","state_id":"CO"},{"zip":"80831","fips":"08039","name":"Elbert County","state_id":"CO"},{"zip":"80832","fips":"08073","name":"Lincoln County","state_id":"CO"},{"zip":"80832","fips":"08041","name":"El Paso County","state_id":"CO"},{"zip":"80832","fips":"08039","name":"Elbert County","state_id":"CO"},{"zip":"80833","fips":"08039","name":"Elbert County","state_id":"CO"},{"zip":"80833","fips":"08073","name":"Lincoln County","state_id":"CO"},{"zip":"80833","fips":"08041","name":"El Paso County","state_id":"CO"},{"zip":"80834","fips":"08063","name":"Kit Carson County","state_id":"CO"},{"zip":"80834","fips":"08121","name":"Washington County","state_id":"CO"},{"zip":"80835","fips":"08039","name":"Elbert County","state_id":"CO"},{"zip":"80835","fips":"08041","name":"El Paso County","state_id":"CO"},{"zip":"80836","fips":"08063","name":"Kit Carson County","state_id":"CO"},{"zip":"80840","fips":"08041","name":"El Paso County","state_id":"CO"},{"zip":"80841","fips":"08041","name":"El Paso County","state_id":"CO"},{"zip":"80860","fips":"08119","name":"Teller County","state_id":"CO"},{"zip":"80861","fips":"08125","name":"Yuma County","state_id":"CO"},{"zip":"80861","fips":"08063","name":"Kit Carson County","state_id":"CO"},{"zip":"80862","fips":"08017","name":"Cheyenne County","state_id":"CO"},{"zip":"80863","fips":"08119","name":"Teller County","state_id":"CO"},{"zip":"80863","fips":"08041","name":"El Paso County","state_id":"CO"},{"zip":"80864","fips":"08041","name":"El Paso County","state_id":"CO"},{"zip":"80866","fips":"08119","name":"Teller County","state_id":"CO"}]
