[{"zip":"80901","fips":"08041","name":"El Paso County","state_id":"CO"},{"zip":"80902","fips":"08041","name":"El Paso County","state_id":"CO"},{"zip":"80903","fips":"08041","name":"El Paso County","state_id":"CO"},{"zip":"80904","fips":"08041","name":"El Paso County","state_id":"CO"},{"zip":"80905","fips":"08041","name":"El Paso County","state_id":"CO"},{"zip":"80906","fips":"08119","name":"Teller County","state_id":"CO"},{"zip":"80906","fips":"08041","name":"El Paso County","state_id":"CO"},{"zip":"80907","fips":"08041","name":"El Paso County","state_id":"CO"},{"zip":"80908","fips":"08041","name":"El Paso County","state_id":"CO"},{"zip":"80909","fips":"08041","name":"El Paso County","state_id":"CO"},{"zip":"80910","fips":"08041","name":"El Paso County","state_id":"CO"},{"zip":"80911","fips":"08041","name":"El Paso County","state_id":"CO"},{"zip":"80912","fips":"08041","name":"El Paso County","state_id":"CO"},{"zip":"80913","fips":"08041","name":"El Paso County","state_id":"CO"},{"zip":"80914","fips":"08041","name":"El Paso County","state_id":"CO"},{"zip":"80915","fips":"08041","name":"El Paso County","state_id":"CO"},{"zip":"80916","fips":"08041","name":"El Paso County","state_id":"CO"},{"zip":"80917","fips":"08041","name":"El Paso County","state_id":"CO"},{"zip":"80918","fips":"08041","name":"El Paso County","state_id":"CO"},{"zip":"80919","fips":"08041","name":"El Paso County","state_id":"CO"},{"zip":"80920","fips":"08041","name":"El Paso County","state_id":"CO"},{"zip":"80921","fips":"08041","name":"El Paso County","state_id":"CO"},{"zip":"80922","fips":"08041","name":"El Paso County","state_id":"CO"},{"zip":"80923","fips":"08041","name":"El Paso County","state_id":"CO"},{"zip":"80924","fips":"08041","name":"El Paso County","state_id":"CO"},{"zip":"80925","fips":"08041","name":"El Paso County","state_id":"CO"},{"zip":"80926","fips":"08043","name":"Fremont County","state_id":"CO"},{"zip":"80926","fips":"08041","name":"El Paso County","state_id":"CO"},{"zip":"80927","fips":"08041","name":"El Paso County","state_id":"CO"},{"zip":"80928","fips":"08041","name":"El Paso County","state_id":"CO"},{"zip":"80929","fips":"08041","name":"El Paso County","state_id":"CO"},{"zip":"80930","fips":"08041","name":"El Paso County","state_id":"CO"},{"zip":"80931","fips":"08041","name":"El Paso County","state_id":"CO"},{"zip":"80932","fips":"08041","name":"El Paso County","state_id":"CO"},{"zip":"80933","fips":"08041","name":"El Paso County","state_id":"CO"},{"zip":"80934","fips":"08041","name":"El Paso County","state_id":"CO"},{"zip":"80935","fips":"08041","name":"El Paso County","state_id":"CO"},{"zip":"80936","fips":"08041","name":"El Paso County","state_id":"CO"},{"zip":"80937","fips":"08041","name":"El Paso County","state_id":"CO"},{"zip":"80938","fips":"08041","name":"El Paso County","state_id":"CO"},{"zip":"80939","fips":"08041","name":"El Paso County","state_id":"CO"},{"zip":"80941","fips":"08041","name":"El Paso County","state_id":"CO"},{"zip":"80942","fips":"08041","name":"El Paso County","state_id":"CO"},{"zip":"80946","fips":"08041","name":"El Paso County","state_id":"CO"},{"zip":"80947","fips":"08041","name":"El Paso County","state_id":"CO"},{"zip":"80949","fips":"08041","name":"El Paso County","state_id":"CO"},{"zip":"80950","fips":"08041","name":"El Paso County","state_id":"CO"},{"zip":"80951","fips":"08041","name":"El Paso County","state_id":"CO"},{"zip":"80960","fips":"08041","name":"El Paso County","state_id":"CO"},{"zip":"80962","fips":"08041","name":"El Paso County","state_id":"CO"},{"zip":"80970","fips":"08041","name":"El Paso County","state_id":"CO"},{"zip":"80977","fips":"08041","name":"El Paso County","state_id":"CO"},{"zip":"80997","fips":"08041","name":"El Paso County","state_id":"CO"}]
