[{"zip":"81001","fips":"08101","name":"Pueblo County","state_id":"CO"},{"zip":"81002","fips":"08101","name":"Pueblo County","state_id":"CO"},{"zip":"81003","fips":"08101","name":"Pueblo County","state_id":"CO"},{"zip":"81004","fips":"08101","name":"Pueblo County","state_id":"CO"},{"zip":"81005","fips":"08101","name":"Pueblo County","state_id":"CO"},{"zip":"81006","fips":"08101","name":"Pueblo County","state_id":"CO"},{"zip":"81007","fips":"08101","name":"Pueblo County","state_id":"CO"},{"zip":"81008","fips":"08041","name":"El Paso County","state_id":"CO"},{"zip":"81008","fips":"08101","name":"Pueblo County","state_id":"CO"},{"zip":"81009","fips":"08101","name":"Pueblo County","state_id":"CO"},{"zip":"81010","fips":"08101","name":"Pueblo County","state_id":"CO"},{"zip":"81011","fips":"08101","name":"Pueblo County","state_id":"CO"},{"zip":"81012","fips":"08101","name":"Pueblo County","state_id":"CO"},{"zip":"81019","fips":"08101","name":"Pueblo County","state_id":"CO"},{"zip":"81020","fips":"08071","name":"Las Animas County","state_id":"CO"},{"zip":"81021","fips":"08073","name":"Lincoln County","state_id":"CO"},{"zip":"81021","fips":"08061","name":"Kiowa County","state_id":"CO"},{"zip":"81022","fips":"08101","name":"Pueblo County","state_id":"CO"},{"zip":"81023","fips":"08101","name":"Pueblo County","state_id":"CO"},{"zip":"81024","fips":"08071","name":"Las Animas County","state_id":"CO"},{"zip":"81025","fips":"08101","name":"Pueblo County","state_id":"CO"},{"zip":"81027","fips":"08071","name":"Las Animas County","state_id":"CO"},{"zip":"81029","fips":"08009","name":"Baca County","state_id":"CO"},{"zip":"81030","fips":"08089","name":"Otero County","state_id":"CO"},{"zip":"81033","fips":"08025","name":"Crowley County","state_id":"CO"},{"zip":"81034","fips":"08025","name":"Crowley County","state_id":"CO"},{"zip":"81036","fips":"08017","name":"Cheyenne County","state_id":"CO"},{"zip":"81036","fips":"08061","name":"Kiowa County","state_id":"CO"},{"zip":"81039","fips":"08025","name":"Crowley County","state_id":"CO"},{"zip":"81039","fips":"08089","name":"Otero County","state_id":"CO"},{"zip":"81039","fips":"08101","name":"Pueblo County","state_id":"CO"},{"zip":"81039","fips":"08071","name":"Las Animas County","state_id":"CO"},{"zip":"81040","fips":"08055","name":"Huerfano County","state_id":"CO"},{"zip":"81041","fips":"08099","name":"Prowers County","state_id":"CO"},{"zip":"81041","fips":"08009","name":"Baca County","state_id":"CO"},{"zip":"81043","fips":"08099","name":"Prowers County","state_id":"CO"},{"zip":"81044","fips":"08011","name":"Bent County","state_id":"CO"},{"zip":"81045","fips":"08017","name":"Cheyenne County","state_id":"CO"},{"zip":"81045","fips":"08073","name":"Lincoln County","state_id":"CO"},{"zip":"81045","fips":"08061","name":"Kiowa County","state_id":"CO"},{"zip":"81046","fips":"08071","name":"Las Animas County","state_id":"CO"},{"zip":"81047","fips":"08099","name":"Prowers County","state_id":"CO"},{"zip":"81047","fips":"08061","name":"Kiowa County","state_id":"CO"},{"zip":"81047","fips":"08009","name":"Baca County","state_id":"CO"},{"zip":"81049","fips":"08071","name":"Las Animas County","state_id":"CO"},{"zip":"81050","fips":"08089","name":"Otero County","state_id":"CO"},{"zip":"81050","fips":"08011","name":"Bent County","state_id":"CO"},{"zip":"81052","fips":"08099","name":"Prowers County","state_id":"CO"},{"zip":"81052","fips":"08011","name":"Bent County","state_id":"CO"},{"zip":"81054","fips":"08011","name":"Bent County","state_id":"CO"},{"zip":"81054","fips":"08071","name":"Las Animas County","state_id":"CO"},{"zip":"81054","fips":"08009","name":"Baca County","state_id":"CO"},{"zip":"81055","fips":"08055","name":"Huerfano County","state_id":"CO"},{"zip":"81057","fips":"08011","name":"Bent County","state_id":"CO"},{"zip":"81058","fips":"08025","name":"Crowley County","state_id":"CO"},{"zip":"81058","fips":"08089","name":"Otero County","state_id":"CO"},{"zip":"81059","fips":"08089","name":"Otero County","state_id":"CO"},{"zip":"81059","fips":"08071","name":"Las Animas County","state_id":"CO"},{"zip":"81062","fips":"08025","name":"Crowley County","state_id":"CO"},{"zip":"81062","fips":"08101","name":"Pueblo County","state_id":"CO"},{"zip":"81063","fips":"08025","name":"Crowley County","state_id":"CO"},{"zip":"81063","fips":"08073","name":"Lincoln County","state_id":"CO"},{"zip":"81064","fips":"08071","name":"Las Animas County","state_id":"CO"},{"zip":"81064","fips":"08009","name":"Baca County","state_id":"CO"},{"zip":"81067","fips":"08089","name":"Otero County","state_id":"CO"},{"zip":"81069","fips":"08101","name":"Pueblo County","state_id":"CO"},{"zip":"81069","fips":"08027","name":"Custer County","state_id":"CO"},{"zip":"81069","fips":"08055","name":"Huerfano County","state_id":"CO"},{"zip":"81071","fips":"08061","name":"Kiowa County","state_id":"CO"},{"zip":"81073","fips":"08009","name":"Baca County","state_id":"CO"},{"zip":"81076","fips":"08025","name":"Crowley County","state_id":"CO"},{"zip":"81076","fips":"08073","name":"Lincoln County","state_id":"CO"},{"zip":"81077","fips":"08089","name":"Otero County","state_id":"CO"},{"zip":"81081","fips":"08071","name":"Las Animas County","state_id":"CO"},{"zip":"81082","fips":"08071","name":"Las Animas County","state_id":"CO"},{"zip":"81084","fips":"08009","name":"Baca County","state_id":"CO"},{"zip":"81087","fips":"08009","name":"Baca County","state_id":"CO"},{"zip":"81089","fips":"08055","name":"Huerfano County","state_id":"CO"},{"zip":"81089","fips":"08071","name":"Las Animas County","state_id":"CO"},{"zip":"81090","fips":"08009","name":"Baca County","state_id":"CO"},{"zip":"81090","fips":"08099","name":"Prowers County","state_id":"CO"},{"zip":"81091","fips":"08071","name":"Las Animas County","state_id":"CO"},{"zip":"81092","fips":"08099","name":"Prowers County","state_id":"CO"},{"zip":"81092","fips":"08061","name":"Kiowa County","state_id":"CO"},{"zip":"81092","fips":"08011","name":"Bent County","state_id":"CO"}]
