[{"zip":"81101","fips":"08003","name":"Alamosa County","state_id":"CO"},{"zip":"81101","fips":"08105","name":"Rio Grande County","state_id":"CO"},{"zip":"81101","fips":"08021","name":"Conejos County","state_id":"CO"},{"zip":"81102","fips":"08003","name":"Alamosa County","state_id":"CO"},{"zip":"81120","fips":"08021","name":"Conejos County","state_id":"CO"},{"zip":"81121","fips":"08007","name":"Archuleta County","state_id":"CO"},{"zip":"81122","fips":"08007","name":"Archuleta County","state_id":"CO"},{"zip":"81122","fips":"08067","name":"La Plata County","state_id":"CO"},{"zip":"81123","fips":"08023","name":"Costilla County","state_id":"CO"},{"zip":"81123","fips":"08003","name":"Alamosa County","state_id":"CO"},{"zip":"81124","fips":"08021","name":"Conejos County","state_id":"CO"},{"zip":"81125","fips":"08109","name":"Saguache County","state_id":"CO"},{"zip":"81125","fips":"08003","name":"Alamosa County","state_id":"CO"},{"zip":"81125","fips":"08105","name":"Rio Grande County","state_id":"CO"},{"zip":"81126","fips":"08023","name":"Costilla County","state_id":"CO"},{"zip":"81128","fips":"08007","name":"Archuleta County","state_id":"CO"},{"zip":"81129","fips":"08021","name":"Conejos County","state_id":"CO"},{"zip":"81130","fips":"08053","name":"Hinsdale County","state_id":"CO"},{"zip":"81130","fips":"08079","name":"Mineral County","state_id":"CO"},{"zip":"81131","fips":"08109","name":"Saguache County","state_id":"CO"},{"zip":"81132","fips":"08109","name":"Saguache County","state_id":"CO"},{"zip":"81132","fips":"08105","name":"Rio Grande County","state_id":"CO"},{"zip":"81133","fips":"08023","name":"Costilla County","state_id":"CO"},{"zip":"81135","fips":"08105","name":"Rio Grande County","state_id":"CO"},{"zip":"81136","fips":"08109","name":"Saguache County","state_id":"CO"},{"zip":"81136","fips":"08003","name":"Alamosa County","state_id":"CO"},{"zip":"81137","fips":"08007","name":"Archuleta County","state_id":"CO"},{"zip":"81137","fips":"08067","name":"La Plata County","state_id":"CO"},{"zip":"81138","fips":"08023","name":"Costilla County","state_id":"CO"},{"zip":"81140","fips":"08021","name":"Conejos County","state_id":"CO"},{"zip":"81140","fips":"08105","name":"Rio Grande County","state_id":"CO"},{"zip":"81141","fips":"08021","name":"Conejos County","state_id":"CO"},{"zip":"81143","fips":"08109","name":"Saguache County","state_id":"CO"},{"zip":"81144","fips":"08105","name":"Rio Grande County","state_id":"CO"},{"zip":"81144","fips":"08003","name":"Alamosa County","state_id":"CO"},{"zip":"81146","fips":"08003","name":"Alamosa County","state_id":"CO"},{"zip":"81147","fips":"08053","name":"Hinsdale County","state_id":"CO"},{"zip":"81147","fips":"08007","name":"Archuleta County","state_id":"CO"},{"zip":"81148","fips":"08021","name":"Conejos County","state_id":"CO"},{"zip":"81149","fips":"08109","name":"Saguache County","state_id":"CO"},{"zip":"81151","fips":"08021","name":"Conejos County","state_id":"CO"},{"zip":"81151","fips":"08023","name":"Costilla County","state_id":"CO"},{"zip":"81152","fips":"08023","name":"Costilla County","state_id":"CO"},{"zip":"81154","fips":"08105","name":"Rio Grande County","state_id":"CO"},{"zip":"81154","fips":"08079","name":"Mineral County","state_id":"CO"},{"zip":"81155","fips":"08109","name":"Saguache County","state_id":"CO"},{"zip":"81157","fips":"08007","name":"Archuleta County","state_id":"CO"}]
