[{"zip":"81201","fips":"08015","name":"Chaffee County","state_id":"CO"},{"zip":"81201","fips":"08043","name":"Fremont County","state_id":"CO"},{"zip":"81210","fips":"08051","name":"Gunnison County","state_id":"CO"},{"zip":"81211","fips":"08015","name":"Chaffee County","state_id":"CO"},{"zip":"81212","fips":"08043","name":"Fremont County","state_id":"CO"},{"zip":"81215","fips":"08043","name":"Fremont County","state_id":"CO"},{"zip":"81220","fips":"08051","name":"Gunnison County","state_id":"CO"},{"zip":"81220","fips":"08085","name":"Montrose County","state_id":"CO"},{"zip":"81221","fips":"08043","name":"Fremont County","state_id":"CO"},{"zip":"81222","fips":"08043","name":"Fremont County","state_id":"CO"},{"zip":"81223","fips":"08027","name":"Custer County","state_id":"CO"},{"zip":"81223","fips":"08043","name":"Fremont County","state_id":"CO"},{"zip":"81224","fips":"08051","name":"Gunnison County","state_id":"CO"},{"zip":"81225","fips":"08051","name":"Gunnison County","state_id":"CO"},{"zip":"81226","fips":"08027","name":"Custer County","state_id":"CO"},{"zip":"81226","fips":"08043","name":"Fremont County","state_id":"CO"},{"zip":"81227","fips":"08015","name":"Chaffee County","state_id":"CO"},{"zip":"81228","fips":"08065","name":"Lake County","state_id":"CO"},{"zip":"81228","fips":"08015","name":"Chaffee County","state_id":"CO"},{"zip":"81230","fips":"08109","name":"Saguache County","state_id":"CO"},{"zip":"81230","fips":"08051","name":"Gunnison County","state_id":"CO"},{"zip":"81231","fips":"08051","name":"Gunnison County","state_id":"CO"},{"zip":"81232","fips":"08043","name":"Fremont County","state_id":"CO"},{"zip":"81233","fips":"08043","name":"Fremont County","state_id":"CO"},{"zip":"81235","fips":"08053","name":"Hinsdale County","state_id":"CO"},{"zip":"81236","fips":"08015","name":"Chaffee County","state_id":"CO"},{"zip":"81237","fips":"08051","name":"Gunnison County","state_id":"CO"},{"zip":"81239","fips":"08051","name":"Gunnison County","state_id":"CO"},{"zip":"81240","fips":"08043","name":"Fremont County","state_id":"CO"},{"zip":"81241","fips":"08051","name":"Gunnison County","state_id":"CO"},{"zip":"81242","fips":"08015","name":"Chaffee County","state_id":"CO"},{"zip":"81243","fips":"08051","name":"Gunnison County","state_id":"CO"},{"zip":"81244","fips":"08043","name":"Fremont County","state_id":"CO"},{"zip":"81248","fips":"08109","name":"Saguache County","state_id":"CO"},{"zip":"81251","fips":"08065","name":"Lake County","state_id":"CO"},{"zip":"81252","fips":"08043","name":"Fremont County","state_id":"CO"},{"zip":"81252","fips":"08027","name":"Custer County","state_id":"CO"},{"zip":"81253","fips":"08027","name":"Custer County","state_id":"CO"},{"zip":"81253","fips":"08043","name":"Fremont County","state_id":"CO"},{"zip":"81253","fips":"08101","name":"Pueblo County","state_id":"CO"},{"zip":"81290","fips":"08043","name":"Fremont County","state_id":"CO"}]
