[{"zip":"81301","fips":"08111","name":"San Juan County","state_id":"CO"},{"zip":"81301","fips":"08067","name":"La Plata County","state_id":"CO"},{"zip":"81302","fips":"08067","name":"La Plata County","state_id":"CO"},{"zip":"81303","fips":"08067","name":"La Plata County","state_id":"CO"},{"zip":"81320","fips":"08033","name":"Dolores County","state_id":"CO"},{"zip":"81320","fips":"08083","name":"Montezuma County","state_id":"CO"},{"zip":"81321","fips":"08083","name":"Montezuma County","state_id":"CO"},{"zip":"81323","fips":"08083","name":"Montezuma County","state_id":"CO"},{"zip":"81324","fips":"08033","name":"Dolores County","state_id":"CO"},{"zip":"81324","fips":"08113","name":"San Miguel County","state_id":"CO"},{"zip":"81325","fips":"08113","name":"San Miguel County","state_id":"CO"},{"zip":"81326","fips":"08067","name":"La Plata County","state_id":"CO"},{"zip":"81327","fips":"08083","name":"Montezuma County","state_id":"CO"},{"zip":"81328","fips":"08083","name":"Montezuma County","state_id":"CO"},{"zip":"81328","fips":"08067","name":"La Plata County","state_id":"CO"},{"zip":"81329","fips":"08067","name":"La Plata County","state_id":"CO"},{"zip":"81330","fips":"08083","name":"Montezuma County","state_id":"CO"},{"zip":"81331","fips":"08033","name":"Dolores County","state_id":"CO"},{"zip":"81331","fips":"08083","name":"Montezuma County","state_id":"CO"},{"zip":"81332","fips":"08033","name":"Dolores County","state_id":"CO"},{"zip":"81334","fips":"08083","name":"Montezuma County","state_id":"CO"},{"zip":"81335","fips":"08083","name":"Montezuma County","state_id":"CO"}]
