[{"zip":"81401","fips":"08085","name":"Montrose County","state_id":"CO"},{"zip":"81402","fips":"08085","name":"Montrose County","state_id":"CO"},{"zip":"81403","fips":"08091","name":"Ouray County","state_id":"CO"},{"zip":"81403","fips":"08085","name":"Montrose County","state_id":"CO"},{"zip":"81410","fips":"08029","name":"Delta County","state_id":"CO"},{"zip":"81411","fips":"08085","name":"Montrose County","state_id":"CO"},{"zip":"81413","fips":"08029","name":"Delta County","state_id":"CO"},{"zip":"81414","fips":"08029","name":"Delta County","state_id":"CO"},{"zip":"81415","fips":"08029","name":"Delta County","state_id":"CO"},{"zip":"81415","fips":"08085","name":"Montrose County","state_id":"CO"},{"zip":"81416","fips":"08085","name":"Montrose County","state_id":"CO"},{"zip":"81416","fips":"08029","name":"Delta County","state_id":"CO"},{"zip":"81418","fips":"08029","name":"Delta County","state_id":"CO"},{"zip":"81419","fips":"08029","name":"Delta County","state_id":"CO"},{"zip":"81420","fips":"08029","name":"Delta County","state_id":"CO"},{"zip":"81422","fips":"08085","name":"Montrose County","state_id":"CO"},{"zip":"81423","fips":"08113","name":"San Miguel County","state_id":"CO"},{"zip":"81423","fips":"08085","name":"Montrose County","state_id":"CO"},{"zip":"81424","fips":"08085","name":"Montrose County","state_id":"CO"},{"zip":"81425","fips":"08085","name":"Montrose County","state_id":"CO"},{"zip":"81426","fips":"08113","name":"San Miguel County","state_id":"CO"},{"zip":"81427","fips":"08091","name":"Ouray County","state_id":"CO"},{"zip":"81428","fips":"08051","name":"Gunnison County","state_id":"CO"},{"zip":"81428","fips":"08029","name":"Delta County","state_id":"CO"},{"zip":"81429","fips":"08085","name":"Montrose County","state_id":"CO"},{"zip":"81430","fips":"08113","name":"San Miguel County","state_id":"CO"},{"zip":"81431","fips":"08085","name":"Montrose County","state_id":"CO"},{"zip":"81432","fips":"08091","name":"Ouray County","state_id":"CO"},{"zip":"81433","fips":"08111","name":"San Juan County","state_id":"CO"},{"zip":"81434","fips":"08029","name":"Delta County","state_id":"CO"},{"zip":"81434","fips":"08051","name":"Gunnison County","state_id":"CO"},{"zip":"81435","fips":"08113","name":"San Miguel County","state_id":"CO"}]
