[{"zip":"81501","fips":"08077","name":"Mesa County","state_id":"CO"},{"zip":"81502","fips":"08077","name":"Mesa County","state_id":"CO"},{"zip":"81503","fips":"08077","name":"Mesa County","state_id":"CO"},{"zip":"81504","fips":"08077","name":"Mesa County","state_id":"CO"},{"zip":"81505","fips":"08077","name":"Mesa County","state_id":"CO"},{"zip":"81506","fips":"08077","name":"Mesa County","state_id":"CO"},{"zip":"81507","fips":"08077","name":"Mesa County","state_id":"CO"},{"zip":"81520","fips":"08077","name":"Mesa County","state_id":"CO"},{"zip":"81521","fips":"08077","name":"Mesa County","state_id":"CO"},{"zip":"81522","fips":"08077","name":"Mesa County","state_id":"CO"},{"zip":"81523","fips":"08077","name":"Mesa County","state_id":"CO"},{"zip":"81524","fips":"08077","name":"Mesa County","state_id":"CO"},{"zip":"81525","fips":"08077","name":"Mesa County","state_id":"CO"},{"zip":"81526","fips":"08077","name":"Mesa County","state_id":"CO"},{"zip":"81527","fips":"08077","name":"Mesa County","state_id":"CO"}]
