[{"zip":"81601","fips":"08045","name":"Garfield County","state_id":"CO"},{"zip":"81602","fips":"08045","name":"Garfield County","state_id":"CO"},{"zip":"81610","fips":"08081","name":"Moffat County","state_id":"CO"},{"zip":"81611","fips":"08097","name":"Pitkin County","state_id":"CO"},{"zip":"81612","fips":"08097","name":"Pitkin County","state_id":"CO"},{"zip":"81615","fips":"08097","name":"Pitkin County","state_id":"CO"},{"zip":"81620","fips":"08037","name":"Eagle County","state_id":"CO"},{"zip":"81621","fips":"08037","name":"Eagle County","state_id":"CO"},{"zip":"81621","fips":"08097","name":"Pitkin County","state_id":"CO"},{"zip":"81623","fips":"08045","name":"Garfield County","state_id":"CO"},{"zip":"81623","fips":"08037","name":"Eagle County","state_id":"CO"},{"zip":"81623","fips":"08051","name":"Gunnison County","state_id":"CO"},{"zip":"81623","fips":"08097","name":"Pitkin County","state_id":"CO"},{"zip":"81624","fips":"08077","name":"Mesa County","state_id":"CO"},{"zip":"81625","fips":"08081","name":"Moffat County","state_id":"CO"},{"zip":"81625","fips":"08107","name":"Routt County","state_id":"CO"},{"zip":"81630","fips":"08045","name":"Garfield County","state_id":"CO"},{"zip":"81630","fips":"08077","name":"Mesa County","state_id":"CO"},{"zip":"81631","fips":"08037","name":"Eagle County","state_id":"CO"},{"zip":"81632","fips":"08037","name":"Eagle County","state_id":"CO"},{"zip":"81633","fips":"08081","name":"Moffat County","state_id":"CO"},{"zip":"81635","fips":"08077","name":"Mesa County","state_id":"CO"},{"zip":"81635","fips":"08045","name":"Garfield County","state_id":"CO"},{"zip":"81637","fips":"08045","name":"Garfield County","state_id":"CO"},{"zip":"81637","fips":"08037","name":"Eagle County","state_id":"CO"},{"zip":"81638","fips":"08103","name":"Rio Blanco County","state_id":"CO"},{"zip":"81638","fips":"08107","name":"Routt County","state_id":"CO"},{"zip":"81638","fips":"08081","name":"Moffat County","state_id":"CO"},{"zip":"81639","fips":"08107","name":"Routt County","state_id":"CO"},{"zip":"81640","fips":"08081","name":"Moffat County","state_id":"CO"},{"zip":"81641","fips":"08081","name":"Moffat County","state_id":"CO"},{"zip":"81641","fips":"08103","name":"Rio Blanco County","state_id":"CO"},{"zip":"81641","fips":"08045","name":"Garfield County","state_id":"CO"},{"zip":"81642","fips":"08037","name":"Eagle County","state_id":"CO"},{"zip":"81642","fips":"08097","name":"Pitkin County","state_id":"CO"},{"zip":"81643","fips":"08077","name":"Mesa County","state_id":"CO"},{"zip":"81645","fips":"08037","name":"Eagle County","state_id":"CO"},{"zip":"81646","fips":"08077","name":"Mesa County","state_id":"CO"},{"zip":"81647","fips":"08045","name":"Garfield County","state_id":"CO"},{"zip":"81648","fips":"08103","name":"Rio Blanco County","state_id":"CO"},{"zip":"81649","fips":"08037","name":"Eagle County","state_id":"CO"},{"zip":"81650","fips":"08045","name":"Garfield County","state_id":"CO"},{"zip":"81650","fips":"08103","name":"Rio Blanco County","state_id":"CO"},{"zip":"81652","fips":"08045","name":"Garfield County","state_id":"CO"},{"zip":"81653","fips":"08081","name":"Moffat County","state_id":"CO"},{"zip":"81654","fips":"08097","name":"Pitkin County","state_id":"CO"},{"zip":"81655","fips":"08037","name":"Eagle County","state_id":"CO"},{"zip":"81656","fips":"08097","name":"Pitkin County","state_id":"CO"},{"zip":"81657","fips":"08037","name":"Eagle County","state_id":"CO"},{"zip":"81658","fips":"08037","name":"Eagle County","state_id":"CO"}]
