[{"zip":"82201","fips":"56001","name":"Albany County","state_id":"WY"},{"zip":"82201","fips":"56031","name":"Platte County","state_id":"WY"},{"zip":"82201","fips":"56015","name":"Goshen County","state_id":"WY"},{"zip":"82210","fips":"56031","name":"Platte County","state_id":"WY"},{"zip":"82210","fips":"56015","name":"Goshen County","state_id":"WY"},{"zip":"82212","fips":"56015","name":"Goshen County","state_id":"WY"},{"zip":"82213","fips":"56031","name":"Platte County","state_id":"WY"},{"zip":"82214","fips":"56031","name":"Platte County","state_id":"WY"},{"zip":"82215","fips":"56031","name":"Platte County","state_id":"WY"},{"zip":"82217","fips":"56015","name":"Goshen County","state_id":"WY"},{"zip":"82218","fips":"56015","name":"Goshen County","state_id":"WY"},{"zip":"82219","fips":"56015","name":"Goshen County","state_id":"WY"},{"zip":"82221","fips":"56015","name":"Goshen County","state_id":"WY"},{"zip":"82222","fips":"56027","name":"Niobrara County","state_id":"WY"},{"zip":"82223","fips":"56015","name":"Goshen County","state_id":"WY"},{"zip":"82224","fips":"56009","name":"Converse County","state_id":"WY"},{"zip":"82224","fips":"56027","name":"Niobrara County","state_id":"WY"},{"zip":"82225","fips":"56015","name":"Goshen County","state_id":"WY"},{"zip":"82225","fips":"56027","name":"Niobrara County","state_id":"WY"},{"zip":"82227","fips":"56027","name":"Niobrara County","state_id":"WY"},{"zip":"82229","fips":"56009","name":"Converse County","state_id":"WY"},{"zip":"82240","fips":"56015","name":"Goshen County","state_id":"WY"},{"zip":"82242","fips":"56015","name":"Goshen County","state_id":"WY"},{"zip":"82242","fips":"56027","name":"Niobrara County","state_id":"WY"},{"zip":"82243","fips":"56015","name":"Goshen County","state_id":"WY"},{"zip":"82244","fips":"56015","name":"Goshen County","state_id":"WY"}]
