[{"zip":"82301","fips":"56007","name":"Carbon County","state_id":"WY"},{"zip":"82301","fips":"56013","name":"Fremont County","state_id":"WY"},{"zip":"82310","fips":"56013","name":"Fremont County","state_id":"WY"},{"zip":"82321","fips":"56007","name":"Carbon County","state_id":"WY"},{"zip":"82322","fips":"56037","name":"Sweetwater County","state_id":"WY"},{"zip":"82323","fips":"56007","name":"Carbon County","state_id":"WY"},{"zip":"82324","fips":"56007","name":"Carbon County","state_id":"WY"},{"zip":"82325","fips":"56007","name":"Carbon County","state_id":"WY"},{"zip":"82327","fips":"56007","name":"Carbon County","state_id":"WY"},{"zip":"82329","fips":"56007","name":"Carbon County","state_id":"WY"},{"zip":"82329","fips":"56001","name":"Albany County","state_id":"WY"},{"zip":"82331","fips":"56007","name":"Carbon County","state_id":"WY"},{"zip":"82332","fips":"56007","name":"Carbon County","state_id":"WY"},{"zip":"82334","fips":"56007","name":"Carbon County","state_id":"WY"},{"zip":"82335","fips":"56007","name":"Carbon County","state_id":"WY"},{"zip":"82336","fips":"56037","name":"Sweetwater County","state_id":"WY"}]
