[{"zip":"82401","fips":"56017","name":"Hot Springs County","state_id":"WY"},{"zip":"82401","fips":"56043","name":"Washakie County","state_id":"WY"},{"zip":"82401","fips":"56003","name":"Big Horn County","state_id":"WY"},{"zip":"82410","fips":"56003","name":"Big Horn County","state_id":"WY"},{"zip":"82411","fips":"56003","name":"Big Horn County","state_id":"WY"},{"zip":"82411","fips":"56029","name":"Park County","state_id":"WY"},{"zip":"82412","fips":"56003","name":"Big Horn County","state_id":"WY"},{"zip":"82414","fips":"56029","name":"Park County","state_id":"WY"},{"zip":"82420","fips":"56003","name":"Big Horn County","state_id":"WY"},{"zip":"82421","fips":"56029","name":"Park County","state_id":"WY"},{"zip":"82421","fips":"56003","name":"Big Horn County","state_id":"WY"},{"zip":"82422","fips":"56003","name":"Big Horn County","state_id":"WY"},{"zip":"82423","fips":"56003","name":"Big Horn County","state_id":"WY"},{"zip":"82426","fips":"56003","name":"Big Horn County","state_id":"WY"},{"zip":"82428","fips":"56003","name":"Big Horn County","state_id":"WY"},{"zip":"82430","fips":"56017","name":"Hot Springs County","state_id":"WY"},{"zip":"82431","fips":"56003","name":"Big Horn County","state_id":"WY"},{"zip":"82432","fips":"56003","name":"Big Horn County","state_id":"WY"},{"zip":"82433","fips":"56029","name":"Park County","state_id":"WY"},{"zip":"82434","fips":"56003","name":"Big Horn County","state_id":"WY"},{"zip":"82435","fips":"56003","name":"Big Horn County","state_id":"WY"},{"zip":"82435","fips":"56029","name":"Park County","state_id":"WY"},{"zip":"82440","fips":"56029","name":"Park County","state_id":"WY"},{"zip":"82441","fips":"56003","name":"Big Horn County","state_id":"WY"},{"zip":"82442","fips":"56003","name":"Big Horn County","state_id":"WY"},{"zip":"82442","fips":"56043","name":"Washakie County","state_id":"WY"},{"zip":"82443","fips":"56017","name":"Hot Springs County","state_id":"WY"},{"zip":"82450","fips":"56029","name":"Park County","state_id":"WY"}]
