[{"zip":"82601","fips":"56025","name":"Natrona County","state_id":"WY"},{"zip":"82602","fips":"56025","name":"Natrona County","state_id":"WY"},{"zip":"82604","fips":"56025","name":"Natrona County","state_id":"WY"},{"zip":"82604","fips":"56007","name":"Carbon County","state_id":"WY"},{"zip":"82605","fips":"56025","name":"Natrona County","state_id":"WY"},{"zip":"82609","fips":"56025","name":"Natrona County","state_id":"WY"},{"zip":"82615","fips":"56007","name":"Carbon County","state_id":"WY"},{"zip":"82620","fips":"56025","name":"Natrona County","state_id":"WY"},{"zip":"82630","fips":"56025","name":"Natrona County","state_id":"WY"},{"zip":"82633","fips":"56009","name":"Converse County","state_id":"WY"},{"zip":"82635","fips":"56025","name":"Natrona County","state_id":"WY"},{"zip":"82636","fips":"56009","name":"Converse County","state_id":"WY"},{"zip":"82636","fips":"56025","name":"Natrona County","state_id":"WY"},{"zip":"82637","fips":"56009","name":"Converse County","state_id":"WY"},{"zip":"82638","fips":"56025","name":"Natrona County","state_id":"WY"},{"zip":"82639","fips":"56025","name":"Natrona County","state_id":"WY"},{"zip":"82639","fips":"56019","name":"Johnson County","state_id":"WY"},{"zip":"82640","fips":"56019","name":"Johnson County","state_id":"WY"},{"zip":"82642","fips":"56013","name":"Fremont County","state_id":"WY"},{"zip":"82643","fips":"56025","name":"Natrona County","state_id":"WY"},{"zip":"82644","fips":"56025","name":"Natrona County","state_id":"WY"},{"zip":"82646","fips":"56025","name":"Natrona County","state_id":"WY"},{"zip":"82648","fips":"56025","name":"Natrona County","state_id":"WY"},{"zip":"82649","fips":"56013","name":"Fremont County","state_id":"WY"}]
