[{"zip":"82701","fips":"56027","name":"Niobrara County","state_id":"WY"},{"zip":"82701","fips":"56045","name":"Weston County","state_id":"WY"},{"zip":"82710","fips":"56011","name":"Crook County","state_id":"WY"},{"zip":"82711","fips":"56011","name":"Crook County","state_id":"WY"},{"zip":"82712","fips":"56011","name":"Crook County","state_id":"WY"},{"zip":"82714","fips":"56011","name":"Crook County","state_id":"WY"},{"zip":"82715","fips":"56045","name":"Weston County","state_id":"WY"},{"zip":"82716","fips":"56005","name":"Campbell County","state_id":"WY"},{"zip":"82718","fips":"56005","name":"Campbell County","state_id":"WY"},{"zip":"82720","fips":"56011","name":"Crook County","state_id":"WY"},{"zip":"82721","fips":"56011","name":"Crook County","state_id":"WY"},{"zip":"82721","fips":"56005","name":"Campbell County","state_id":"WY"},{"zip":"82723","fips":"56045","name":"Weston County","state_id":"WY"},{"zip":"82725","fips":"56005","name":"Campbell County","state_id":"WY"},{"zip":"82727","fips":"56005","name":"Campbell County","state_id":"WY"},{"zip":"82729","fips":"56045","name":"Weston County","state_id":"WY"},{"zip":"82729","fips":"56011","name":"Crook County","state_id":"WY"},{"zip":"82730","fips":"56011","name":"Crook County","state_id":"WY"},{"zip":"82730","fips":"56045","name":"Weston County","state_id":"WY"},{"zip":"82731","fips":"56005","name":"Campbell County","state_id":"WY"},{"zip":"82732","fips":"56005","name":"Campbell County","state_id":"WY"}]
