[{"zip":"82801","fips":"56033","name":"Sheridan County","state_id":"WY"},{"zip":"82831","fips":"56005","name":"Campbell County","state_id":"WY"},{"zip":"82831","fips":"56019","name":"Johnson County","state_id":"WY"},{"zip":"82831","fips":"56033","name":"Sheridan County","state_id":"WY"},{"zip":"82832","fips":"56033","name":"Sheridan County","state_id":"WY"},{"zip":"82832","fips":"56019","name":"Johnson County","state_id":"WY"},{"zip":"82833","fips":"56033","name":"Sheridan County","state_id":"WY"},{"zip":"82834","fips":"56019","name":"Johnson County","state_id":"WY"},{"zip":"82835","fips":"56019","name":"Johnson County","state_id":"WY"},{"zip":"82835","fips":"56033","name":"Sheridan County","state_id":"WY"},{"zip":"82836","fips":"56033","name":"Sheridan County","state_id":"WY"},{"zip":"82837","fips":"56033","name":"Sheridan County","state_id":"WY"},{"zip":"82838","fips":"56033","name":"Sheridan County","state_id":"WY"},{"zip":"82839","fips":"56033","name":"Sheridan County","state_id":"WY"},{"zip":"82840","fips":"56019","name":"Johnson County","state_id":"WY"},{"zip":"82842","fips":"56033","name":"Sheridan County","state_id":"WY"},{"zip":"82844","fips":"56033","name":"Sheridan County","state_id":"WY"},{"zip":"82845","fips":"56033","name":"Sheridan County","state_id":"WY"}]
