[{"zip":"82901","fips":"56037","name":"Sweetwater County","state_id":"WY"},{"zip":"82902","fips":"56037","name":"Sweetwater County","state_id":"WY"},{"zip":"82922","fips":"56035","name":"Sublette County","state_id":"WY"},{"zip":"82923","fips":"56035","name":"Sublette County","state_id":"WY"},{"zip":"82925","fips":"56035","name":"Sublette County","state_id":"WY"},{"zip":"82929","fips":"56037","name":"Sweetwater County","state_id":"WY"},{"zip":"82930","fips":"56041","name":"Uinta County","state_id":"WY"},{"zip":"82931","fips":"56041","name":"Uinta County","state_id":"WY"},{"zip":"82932","fips":"56037","name":"Sweetwater County","state_id":"WY"},{"zip":"82933","fips":"56041","name":"Uinta County","state_id":"WY"},{"zip":"82934","fips":"56037","name":"Sweetwater County","state_id":"WY"},{"zip":"82935","fips":"56037","name":"Sweetwater County","state_id":"WY"},{"zip":"82936","fips":"56041","name":"Uinta County","state_id":"WY"},{"zip":"82937","fips":"56041","name":"Uinta County","state_id":"WY"},{"zip":"82939","fips":"56041","name":"Uinta County","state_id":"WY"},{"zip":"82941","fips":"56035","name":"Sublette County","state_id":"WY"},{"zip":"82942","fips":"56037","name":"Sweetwater County","state_id":"WY"},{"zip":"82943","fips":"56037","name":"Sweetwater County","state_id":"WY"},{"zip":"82944","fips":"56041","name":"Uinta County","state_id":"WY"},{"zip":"82945","fips":"56037","name":"Sweetwater County","state_id":"WY"}]
