[{"zip":"83201","fips":"16005","name":"Bannock County","state_id":"ID"},{"zip":"83202","fips":"16011","name":"Bingham County","state_id":"ID"},{"zip":"83202","fips":"16005","name":"Bannock County","state_id":"ID"},{"zip":"83203","fips":"16011","name":"Bingham County","state_id":"ID"},{"zip":"83204","fips":"16005","name":"Bannock County","state_id":"ID"},{"zip":"83204","fips":"16077","name":"Power County","state_id":"ID"},{"zip":"83205","fips":"16005","name":"Bannock County","state_id":"ID"},{"zip":"83206","fips":"16005","name":"Bannock County","state_id":"ID"},{"zip":"83209","fips":"16005","name":"Bannock County","state_id":"ID"},{"zip":"83210","fips":"16011","name":"Bingham County","state_id":"ID"},{"zip":"83211","fips":"16077","name":"Power County","state_id":"ID"},{"zip":"83211","fips":"16031","name":"Cassia County","state_id":"ID"},{"zip":"83211","fips":"16011","name":"Bingham County","state_id":"ID"},{"zip":"83212","fips":"16077","name":"Power County","state_id":"ID"},{"zip":"83213","fips":"16023","name":"Butte County","state_id":"ID"},{"zip":"83214","fips":"16005","name":"Bannock County","state_id":"ID"},{"zip":"83215","fips":"16011","name":"Bingham County","state_id":"ID"},{"zip":"83217","fips":"16029","name":"Caribou County","state_id":"ID"},{"zip":"83218","fips":"16011","name":"Bingham County","state_id":"ID"},{"zip":"83220","fips":"16007","name":"Bear Lake County","state_id":"ID"},{"zip":"83221","fips":"16011","name":"Bingham County","state_id":"ID"},{"zip":"83223","fips":"16007","name":"Bear Lake County","state_id":"ID"},{"zip":"83226","fips":"16059","name":"Lemhi County","state_id":"ID"},{"zip":"83226","fips":"16037","name":"Custer County","state_id":"ID"},{"zip":"83227","fips":"16037","name":"Custer County","state_id":"ID"},{"zip":"83228","fips":"16041","name":"Franklin County","state_id":"ID"},{"zip":"83229","fips":"16059","name":"Lemhi County","state_id":"ID"},{"zip":"83232","fips":"16041","name":"Franklin County","state_id":"ID"},{"zip":"83233","fips":"16007","name":"Bear Lake County","state_id":"ID"},{"zip":"83234","fips":"16005","name":"Bannock County","state_id":"ID"},{"zip":"83235","fips":"16037","name":"Custer County","state_id":"ID"},{"zip":"83235","fips":"16059","name":"Lemhi County","state_id":"ID"},{"zip":"83236","fips":"16011","name":"Bingham County","state_id":"ID"},{"zip":"83237","fips":"16041","name":"Franklin County","state_id":"ID"},{"zip":"83238","fips":"16007","name":"Bear Lake County","state_id":"ID"},{"zip":"83239","fips":"16007","name":"Bear Lake County","state_id":"ID"},{"zip":"83241","fips":"16029","name":"Caribou County","state_id":"ID"},{"zip":"83241","fips":"16041","name":"Franklin County","state_id":"ID"},{"zip":"83243","fips":"16071","name":"Oneida County","state_id":"ID"},{"zip":"83244","fips":"16023","name":"Butte County","state_id":"ID"},{"zip":"83245","fips":"16005","name":"Bannock County","state_id":"ID"},{"zip":"83246","fips":"16005","name":"Bannock County","state_id":"ID"},{"zip":"83250","fips":"16005","name":"Bannock County","state_id":"ID"},{"zip":"83251","fips":"16037","name":"Custer County","state_id":"ID"},{"zip":"83252","fips":"16071","name":"Oneida County","state_id":"ID"},{"zip":"83253","fips":"16037","name":"Custer County","state_id":"ID"},{"zip":"83253","fips":"16059","name":"Lemhi County","state_id":"ID"},{"zip":"83254","fips":"16007","name":"Bear Lake County","state_id":"ID"},{"zip":"83255","fips":"16023","name":"Butte County","state_id":"ID"},{"zip":"83255","fips":"16037","name":"Custer County","state_id":"ID"},{"zip":"83256","fips":"16011","name":"Bingham County","state_id":"ID"},{"zip":"83261","fips":"16007","name":"Bear Lake County","state_id":"ID"},{"zip":"83262","fips":"16011","name":"Bingham County","state_id":"ID"},{"zip":"83263","fips":"16041","name":"Franklin County","state_id":"ID"},{"zip":"83271","fips":"16077","name":"Power County","state_id":"ID"},{"zip":"83272","fips":"16007","name":"Bear Lake County","state_id":"ID"},{"zip":"83274","fips":"16019","name":"Bonneville County","state_id":"ID"},{"zip":"83274","fips":"16011","name":"Bingham County","state_id":"ID"},{"zip":"83276","fips":"16007","name":"Bear Lake County","state_id":"ID"},{"zip":"83276","fips":"16029","name":"Caribou County","state_id":"ID"},{"zip":"83277","fips":"16011","name":"Bingham County","state_id":"ID"},{"zip":"83278","fips":"16037","name":"Custer County","state_id":"ID"},{"zip":"83281","fips":"16005","name":"Bannock County","state_id":"ID"},{"zip":"83283","fips":"16041","name":"Franklin County","state_id":"ID"},{"zip":"83285","fips":"16019","name":"Bonneville County","state_id":"ID"},{"zip":"83285","fips":"16029","name":"Caribou County","state_id":"ID"},{"zip":"83286","fips":"16041","name":"Franklin County","state_id":"ID"},{"zip":"83287","fips":"16007","name":"Bear Lake County","state_id":"ID"}]
