[{"zip":"83301","fips":"16053","name":"Jerome County","state_id":"ID"},{"zip":"83301","fips":"16083","name":"Twin Falls County","state_id":"ID"},{"zip":"83302","fips":"16073","name":"Owyhee County","state_id":"ID"},{"zip":"83302","fips":"16083","name":"Twin Falls County","state_id":"ID"},{"zip":"83303","fips":"16083","name":"Twin Falls County","state_id":"ID"},{"zip":"83311","fips":"16031","name":"Cassia County","state_id":"ID"},{"zip":"83312","fips":"16031","name":"Cassia County","state_id":"ID"},{"zip":"83313","fips":"16013","name":"Blaine County","state_id":"ID"},{"zip":"83314","fips":"16047","name":"Gooding County","state_id":"ID"},{"zip":"83316","fips":"16083","name":"Twin Falls County","state_id":"ID"},{"zip":"83316","fips":"16047","name":"Gooding County","state_id":"ID"},{"zip":"83318","fips":"16067","name":"Minidoka County","state_id":"ID"},{"zip":"83318","fips":"16031","name":"Cassia County","state_id":"ID"},{"zip":"83320","fips":"16013","name":"Blaine County","state_id":"ID"},{"zip":"83321","fips":"16083","name":"Twin Falls County","state_id":"ID"},{"zip":"83322","fips":"16025","name":"Camas County","state_id":"ID"},{"zip":"83323","fips":"16067","name":"Minidoka County","state_id":"ID"},{"zip":"83323","fips":"16031","name":"Cassia County","state_id":"ID"},{"zip":"83324","fips":"16063","name":"Lincoln County","state_id":"ID"},{"zip":"83325","fips":"16053","name":"Jerome County","state_id":"ID"},{"zip":"83327","fips":"16039","name":"Elmore County","state_id":"ID"},{"zip":"83327","fips":"16063","name":"Lincoln County","state_id":"ID"},{"zip":"83327","fips":"16025","name":"Camas County","state_id":"ID"},{"zip":"83328","fips":"16083","name":"Twin Falls County","state_id":"ID"},{"zip":"83330","fips":"16063","name":"Lincoln County","state_id":"ID"},{"zip":"83330","fips":"16047","name":"Gooding County","state_id":"ID"},{"zip":"83332","fips":"16047","name":"Gooding County","state_id":"ID"},{"zip":"83332","fips":"16083","name":"Twin Falls County","state_id":"ID"},{"zip":"83333","fips":"16013","name":"Blaine County","state_id":"ID"},{"zip":"83334","fips":"16083","name":"Twin Falls County","state_id":"ID"},{"zip":"83335","fips":"16067","name":"Minidoka County","state_id":"ID"},{"zip":"83335","fips":"16053","name":"Jerome County","state_id":"ID"},{"zip":"83336","fips":"16067","name":"Minidoka County","state_id":"ID"},{"zip":"83337","fips":"16047","name":"Gooding County","state_id":"ID"},{"zip":"83338","fips":"16053","name":"Jerome County","state_id":"ID"},{"zip":"83338","fips":"16047","name":"Gooding County","state_id":"ID"},{"zip":"83338","fips":"16063","name":"Lincoln County","state_id":"ID"},{"zip":"83340","fips":"16013","name":"Blaine County","state_id":"ID"},{"zip":"83341","fips":"16083","name":"Twin Falls County","state_id":"ID"},{"zip":"83342","fips":"16031","name":"Cassia County","state_id":"ID"},{"zip":"83342","fips":"16071","name":"Oneida County","state_id":"ID"},{"zip":"83343","fips":"16067","name":"Minidoka County","state_id":"ID"},{"zip":"83344","fips":"16031","name":"Cassia County","state_id":"ID"},{"zip":"83344","fips":"16083","name":"Twin Falls County","state_id":"ID"},{"zip":"83346","fips":"16031","name":"Cassia County","state_id":"ID"},{"zip":"83347","fips":"16067","name":"Minidoka County","state_id":"ID"},{"zip":"83347","fips":"16053","name":"Jerome County","state_id":"ID"},{"zip":"83347","fips":"16063","name":"Lincoln County","state_id":"ID"},{"zip":"83348","fips":"16013","name":"Blaine County","state_id":"ID"},{"zip":"83349","fips":"16063","name":"Lincoln County","state_id":"ID"},{"zip":"83350","fips":"16067","name":"Minidoka County","state_id":"ID"},{"zip":"83350","fips":"16063","name":"Lincoln County","state_id":"ID"},{"zip":"83350","fips":"16031","name":"Cassia County","state_id":"ID"},{"zip":"83352","fips":"16047","name":"Gooding County","state_id":"ID"},{"zip":"83352","fips":"16063","name":"Lincoln County","state_id":"ID"},{"zip":"83353","fips":"16013","name":"Blaine County","state_id":"ID"},{"zip":"83354","fips":"16013","name":"Blaine County","state_id":"ID"},{"zip":"83355","fips":"16047","name":"Gooding County","state_id":"ID"}]
