[{"zip":"83401","fips":"16019","name":"Bonneville County","state_id":"ID"},{"zip":"83401","fips":"16051","name":"Jefferson County","state_id":"ID"},{"zip":"83402","fips":"16051","name":"Jefferson County","state_id":"ID"},{"zip":"83402","fips":"16011","name":"Bingham County","state_id":"ID"},{"zip":"83402","fips":"16019","name":"Bonneville County","state_id":"ID"},{"zip":"83403","fips":"16019","name":"Bonneville County","state_id":"ID"},{"zip":"83404","fips":"16011","name":"Bingham County","state_id":"ID"},{"zip":"83404","fips":"16019","name":"Bonneville County","state_id":"ID"},{"zip":"83405","fips":"16019","name":"Bonneville County","state_id":"ID"},{"zip":"83406","fips":"16019","name":"Bonneville County","state_id":"ID"},{"zip":"83414","fips":"56039","name":"Teton County","state_id":"WY"},{"zip":"83420","fips":"16043","name":"Fremont County","state_id":"ID"},{"zip":"83421","fips":"16043","name":"Fremont County","state_id":"ID"},{"zip":"83422","fips":"16081","name":"Teton County","state_id":"ID"},{"zip":"83422","fips":"16065","name":"Madison County","state_id":"ID"},{"zip":"83423","fips":"16033","name":"Clark County","state_id":"ID"},{"zip":"83424","fips":"16081","name":"Teton County","state_id":"ID"},{"zip":"83425","fips":"16051","name":"Jefferson County","state_id":"ID"},{"zip":"83427","fips":"16019","name":"Bonneville County","state_id":"ID"},{"zip":"83428","fips":"16019","name":"Bonneville County","state_id":"ID"},{"zip":"83429","fips":"16043","name":"Fremont County","state_id":"ID"},{"zip":"83431","fips":"16051","name":"Jefferson County","state_id":"ID"},{"zip":"83433","fips":"16043","name":"Fremont County","state_id":"ID"},{"zip":"83434","fips":"16051","name":"Jefferson County","state_id":"ID"},{"zip":"83434","fips":"16065","name":"Madison County","state_id":"ID"},{"zip":"83435","fips":"16051","name":"Jefferson County","state_id":"ID"},{"zip":"83435","fips":"16033","name":"Clark County","state_id":"ID"},{"zip":"83436","fips":"16043","name":"Fremont County","state_id":"ID"},{"zip":"83436","fips":"16065","name":"Madison County","state_id":"ID"},{"zip":"83436","fips":"16081","name":"Teton County","state_id":"ID"},{"zip":"83438","fips":"16043","name":"Fremont County","state_id":"ID"},{"zip":"83440","fips":"16065","name":"Madison County","state_id":"ID"},{"zip":"83440","fips":"16043","name":"Fremont County","state_id":"ID"},{"zip":"83441","fips":"16065","name":"Madison County","state_id":"ID"},{"zip":"83442","fips":"16019","name":"Bonneville County","state_id":"ID"},{"zip":"83442","fips":"16051","name":"Jefferson County","state_id":"ID"},{"zip":"83443","fips":"16051","name":"Jefferson County","state_id":"ID"},{"zip":"83443","fips":"16019","name":"Bonneville County","state_id":"ID"},{"zip":"83444","fips":"16019","name":"Bonneville County","state_id":"ID"},{"zip":"83444","fips":"16051","name":"Jefferson County","state_id":"ID"},{"zip":"83445","fips":"16043","name":"Fremont County","state_id":"ID"},{"zip":"83445","fips":"16065","name":"Madison County","state_id":"ID"},{"zip":"83446","fips":"16033","name":"Clark County","state_id":"ID"},{"zip":"83448","fips":"16043","name":"Fremont County","state_id":"ID"},{"zip":"83448","fips":"16065","name":"Madison County","state_id":"ID"},{"zip":"83449","fips":"16019","name":"Bonneville County","state_id":"ID"},{"zip":"83450","fips":"16051","name":"Jefferson County","state_id":"ID"},{"zip":"83451","fips":"16043","name":"Fremont County","state_id":"ID"},{"zip":"83451","fips":"16065","name":"Madison County","state_id":"ID"},{"zip":"83452","fips":"16081","name":"Teton County","state_id":"ID"},{"zip":"83454","fips":"16019","name":"Bonneville County","state_id":"ID"},{"zip":"83455","fips":"16081","name":"Teton County","state_id":"ID"},{"zip":"83460","fips":"16065","name":"Madison County","state_id":"ID"},{"zip":"83462","fips":"16059","name":"Lemhi County","state_id":"ID"},{"zip":"83463","fips":"16059","name":"Lemhi County","state_id":"ID"},{"zip":"83464","fips":"16059","name":"Lemhi County","state_id":"ID"},{"zip":"83465","fips":"16059","name":"Lemhi County","state_id":"ID"},{"zip":"83466","fips":"16059","name":"Lemhi County","state_id":"ID"},{"zip":"83467","fips":"16059","name":"Lemhi County","state_id":"ID"},{"zip":"83468","fips":"16059","name":"Lemhi County","state_id":"ID"},{"zip":"83469","fips":"16059","name":"Lemhi County","state_id":"ID"}]
