[{"zip":"83501","fips":"16069","name":"Nez Perce County","state_id":"ID"},{"zip":"83520","fips":"16035","name":"Clearwater County","state_id":"ID"},{"zip":"83522","fips":"16061","name":"Lewis County","state_id":"ID"},{"zip":"83522","fips":"16049","name":"Idaho County","state_id":"ID"},{"zip":"83523","fips":"16061","name":"Lewis County","state_id":"ID"},{"zip":"83524","fips":"16069","name":"Nez Perce County","state_id":"ID"},{"zip":"83524","fips":"16061","name":"Lewis County","state_id":"ID"},{"zip":"83525","fips":"16049","name":"Idaho County","state_id":"ID"},{"zip":"83526","fips":"16049","name":"Idaho County","state_id":"ID"},{"zip":"83530","fips":"16049","name":"Idaho County","state_id":"ID"},{"zip":"83531","fips":"16049","name":"Idaho County","state_id":"ID"},{"zip":"83533","fips":"16049","name":"Idaho County","state_id":"ID"},{"zip":"83535","fips":"16069","name":"Nez Perce County","state_id":"ID"},{"zip":"83535","fips":"16057","name":"Latah County","state_id":"ID"},{"zip":"83536","fips":"16049","name":"Idaho County","state_id":"ID"},{"zip":"83536","fips":"16061","name":"Lewis County","state_id":"ID"},{"zip":"83537","fips":"16057","name":"Latah County","state_id":"ID"},{"zip":"83537","fips":"16069","name":"Nez Perce County","state_id":"ID"},{"zip":"83537","fips":"16035","name":"Clearwater County","state_id":"ID"},{"zip":"83539","fips":"16049","name":"Idaho County","state_id":"ID"},{"zip":"83540","fips":"16069","name":"Nez Perce County","state_id":"ID"},{"zip":"83541","fips":"16069","name":"Nez Perce County","state_id":"ID"},{"zip":"83541","fips":"16035","name":"Clearwater County","state_id":"ID"},{"zip":"83542","fips":"16049","name":"Idaho County","state_id":"ID"},{"zip":"83543","fips":"16061","name":"Lewis County","state_id":"ID"},{"zip":"83544","fips":"16035","name":"Clearwater County","state_id":"ID"},{"zip":"83544","fips":"16061","name":"Lewis County","state_id":"ID"},{"zip":"83545","fips":"16035","name":"Clearwater County","state_id":"ID"},{"zip":"83545","fips":"16061","name":"Lewis County","state_id":"ID"},{"zip":"83545","fips":"16069","name":"Nez Perce County","state_id":"ID"},{"zip":"83546","fips":"16035","name":"Clearwater County","state_id":"ID"},{"zip":"83547","fips":"16003","name":"Adams County","state_id":"ID"},{"zip":"83547","fips":"16049","name":"Idaho County","state_id":"ID"},{"zip":"83548","fips":"16069","name":"Nez Perce County","state_id":"ID"},{"zip":"83548","fips":"16061","name":"Lewis County","state_id":"ID"},{"zip":"83549","fips":"16049","name":"Idaho County","state_id":"ID"},{"zip":"83552","fips":"16049","name":"Idaho County","state_id":"ID"},{"zip":"83553","fips":"16035","name":"Clearwater County","state_id":"ID"},{"zip":"83554","fips":"16049","name":"Idaho County","state_id":"ID"},{"zip":"83555","fips":"16069","name":"Nez Perce County","state_id":"ID"},{"zip":"83555","fips":"16061","name":"Lewis County","state_id":"ID"}]
