[{"zip":"83602","fips":"16015","name":"Boise County","state_id":"ID"},{"zip":"83604","fips":"16073","name":"Owyhee County","state_id":"ID"},{"zip":"83605","fips":"16027","name":"Canyon County","state_id":"ID"},{"zip":"83606","fips":"16027","name":"Canyon County","state_id":"ID"},{"zip":"83607","fips":"16075","name":"Payette County","state_id":"ID"},{"zip":"83607","fips":"16045","name":"Gem County","state_id":"ID"},{"zip":"83607","fips":"16027","name":"Canyon County","state_id":"ID"},{"zip":"83610","fips":"16087","name":"Washington County","state_id":"ID"},{"zip":"83611","fips":"16085","name":"Valley County","state_id":"ID"},{"zip":"83612","fips":"16003","name":"Adams County","state_id":"ID"},{"zip":"83615","fips":"16085","name":"Valley County","state_id":"ID"},{"zip":"83616","fips":"16001","name":"Ada County","state_id":"ID"},{"zip":"83616","fips":"16045","name":"Gem County","state_id":"ID"},{"zip":"83617","fips":"16045","name":"Gem County","state_id":"ID"},{"zip":"83619","fips":"16075","name":"Payette County","state_id":"ID"},{"zip":"83622","fips":"16015","name":"Boise County","state_id":"ID"},{"zip":"83623","fips":"16039","name":"Elmore County","state_id":"ID"},{"zip":"83624","fips":"16073","name":"Owyhee County","state_id":"ID"},{"zip":"83624","fips":"16039","name":"Elmore County","state_id":"ID"},{"zip":"83626","fips":"16027","name":"Canyon County","state_id":"ID"},{"zip":"83627","fips":"16073","name":"Owyhee County","state_id":"ID"},{"zip":"83627","fips":"16039","name":"Elmore County","state_id":"ID"},{"zip":"83628","fips":"16073","name":"Owyhee County","state_id":"ID"},{"zip":"83629","fips":"16015","name":"Boise County","state_id":"ID"},{"zip":"83629","fips":"16045","name":"Gem County","state_id":"ID"},{"zip":"83630","fips":"16027","name":"Canyon County","state_id":"ID"},{"zip":"83631","fips":"16015","name":"Boise County","state_id":"ID"},{"zip":"83632","fips":"16003","name":"Adams County","state_id":"ID"},{"zip":"83632","fips":"16087","name":"Washington County","state_id":"ID"},{"zip":"83633","fips":"16039","name":"Elmore County","state_id":"ID"},{"zip":"83634","fips":"16027","name":"Canyon County","state_id":"ID"},{"zip":"83634","fips":"16001","name":"Ada County","state_id":"ID"},{"zip":"83635","fips":"16085","name":"Valley County","state_id":"ID"},{"zip":"83636","fips":"16045","name":"Gem County","state_id":"ID"},{"zip":"83637","fips":"16015","name":"Boise County","state_id":"ID"},{"zip":"83638","fips":"16085","name":"Valley County","state_id":"ID"},{"zip":"83638","fips":"16003","name":"Adams County","state_id":"ID"},{"zip":"83639","fips":"16073","name":"Owyhee County","state_id":"ID"},{"zip":"83641","fips":"16027","name":"Canyon County","state_id":"ID"},{"zip":"83641","fips":"16001","name":"Ada County","state_id":"ID"},{"zip":"83641","fips":"16073","name":"Owyhee County","state_id":"ID"},{"zip":"83642","fips":"16001","name":"Ada County","state_id":"ID"},{"zip":"83643","fips":"16003","name":"Adams County","state_id":"ID"},{"zip":"83644","fips":"16027","name":"Canyon County","state_id":"ID"},{"zip":"83645","fips":"16087","name":"Washington County","state_id":"ID"},{"zip":"83646","fips":"16001","name":"Ada County","state_id":"ID"},{"zip":"83647","fips":"16039","name":"Elmore County","state_id":"ID"},{"zip":"83648","fips":"16039","name":"Elmore County","state_id":"ID"},{"zip":"83650","fips":"16073","name":"Owyhee County","state_id":"ID"},{"zip":"83651","fips":"16027","name":"Canyon County","state_id":"ID"},{"zip":"83653","fips":"16027","name":"Canyon County","state_id":"ID"},{"zip":"83654","fips":"16003","name":"Adams County","state_id":"ID"},{"zip":"83654","fips":"16049","name":"Idaho County","state_id":"ID"},{"zip":"83655","fips":"16075","name":"Payette County","state_id":"ID"},{"zip":"83655","fips":"16045","name":"Gem County","state_id":"ID"},{"zip":"83656","fips":"16027","name":"Canyon County","state_id":"ID"},{"zip":"83657","fips":"16045","name":"Gem County","state_id":"ID"},{"zip":"83660","fips":"16027","name":"Canyon County","state_id":"ID"},{"zip":"83660","fips":"16075","name":"Payette County","state_id":"ID"},{"zip":"83661","fips":"16087","name":"Washington County","state_id":"ID"},{"zip":"83661","fips":"16075","name":"Payette County","state_id":"ID"},{"zip":"83666","fips":"16015","name":"Boise County","state_id":"ID"},{"zip":"83669","fips":"16001","name":"Ada County","state_id":"ID"},{"zip":"83669","fips":"16027","name":"Canyon County","state_id":"ID"},{"zip":"83670","fips":"16015","name":"Boise County","state_id":"ID"},{"zip":"83670","fips":"16045","name":"Gem County","state_id":"ID"},{"zip":"83671","fips":"16049","name":"Idaho County","state_id":"ID"},{"zip":"83672","fips":"16087","name":"Washington County","state_id":"ID"},{"zip":"83676","fips":"16027","name":"Canyon County","state_id":"ID"},{"zip":"83677","fips":"16085","name":"Valley County","state_id":"ID"},{"zip":"83680","fips":"16001","name":"Ada County","state_id":"ID"},{"zip":"83686","fips":"16027","name":"Canyon County","state_id":"ID"},{"zip":"83687","fips":"16027","name":"Canyon County","state_id":"ID"},{"zip":"83687","fips":"16001","name":"Ada County","state_id":"ID"}]
