[{"zip":"83701","fips":"16001","name":"Ada County","state_id":"ID"},{"zip":"83702","fips":"16001","name":"Ada County","state_id":"ID"},{"zip":"83703","fips":"16001","name":"Ada County","state_id":"ID"},{"zip":"83704","fips":"16001","name":"Ada County","state_id":"ID"},{"zip":"83705","fips":"16001","name":"Ada County","state_id":"ID"},{"zip":"83706","fips":"16001","name":"Ada County","state_id":"ID"},{"zip":"83707","fips":"16001","name":"Ada County","state_id":"ID"},{"zip":"83708","fips":"16001","name":"Ada County","state_id":"ID"},{"zip":"83709","fips":"16001","name":"Ada County","state_id":"ID"},{"zip":"83711","fips":"16001","name":"Ada County","state_id":"ID"},{"zip":"83712","fips":"16001","name":"Ada County","state_id":"ID"},{"zip":"83713","fips":"16001","name":"Ada County","state_id":"ID"},{"zip":"83714","fips":"16001","name":"Ada County","state_id":"ID"},{"zip":"83715","fips":"16001","name":"Ada County","state_id":"ID"},{"zip":"83716","fips":"16039","name":"Elmore County","state_id":"ID"},{"zip":"83716","fips":"16015","name":"Boise County","state_id":"ID"},{"zip":"83716","fips":"16001","name":"Ada County","state_id":"ID"},{"zip":"83717","fips":"16001","name":"Ada County","state_id":"ID"},{"zip":"83719","fips":"16001","name":"Ada County","state_id":"ID"},{"zip":"83720","fips":"16001","name":"Ada County","state_id":"ID"},{"zip":"83724","fips":"16001","name":"Ada County","state_id":"ID"},{"zip":"83725","fips":"16001","name":"Ada County","state_id":"ID"},{"zip":"83728","fips":"16001","name":"Ada County","state_id":"ID"},{"zip":"83729","fips":"16001","name":"Ada County","state_id":"ID"},{"zip":"83735","fips":"16001","name":"Ada County","state_id":"ID"}]
