[{"zip":"83801","fips":"16055","name":"Kootenai County","state_id":"ID"},{"zip":"83801","fips":"16017","name":"Bonner County","state_id":"ID"},{"zip":"83802","fips":"16079","name":"Shoshone County","state_id":"ID"},{"zip":"83803","fips":"16017","name":"Bonner County","state_id":"ID"},{"zip":"83803","fips":"16055","name":"Kootenai County","state_id":"ID"},{"zip":"83804","fips":"16017","name":"Bonner County","state_id":"ID"},{"zip":"83805","fips":"16021","name":"Boundary County","state_id":"ID"},{"zip":"83806","fips":"16057","name":"Latah County","state_id":"ID"},{"zip":"83808","fips":"16079","name":"Shoshone County","state_id":"ID"},{"zip":"83809","fips":"16017","name":"Bonner County","state_id":"ID"},{"zip":"83810","fips":"16079","name":"Shoshone County","state_id":"ID"},{"zip":"83810","fips":"16055","name":"Kootenai County","state_id":"ID"},{"zip":"83811","fips":"16017","name":"Bonner County","state_id":"ID"},{"zip":"83812","fips":"16079","name":"Shoshone County","state_id":"ID"},{"zip":"83813","fips":"16017","name":"Bonner County","state_id":"ID"},{"zip":"83814","fips":"16055","name":"Kootenai County","state_id":"ID"},{"zip":"83815","fips":"16055","name":"Kootenai County","state_id":"ID"},{"zip":"83816","fips":"16055","name":"Kootenai County","state_id":"ID"},{"zip":"83821","fips":"16017","name":"Bonner County","state_id":"ID"},{"zip":"83822","fips":"16017","name":"Bonner County","state_id":"ID"},{"zip":"83823","fips":"16057","name":"Latah County","state_id":"ID"},{"zip":"83824","fips":"16057","name":"Latah County","state_id":"ID"},{"zip":"83824","fips":"16009","name":"Benewah County","state_id":"ID"},{"zip":"83825","fips":"16017","name":"Bonner County","state_id":"ID"},{"zip":"83826","fips":"16021","name":"Boundary County","state_id":"ID"},{"zip":"83827","fips":"16035","name":"Clearwater County","state_id":"ID"},{"zip":"83830","fips":"16079","name":"Shoshone County","state_id":"ID"},{"zip":"83830","fips":"16009","name":"Benewah County","state_id":"ID"},{"zip":"83832","fips":"16069","name":"Nez Perce County","state_id":"ID"},{"zip":"83832","fips":"16057","name":"Latah County","state_id":"ID"},{"zip":"83833","fips":"16009","name":"Benewah County","state_id":"ID"},{"zip":"83833","fips":"16055","name":"Kootenai County","state_id":"ID"},{"zip":"83834","fips":"16057","name":"Latah County","state_id":"ID"},{"zip":"83835","fips":"16055","name":"Kootenai County","state_id":"ID"},{"zip":"83836","fips":"16017","name":"Bonner County","state_id":"ID"},{"zip":"83837","fips":"16079","name":"Shoshone County","state_id":"ID"},{"zip":"83839","fips":"16079","name":"Shoshone County","state_id":"ID"},{"zip":"83840","fips":"16017","name":"Bonner County","state_id":"ID"},{"zip":"83841","fips":"16017","name":"Bonner County","state_id":"ID"},{"zip":"83842","fips":"16055","name":"Kootenai County","state_id":"ID"},{"zip":"83843","fips":"16057","name":"Latah County","state_id":"ID"},{"zip":"83844","fips":"16057","name":"Latah County","state_id":"ID"},{"zip":"83845","fips":"16021","name":"Boundary County","state_id":"ID"},{"zip":"83846","fips":"16079","name":"Shoshone County","state_id":"ID"},{"zip":"83847","fips":"16021","name":"Boundary County","state_id":"ID"},{"zip":"83848","fips":"16017","name":"Bonner County","state_id":"ID"},{"zip":"83849","fips":"16079","name":"Shoshone County","state_id":"ID"},{"zip":"83850","fips":"16079","name":"Shoshone County","state_id":"ID"},{"zip":"83851","fips":"16009","name":"Benewah County","state_id":"ID"},{"zip":"83851","fips":"16055","name":"Kootenai County","state_id":"ID"},{"zip":"83852","fips":"16017","name":"Bonner County","state_id":"ID"},{"zip":"83853","fips":"16021","name":"Boundary County","state_id":"ID"},{"zip":"83854","fips":"16055","name":"Kootenai County","state_id":"ID"},{"zip":"83855","fips":"16057","name":"Latah County","state_id":"ID"},{"zip":"83856","fips":"16017","name":"Bonner County","state_id":"ID"},{"zip":"83857","fips":"16057","name":"Latah County","state_id":"ID"},{"zip":"83858","fips":"16055","name":"Kootenai County","state_id":"ID"},{"zip":"83860","fips":"16017","name":"Bonner County","state_id":"ID"},{"zip":"83861","fips":"16009","name":"Benewah County","state_id":"ID"},{"zip":"83861","fips":"16055","name":"Kootenai County","state_id":"ID"},{"zip":"83861","fips":"16079","name":"Shoshone County","state_id":"ID"},{"zip":"83864","fips":"16017","name":"Bonner County","state_id":"ID"},{"zip":"83865","fips":"16017","name":"Bonner County","state_id":"ID"},{"zip":"83866","fips":"16009","name":"Benewah County","state_id":"ID"},{"zip":"83867","fips":"16079","name":"Shoshone County","state_id":"ID"},{"zip":"83868","fips":"16079","name":"Shoshone County","state_id":"ID"},{"zip":"83869","fips":"16017","name":"Bonner County","state_id":"ID"},{"zip":"83869","fips":"16055","name":"Kootenai County","state_id":"ID"},{"zip":"83870","fips":"16009","name":"Benewah County","state_id":"ID"},{"zip":"83871","fips":"16057","name":"Latah County","state_id":"ID"},{"zip":"83872","fips":"16057","name":"Latah County","state_id":"ID"},{"zip":"83873","fips":"16079","name":"Shoshone County","state_id":"ID"},{"zip":"83874","fips":"16079","name":"Shoshone County","state_id":"ID"},{"zip":"83876","fips":"16055","name":"Kootenai County","state_id":"ID"},{"zip":"83876","fips":"16009","name":"Benewah County","state_id":"ID"},{"zip":"83877","fips":"16055","name":"Kootenai County","state_id":"ID"}]
