[{"zip":"84001","fips":"49013","name":"Duchesne County","state_id":"UT"},{"zip":"84002","fips":"49013","name":"Duchesne County","state_id":"UT"},{"zip":"84003","fips":"49049","name":"Utah County","state_id":"UT"},{"zip":"84004","fips":"49049","name":"Utah County","state_id":"UT"},{"zip":"84005","fips":"49049","name":"Utah County","state_id":"UT"},{"zip":"84006","fips":"49035","name":"Salt Lake County","state_id":"UT"},{"zip":"84007","fips":"49013","name":"Duchesne County","state_id":"UT"},{"zip":"84008","fips":"49047","name":"Uintah County","state_id":"UT"},{"zip":"84009","fips":"49035","name":"Salt Lake County","state_id":"UT"},{"zip":"84010","fips":"49011","name":"Davis County","state_id":"UT"},{"zip":"84011","fips":"49011","name":"Davis County","state_id":"UT"},{"zip":"84013","fips":"49049","name":"Utah County","state_id":"UT"},{"zip":"84014","fips":"49011","name":"Davis County","state_id":"UT"},{"zip":"84015","fips":"49011","name":"Davis County","state_id":"UT"},{"zip":"84016","fips":"49011","name":"Davis County","state_id":"UT"},{"zip":"84017","fips":"49043","name":"Summit County","state_id":"UT"},{"zip":"84017","fips":"49029","name":"Morgan County","state_id":"UT"},{"zip":"84018","fips":"49029","name":"Morgan County","state_id":"UT"},{"zip":"84020","fips":"49035","name":"Salt Lake County","state_id":"UT"},{"zip":"84020","fips":"49049","name":"Utah County","state_id":"UT"},{"zip":"84021","fips":"49013","name":"Duchesne County","state_id":"UT"},{"zip":"84022","fips":"49045","name":"Tooele County","state_id":"UT"},{"zip":"84023","fips":"49009","name":"Daggett County","state_id":"UT"},{"zip":"84024","fips":"49043","name":"Summit County","state_id":"UT"},{"zip":"84025","fips":"49011","name":"Davis County","state_id":"UT"},{"zip":"84026","fips":"49047","name":"Uintah County","state_id":"UT"},{"zip":"84027","fips":"49013","name":"Duchesne County","state_id":"UT"},{"zip":"84028","fips":"49033","name":"Rich County","state_id":"UT"},{"zip":"84029","fips":"49045","name":"Tooele County","state_id":"UT"},{"zip":"84031","fips":"49013","name":"Duchesne County","state_id":"UT"},{"zip":"84032","fips":"49051","name":"Wasatch County","state_id":"UT"},{"zip":"84032","fips":"49049","name":"Utah County","state_id":"UT"},{"zip":"84033","fips":"49043","name":"Summit County","state_id":"UT"},{"zip":"84034","fips":"49045","name":"Tooele County","state_id":"UT"},{"zip":"84035","fips":"49047","name":"Uintah County","state_id":"UT"},{"zip":"84036","fips":"49051","name":"Wasatch County","state_id":"UT"},{"zip":"84036","fips":"49043","name":"Summit County","state_id":"UT"},{"zip":"84037","fips":"49011","name":"Davis County","state_id":"UT"},{"zip":"84038","fips":"49033","name":"Rich County","state_id":"UT"},{"zip":"84039","fips":"49047","name":"Uintah County","state_id":"UT"},{"zip":"84040","fips":"49011","name":"Davis County","state_id":"UT"},{"zip":"84041","fips":"49011","name":"Davis County","state_id":"UT"},{"zip":"84042","fips":"49049","name":"Utah County","state_id":"UT"},{"zip":"84043","fips":"49049","name":"Utah County","state_id":"UT"},{"zip":"84044","fips":"49035","name":"Salt Lake County","state_id":"UT"},{"zip":"84045","fips":"49049","name":"Utah County","state_id":"UT"},{"zip":"84046","fips":"49009","name":"Daggett County","state_id":"UT"},{"zip":"84047","fips":"49035","name":"Salt Lake County","state_id":"UT"},{"zip":"84049","fips":"49051","name":"Wasatch County","state_id":"UT"},{"zip":"84050","fips":"49035","name":"Salt Lake County","state_id":"UT"},{"zip":"84050","fips":"49029","name":"Morgan County","state_id":"UT"},{"zip":"84051","fips":"49013","name":"Duchesne County","state_id":"UT"},{"zip":"84052","fips":"49013","name":"Duchesne County","state_id":"UT"},{"zip":"84052","fips":"49047","name":"Uintah County","state_id":"UT"},{"zip":"84053","fips":"49013","name":"Duchesne County","state_id":"UT"},{"zip":"84054","fips":"49011","name":"Davis County","state_id":"UT"},{"zip":"84055","fips":"49043","name":"Summit County","state_id":"UT"},{"zip":"84056","fips":"49057","name":"Weber County","state_id":"UT"},{"zip":"84056","fips":"49011","name":"Davis County","state_id":"UT"},{"zip":"84057","fips":"49049","name":"Utah County","state_id":"UT"},{"zip":"84058","fips":"49049","name":"Utah County","state_id":"UT"},{"zip":"84059","fips":"49049","name":"Utah County","state_id":"UT"},{"zip":"84060","fips":"49043","name":"Summit County","state_id":"UT"},{"zip":"84060","fips":"49051","name":"Wasatch County","state_id":"UT"},{"zip":"84061","fips":"49043","name":"Summit County","state_id":"UT"},{"zip":"84062","fips":"49049","name":"Utah County","state_id":"UT"},{"zip":"84063","fips":"49047","name":"Uintah County","state_id":"UT"},{"zip":"84064","fips":"49033","name":"Rich County","state_id":"UT"},{"zip":"84065","fips":"49035","name":"Salt Lake County","state_id":"UT"},{"zip":"84066","fips":"49013","name":"Duchesne County","state_id":"UT"},{"zip":"84066","fips":"49047","name":"Uintah County","state_id":"UT"},{"zip":"84067","fips":"49057","name":"Weber County","state_id":"UT"},{"zip":"84068","fips":"49043","name":"Summit County","state_id":"UT"},{"zip":"84069","fips":"49045","name":"Tooele County","state_id":"UT"},{"zip":"84070","fips":"49035","name":"Salt Lake County","state_id":"UT"},{"zip":"84071","fips":"49045","name":"Tooele County","state_id":"UT"},{"zip":"84072","fips":"49013","name":"Duchesne County","state_id":"UT"},{"zip":"84073","fips":"49013","name":"Duchesne County","state_id":"UT"},{"zip":"84074","fips":"49045","name":"Tooele County","state_id":"UT"},{"zip":"84075","fips":"49011","name":"Davis County","state_id":"UT"},{"zip":"84076","fips":"49047","name":"Uintah County","state_id":"UT"},{"zip":"84078","fips":"49047","name":"Uintah County","state_id":"UT"},{"zip":"84079","fips":"49047","name":"Uintah County","state_id":"UT"},{"zip":"84080","fips":"49045","name":"Tooele County","state_id":"UT"},{"zip":"84081","fips":"49035","name":"Salt Lake County","state_id":"UT"},{"zip":"84082","fips":"49051","name":"Wasatch County","state_id":"UT"},{"zip":"84083","fips":"49045","name":"Tooele County","state_id":"UT"},{"zip":"84084","fips":"49035","name":"Salt Lake County","state_id":"UT"},{"zip":"84085","fips":"49047","name":"Uintah County","state_id":"UT"},{"zip":"84086","fips":"49033","name":"Rich County","state_id":"UT"},{"zip":"84087","fips":"49011","name":"Davis County","state_id":"UT"},{"zip":"84088","fips":"49035","name":"Salt Lake County","state_id":"UT"},{"zip":"84089","fips":"49011","name":"Davis County","state_id":"UT"},{"zip":"84090","fips":"49035","name":"Salt Lake County","state_id":"UT"},{"zip":"84091","fips":"49035","name":"Salt Lake County","state_id":"UT"},{"zip":"84092","fips":"49035","name":"Salt Lake County","state_id":"UT"},{"zip":"84093","fips":"49035","name":"Salt Lake County","state_id":"UT"},{"zip":"84094","fips":"49035","name":"Salt Lake County","state_id":"UT"},{"zip":"84095","fips":"49035","name":"Salt Lake County","state_id":"UT"},{"zip":"84096","fips":"49035","name":"Salt Lake County","state_id":"UT"},{"zip":"84097","fips":"49049","name":"Utah County","state_id":"UT"},{"zip":"84098","fips":"49043","name":"Summit County","state_id":"UT"}]
