[{"zip":"84101","fips":"49035","name":"Salt Lake County","state_id":"UT"},{"zip":"84102","fips":"49035","name":"Salt Lake County","state_id":"UT"},{"zip":"84103","fips":"49035","name":"Salt Lake County","state_id":"UT"},{"zip":"84104","fips":"49035","name":"Salt Lake County","state_id":"UT"},{"zip":"84105","fips":"49035","name":"Salt Lake County","state_id":"UT"},{"zip":"84106","fips":"49035","name":"Salt Lake County","state_id":"UT"},{"zip":"84107","fips":"49035","name":"Salt Lake County","state_id":"UT"},{"zip":"84108","fips":"49035","name":"Salt Lake County","state_id":"UT"},{"zip":"84109","fips":"49035","name":"Salt Lake County","state_id":"UT"},{"zip":"84110","fips":"49035","name":"Salt Lake County","state_id":"UT"},{"zip":"84111","fips":"49035","name":"Salt Lake County","state_id":"UT"},{"zip":"84112","fips":"49035","name":"Salt Lake County","state_id":"UT"},{"zip":"84113","fips":"49035","name":"Salt Lake County","state_id":"UT"},{"zip":"84114","fips":"49035","name":"Salt Lake County","state_id":"UT"},{"zip":"84115","fips":"49035","name":"Salt Lake County","state_id":"UT"},{"zip":"84116","fips":"49035","name":"Salt Lake County","state_id":"UT"},{"zip":"84117","fips":"49035","name":"Salt Lake County","state_id":"UT"},{"zip":"84118","fips":"49035","name":"Salt Lake County","state_id":"UT"},{"zip":"84119","fips":"49035","name":"Salt Lake County","state_id":"UT"},{"zip":"84120","fips":"49035","name":"Salt Lake County","state_id":"UT"},{"zip":"84121","fips":"49035","name":"Salt Lake County","state_id":"UT"},{"zip":"84122","fips":"49035","name":"Salt Lake County","state_id":"UT"},{"zip":"84123","fips":"49035","name":"Salt Lake County","state_id":"UT"},{"zip":"84124","fips":"49035","name":"Salt Lake County","state_id":"UT"},{"zip":"84125","fips":"49035","name":"Salt Lake County","state_id":"UT"},{"zip":"84126","fips":"49035","name":"Salt Lake County","state_id":"UT"},{"zip":"84127","fips":"49035","name":"Salt Lake County","state_id":"UT"},{"zip":"84128","fips":"49035","name":"Salt Lake County","state_id":"UT"},{"zip":"84129","fips":"49035","name":"Salt Lake County","state_id":"UT"},{"zip":"84132","fips":"49035","name":"Salt Lake County","state_id":"UT"},{"zip":"84133","fips":"49035","name":"Salt Lake County","state_id":"UT"},{"zip":"84134","fips":"49035","name":"Salt Lake County","state_id":"UT"},{"zip":"84138","fips":"49035","name":"Salt Lake County","state_id":"UT"},{"zip":"84139","fips":"49035","name":"Salt Lake County","state_id":"UT"},{"zip":"84141","fips":"49035","name":"Salt Lake County","state_id":"UT"},{"zip":"84143","fips":"49035","name":"Salt Lake County","state_id":"UT"},{"zip":"84148","fips":"49035","name":"Salt Lake County","state_id":"UT"},{"zip":"84150","fips":"49035","name":"Salt Lake County","state_id":"UT"},{"zip":"84151","fips":"49035","name":"Salt Lake County","state_id":"UT"},{"zip":"84152","fips":"49035","name":"Salt Lake County","state_id":"UT"},{"zip":"84157","fips":"49035","name":"Salt Lake County","state_id":"UT"},{"zip":"84158","fips":"49035","name":"Salt Lake County","state_id":"UT"},{"zip":"84165","fips":"49035","name":"Salt Lake County","state_id":"UT"},{"zip":"84170","fips":"49035","name":"Salt Lake County","state_id":"UT"},{"zip":"84171","fips":"49035","name":"Salt Lake County","state_id":"UT"},{"zip":"84180","fips":"49035","name":"Salt Lake County","state_id":"UT"},{"zip":"84184","fips":"49035","name":"Salt Lake County","state_id":"UT"},{"zip":"84190","fips":"49035","name":"Salt Lake County","state_id":"UT"},{"zip":"84199","fips":"49035","name":"Salt Lake County","state_id":"UT"}]
