[{"zip":"84301","fips":"49003","name":"Box Elder County","state_id":"UT"},{"zip":"84302","fips":"49003","name":"Box Elder County","state_id":"UT"},{"zip":"84304","fips":"49005","name":"Cache County","state_id":"UT"},{"zip":"84305","fips":"49005","name":"Cache County","state_id":"UT"},{"zip":"84306","fips":"49003","name":"Box Elder County","state_id":"UT"},{"zip":"84307","fips":"49003","name":"Box Elder County","state_id":"UT"},{"zip":"84308","fips":"49005","name":"Cache County","state_id":"UT"},{"zip":"84309","fips":"49003","name":"Box Elder County","state_id":"UT"},{"zip":"84310","fips":"49057","name":"Weber County","state_id":"UT"},{"zip":"84311","fips":"49003","name":"Box Elder County","state_id":"UT"},{"zip":"84312","fips":"49005","name":"Cache County","state_id":"UT"},{"zip":"84312","fips":"49003","name":"Box Elder County","state_id":"UT"},{"zip":"84313","fips":"49003","name":"Box Elder County","state_id":"UT"},{"zip":"84314","fips":"49003","name":"Box Elder County","state_id":"UT"},{"zip":"84315","fips":"49011","name":"Davis County","state_id":"UT"},{"zip":"84315","fips":"49057","name":"Weber County","state_id":"UT"},{"zip":"84316","fips":"49003","name":"Box Elder County","state_id":"UT"},{"zip":"84317","fips":"49057","name":"Weber County","state_id":"UT"},{"zip":"84318","fips":"49005","name":"Cache County","state_id":"UT"},{"zip":"84319","fips":"49005","name":"Cache County","state_id":"UT"},{"zip":"84320","fips":"49005","name":"Cache County","state_id":"UT"},{"zip":"84321","fips":"49005","name":"Cache County","state_id":"UT"},{"zip":"84322","fips":"49005","name":"Cache County","state_id":"UT"},{"zip":"84323","fips":"49005","name":"Cache County","state_id":"UT"},{"zip":"84324","fips":"49003","name":"Box Elder County","state_id":"UT"},{"zip":"84325","fips":"49005","name":"Cache County","state_id":"UT"},{"zip":"84326","fips":"49005","name":"Cache County","state_id":"UT"},{"zip":"84327","fips":"49005","name":"Cache County","state_id":"UT"},{"zip":"84328","fips":"49005","name":"Cache County","state_id":"UT"},{"zip":"84329","fips":"49003","name":"Box Elder County","state_id":"UT"},{"zip":"84330","fips":"49003","name":"Box Elder County","state_id":"UT"},{"zip":"84331","fips":"49003","name":"Box Elder County","state_id":"UT"},{"zip":"84332","fips":"49005","name":"Cache County","state_id":"UT"},{"zip":"84333","fips":"49005","name":"Cache County","state_id":"UT"},{"zip":"84334","fips":"49003","name":"Box Elder County","state_id":"UT"},{"zip":"84335","fips":"49005","name":"Cache County","state_id":"UT"},{"zip":"84336","fips":"49003","name":"Box Elder County","state_id":"UT"},{"zip":"84337","fips":"49003","name":"Box Elder County","state_id":"UT"},{"zip":"84338","fips":"49005","name":"Cache County","state_id":"UT"},{"zip":"84339","fips":"49005","name":"Cache County","state_id":"UT"},{"zip":"84340","fips":"49003","name":"Box Elder County","state_id":"UT"},{"zip":"84341","fips":"49005","name":"Cache County","state_id":"UT"}]
