[{"zip":"84501","fips":"49007","name":"Carbon County","state_id":"UT"},{"zip":"84501","fips":"49015","name":"Emery County","state_id":"UT"},{"zip":"84510","fips":"49037","name":"San Juan County","state_id":"UT"},{"zip":"84511","fips":"49037","name":"San Juan County","state_id":"UT"},{"zip":"84512","fips":"49037","name":"San Juan County","state_id":"UT"},{"zip":"84513","fips":"49015","name":"Emery County","state_id":"UT"},{"zip":"84515","fips":"49019","name":"Grand County","state_id":"UT"},{"zip":"84516","fips":"49015","name":"Emery County","state_id":"UT"},{"zip":"84518","fips":"49015","name":"Emery County","state_id":"UT"},{"zip":"84520","fips":"49007","name":"Carbon County","state_id":"UT"},{"zip":"84521","fips":"49015","name":"Emery County","state_id":"UT"},{"zip":"84522","fips":"49015","name":"Emery County","state_id":"UT"},{"zip":"84523","fips":"49015","name":"Emery County","state_id":"UT"},{"zip":"84525","fips":"49015","name":"Emery County","state_id":"UT"},{"zip":"84526","fips":"49007","name":"Carbon County","state_id":"UT"},{"zip":"84528","fips":"49015","name":"Emery County","state_id":"UT"},{"zip":"84529","fips":"49007","name":"Carbon County","state_id":"UT"},{"zip":"84530","fips":"49037","name":"San Juan County","state_id":"UT"},{"zip":"84531","fips":"49037","name":"San Juan County","state_id":"UT"},{"zip":"84532","fips":"49019","name":"Grand County","state_id":"UT"},{"zip":"84532","fips":"49037","name":"San Juan County","state_id":"UT"},{"zip":"84533","fips":"49037","name":"San Juan County","state_id":"UT"},{"zip":"84534","fips":"49037","name":"San Juan County","state_id":"UT"},{"zip":"84535","fips":"49037","name":"San Juan County","state_id":"UT"},{"zip":"84536","fips":"49037","name":"San Juan County","state_id":"UT"},{"zip":"84537","fips":"49015","name":"Emery County","state_id":"UT"},{"zip":"84539","fips":"49007","name":"Carbon County","state_id":"UT"},{"zip":"84540","fips":"49019","name":"Grand County","state_id":"UT"},{"zip":"84542","fips":"49007","name":"Carbon County","state_id":"UT"}]
