[{"zip":"84601","fips":"49049","name":"Utah County","state_id":"UT"},{"zip":"84602","fips":"49049","name":"Utah County","state_id":"UT"},{"zip":"84603","fips":"49049","name":"Utah County","state_id":"UT"},{"zip":"84604","fips":"49049","name":"Utah County","state_id":"UT"},{"zip":"84604","fips":"49051","name":"Wasatch County","state_id":"UT"},{"zip":"84605","fips":"49049","name":"Utah County","state_id":"UT"},{"zip":"84606","fips":"49049","name":"Utah County","state_id":"UT"},{"zip":"84620","fips":"49041","name":"Sevier County","state_id":"UT"},{"zip":"84621","fips":"49039","name":"Sanpete County","state_id":"UT"},{"zip":"84622","fips":"49039","name":"Sanpete County","state_id":"UT"},{"zip":"84623","fips":"49039","name":"Sanpete County","state_id":"UT"},{"zip":"84624","fips":"49027","name":"Millard County","state_id":"UT"},{"zip":"84626","fips":"49049","name":"Utah County","state_id":"UT"},{"zip":"84627","fips":"49039","name":"Sanpete County","state_id":"UT"},{"zip":"84628","fips":"49023","name":"Juab County","state_id":"UT"},{"zip":"84629","fips":"49039","name":"Sanpete County","state_id":"UT"},{"zip":"84630","fips":"49039","name":"Sanpete County","state_id":"UT"},{"zip":"84631","fips":"49027","name":"Millard County","state_id":"UT"},{"zip":"84632","fips":"49039","name":"Sanpete County","state_id":"UT"},{"zip":"84633","fips":"49049","name":"Utah County","state_id":"UT"},{"zip":"84634","fips":"49039","name":"Sanpete County","state_id":"UT"},{"zip":"84635","fips":"49027","name":"Millard County","state_id":"UT"},{"zip":"84636","fips":"49027","name":"Millard County","state_id":"UT"},{"zip":"84637","fips":"49027","name":"Millard County","state_id":"UT"},{"zip":"84638","fips":"49027","name":"Millard County","state_id":"UT"},{"zip":"84639","fips":"49023","name":"Juab County","state_id":"UT"},{"zip":"84640","fips":"49027","name":"Millard County","state_id":"UT"},{"zip":"84642","fips":"49039","name":"Sanpete County","state_id":"UT"},{"zip":"84643","fips":"49039","name":"Sanpete County","state_id":"UT"},{"zip":"84644","fips":"49027","name":"Millard County","state_id":"UT"},{"zip":"84645","fips":"49023","name":"Juab County","state_id":"UT"},{"zip":"84646","fips":"49039","name":"Sanpete County","state_id":"UT"},{"zip":"84647","fips":"49039","name":"Sanpete County","state_id":"UT"},{"zip":"84648","fips":"49023","name":"Juab County","state_id":"UT"},{"zip":"84649","fips":"49027","name":"Millard County","state_id":"UT"},{"zip":"84651","fips":"49049","name":"Utah County","state_id":"UT"},{"zip":"84652","fips":"49041","name":"Sevier County","state_id":"UT"},{"zip":"84653","fips":"49049","name":"Utah County","state_id":"UT"},{"zip":"84654","fips":"49041","name":"Sevier County","state_id":"UT"},{"zip":"84654","fips":"49015","name":"Emery County","state_id":"UT"},{"zip":"84655","fips":"49049","name":"Utah County","state_id":"UT"},{"zip":"84655","fips":"49023","name":"Juab County","state_id":"UT"},{"zip":"84656","fips":"49027","name":"Millard County","state_id":"UT"},{"zip":"84657","fips":"49041","name":"Sevier County","state_id":"UT"},{"zip":"84660","fips":"49049","name":"Utah County","state_id":"UT"},{"zip":"84662","fips":"49039","name":"Sanpete County","state_id":"UT"},{"zip":"84663","fips":"49049","name":"Utah County","state_id":"UT"},{"zip":"84664","fips":"49049","name":"Utah County","state_id":"UT"},{"zip":"84665","fips":"49039","name":"Sanpete County","state_id":"UT"},{"zip":"84667","fips":"49039","name":"Sanpete County","state_id":"UT"}]
