[{"zip":"84701","fips":"49041","name":"Sevier County","state_id":"UT"},{"zip":"84710","fips":"49025","name":"Kane County","state_id":"UT"},{"zip":"84711","fips":"49041","name":"Sevier County","state_id":"UT"},{"zip":"84712","fips":"49031","name":"Piute County","state_id":"UT"},{"zip":"84712","fips":"49017","name":"Garfield County","state_id":"UT"},{"zip":"84713","fips":"49001","name":"Beaver County","state_id":"UT"},{"zip":"84714","fips":"49021","name":"Iron County","state_id":"UT"},{"zip":"84715","fips":"49055","name":"Wayne County","state_id":"UT"},{"zip":"84716","fips":"49017","name":"Garfield County","state_id":"UT"},{"zip":"84718","fips":"49017","name":"Garfield County","state_id":"UT"},{"zip":"84719","fips":"49021","name":"Iron County","state_id":"UT"},{"zip":"84720","fips":"49021","name":"Iron County","state_id":"UT"},{"zip":"84720","fips":"49053","name":"Washington County","state_id":"UT"},{"zip":"84721","fips":"49021","name":"Iron County","state_id":"UT"},{"zip":"84722","fips":"49053","name":"Washington County","state_id":"UT"},{"zip":"84722","fips":"49021","name":"Iron County","state_id":"UT"},{"zip":"84723","fips":"49031","name":"Piute County","state_id":"UT"},{"zip":"84724","fips":"49041","name":"Sevier County","state_id":"UT"},{"zip":"84725","fips":"49053","name":"Washington County","state_id":"UT"},{"zip":"84726","fips":"49017","name":"Garfield County","state_id":"UT"},{"zip":"84726","fips":"49025","name":"Kane County","state_id":"UT"},{"zip":"84728","fips":"49027","name":"Millard County","state_id":"UT"},{"zip":"84729","fips":"49025","name":"Kane County","state_id":"UT"},{"zip":"84730","fips":"49041","name":"Sevier County","state_id":"UT"},{"zip":"84731","fips":"49001","name":"Beaver County","state_id":"UT"},{"zip":"84732","fips":"49031","name":"Piute County","state_id":"UT"},{"zip":"84733","fips":"49053","name":"Washington County","state_id":"UT"},{"zip":"84734","fips":"49055","name":"Wayne County","state_id":"UT"},{"zip":"84735","fips":"49017","name":"Garfield County","state_id":"UT"},{"zip":"84736","fips":"49017","name":"Garfield County","state_id":"UT"},{"zip":"84737","fips":"49053","name":"Washington County","state_id":"UT"},{"zip":"84738","fips":"49053","name":"Washington County","state_id":"UT"},{"zip":"84739","fips":"49041","name":"Sevier County","state_id":"UT"},{"zip":"84740","fips":"49031","name":"Piute County","state_id":"UT"},{"zip":"84741","fips":"49025","name":"Kane County","state_id":"UT"},{"zip":"84742","fips":"49021","name":"Iron County","state_id":"UT"},{"zip":"84743","fips":"49031","name":"Piute County","state_id":"UT"},{"zip":"84744","fips":"49041","name":"Sevier County","state_id":"UT"},{"zip":"84745","fips":"49053","name":"Washington County","state_id":"UT"},{"zip":"84746","fips":"49053","name":"Washington County","state_id":"UT"},{"zip":"84747","fips":"49055","name":"Wayne County","state_id":"UT"},{"zip":"84749","fips":"49055","name":"Wayne County","state_id":"UT"},{"zip":"84750","fips":"49031","name":"Piute County","state_id":"UT"},{"zip":"84751","fips":"49001","name":"Beaver County","state_id":"UT"},{"zip":"84752","fips":"49001","name":"Beaver County","state_id":"UT"},{"zip":"84753","fips":"49021","name":"Iron County","state_id":"UT"},{"zip":"84754","fips":"49041","name":"Sevier County","state_id":"UT"},{"zip":"84755","fips":"49025","name":"Kane County","state_id":"UT"},{"zip":"84756","fips":"49021","name":"Iron County","state_id":"UT"},{"zip":"84757","fips":"49021","name":"Iron County","state_id":"UT"},{"zip":"84757","fips":"49053","name":"Washington County","state_id":"UT"},{"zip":"84758","fips":"49025","name":"Kane County","state_id":"UT"},{"zip":"84759","fips":"49017","name":"Garfield County","state_id":"UT"},{"zip":"84760","fips":"49021","name":"Iron County","state_id":"UT"},{"zip":"84761","fips":"49021","name":"Iron County","state_id":"UT"},{"zip":"84762","fips":"49025","name":"Kane County","state_id":"UT"},{"zip":"84763","fips":"49053","name":"Washington County","state_id":"UT"},{"zip":"84764","fips":"49017","name":"Garfield County","state_id":"UT"},{"zip":"84765","fips":"49053","name":"Washington County","state_id":"UT"},{"zip":"84766","fips":"49041","name":"Sevier County","state_id":"UT"},{"zip":"84767","fips":"49053","name":"Washington County","state_id":"UT"},{"zip":"84770","fips":"49053","name":"Washington County","state_id":"UT"},{"zip":"84771","fips":"49053","name":"Washington County","state_id":"UT"},{"zip":"84772","fips":"49021","name":"Iron County","state_id":"UT"},{"zip":"84773","fips":"49055","name":"Wayne County","state_id":"UT"},{"zip":"84774","fips":"49053","name":"Washington County","state_id":"UT"},{"zip":"84775","fips":"49055","name":"Wayne County","state_id":"UT"},{"zip":"84776","fips":"49017","name":"Garfield County","state_id":"UT"},{"zip":"84779","fips":"49053","name":"Washington County","state_id":"UT"},{"zip":"84780","fips":"49053","name":"Washington County","state_id":"UT"},{"zip":"84781","fips":"49053","name":"Washington County","state_id":"UT"},{"zip":"84782","fips":"49053","name":"Washington County","state_id":"UT"},{"zip":"84783","fips":"49053","name":"Washington County","state_id":"UT"},{"zip":"84784","fips":"49053","name":"Washington County","state_id":"UT"},{"zip":"84790","fips":"49053","name":"Washington County","state_id":"UT"},{"zip":"84791","fips":"49053","name":"Washington County","state_id":"UT"}]
