[{"zip":"85117","fips":"04021","name":"Pinal County","state_id":"AZ"},{"zip":"85118","fips":"04021","name":"Pinal County","state_id":"AZ"},{"zip":"85119","fips":"04013","name":"Maricopa County","state_id":"AZ"},{"zip":"85119","fips":"04021","name":"Pinal County","state_id":"AZ"},{"zip":"85120","fips":"04013","name":"Maricopa County","state_id":"AZ"},{"zip":"85120","fips":"04021","name":"Pinal County","state_id":"AZ"},{"zip":"85121","fips":"04013","name":"Maricopa County","state_id":"AZ"},{"zip":"85122","fips":"04021","name":"Pinal County","state_id":"AZ"},{"zip":"85123","fips":"04021","name":"Pinal County","state_id":"AZ"},{"zip":"85127","fips":"04013","name":"Maricopa County","state_id":"AZ"},{"zip":"85128","fips":"04021","name":"Pinal County","state_id":"AZ"},{"zip":"85130","fips":"04021","name":"Pinal County","state_id":"AZ"},{"zip":"85131","fips":"04021","name":"Pinal County","state_id":"AZ"},{"zip":"85132","fips":"04021","name":"Pinal County","state_id":"AZ"},{"zip":"85135","fips":"04007","name":"Gila County","state_id":"AZ"},{"zip":"85137","fips":"04021","name":"Pinal County","state_id":"AZ"},{"zip":"85138","fips":"04021","name":"Pinal County","state_id":"AZ"},{"zip":"85139","fips":"04013","name":"Maricopa County","state_id":"AZ"},{"zip":"85139","fips":"04021","name":"Pinal County","state_id":"AZ"},{"zip":"85140","fips":"04021","name":"Pinal County","state_id":"AZ"},{"zip":"85141","fips":"04021","name":"Pinal County","state_id":"AZ"},{"zip":"85142","fips":"04021","name":"Pinal County","state_id":"AZ"},{"zip":"85142","fips":"04013","name":"Maricopa County","state_id":"AZ"},{"zip":"85143","fips":"04021","name":"Pinal County","state_id":"AZ"},{"zip":"85143","fips":"04013","name":"Maricopa County","state_id":"AZ"},{"zip":"85145","fips":"04021","name":"Pinal County","state_id":"AZ"},{"zip":"85147","fips":"04013","name":"Maricopa County","state_id":"AZ"},{"zip":"85172","fips":"04021","name":"Pinal County","state_id":"AZ"},{"zip":"85173","fips":"04021","name":"Pinal County","state_id":"AZ"},{"zip":"85178","fips":"04021","name":"Pinal County","state_id":"AZ"},{"zip":"85191","fips":"04021","name":"Pinal County","state_id":"AZ"},{"zip":"85192","fips":"04007","name":"Gila County","state_id":"AZ"},{"zip":"85192","fips":"04021","name":"Pinal County","state_id":"AZ"},{"zip":"85193","fips":"04021","name":"Pinal County","state_id":"AZ"},{"zip":"85194","fips":"04021","name":"Pinal County","state_id":"AZ"}]
