[{"zip":"85201","fips":"04013","name":"Maricopa County","state_id":"AZ"},{"zip":"85202","fips":"04013","name":"Maricopa County","state_id":"AZ"},{"zip":"85203","fips":"04013","name":"Maricopa County","state_id":"AZ"},{"zip":"85204","fips":"04013","name":"Maricopa County","state_id":"AZ"},{"zip":"85205","fips":"04013","name":"Maricopa County","state_id":"AZ"},{"zip":"85206","fips":"04013","name":"Maricopa County","state_id":"AZ"},{"zip":"85207","fips":"04013","name":"Maricopa County","state_id":"AZ"},{"zip":"85208","fips":"04013","name":"Maricopa County","state_id":"AZ"},{"zip":"85209","fips":"04013","name":"Maricopa County","state_id":"AZ"},{"zip":"85210","fips":"04013","name":"Maricopa County","state_id":"AZ"},{"zip":"85211","fips":"04013","name":"Maricopa County","state_id":"AZ"},{"zip":"85212","fips":"04021","name":"Pinal County","state_id":"AZ"},{"zip":"85212","fips":"04013","name":"Maricopa County","state_id":"AZ"},{"zip":"85213","fips":"04013","name":"Maricopa County","state_id":"AZ"},{"zip":"85214","fips":"04013","name":"Maricopa County","state_id":"AZ"},{"zip":"85215","fips":"04013","name":"Maricopa County","state_id":"AZ"},{"zip":"85216","fips":"04013","name":"Maricopa County","state_id":"AZ"},{"zip":"85224","fips":"04013","name":"Maricopa County","state_id":"AZ"},{"zip":"85225","fips":"04013","name":"Maricopa County","state_id":"AZ"},{"zip":"85226","fips":"04013","name":"Maricopa County","state_id":"AZ"},{"zip":"85233","fips":"04013","name":"Maricopa County","state_id":"AZ"},{"zip":"85234","fips":"04013","name":"Maricopa County","state_id":"AZ"},{"zip":"85236","fips":"04013","name":"Maricopa County","state_id":"AZ"},{"zip":"85244","fips":"04013","name":"Maricopa County","state_id":"AZ"},{"zip":"85246","fips":"04013","name":"Maricopa County","state_id":"AZ"},{"zip":"85248","fips":"04013","name":"Maricopa County","state_id":"AZ"},{"zip":"85248","fips":"04021","name":"Pinal County","state_id":"AZ"},{"zip":"85249","fips":"04013","name":"Maricopa County","state_id":"AZ"},{"zip":"85250","fips":"04013","name":"Maricopa County","state_id":"AZ"},{"zip":"85251","fips":"04013","name":"Maricopa County","state_id":"AZ"},{"zip":"85252","fips":"04013","name":"Maricopa County","state_id":"AZ"},{"zip":"85253","fips":"04013","name":"Maricopa County","state_id":"AZ"},{"zip":"85254","fips":"04013","name":"Maricopa County","state_id":"AZ"},{"zip":"85255","fips":"04013","name":"Maricopa County","state_id":"AZ"},{"zip":"85256","fips":"04013","name":"Maricopa County","state_id":"AZ"},{"zip":"85257","fips":"04013","name":"Maricopa County","state_id":"AZ"},{"zip":"85258","fips":"04013","name":"Maricopa County","state_id":"AZ"},{"zip":"85259","fips":"04013","name":"Maricopa County","state_id":"AZ"},{"zip":"85260","fips":"04013","name":"Maricopa County","state_id":"AZ"},{"zip":"85261","fips":"04013","name":"Maricopa County","state_id":"AZ"},{"zip":"85262","fips":"04013","name":"Maricopa County","state_id":"AZ"},{"zip":"85263","fips":"04013","name":"Maricopa County","state_id":"AZ"},{"zip":"85264","fips":"04013","name":"Maricopa County","state_id":"AZ"},{"zip":"85266","fips":"04013","name":"Maricopa County","state_id":"AZ"},{"zip":"85267","fips":"04013","name":"Maricopa County","state_id":"AZ"},{"zip":"85268","fips":"04013","name":"Maricopa County","state_id":"AZ"},{"zip":"85269","fips":"04013","name":"Maricopa County","state_id":"AZ"},{"zip":"85271","fips":"04013","name":"Maricopa County","state_id":"AZ"},{"zip":"85274","fips":"04013","name":"Maricopa County","state_id":"AZ"},{"zip":"85275","fips":"04013","name":"Maricopa County","state_id":"AZ"},{"zip":"85277","fips":"04013","name":"Maricopa County","state_id":"AZ"},{"zip":"85280","fips":"04013","name":"Maricopa County","state_id":"AZ"},{"zip":"85281","fips":"04013","name":"Maricopa County","state_id":"AZ"},{"zip":"85282","fips":"04013","name":"Maricopa County","state_id":"AZ"},{"zip":"85283","fips":"04013","name":"Maricopa County","state_id":"AZ"},{"zip":"85284","fips":"04013","name":"Maricopa County","state_id":"AZ"},{"zip":"85285","fips":"04013","name":"Maricopa County","state_id":"AZ"},{"zip":"85286","fips":"04013","name":"Maricopa County","state_id":"AZ"},{"zip":"85287","fips":"04013","name":"Maricopa County","state_id":"AZ"},{"zip":"85295","fips":"04013","name":"Maricopa County","state_id":"AZ"},{"zip":"85296","fips":"04013","name":"Maricopa County","state_id":"AZ"},{"zip":"85297","fips":"04013","name":"Maricopa County","state_id":"AZ"},{"zip":"85298","fips":"04013","name":"Maricopa County","state_id":"AZ"},{"zip":"85299","fips":"04013","name":"Maricopa County","state_id":"AZ"}]
