[{"zip":"85301","fips":"04013","name":"Maricopa County","state_id":"AZ"},{"zip":"85302","fips":"04013","name":"Maricopa County","state_id":"AZ"},{"zip":"85303","fips":"04013","name":"Maricopa County","state_id":"AZ"},{"zip":"85304","fips":"04013","name":"Maricopa County","state_id":"AZ"},{"zip":"85305","fips":"04013","name":"Maricopa County","state_id":"AZ"},{"zip":"85306","fips":"04013","name":"Maricopa County","state_id":"AZ"},{"zip":"85307","fips":"04013","name":"Maricopa County","state_id":"AZ"},{"zip":"85308","fips":"04013","name":"Maricopa County","state_id":"AZ"},{"zip":"85309","fips":"04013","name":"Maricopa County","state_id":"AZ"},{"zip":"85310","fips":"04013","name":"Maricopa County","state_id":"AZ"},{"zip":"85311","fips":"04013","name":"Maricopa County","state_id":"AZ"},{"zip":"85312","fips":"04013","name":"Maricopa County","state_id":"AZ"},{"zip":"85318","fips":"04013","name":"Maricopa County","state_id":"AZ"},{"zip":"85320","fips":"04013","name":"Maricopa County","state_id":"AZ"},{"zip":"85321","fips":"04019","name":"Pima County","state_id":"AZ"},{"zip":"85322","fips":"04013","name":"Maricopa County","state_id":"AZ"},{"zip":"85323","fips":"04013","name":"Maricopa County","state_id":"AZ"},{"zip":"85324","fips":"04025","name":"Yavapai County","state_id":"AZ"},{"zip":"85325","fips":"04012","name":"La Paz County","state_id":"AZ"},{"zip":"85326","fips":"04013","name":"Maricopa County","state_id":"AZ"},{"zip":"85327","fips":"04013","name":"Maricopa County","state_id":"AZ"},{"zip":"85328","fips":"04012","name":"La Paz County","state_id":"AZ"},{"zip":"85329","fips":"04013","name":"Maricopa County","state_id":"AZ"},{"zip":"85331","fips":"04013","name":"Maricopa County","state_id":"AZ"},{"zip":"85332","fips":"04025","name":"Yavapai County","state_id":"AZ"},{"zip":"85333","fips":"04027","name":"Yuma County","state_id":"AZ"},{"zip":"85333","fips":"04013","name":"Maricopa County","state_id":"AZ"},{"zip":"85334","fips":"04012","name":"La Paz County","state_id":"AZ"},{"zip":"85335","fips":"04013","name":"Maricopa County","state_id":"AZ"},{"zip":"85336","fips":"04027","name":"Yuma County","state_id":"AZ"},{"zip":"85337","fips":"04013","name":"Maricopa County","state_id":"AZ"},{"zip":"85338","fips":"04013","name":"Maricopa County","state_id":"AZ"},{"zip":"85339","fips":"04013","name":"Maricopa County","state_id":"AZ"},{"zip":"85340","fips":"04013","name":"Maricopa County","state_id":"AZ"},{"zip":"85341","fips":"04019","name":"Pima County","state_id":"AZ"},{"zip":"85342","fips":"04013","name":"Maricopa County","state_id":"AZ"},{"zip":"85342","fips":"04025","name":"Yavapai County","state_id":"AZ"},{"zip":"85343","fips":"04013","name":"Maricopa County","state_id":"AZ"},{"zip":"85344","fips":"04012","name":"La Paz County","state_id":"AZ"},{"zip":"85345","fips":"04013","name":"Maricopa County","state_id":"AZ"},{"zip":"85346","fips":"04012","name":"La Paz County","state_id":"AZ"},{"zip":"85347","fips":"04027","name":"Yuma County","state_id":"AZ"},{"zip":"85348","fips":"04012","name":"La Paz County","state_id":"AZ"},{"zip":"85349","fips":"04027","name":"Yuma County","state_id":"AZ"},{"zip":"85350","fips":"04027","name":"Yuma County","state_id":"AZ"},{"zip":"85351","fips":"04013","name":"Maricopa County","state_id":"AZ"},{"zip":"85352","fips":"04027","name":"Yuma County","state_id":"AZ"},{"zip":"85353","fips":"04013","name":"Maricopa County","state_id":"AZ"},{"zip":"85354","fips":"04013","name":"Maricopa County","state_id":"AZ"},{"zip":"85355","fips":"04013","name":"Maricopa County","state_id":"AZ"},{"zip":"85356","fips":"04027","name":"Yuma County","state_id":"AZ"},{"zip":"85357","fips":"04012","name":"La Paz County","state_id":"AZ"},{"zip":"85359","fips":"04012","name":"La Paz County","state_id":"AZ"},{"zip":"85360","fips":"04015","name":"Mohave County","state_id":"AZ"},{"zip":"85361","fips":"04013","name":"Maricopa County","state_id":"AZ"},{"zip":"85362","fips":"04025","name":"Yavapai County","state_id":"AZ"},{"zip":"85363","fips":"04013","name":"Maricopa County","state_id":"AZ"},{"zip":"85364","fips":"04027","name":"Yuma County","state_id":"AZ"},{"zip":"85365","fips":"04027","name":"Yuma County","state_id":"AZ"},{"zip":"85366","fips":"04027","name":"Yuma County","state_id":"AZ"},{"zip":"85367","fips":"04027","name":"Yuma County","state_id":"AZ"},{"zip":"85372","fips":"04013","name":"Maricopa County","state_id":"AZ"},{"zip":"85373","fips":"04013","name":"Maricopa County","state_id":"AZ"},{"zip":"85374","fips":"04013","name":"Maricopa County","state_id":"AZ"},{"zip":"85375","fips":"04013","name":"Maricopa County","state_id":"AZ"},{"zip":"85376","fips":"04013","name":"Maricopa County","state_id":"AZ"},{"zip":"85377","fips":"04013","name":"Maricopa County","state_id":"AZ"},{"zip":"85378","fips":"04013","name":"Maricopa County","state_id":"AZ"},{"zip":"85379","fips":"04013","name":"Maricopa County","state_id":"AZ"},{"zip":"85380","fips":"04013","name":"Maricopa County","state_id":"AZ"},{"zip":"85381","fips":"04013","name":"Maricopa County","state_id":"AZ"},{"zip":"85382","fips":"04013","name":"Maricopa County","state_id":"AZ"},{"zip":"85383","fips":"04013","name":"Maricopa County","state_id":"AZ"},{"zip":"85385","fips":"04013","name":"Maricopa County","state_id":"AZ"},{"zip":"85387","fips":"04013","name":"Maricopa County","state_id":"AZ"},{"zip":"85388","fips":"04013","name":"Maricopa County","state_id":"AZ"},{"zip":"85390","fips":"04013","name":"Maricopa County","state_id":"AZ"},{"zip":"85390","fips":"04025","name":"Yavapai County","state_id":"AZ"},{"zip":"85392","fips":"04013","name":"Maricopa County","state_id":"AZ"},{"zip":"85395","fips":"04013","name":"Maricopa County","state_id":"AZ"},{"zip":"85396","fips":"04013","name":"Maricopa County","state_id":"AZ"}]
