[{"zip":"85501","fips":"04007","name":"Gila County","state_id":"AZ"},{"zip":"85530","fips":"04009","name":"Graham County","state_id":"AZ"},{"zip":"85531","fips":"04009","name":"Graham County","state_id":"AZ"},{"zip":"85532","fips":"04007","name":"Gila County","state_id":"AZ"},{"zip":"85533","fips":"04011","name":"Greenlee County","state_id":"AZ"},{"zip":"85534","fips":"04011","name":"Greenlee County","state_id":"AZ"},{"zip":"85535","fips":"04009","name":"Graham County","state_id":"AZ"},{"zip":"85536","fips":"04009","name":"Graham County","state_id":"AZ"},{"zip":"85539","fips":"04007","name":"Gila County","state_id":"AZ"},{"zip":"85539","fips":"04021","name":"Pinal County","state_id":"AZ"},{"zip":"85540","fips":"04011","name":"Greenlee County","state_id":"AZ"},{"zip":"85541","fips":"04007","name":"Gila County","state_id":"AZ"},{"zip":"85542","fips":"04007","name":"Gila County","state_id":"AZ"},{"zip":"85543","fips":"04009","name":"Graham County","state_id":"AZ"},{"zip":"85544","fips":"04007","name":"Gila County","state_id":"AZ"},{"zip":"85545","fips":"04013","name":"Maricopa County","state_id":"AZ"},{"zip":"85545","fips":"04007","name":"Gila County","state_id":"AZ"},{"zip":"85546","fips":"04009","name":"Graham County","state_id":"AZ"},{"zip":"85547","fips":"04007","name":"Gila County","state_id":"AZ"},{"zip":"85548","fips":"04009","name":"Graham County","state_id":"AZ"},{"zip":"85550","fips":"04009","name":"Graham County","state_id":"AZ"},{"zip":"85551","fips":"04009","name":"Graham County","state_id":"AZ"},{"zip":"85552","fips":"04009","name":"Graham County","state_id":"AZ"},{"zip":"85553","fips":"04007","name":"Gila County","state_id":"AZ"},{"zip":"85554","fips":"04007","name":"Gila County","state_id":"AZ"}]
