[{"zip":"85601","fips":"04019","name":"Pima County","state_id":"AZ"},{"zip":"85602","fips":"04003","name":"Cochise County","state_id":"AZ"},{"zip":"85602","fips":"04019","name":"Pima County","state_id":"AZ"},{"zip":"85602","fips":"04021","name":"Pinal County","state_id":"AZ"},{"zip":"85603","fips":"04003","name":"Cochise County","state_id":"AZ"},{"zip":"85605","fips":"04003","name":"Cochise County","state_id":"AZ"},{"zip":"85606","fips":"04003","name":"Cochise County","state_id":"AZ"},{"zip":"85607","fips":"04003","name":"Cochise County","state_id":"AZ"},{"zip":"85608","fips":"04003","name":"Cochise County","state_id":"AZ"},{"zip":"85609","fips":"04003","name":"Cochise County","state_id":"AZ"},{"zip":"85610","fips":"04003","name":"Cochise County","state_id":"AZ"},{"zip":"85611","fips":"04003","name":"Cochise County","state_id":"AZ"},{"zip":"85611","fips":"04019","name":"Pima County","state_id":"AZ"},{"zip":"85611","fips":"04023","name":"Santa Cruz County","state_id":"AZ"},{"zip":"85613","fips":"04003","name":"Cochise County","state_id":"AZ"},{"zip":"85614","fips":"04019","name":"Pima County","state_id":"AZ"},{"zip":"85614","fips":"04023","name":"Santa Cruz County","state_id":"AZ"},{"zip":"85615","fips":"04003","name":"Cochise County","state_id":"AZ"},{"zip":"85616","fips":"04003","name":"Cochise County","state_id":"AZ"},{"zip":"85617","fips":"04003","name":"Cochise County","state_id":"AZ"},{"zip":"85618","fips":"04021","name":"Pinal County","state_id":"AZ"},{"zip":"85619","fips":"04019","name":"Pima County","state_id":"AZ"},{"zip":"85620","fips":"04003","name":"Cochise County","state_id":"AZ"},{"zip":"85621","fips":"04023","name":"Santa Cruz County","state_id":"AZ"},{"zip":"85622","fips":"04019","name":"Pima County","state_id":"AZ"},{"zip":"85623","fips":"04021","name":"Pinal County","state_id":"AZ"},{"zip":"85624","fips":"04023","name":"Santa Cruz County","state_id":"AZ"},{"zip":"85624","fips":"04003","name":"Cochise County","state_id":"AZ"},{"zip":"85625","fips":"04003","name":"Cochise County","state_id":"AZ"},{"zip":"85626","fips":"04003","name":"Cochise County","state_id":"AZ"},{"zip":"85627","fips":"04003","name":"Cochise County","state_id":"AZ"},{"zip":"85628","fips":"04023","name":"Santa Cruz County","state_id":"AZ"},{"zip":"85629","fips":"04019","name":"Pima County","state_id":"AZ"},{"zip":"85630","fips":"04003","name":"Cochise County","state_id":"AZ"},{"zip":"85631","fips":"04021","name":"Pinal County","state_id":"AZ"},{"zip":"85632","fips":"04003","name":"Cochise County","state_id":"AZ"},{"zip":"85633","fips":"04019","name":"Pima County","state_id":"AZ"},{"zip":"85634","fips":"04019","name":"Pima County","state_id":"AZ"},{"zip":"85635","fips":"04003","name":"Cochise County","state_id":"AZ"},{"zip":"85636","fips":"04003","name":"Cochise County","state_id":"AZ"},{"zip":"85637","fips":"04023","name":"Santa Cruz County","state_id":"AZ"},{"zip":"85637","fips":"04019","name":"Pima County","state_id":"AZ"},{"zip":"85638","fips":"04003","name":"Cochise County","state_id":"AZ"},{"zip":"85639","fips":"04019","name":"Pima County","state_id":"AZ"},{"zip":"85640","fips":"04023","name":"Santa Cruz County","state_id":"AZ"},{"zip":"85641","fips":"04019","name":"Pima County","state_id":"AZ"},{"zip":"85643","fips":"04009","name":"Graham County","state_id":"AZ"},{"zip":"85643","fips":"04003","name":"Cochise County","state_id":"AZ"},{"zip":"85645","fips":"04023","name":"Santa Cruz County","state_id":"AZ"},{"zip":"85645","fips":"04019","name":"Pima County","state_id":"AZ"},{"zip":"85646","fips":"04023","name":"Santa Cruz County","state_id":"AZ"},{"zip":"85648","fips":"04023","name":"Santa Cruz County","state_id":"AZ"},{"zip":"85650","fips":"04003","name":"Cochise County","state_id":"AZ"},{"zip":"85652","fips":"04019","name":"Pima County","state_id":"AZ"},{"zip":"85653","fips":"04019","name":"Pima County","state_id":"AZ"},{"zip":"85653","fips":"04021","name":"Pinal County","state_id":"AZ"},{"zip":"85654","fips":"04019","name":"Pima County","state_id":"AZ"},{"zip":"85658","fips":"04021","name":"Pinal County","state_id":"AZ"},{"zip":"85658","fips":"04019","name":"Pima County","state_id":"AZ"}]
