[{"zip":"85901","fips":"04017","name":"Navajo County","state_id":"AZ"},{"zip":"85901","fips":"04001","name":"Apache County","state_id":"AZ"},{"zip":"85902","fips":"04017","name":"Navajo County","state_id":"AZ"},{"zip":"85911","fips":"04017","name":"Navajo County","state_id":"AZ"},{"zip":"85920","fips":"04001","name":"Apache County","state_id":"AZ"},{"zip":"85922","fips":"04011","name":"Greenlee County","state_id":"AZ"},{"zip":"85923","fips":"04017","name":"Navajo County","state_id":"AZ"},{"zip":"85924","fips":"04001","name":"Apache County","state_id":"AZ"},{"zip":"85925","fips":"04001","name":"Apache County","state_id":"AZ"},{"zip":"85926","fips":"04017","name":"Navajo County","state_id":"AZ"},{"zip":"85927","fips":"04001","name":"Apache County","state_id":"AZ"},{"zip":"85928","fips":"04017","name":"Navajo County","state_id":"AZ"},{"zip":"85928","fips":"04005","name":"Coconino County","state_id":"AZ"},{"zip":"85929","fips":"04017","name":"Navajo County","state_id":"AZ"},{"zip":"85930","fips":"04001","name":"Apache County","state_id":"AZ"},{"zip":"85931","fips":"04005","name":"Coconino County","state_id":"AZ"},{"zip":"85932","fips":"04001","name":"Apache County","state_id":"AZ"},{"zip":"85933","fips":"04017","name":"Navajo County","state_id":"AZ"},{"zip":"85934","fips":"04017","name":"Navajo County","state_id":"AZ"},{"zip":"85935","fips":"04017","name":"Navajo County","state_id":"AZ"},{"zip":"85936","fips":"04001","name":"Apache County","state_id":"AZ"},{"zip":"85937","fips":"04001","name":"Apache County","state_id":"AZ"},{"zip":"85937","fips":"04017","name":"Navajo County","state_id":"AZ"},{"zip":"85938","fips":"04001","name":"Apache County","state_id":"AZ"},{"zip":"85939","fips":"04017","name":"Navajo County","state_id":"AZ"},{"zip":"85940","fips":"04001","name":"Apache County","state_id":"AZ"},{"zip":"85941","fips":"04017","name":"Navajo County","state_id":"AZ"},{"zip":"85942","fips":"04017","name":"Navajo County","state_id":"AZ"}]
