[{"zip":"86001","fips":"04005","name":"Coconino County","state_id":"AZ"},{"zip":"86002","fips":"04005","name":"Coconino County","state_id":"AZ"},{"zip":"86003","fips":"04005","name":"Coconino County","state_id":"AZ"},{"zip":"86004","fips":"04005","name":"Coconino County","state_id":"AZ"},{"zip":"86005","fips":"04005","name":"Coconino County","state_id":"AZ"},{"zip":"86011","fips":"04005","name":"Coconino County","state_id":"AZ"},{"zip":"86015","fips":"04005","name":"Coconino County","state_id":"AZ"},{"zip":"86016","fips":"04005","name":"Coconino County","state_id":"AZ"},{"zip":"86017","fips":"04005","name":"Coconino County","state_id":"AZ"},{"zip":"86018","fips":"04005","name":"Coconino County","state_id":"AZ"},{"zip":"86020","fips":"04005","name":"Coconino County","state_id":"AZ"},{"zip":"86021","fips":"04015","name":"Mohave County","state_id":"AZ"},{"zip":"86022","fips":"04005","name":"Coconino County","state_id":"AZ"},{"zip":"86023","fips":"04005","name":"Coconino County","state_id":"AZ"},{"zip":"86024","fips":"04005","name":"Coconino County","state_id":"AZ"},{"zip":"86025","fips":"04017","name":"Navajo County","state_id":"AZ"},{"zip":"86028","fips":"04001","name":"Apache County","state_id":"AZ"},{"zip":"86029","fips":"04017","name":"Navajo County","state_id":"AZ"},{"zip":"86030","fips":"04017","name":"Navajo County","state_id":"AZ"},{"zip":"86031","fips":"04017","name":"Navajo County","state_id":"AZ"},{"zip":"86032","fips":"04017","name":"Navajo County","state_id":"AZ"},{"zip":"86033","fips":"04017","name":"Navajo County","state_id":"AZ"},{"zip":"86034","fips":"04017","name":"Navajo County","state_id":"AZ"},{"zip":"86035","fips":"04005","name":"Coconino County","state_id":"AZ"},{"zip":"86036","fips":"04005","name":"Coconino County","state_id":"AZ"},{"zip":"86038","fips":"04005","name":"Coconino County","state_id":"AZ"},{"zip":"86039","fips":"04017","name":"Navajo County","state_id":"AZ"},{"zip":"86040","fips":"04005","name":"Coconino County","state_id":"AZ"},{"zip":"86042","fips":"04017","name":"Navajo County","state_id":"AZ"},{"zip":"86043","fips":"04017","name":"Navajo County","state_id":"AZ"},{"zip":"86044","fips":"04005","name":"Coconino County","state_id":"AZ"},{"zip":"86045","fips":"04005","name":"Coconino County","state_id":"AZ"},{"zip":"86046","fips":"04025","name":"Yavapai County","state_id":"AZ"},{"zip":"86046","fips":"04005","name":"Coconino County","state_id":"AZ"},{"zip":"86047","fips":"04005","name":"Coconino County","state_id":"AZ"},{"zip":"86047","fips":"04017","name":"Navajo County","state_id":"AZ"},{"zip":"86052","fips":"04005","name":"Coconino County","state_id":"AZ"},{"zip":"86053","fips":"04005","name":"Coconino County","state_id":"AZ"},{"zip":"86054","fips":"04017","name":"Navajo County","state_id":"AZ"}]
