[{"zip":"86401","fips":"04015","name":"Mohave County","state_id":"AZ"},{"zip":"86402","fips":"04015","name":"Mohave County","state_id":"AZ"},{"zip":"86403","fips":"04015","name":"Mohave County","state_id":"AZ"},{"zip":"86404","fips":"04015","name":"Mohave County","state_id":"AZ"},{"zip":"86405","fips":"04015","name":"Mohave County","state_id":"AZ"},{"zip":"86406","fips":"04015","name":"Mohave County","state_id":"AZ"},{"zip":"86409","fips":"04015","name":"Mohave County","state_id":"AZ"},{"zip":"86411","fips":"04015","name":"Mohave County","state_id":"AZ"},{"zip":"86412","fips":"04015","name":"Mohave County","state_id":"AZ"},{"zip":"86413","fips":"04015","name":"Mohave County","state_id":"AZ"},{"zip":"86426","fips":"04015","name":"Mohave County","state_id":"AZ"},{"zip":"86427","fips":"04015","name":"Mohave County","state_id":"AZ"},{"zip":"86429","fips":"04015","name":"Mohave County","state_id":"AZ"},{"zip":"86430","fips":"04015","name":"Mohave County","state_id":"AZ"},{"zip":"86431","fips":"04015","name":"Mohave County","state_id":"AZ"},{"zip":"86432","fips":"04015","name":"Mohave County","state_id":"AZ"},{"zip":"86433","fips":"04015","name":"Mohave County","state_id":"AZ"},{"zip":"86434","fips":"04015","name":"Mohave County","state_id":"AZ"},{"zip":"86435","fips":"04005","name":"Coconino County","state_id":"AZ"},{"zip":"86436","fips":"04015","name":"Mohave County","state_id":"AZ"},{"zip":"86437","fips":"04015","name":"Mohave County","state_id":"AZ"},{"zip":"86438","fips":"04015","name":"Mohave County","state_id":"AZ"},{"zip":"86439","fips":"04015","name":"Mohave County","state_id":"AZ"},{"zip":"86440","fips":"04015","name":"Mohave County","state_id":"AZ"},{"zip":"86441","fips":"04015","name":"Mohave County","state_id":"AZ"},{"zip":"86442","fips":"04015","name":"Mohave County","state_id":"AZ"},{"zip":"86443","fips":"04015","name":"Mohave County","state_id":"AZ"},{"zip":"86444","fips":"04015","name":"Mohave County","state_id":"AZ"},{"zip":"86445","fips":"04015","name":"Mohave County","state_id":"AZ"},{"zip":"86446","fips":"04015","name":"Mohave County","state_id":"AZ"}]
