[{"zip":"86502","fips":"04001","name":"Apache County","state_id":"AZ"},{"zip":"86503","fips":"04001","name":"Apache County","state_id":"AZ"},{"zip":"86504","fips":"04001","name":"Apache County","state_id":"AZ"},{"zip":"86505","fips":"04001","name":"Apache County","state_id":"AZ"},{"zip":"86506","fips":"04001","name":"Apache County","state_id":"AZ"},{"zip":"86507","fips":"04001","name":"Apache County","state_id":"AZ"},{"zip":"86508","fips":"04001","name":"Apache County","state_id":"AZ"},{"zip":"86510","fips":"04017","name":"Navajo County","state_id":"AZ"},{"zip":"86511","fips":"04001","name":"Apache County","state_id":"AZ"},{"zip":"86512","fips":"04001","name":"Apache County","state_id":"AZ"},{"zip":"86514","fips":"04001","name":"Apache County","state_id":"AZ"},{"zip":"86515","fips":"04001","name":"Apache County","state_id":"AZ"},{"zip":"86520","fips":"04017","name":"Navajo County","state_id":"AZ"},{"zip":"86535","fips":"04001","name":"Apache County","state_id":"AZ"},{"zip":"86538","fips":"04001","name":"Apache County","state_id":"AZ"},{"zip":"86540","fips":"04001","name":"Apache County","state_id":"AZ"},{"zip":"86544","fips":"04001","name":"Apache County","state_id":"AZ"},{"zip":"86545","fips":"04001","name":"Apache County","state_id":"AZ"},{"zip":"86547","fips":"04001","name":"Apache County","state_id":"AZ"},{"zip":"86556","fips":"04001","name":"Apache County","state_id":"AZ"}]
