[{"zip":"87001","fips":"35043","name":"Sandoval County","state_id":"NM"},{"zip":"87002","fips":"35061","name":"Valencia County","state_id":"NM"},{"zip":"87002","fips":"35053","name":"Socorro County","state_id":"NM"},{"zip":"87004","fips":"35043","name":"Sandoval County","state_id":"NM"},{"zip":"87005","fips":"35006","name":"Cibola County","state_id":"NM"},{"zip":"87006","fips":"35053","name":"Socorro County","state_id":"NM"},{"zip":"87006","fips":"35061","name":"Valencia County","state_id":"NM"},{"zip":"87007","fips":"35006","name":"Cibola County","state_id":"NM"},{"zip":"87008","fips":"35001","name":"Bernalillo County","state_id":"NM"},{"zip":"87009","fips":"35057","name":"Torrance County","state_id":"NM"},{"zip":"87010","fips":"35049","name":"Santa Fe County","state_id":"NM"},{"zip":"87011","fips":"35053","name":"Socorro County","state_id":"NM"},{"zip":"87012","fips":"35039","name":"Rio Arriba County","state_id":"NM"},{"zip":"87013","fips":"35043","name":"Sandoval County","state_id":"NM"},{"zip":"87013","fips":"35039","name":"Rio Arriba County","state_id":"NM"},{"zip":"87014","fips":"35006","name":"Cibola County","state_id":"NM"},{"zip":"87015","fips":"35001","name":"Bernalillo County","state_id":"NM"},{"zip":"87015","fips":"35049","name":"Santa Fe County","state_id":"NM"},{"zip":"87015","fips":"35057","name":"Torrance County","state_id":"NM"},{"zip":"87016","fips":"35001","name":"Bernalillo County","state_id":"NM"},{"zip":"87016","fips":"35057","name":"Torrance County","state_id":"NM"},{"zip":"87017","fips":"35039","name":"Rio Arriba County","state_id":"NM"},{"zip":"87018","fips":"35043","name":"Sandoval County","state_id":"NM"},{"zip":"87020","fips":"35031","name":"McKinley County","state_id":"NM"},{"zip":"87020","fips":"35006","name":"Cibola County","state_id":"NM"},{"zip":"87021","fips":"35006","name":"Cibola County","state_id":"NM"},{"zip":"87022","fips":"35001","name":"Bernalillo County","state_id":"NM"},{"zip":"87023","fips":"35061","name":"Valencia County","state_id":"NM"},{"zip":"87024","fips":"35043","name":"Sandoval County","state_id":"NM"},{"zip":"87025","fips":"35043","name":"Sandoval County","state_id":"NM"},{"zip":"87026","fips":"35001","name":"Bernalillo County","state_id":"NM"},{"zip":"87026","fips":"35061","name":"Valencia County","state_id":"NM"},{"zip":"87027","fips":"35043","name":"Sandoval County","state_id":"NM"},{"zip":"87028","fips":"35053","name":"Socorro County","state_id":"NM"},{"zip":"87029","fips":"35039","name":"Rio Arriba County","state_id":"NM"},{"zip":"87031","fips":"35061","name":"Valencia County","state_id":"NM"},{"zip":"87032","fips":"35057","name":"Torrance County","state_id":"NM"},{"zip":"87034","fips":"35006","name":"Cibola County","state_id":"NM"},{"zip":"87035","fips":"35001","name":"Bernalillo County","state_id":"NM"},{"zip":"87035","fips":"35049","name":"Santa Fe County","state_id":"NM"},{"zip":"87035","fips":"35057","name":"Torrance County","state_id":"NM"},{"zip":"87036","fips":"35057","name":"Torrance County","state_id":"NM"},{"zip":"87037","fips":"35045","name":"San Juan County","state_id":"NM"},{"zip":"87038","fips":"35006","name":"Cibola County","state_id":"NM"},{"zip":"87040","fips":"35006","name":"Cibola County","state_id":"NM"},{"zip":"87041","fips":"35043","name":"Sandoval County","state_id":"NM"},{"zip":"87042","fips":"35061","name":"Valencia County","state_id":"NM"},{"zip":"87043","fips":"35043","name":"Sandoval County","state_id":"NM"},{"zip":"87044","fips":"35043","name":"Sandoval County","state_id":"NM"},{"zip":"87045","fips":"35006","name":"Cibola County","state_id":"NM"},{"zip":"87045","fips":"35031","name":"McKinley County","state_id":"NM"},{"zip":"87046","fips":"35039","name":"Rio Arriba County","state_id":"NM"},{"zip":"87046","fips":"35043","name":"Sandoval County","state_id":"NM"},{"zip":"87047","fips":"35049","name":"Santa Fe County","state_id":"NM"},{"zip":"87047","fips":"35043","name":"Sandoval County","state_id":"NM"},{"zip":"87047","fips":"35001","name":"Bernalillo County","state_id":"NM"},{"zip":"87048","fips":"35043","name":"Sandoval County","state_id":"NM"},{"zip":"87048","fips":"35001","name":"Bernalillo County","state_id":"NM"},{"zip":"87049","fips":"35006","name":"Cibola County","state_id":"NM"},{"zip":"87051","fips":"35006","name":"Cibola County","state_id":"NM"},{"zip":"87052","fips":"35043","name":"Sandoval County","state_id":"NM"},{"zip":"87053","fips":"35043","name":"Sandoval County","state_id":"NM"},{"zip":"87056","fips":"35049","name":"Santa Fe County","state_id":"NM"},{"zip":"87059","fips":"35001","name":"Bernalillo County","state_id":"NM"},{"zip":"87060","fips":"35061","name":"Valencia County","state_id":"NM"},{"zip":"87061","fips":"35057","name":"Torrance County","state_id":"NM"},{"zip":"87062","fips":"35061","name":"Valencia County","state_id":"NM"},{"zip":"87062","fips":"35053","name":"Socorro County","state_id":"NM"},{"zip":"87063","fips":"35057","name":"Torrance County","state_id":"NM"},{"zip":"87064","fips":"35039","name":"Rio Arriba County","state_id":"NM"},{"zip":"87068","fips":"35001","name":"Bernalillo County","state_id":"NM"},{"zip":"87068","fips":"35061","name":"Valencia County","state_id":"NM"},{"zip":"87070","fips":"35057","name":"Torrance County","state_id":"NM"},{"zip":"87072","fips":"35043","name":"Sandoval County","state_id":"NM"},{"zip":"87083","fips":"35043","name":"Sandoval County","state_id":"NM"}]
