[{"zip":"87101","fips":"35001","name":"Bernalillo County","state_id":"NM"},{"zip":"87102","fips":"35001","name":"Bernalillo County","state_id":"NM"},{"zip":"87103","fips":"35001","name":"Bernalillo County","state_id":"NM"},{"zip":"87104","fips":"35001","name":"Bernalillo County","state_id":"NM"},{"zip":"87105","fips":"35001","name":"Bernalillo County","state_id":"NM"},{"zip":"87106","fips":"35001","name":"Bernalillo County","state_id":"NM"},{"zip":"87107","fips":"35001","name":"Bernalillo County","state_id":"NM"},{"zip":"87108","fips":"35001","name":"Bernalillo County","state_id":"NM"},{"zip":"87109","fips":"35001","name":"Bernalillo County","state_id":"NM"},{"zip":"87110","fips":"35001","name":"Bernalillo County","state_id":"NM"},{"zip":"87111","fips":"35001","name":"Bernalillo County","state_id":"NM"},{"zip":"87112","fips":"35001","name":"Bernalillo County","state_id":"NM"},{"zip":"87113","fips":"35001","name":"Bernalillo County","state_id":"NM"},{"zip":"87114","fips":"35001","name":"Bernalillo County","state_id":"NM"},{"zip":"87115","fips":"35001","name":"Bernalillo County","state_id":"NM"},{"zip":"87116","fips":"35001","name":"Bernalillo County","state_id":"NM"},{"zip":"87117","fips":"35001","name":"Bernalillo County","state_id":"NM"},{"zip":"87119","fips":"35001","name":"Bernalillo County","state_id":"NM"},{"zip":"87120","fips":"35001","name":"Bernalillo County","state_id":"NM"},{"zip":"87121","fips":"35001","name":"Bernalillo County","state_id":"NM"},{"zip":"87122","fips":"35043","name":"Sandoval County","state_id":"NM"},{"zip":"87122","fips":"35001","name":"Bernalillo County","state_id":"NM"},{"zip":"87123","fips":"35001","name":"Bernalillo County","state_id":"NM"},{"zip":"87124","fips":"35001","name":"Bernalillo County","state_id":"NM"},{"zip":"87124","fips":"35043","name":"Sandoval County","state_id":"NM"},{"zip":"87125","fips":"35001","name":"Bernalillo County","state_id":"NM"},{"zip":"87131","fips":"35001","name":"Bernalillo County","state_id":"NM"},{"zip":"87144","fips":"35043","name":"Sandoval County","state_id":"NM"},{"zip":"87144","fips":"35001","name":"Bernalillo County","state_id":"NM"},{"zip":"87151","fips":"35001","name":"Bernalillo County","state_id":"NM"},{"zip":"87153","fips":"35001","name":"Bernalillo County","state_id":"NM"},{"zip":"87154","fips":"35001","name":"Bernalillo County","state_id":"NM"},{"zip":"87174","fips":"35043","name":"Sandoval County","state_id":"NM"},{"zip":"87176","fips":"35001","name":"Bernalillo County","state_id":"NM"},{"zip":"87181","fips":"35001","name":"Bernalillo County","state_id":"NM"},{"zip":"87184","fips":"35001","name":"Bernalillo County","state_id":"NM"},{"zip":"87185","fips":"35001","name":"Bernalillo County","state_id":"NM"},{"zip":"87187","fips":"35001","name":"Bernalillo County","state_id":"NM"},{"zip":"87190","fips":"35001","name":"Bernalillo County","state_id":"NM"},{"zip":"87191","fips":"35001","name":"Bernalillo County","state_id":"NM"},{"zip":"87192","fips":"35001","name":"Bernalillo County","state_id":"NM"},{"zip":"87193","fips":"35001","name":"Bernalillo County","state_id":"NM"},{"zip":"87194","fips":"35001","name":"Bernalillo County","state_id":"NM"},{"zip":"87195","fips":"35001","name":"Bernalillo County","state_id":"NM"},{"zip":"87196","fips":"35001","name":"Bernalillo County","state_id":"NM"},{"zip":"87197","fips":"35001","name":"Bernalillo County","state_id":"NM"},{"zip":"87198","fips":"35001","name":"Bernalillo County","state_id":"NM"},{"zip":"87199","fips":"35001","name":"Bernalillo County","state_id":"NM"}]
