[{"zip":"87301","fips":"35031","name":"McKinley County","state_id":"NM"},{"zip":"87302","fips":"35031","name":"McKinley County","state_id":"NM"},{"zip":"87305","fips":"35031","name":"McKinley County","state_id":"NM"},{"zip":"87310","fips":"35031","name":"McKinley County","state_id":"NM"},{"zip":"87311","fips":"35031","name":"McKinley County","state_id":"NM"},{"zip":"87312","fips":"35031","name":"McKinley County","state_id":"NM"},{"zip":"87313","fips":"35031","name":"McKinley County","state_id":"NM"},{"zip":"87315","fips":"35006","name":"Cibola County","state_id":"NM"},{"zip":"87316","fips":"35031","name":"McKinley County","state_id":"NM"},{"zip":"87317","fips":"35031","name":"McKinley County","state_id":"NM"},{"zip":"87319","fips":"35031","name":"McKinley County","state_id":"NM"},{"zip":"87320","fips":"35031","name":"McKinley County","state_id":"NM"},{"zip":"87321","fips":"35031","name":"McKinley County","state_id":"NM"},{"zip":"87322","fips":"35031","name":"McKinley County","state_id":"NM"},{"zip":"87323","fips":"35031","name":"McKinley County","state_id":"NM"},{"zip":"87323","fips":"35006","name":"Cibola County","state_id":"NM"},{"zip":"87325","fips":"35031","name":"McKinley County","state_id":"NM"},{"zip":"87326","fips":"35031","name":"McKinley County","state_id":"NM"},{"zip":"87327","fips":"35031","name":"McKinley County","state_id":"NM"},{"zip":"87328","fips":"35031","name":"McKinley County","state_id":"NM"},{"zip":"87347","fips":"35031","name":"McKinley County","state_id":"NM"},{"zip":"87357","fips":"35006","name":"Cibola County","state_id":"NM"},{"zip":"87364","fips":"35045","name":"San Juan County","state_id":"NM"},{"zip":"87365","fips":"35031","name":"McKinley County","state_id":"NM"}]
