[{"zip":"87401","fips":"35045","name":"San Juan County","state_id":"NM"},{"zip":"87402","fips":"35045","name":"San Juan County","state_id":"NM"},{"zip":"87410","fips":"35045","name":"San Juan County","state_id":"NM"},{"zip":"87412","fips":"35039","name":"Rio Arriba County","state_id":"NM"},{"zip":"87412","fips":"35045","name":"San Juan County","state_id":"NM"},{"zip":"87413","fips":"35045","name":"San Juan County","state_id":"NM"},{"zip":"87415","fips":"35045","name":"San Juan County","state_id":"NM"},{"zip":"87416","fips":"35045","name":"San Juan County","state_id":"NM"},{"zip":"87417","fips":"35045","name":"San Juan County","state_id":"NM"},{"zip":"87418","fips":"35045","name":"San Juan County","state_id":"NM"},{"zip":"87419","fips":"35045","name":"San Juan County","state_id":"NM"},{"zip":"87420","fips":"35045","name":"San Juan County","state_id":"NM"},{"zip":"87421","fips":"35045","name":"San Juan County","state_id":"NM"},{"zip":"87455","fips":"35045","name":"San Juan County","state_id":"NM"},{"zip":"87461","fips":"35045","name":"San Juan County","state_id":"NM"},{"zip":"87499","fips":"35045","name":"San Juan County","state_id":"NM"}]
