[{"zip":"87501","fips":"35049","name":"Santa Fe County","state_id":"NM"},{"zip":"87502","fips":"35049","name":"Santa Fe County","state_id":"NM"},{"zip":"87504","fips":"35049","name":"Santa Fe County","state_id":"NM"},{"zip":"87505","fips":"35049","name":"Santa Fe County","state_id":"NM"},{"zip":"87506","fips":"35049","name":"Santa Fe County","state_id":"NM"},{"zip":"87507","fips":"35049","name":"Santa Fe County","state_id":"NM"},{"zip":"87508","fips":"35049","name":"Santa Fe County","state_id":"NM"},{"zip":"87510","fips":"35039","name":"Rio Arriba County","state_id":"NM"},{"zip":"87511","fips":"35039","name":"Rio Arriba County","state_id":"NM"},{"zip":"87512","fips":"35055","name":"Taos County","state_id":"NM"},{"zip":"87513","fips":"35055","name":"Taos County","state_id":"NM"},{"zip":"87514","fips":"35055","name":"Taos County","state_id":"NM"},{"zip":"87515","fips":"35039","name":"Rio Arriba County","state_id":"NM"},{"zip":"87516","fips":"35039","name":"Rio Arriba County","state_id":"NM"},{"zip":"87517","fips":"35055","name":"Taos County","state_id":"NM"},{"zip":"87518","fips":"35039","name":"Rio Arriba County","state_id":"NM"},{"zip":"87519","fips":"35055","name":"Taos County","state_id":"NM"},{"zip":"87520","fips":"35039","name":"Rio Arriba County","state_id":"NM"},{"zip":"87521","fips":"35055","name":"Taos County","state_id":"NM"},{"zip":"87521","fips":"35039","name":"Rio Arriba County","state_id":"NM"},{"zip":"87522","fips":"35049","name":"Santa Fe County","state_id":"NM"},{"zip":"87522","fips":"35039","name":"Rio Arriba County","state_id":"NM"},{"zip":"87523","fips":"35039","name":"Rio Arriba County","state_id":"NM"},{"zip":"87524","fips":"35055","name":"Taos County","state_id":"NM"},{"zip":"87525","fips":"35055","name":"Taos County","state_id":"NM"},{"zip":"87527","fips":"35039","name":"Rio Arriba County","state_id":"NM"},{"zip":"87528","fips":"35039","name":"Rio Arriba County","state_id":"NM"},{"zip":"87529","fips":"35055","name":"Taos County","state_id":"NM"},{"zip":"87530","fips":"35039","name":"Rio Arriba County","state_id":"NM"},{"zip":"87531","fips":"35039","name":"Rio Arriba County","state_id":"NM"},{"zip":"87532","fips":"35049","name":"Santa Fe County","state_id":"NM"},{"zip":"87532","fips":"35039","name":"Rio Arriba County","state_id":"NM"},{"zip":"87535","fips":"35049","name":"Santa Fe County","state_id":"NM"},{"zip":"87535","fips":"35047","name":"San Miguel County","state_id":"NM"},{"zip":"87537","fips":"35039","name":"Rio Arriba County","state_id":"NM"},{"zip":"87538","fips":"35047","name":"San Miguel County","state_id":"NM"},{"zip":"87539","fips":"35039","name":"Rio Arriba County","state_id":"NM"},{"zip":"87540","fips":"35049","name":"Santa Fe County","state_id":"NM"},{"zip":"87543","fips":"35055","name":"Taos County","state_id":"NM"},{"zip":"87544","fips":"35043","name":"Sandoval County","state_id":"NM"},{"zip":"87544","fips":"35028","name":"Los Alamos County","state_id":"NM"},{"zip":"87547","fips":"35028","name":"Los Alamos County","state_id":"NM"},{"zip":"87548","fips":"35039","name":"Rio Arriba County","state_id":"NM"},{"zip":"87549","fips":"35055","name":"Taos County","state_id":"NM"},{"zip":"87551","fips":"35039","name":"Rio Arriba County","state_id":"NM"},{"zip":"87552","fips":"35049","name":"Santa Fe County","state_id":"NM"},{"zip":"87552","fips":"35047","name":"San Miguel County","state_id":"NM"},{"zip":"87553","fips":"35055","name":"Taos County","state_id":"NM"},{"zip":"87554","fips":"35039","name":"Rio Arriba County","state_id":"NM"},{"zip":"87556","fips":"35055","name":"Taos County","state_id":"NM"},{"zip":"87557","fips":"35055","name":"Taos County","state_id":"NM"},{"zip":"87558","fips":"35055","name":"Taos County","state_id":"NM"},{"zip":"87560","fips":"35047","name":"San Miguel County","state_id":"NM"},{"zip":"87562","fips":"35047","name":"San Miguel County","state_id":"NM"},{"zip":"87564","fips":"35055","name":"Taos County","state_id":"NM"},{"zip":"87565","fips":"35047","name":"San Miguel County","state_id":"NM"},{"zip":"87566","fips":"35039","name":"Rio Arriba County","state_id":"NM"},{"zip":"87567","fips":"35049","name":"Santa Fe County","state_id":"NM"},{"zip":"87569","fips":"35047","name":"San Miguel County","state_id":"NM"},{"zip":"87571","fips":"35055","name":"Taos County","state_id":"NM"},{"zip":"87573","fips":"35047","name":"San Miguel County","state_id":"NM"},{"zip":"87574","fips":"35049","name":"Santa Fe County","state_id":"NM"},{"zip":"87575","fips":"35039","name":"Rio Arriba County","state_id":"NM"},{"zip":"87576","fips":"35055","name":"Taos County","state_id":"NM"},{"zip":"87577","fips":"35055","name":"Taos County","state_id":"NM"},{"zip":"87578","fips":"35039","name":"Rio Arriba County","state_id":"NM"},{"zip":"87579","fips":"35055","name":"Taos County","state_id":"NM"},{"zip":"87580","fips":"35055","name":"Taos County","state_id":"NM"},{"zip":"87581","fips":"35039","name":"Rio Arriba County","state_id":"NM"},{"zip":"87582","fips":"35039","name":"Rio Arriba County","state_id":"NM"},{"zip":"87583","fips":"35047","name":"San Miguel County","state_id":"NM"},{"zip":"87592","fips":"35049","name":"Santa Fe County","state_id":"NM"},{"zip":"87594","fips":"35049","name":"Santa Fe County","state_id":"NM"}]
