[{"zip":"87701","fips":"35047","name":"San Miguel County","state_id":"NM"},{"zip":"87710","fips":"35007","name":"Colfax County","state_id":"NM"},{"zip":"87711","fips":"35047","name":"San Miguel County","state_id":"NM"},{"zip":"87711","fips":"35019","name":"Guadalupe County","state_id":"NM"},{"zip":"87712","fips":"35033","name":"Mora County","state_id":"NM"},{"zip":"87713","fips":"35033","name":"Mora County","state_id":"NM"},{"zip":"87714","fips":"35007","name":"Colfax County","state_id":"NM"},{"zip":"87715","fips":"35033","name":"Mora County","state_id":"NM"},{"zip":"87718","fips":"35007","name":"Colfax County","state_id":"NM"},{"zip":"87722","fips":"35033","name":"Mora County","state_id":"NM"},{"zip":"87723","fips":"35033","name":"Mora County","state_id":"NM"},{"zip":"87724","fips":"35019","name":"Guadalupe County","state_id":"NM"},{"zip":"87728","fips":"35007","name":"Colfax County","state_id":"NM"},{"zip":"87729","fips":"35007","name":"Colfax County","state_id":"NM"},{"zip":"87730","fips":"35021","name":"Harding County","state_id":"NM"},{"zip":"87731","fips":"35047","name":"San Miguel County","state_id":"NM"},{"zip":"87732","fips":"35033","name":"Mora County","state_id":"NM"},{"zip":"87733","fips":"35021","name":"Harding County","state_id":"NM"},{"zip":"87734","fips":"35033","name":"Mora County","state_id":"NM"},{"zip":"87735","fips":"35033","name":"Mora County","state_id":"NM"},{"zip":"87736","fips":"35033","name":"Mora County","state_id":"NM"},{"zip":"87740","fips":"35007","name":"Colfax County","state_id":"NM"},{"zip":"87742","fips":"35047","name":"San Miguel County","state_id":"NM"},{"zip":"87743","fips":"35021","name":"Harding County","state_id":"NM"},{"zip":"87745","fips":"35047","name":"San Miguel County","state_id":"NM"},{"zip":"87746","fips":"35047","name":"San Miguel County","state_id":"NM"},{"zip":"87746","fips":"35021","name":"Harding County","state_id":"NM"},{"zip":"87747","fips":"35007","name":"Colfax County","state_id":"NM"},{"zip":"87749","fips":"35007","name":"Colfax County","state_id":"NM"},{"zip":"87750","fips":"35033","name":"Mora County","state_id":"NM"},{"zip":"87752","fips":"35033","name":"Mora County","state_id":"NM"},{"zip":"87753","fips":"35033","name":"Mora County","state_id":"NM"}]
