[{"zip":"87801","fips":"35053","name":"Socorro County","state_id":"NM"},{"zip":"87820","fips":"35003","name":"Catron County","state_id":"NM"},{"zip":"87821","fips":"35017","name":"Grant County","state_id":"NM"},{"zip":"87821","fips":"35003","name":"Catron County","state_id":"NM"},{"zip":"87821","fips":"35051","name":"Sierra County","state_id":"NM"},{"zip":"87823","fips":"35053","name":"Socorro County","state_id":"NM"},{"zip":"87824","fips":"35003","name":"Catron County","state_id":"NM"},{"zip":"87825","fips":"35053","name":"Socorro County","state_id":"NM"},{"zip":"87825","fips":"35003","name":"Catron County","state_id":"NM"},{"zip":"87827","fips":"35003","name":"Catron County","state_id":"NM"},{"zip":"87828","fips":"35053","name":"Socorro County","state_id":"NM"},{"zip":"87829","fips":"35003","name":"Catron County","state_id":"NM"},{"zip":"87830","fips":"35003","name":"Catron County","state_id":"NM"},{"zip":"87831","fips":"35053","name":"Socorro County","state_id":"NM"},{"zip":"87832","fips":"35053","name":"Socorro County","state_id":"NM"}]
