[{"zip":"88001","fips":"35013","name":"Doña Ana County","state_id":"NM"},{"zip":"88002","fips":"35013","name":"Doña Ana County","state_id":"NM"},{"zip":"88003","fips":"35013","name":"Doña Ana County","state_id":"NM"},{"zip":"88004","fips":"35013","name":"Doña Ana County","state_id":"NM"},{"zip":"88005","fips":"35013","name":"Doña Ana County","state_id":"NM"},{"zip":"88007","fips":"35013","name":"Doña Ana County","state_id":"NM"},{"zip":"88008","fips":"35013","name":"Doña Ana County","state_id":"NM"},{"zip":"88011","fips":"35013","name":"Doña Ana County","state_id":"NM"},{"zip":"88012","fips":"35013","name":"Doña Ana County","state_id":"NM"},{"zip":"88013","fips":"35013","name":"Doña Ana County","state_id":"NM"},{"zip":"88020","fips":"35023","name":"Hidalgo County","state_id":"NM"},{"zip":"88021","fips":"35013","name":"Doña Ana County","state_id":"NM"},{"zip":"88022","fips":"35017","name":"Grant County","state_id":"NM"},{"zip":"88023","fips":"35017","name":"Grant County","state_id":"NM"},{"zip":"88024","fips":"35013","name":"Doña Ana County","state_id":"NM"},{"zip":"88025","fips":"35017","name":"Grant County","state_id":"NM"},{"zip":"88026","fips":"35017","name":"Grant County","state_id":"NM"},{"zip":"88027","fips":"35013","name":"Doña Ana County","state_id":"NM"},{"zip":"88028","fips":"35017","name":"Grant County","state_id":"NM"},{"zip":"88029","fips":"35029","name":"Luna County","state_id":"NM"},{"zip":"88030","fips":"35029","name":"Luna County","state_id":"NM"},{"zip":"88031","fips":"35029","name":"Luna County","state_id":"NM"},{"zip":"88032","fips":"35013","name":"Doña Ana County","state_id":"NM"},{"zip":"88033","fips":"35013","name":"Doña Ana County","state_id":"NM"},{"zip":"88034","fips":"35017","name":"Grant County","state_id":"NM"},{"zip":"88036","fips":"35017","name":"Grant County","state_id":"NM"},{"zip":"88038","fips":"35017","name":"Grant County","state_id":"NM"},{"zip":"88039","fips":"35003","name":"Catron County","state_id":"NM"},{"zip":"88040","fips":"35017","name":"Grant County","state_id":"NM"},{"zip":"88041","fips":"35017","name":"Grant County","state_id":"NM"},{"zip":"88042","fips":"35051","name":"Sierra County","state_id":"NM"},{"zip":"88043","fips":"35017","name":"Grant County","state_id":"NM"},{"zip":"88044","fips":"35013","name":"Doña Ana County","state_id":"NM"},{"zip":"88045","fips":"35023","name":"Hidalgo County","state_id":"NM"},{"zip":"88046","fips":"35013","name":"Doña Ana County","state_id":"NM"},{"zip":"88047","fips":"35013","name":"Doña Ana County","state_id":"NM"},{"zip":"88048","fips":"35013","name":"Doña Ana County","state_id":"NM"},{"zip":"88049","fips":"35017","name":"Grant County","state_id":"NM"},{"zip":"88051","fips":"35017","name":"Grant County","state_id":"NM"},{"zip":"88052","fips":"35013","name":"Doña Ana County","state_id":"NM"},{"zip":"88053","fips":"35017","name":"Grant County","state_id":"NM"},{"zip":"88054","fips":"35013","name":"Doña Ana County","state_id":"NM"},{"zip":"88055","fips":"35017","name":"Grant County","state_id":"NM"},{"zip":"88056","fips":"35023","name":"Hidalgo County","state_id":"NM"},{"zip":"88058","fips":"35013","name":"Doña Ana County","state_id":"NM"},{"zip":"88061","fips":"35017","name":"Grant County","state_id":"NM"},{"zip":"88062","fips":"35017","name":"Grant County","state_id":"NM"},{"zip":"88063","fips":"35013","name":"Doña Ana County","state_id":"NM"},{"zip":"88065","fips":"35017","name":"Grant County","state_id":"NM"},{"zip":"88072","fips":"35013","name":"Doña Ana County","state_id":"NM"},{"zip":"88081","fips":"35013","name":"Doña Ana County","state_id":"NM"},{"zip":"88081","fips":"35035","name":"Otero County","state_id":"NM"}]
