[{"zip":"88101","fips":"35041","name":"Roosevelt County","state_id":"NM"},{"zip":"88101","fips":"35009","name":"Curry County","state_id":"NM"},{"zip":"88102","fips":"35009","name":"Curry County","state_id":"NM"},{"zip":"88103","fips":"35009","name":"Curry County","state_id":"NM"},{"zip":"88112","fips":"35009","name":"Curry County","state_id":"NM"},{"zip":"88112","fips":"35037","name":"Quay County","state_id":"NM"},{"zip":"88113","fips":"35041","name":"Roosevelt County","state_id":"NM"},{"zip":"88114","fips":"35041","name":"Roosevelt County","state_id":"NM"},{"zip":"88114","fips":"35025","name":"Lea County","state_id":"NM"},{"zip":"88115","fips":"35041","name":"Roosevelt County","state_id":"NM"},{"zip":"88116","fips":"35041","name":"Roosevelt County","state_id":"NM"},{"zip":"88116","fips":"35005","name":"Chaves County","state_id":"NM"},{"zip":"88118","fips":"35009","name":"Curry County","state_id":"NM"},{"zip":"88118","fips":"35041","name":"Roosevelt County","state_id":"NM"},{"zip":"88119","fips":"35011","name":"De Baca County","state_id":"NM"},{"zip":"88120","fips":"35009","name":"Curry County","state_id":"NM"},{"zip":"88120","fips":"35037","name":"Quay County","state_id":"NM"},{"zip":"88121","fips":"35037","name":"Quay County","state_id":"NM"},{"zip":"88122","fips":"35041","name":"Roosevelt County","state_id":"NM"},{"zip":"88123","fips":"35041","name":"Roosevelt County","state_id":"NM"},{"zip":"88124","fips":"35009","name":"Curry County","state_id":"NM"},{"zip":"88124","fips":"35041","name":"Roosevelt County","state_id":"NM"},{"zip":"88124","fips":"35037","name":"Quay County","state_id":"NM"},{"zip":"88125","fips":"35041","name":"Roosevelt County","state_id":"NM"},{"zip":"88126","fips":"35041","name":"Roosevelt County","state_id":"NM"},{"zip":"88130","fips":"35041","name":"Roosevelt County","state_id":"NM"},{"zip":"88130","fips":"35009","name":"Curry County","state_id":"NM"},{"zip":"88132","fips":"35041","name":"Roosevelt County","state_id":"NM"},{"zip":"88133","fips":"35009","name":"Curry County","state_id":"NM"},{"zip":"88134","fips":"35011","name":"De Baca County","state_id":"NM"},{"zip":"88134","fips":"35041","name":"Roosevelt County","state_id":"NM"},{"zip":"88135","fips":"35041","name":"Roosevelt County","state_id":"NM"},{"zip":"88135","fips":"35009","name":"Curry County","state_id":"NM"},{"zip":"88136","fips":"35011","name":"De Baca County","state_id":"NM"}]
