[{"zip":"88201","fips":"35005","name":"Chaves County","state_id":"NM"},{"zip":"88202","fips":"35005","name":"Chaves County","state_id":"NM"},{"zip":"88203","fips":"35005","name":"Chaves County","state_id":"NM"},{"zip":"88210","fips":"35015","name":"Eddy County","state_id":"NM"},{"zip":"88213","fips":"35025","name":"Lea County","state_id":"NM"},{"zip":"88220","fips":"35015","name":"Eddy County","state_id":"NM"},{"zip":"88221","fips":"35015","name":"Eddy County","state_id":"NM"},{"zip":"88230","fips":"35005","name":"Chaves County","state_id":"NM"},{"zip":"88231","fips":"35025","name":"Lea County","state_id":"NM"},{"zip":"88232","fips":"35005","name":"Chaves County","state_id":"NM"},{"zip":"88240","fips":"35025","name":"Lea County","state_id":"NM"},{"zip":"88241","fips":"35025","name":"Lea County","state_id":"NM"},{"zip":"88242","fips":"35025","name":"Lea County","state_id":"NM"},{"zip":"88244","fips":"35025","name":"Lea County","state_id":"NM"},{"zip":"88250","fips":"35015","name":"Eddy County","state_id":"NM"},{"zip":"88250","fips":"35005","name":"Chaves County","state_id":"NM"},{"zip":"88252","fips":"35025","name":"Lea County","state_id":"NM"},{"zip":"88253","fips":"35005","name":"Chaves County","state_id":"NM"},{"zip":"88253","fips":"35015","name":"Eddy County","state_id":"NM"},{"zip":"88254","fips":"35015","name":"Eddy County","state_id":"NM"},{"zip":"88255","fips":"35015","name":"Eddy County","state_id":"NM"},{"zip":"88256","fips":"35015","name":"Eddy County","state_id":"NM"},{"zip":"88260","fips":"35025","name":"Lea County","state_id":"NM"},{"zip":"88262","fips":"35025","name":"Lea County","state_id":"NM"},{"zip":"88263","fips":"35015","name":"Eddy County","state_id":"NM"},{"zip":"88264","fips":"35025","name":"Lea County","state_id":"NM"},{"zip":"88265","fips":"35025","name":"Lea County","state_id":"NM"},{"zip":"88267","fips":"35025","name":"Lea County","state_id":"NM"},{"zip":"88268","fips":"35015","name":"Eddy County","state_id":"NM"}]
