[{"zip":"88301","fips":"35027","name":"Lincoln County","state_id":"NM"},{"zip":"88310","fips":"35035","name":"Otero County","state_id":"NM"},{"zip":"88311","fips":"35035","name":"Otero County","state_id":"NM"},{"zip":"88312","fips":"35027","name":"Lincoln County","state_id":"NM"},{"zip":"88314","fips":"35035","name":"Otero County","state_id":"NM"},{"zip":"88316","fips":"35027","name":"Lincoln County","state_id":"NM"},{"zip":"88317","fips":"35035","name":"Otero County","state_id":"NM"},{"zip":"88318","fips":"35027","name":"Lincoln County","state_id":"NM"},{"zip":"88321","fips":"35057","name":"Torrance County","state_id":"NM"},{"zip":"88323","fips":"35027","name":"Lincoln County","state_id":"NM"},{"zip":"88324","fips":"35027","name":"Lincoln County","state_id":"NM"},{"zip":"88325","fips":"35035","name":"Otero County","state_id":"NM"},{"zip":"88330","fips":"35035","name":"Otero County","state_id":"NM"},{"zip":"88336","fips":"35027","name":"Lincoln County","state_id":"NM"},{"zip":"88337","fips":"35035","name":"Otero County","state_id":"NM"},{"zip":"88338","fips":"35027","name":"Lincoln County","state_id":"NM"},{"zip":"88339","fips":"35005","name":"Chaves County","state_id":"NM"},{"zip":"88339","fips":"35035","name":"Otero County","state_id":"NM"},{"zip":"88340","fips":"35035","name":"Otero County","state_id":"NM"},{"zip":"88341","fips":"35027","name":"Lincoln County","state_id":"NM"},{"zip":"88342","fips":"35035","name":"Otero County","state_id":"NM"},{"zip":"88343","fips":"35027","name":"Lincoln County","state_id":"NM"},{"zip":"88344","fips":"35005","name":"Chaves County","state_id":"NM"},{"zip":"88344","fips":"35035","name":"Otero County","state_id":"NM"},{"zip":"88345","fips":"35027","name":"Lincoln County","state_id":"NM"},{"zip":"88346","fips":"35027","name":"Lincoln County","state_id":"NM"},{"zip":"88347","fips":"35035","name":"Otero County","state_id":"NM"},{"zip":"88348","fips":"35027","name":"Lincoln County","state_id":"NM"},{"zip":"88349","fips":"35035","name":"Otero County","state_id":"NM"},{"zip":"88350","fips":"35035","name":"Otero County","state_id":"NM"},{"zip":"88351","fips":"35027","name":"Lincoln County","state_id":"NM"},{"zip":"88352","fips":"35035","name":"Otero County","state_id":"NM"},{"zip":"88353","fips":"35019","name":"Guadalupe County","state_id":"NM"},{"zip":"88354","fips":"35035","name":"Otero County","state_id":"NM"},{"zip":"88355","fips":"35027","name":"Lincoln County","state_id":"NM"}]
