[{"zip":"88401","fips":"35037","name":"Quay County","state_id":"NM"},{"zip":"88410","fips":"35059","name":"Union County","state_id":"NM"},{"zip":"88410","fips":"35021","name":"Harding County","state_id":"NM"},{"zip":"88411","fips":"35037","name":"Quay County","state_id":"NM"},{"zip":"88414","fips":"35059","name":"Union County","state_id":"NM"},{"zip":"88415","fips":"35059","name":"Union County","state_id":"NM"},{"zip":"88415","fips":"35021","name":"Harding County","state_id":"NM"},{"zip":"88416","fips":"35047","name":"San Miguel County","state_id":"NM"},{"zip":"88417","fips":"35019","name":"Guadalupe County","state_id":"NM"},{"zip":"88418","fips":"35059","name":"Union County","state_id":"NM"},{"zip":"88419","fips":"35007","name":"Colfax County","state_id":"NM"},{"zip":"88419","fips":"35059","name":"Union County","state_id":"NM"},{"zip":"88421","fips":"35047","name":"San Miguel County","state_id":"NM"},{"zip":"88422","fips":"35059","name":"Union County","state_id":"NM"},{"zip":"88422","fips":"35007","name":"Colfax County","state_id":"NM"},{"zip":"88424","fips":"35059","name":"Union County","state_id":"NM"},{"zip":"88426","fips":"35037","name":"Quay County","state_id":"NM"},{"zip":"88426","fips":"35021","name":"Harding County","state_id":"NM"},{"zip":"88427","fips":"35037","name":"Quay County","state_id":"NM"},{"zip":"88427","fips":"35009","name":"Curry County","state_id":"NM"},{"zip":"88430","fips":"35021","name":"Harding County","state_id":"NM"},{"zip":"88430","fips":"35059","name":"Union County","state_id":"NM"},{"zip":"88430","fips":"35037","name":"Quay County","state_id":"NM"},{"zip":"88431","fips":"35019","name":"Guadalupe County","state_id":"NM"},{"zip":"88433","fips":"35037","name":"Quay County","state_id":"NM"},{"zip":"88434","fips":"35037","name":"Quay County","state_id":"NM"},{"zip":"88435","fips":"35019","name":"Guadalupe County","state_id":"NM"},{"zip":"88436","fips":"35059","name":"Union County","state_id":"NM"},{"zip":"88439","fips":"35047","name":"San Miguel County","state_id":"NM"}]
