[{"zip":"89001","fips":"32017","name":"Lincoln County","state_id":"NV"},{"zip":"89002","fips":"32003","name":"Clark County","state_id":"NV"},{"zip":"89003","fips":"32023","name":"Nye County","state_id":"NV"},{"zip":"89004","fips":"32003","name":"Clark County","state_id":"NV"},{"zip":"89005","fips":"32003","name":"Clark County","state_id":"NV"},{"zip":"89006","fips":"32003","name":"Clark County","state_id":"NV"},{"zip":"89007","fips":"32003","name":"Clark County","state_id":"NV"},{"zip":"89008","fips":"32017","name":"Lincoln County","state_id":"NV"},{"zip":"89009","fips":"32003","name":"Clark County","state_id":"NV"},{"zip":"89010","fips":"32009","name":"Esmeralda County","state_id":"NV"},{"zip":"89011","fips":"32003","name":"Clark County","state_id":"NV"},{"zip":"89012","fips":"32003","name":"Clark County","state_id":"NV"},{"zip":"89013","fips":"32009","name":"Esmeralda County","state_id":"NV"},{"zip":"89014","fips":"32003","name":"Clark County","state_id":"NV"},{"zip":"89015","fips":"32003","name":"Clark County","state_id":"NV"},{"zip":"89016","fips":"32003","name":"Clark County","state_id":"NV"},{"zip":"89017","fips":"32017","name":"Lincoln County","state_id":"NV"},{"zip":"89018","fips":"32003","name":"Clark County","state_id":"NV"},{"zip":"89019","fips":"32003","name":"Clark County","state_id":"NV"},{"zip":"89020","fips":"32023","name":"Nye County","state_id":"NV"},{"zip":"89021","fips":"32003","name":"Clark County","state_id":"NV"},{"zip":"89022","fips":"32023","name":"Nye County","state_id":"NV"},{"zip":"89023","fips":"32023","name":"Nye County","state_id":"NV"},{"zip":"89024","fips":"32003","name":"Clark County","state_id":"NV"},{"zip":"89025","fips":"32003","name":"Clark County","state_id":"NV"},{"zip":"89027","fips":"32003","name":"Clark County","state_id":"NV"},{"zip":"89028","fips":"32003","name":"Clark County","state_id":"NV"},{"zip":"89029","fips":"32003","name":"Clark County","state_id":"NV"},{"zip":"89030","fips":"32003","name":"Clark County","state_id":"NV"},{"zip":"89031","fips":"32003","name":"Clark County","state_id":"NV"},{"zip":"89032","fips":"32003","name":"Clark County","state_id":"NV"},{"zip":"89033","fips":"32003","name":"Clark County","state_id":"NV"},{"zip":"89034","fips":"32003","name":"Clark County","state_id":"NV"},{"zip":"89036","fips":"32003","name":"Clark County","state_id":"NV"},{"zip":"89037","fips":"32003","name":"Clark County","state_id":"NV"},{"zip":"89039","fips":"32003","name":"Clark County","state_id":"NV"},{"zip":"89040","fips":"32003","name":"Clark County","state_id":"NV"},{"zip":"89041","fips":"32023","name":"Nye County","state_id":"NV"},{"zip":"89042","fips":"32017","name":"Lincoln County","state_id":"NV"},{"zip":"89043","fips":"32017","name":"Lincoln County","state_id":"NV"},{"zip":"89044","fips":"32003","name":"Clark County","state_id":"NV"},{"zip":"89045","fips":"32023","name":"Nye County","state_id":"NV"},{"zip":"89046","fips":"32003","name":"Clark County","state_id":"NV"},{"zip":"89047","fips":"32009","name":"Esmeralda County","state_id":"NV"},{"zip":"89048","fips":"32023","name":"Nye County","state_id":"NV"},{"zip":"89049","fips":"32023","name":"Nye County","state_id":"NV"},{"zip":"89052","fips":"32003","name":"Clark County","state_id":"NV"},{"zip":"89053","fips":"32003","name":"Clark County","state_id":"NV"},{"zip":"89054","fips":"32003","name":"Clark County","state_id":"NV"},{"zip":"89060","fips":"32023","name":"Nye County","state_id":"NV"},{"zip":"89061","fips":"32023","name":"Nye County","state_id":"NV"},{"zip":"89074","fips":"32003","name":"Clark County","state_id":"NV"},{"zip":"89077","fips":"32003","name":"Clark County","state_id":"NV"},{"zip":"89081","fips":"32003","name":"Clark County","state_id":"NV"},{"zip":"89084","fips":"32003","name":"Clark County","state_id":"NV"},{"zip":"89085","fips":"32003","name":"Clark County","state_id":"NV"},{"zip":"89086","fips":"32003","name":"Clark County","state_id":"NV"},{"zip":"89087","fips":"32003","name":"Clark County","state_id":"NV"}]
