[{"zip":"89101","fips":"32003","name":"Clark County","state_id":"NV"},{"zip":"89102","fips":"32003","name":"Clark County","state_id":"NV"},{"zip":"89103","fips":"32003","name":"Clark County","state_id":"NV"},{"zip":"89104","fips":"32003","name":"Clark County","state_id":"NV"},{"zip":"89105","fips":"32003","name":"Clark County","state_id":"NV"},{"zip":"89106","fips":"32003","name":"Clark County","state_id":"NV"},{"zip":"89107","fips":"32003","name":"Clark County","state_id":"NV"},{"zip":"89108","fips":"32003","name":"Clark County","state_id":"NV"},{"zip":"89109","fips":"32003","name":"Clark County","state_id":"NV"},{"zip":"89110","fips":"32003","name":"Clark County","state_id":"NV"},{"zip":"89111","fips":"32003","name":"Clark County","state_id":"NV"},{"zip":"89112","fips":"32003","name":"Clark County","state_id":"NV"},{"zip":"89113","fips":"32003","name":"Clark County","state_id":"NV"},{"zip":"89114","fips":"32003","name":"Clark County","state_id":"NV"},{"zip":"89115","fips":"32003","name":"Clark County","state_id":"NV"},{"zip":"89116","fips":"32003","name":"Clark County","state_id":"NV"},{"zip":"89117","fips":"32003","name":"Clark County","state_id":"NV"},{"zip":"89118","fips":"32003","name":"Clark County","state_id":"NV"},{"zip":"89119","fips":"32003","name":"Clark County","state_id":"NV"},{"zip":"89120","fips":"32003","name":"Clark County","state_id":"NV"},{"zip":"89121","fips":"32003","name":"Clark County","state_id":"NV"},{"zip":"89122","fips":"32003","name":"Clark County","state_id":"NV"},{"zip":"89123","fips":"32003","name":"Clark County","state_id":"NV"},{"zip":"89124","fips":"32003","name":"Clark County","state_id":"NV"},{"zip":"89125","fips":"32003","name":"Clark County","state_id":"NV"},{"zip":"89126","fips":"32003","name":"Clark County","state_id":"NV"},{"zip":"89127","fips":"32003","name":"Clark County","state_id":"NV"},{"zip":"89128","fips":"32003","name":"Clark County","state_id":"NV"},{"zip":"89129","fips":"32003","name":"Clark County","state_id":"NV"},{"zip":"89130","fips":"32003","name":"Clark County","state_id":"NV"},{"zip":"89131","fips":"32003","name":"Clark County","state_id":"NV"},{"zip":"89132","fips":"32003","name":"Clark County","state_id":"NV"},{"zip":"89133","fips":"32003","name":"Clark County","state_id":"NV"},{"zip":"89134","fips":"32003","name":"Clark County","state_id":"NV"},{"zip":"89135","fips":"32003","name":"Clark County","state_id":"NV"},{"zip":"89136","fips":"32003","name":"Clark County","state_id":"NV"},{"zip":"89137","fips":"32003","name":"Clark County","state_id":"NV"},{"zip":"89138","fips":"32003","name":"Clark County","state_id":"NV"},{"zip":"89139","fips":"32003","name":"Clark County","state_id":"NV"},{"zip":"89140","fips":"32003","name":"Clark County","state_id":"NV"},{"zip":"89141","fips":"32003","name":"Clark County","state_id":"NV"},{"zip":"89142","fips":"32003","name":"Clark County","state_id":"NV"},{"zip":"89143","fips":"32003","name":"Clark County","state_id":"NV"},{"zip":"89144","fips":"32003","name":"Clark County","state_id":"NV"},{"zip":"89145","fips":"32003","name":"Clark County","state_id":"NV"},{"zip":"89146","fips":"32003","name":"Clark County","state_id":"NV"},{"zip":"89147","fips":"32003","name":"Clark County","state_id":"NV"},{"zip":"89148","fips":"32003","name":"Clark County","state_id":"NV"},{"zip":"89149","fips":"32003","name":"Clark County","state_id":"NV"},{"zip":"89150","fips":"32003","name":"Clark County","state_id":"NV"},{"zip":"89151","fips":"32003","name":"Clark County","state_id":"NV"},{"zip":"89152","fips":"32003","name":"Clark County","state_id":"NV"},{"zip":"89153","fips":"32003","name":"Clark County","state_id":"NV"},{"zip":"89154","fips":"32003","name":"Clark County","state_id":"NV"},{"zip":"89155","fips":"32003","name":"Clark County","state_id":"NV"},{"zip":"89156","fips":"32003","name":"Clark County","state_id":"NV"},{"zip":"89157","fips":"32003","name":"Clark County","state_id":"NV"},{"zip":"89158","fips":"32003","name":"Clark County","state_id":"NV"},{"zip":"89160","fips":"32003","name":"Clark County","state_id":"NV"},{"zip":"89161","fips":"32003","name":"Clark County","state_id":"NV"},{"zip":"89162","fips":"32003","name":"Clark County","state_id":"NV"},{"zip":"89165","fips":"32003","name":"Clark County","state_id":"NV"},{"zip":"89166","fips":"32003","name":"Clark County","state_id":"NV"},{"zip":"89169","fips":"32003","name":"Clark County","state_id":"NV"},{"zip":"89170","fips":"32003","name":"Clark County","state_id":"NV"},{"zip":"89173","fips":"32003","name":"Clark County","state_id":"NV"},{"zip":"89178","fips":"32003","name":"Clark County","state_id":"NV"},{"zip":"89179","fips":"32003","name":"Clark County","state_id":"NV"},{"zip":"89180","fips":"32003","name":"Clark County","state_id":"NV"},{"zip":"89183","fips":"32003","name":"Clark County","state_id":"NV"},{"zip":"89191","fips":"32003","name":"Clark County","state_id":"NV"},{"zip":"89193","fips":"32003","name":"Clark County","state_id":"NV"},{"zip":"89195","fips":"32003","name":"Clark County","state_id":"NV"},{"zip":"89199","fips":"32003","name":"Clark County","state_id":"NV"}]
