[{"zip":"89402","fips":"32031","name":"Washoe County","state_id":"NV"},{"zip":"89403","fips":"32019","name":"Lyon County","state_id":"NV"},{"zip":"89403","fips":"32029","name":"Storey County","state_id":"NV"},{"zip":"89404","fips":"32027","name":"Pershing County","state_id":"NV"},{"zip":"89406","fips":"32001","name":"Churchill County","state_id":"NV"},{"zip":"89406","fips":"32019","name":"Lyon County","state_id":"NV"},{"zip":"89407","fips":"32001","name":"Churchill County","state_id":"NV"},{"zip":"89408","fips":"32001","name":"Churchill County","state_id":"NV"},{"zip":"89408","fips":"32019","name":"Lyon County","state_id":"NV"},{"zip":"89409","fips":"32023","name":"Nye County","state_id":"NV"},{"zip":"89410","fips":"32005","name":"Douglas County","state_id":"NV"},{"zip":"89411","fips":"32005","name":"Douglas County","state_id":"NV"},{"zip":"89412","fips":"32031","name":"Washoe County","state_id":"NV"},{"zip":"89413","fips":"32005","name":"Douglas County","state_id":"NV"},{"zip":"89414","fips":"32013","name":"Humboldt County","state_id":"NV"},{"zip":"89415","fips":"32021","name":"Mineral County","state_id":"NV"},{"zip":"89418","fips":"32027","name":"Pershing County","state_id":"NV"},{"zip":"89419","fips":"32027","name":"Pershing County","state_id":"NV"},{"zip":"89420","fips":"32021","name":"Mineral County","state_id":"NV"},{"zip":"89421","fips":"32013","name":"Humboldt County","state_id":"NV"},{"zip":"89422","fips":"32021","name":"Mineral County","state_id":"NV"},{"zip":"89423","fips":"32005","name":"Douglas County","state_id":"NV"},{"zip":"89423","fips":"32510","name":"Carson City","state_id":"NV"},{"zip":"89424","fips":"32031","name":"Washoe County","state_id":"NV"},{"zip":"89425","fips":"32013","name":"Humboldt County","state_id":"NV"},{"zip":"89426","fips":"32013","name":"Humboldt County","state_id":"NV"},{"zip":"89427","fips":"32021","name":"Mineral County","state_id":"NV"},{"zip":"89428","fips":"32019","name":"Lyon County","state_id":"NV"},{"zip":"89429","fips":"32019","name":"Lyon County","state_id":"NV"},{"zip":"89430","fips":"32019","name":"Lyon County","state_id":"NV"},{"zip":"89431","fips":"32031","name":"Washoe County","state_id":"NV"},{"zip":"89432","fips":"32031","name":"Washoe County","state_id":"NV"},{"zip":"89433","fips":"32031","name":"Washoe County","state_id":"NV"},{"zip":"89434","fips":"32031","name":"Washoe County","state_id":"NV"},{"zip":"89434","fips":"32029","name":"Storey County","state_id":"NV"},{"zip":"89435","fips":"32031","name":"Washoe County","state_id":"NV"},{"zip":"89436","fips":"32031","name":"Washoe County","state_id":"NV"},{"zip":"89437","fips":"32031","name":"Washoe County","state_id":"NV"},{"zip":"89437","fips":"32029","name":"Storey County","state_id":"NV"},{"zip":"89438","fips":"32013","name":"Humboldt County","state_id":"NV"},{"zip":"89439","fips":"32031","name":"Washoe County","state_id":"NV"},{"zip":"89440","fips":"32029","name":"Storey County","state_id":"NV"},{"zip":"89441","fips":"32031","name":"Washoe County","state_id":"NV"},{"zip":"89442","fips":"32031","name":"Washoe County","state_id":"NV"},{"zip":"89444","fips":"32019","name":"Lyon County","state_id":"NV"},{"zip":"89444","fips":"32005","name":"Douglas County","state_id":"NV"},{"zip":"89445","fips":"32027","name":"Pershing County","state_id":"NV"},{"zip":"89445","fips":"32013","name":"Humboldt County","state_id":"NV"},{"zip":"89447","fips":"32019","name":"Lyon County","state_id":"NV"},{"zip":"89448","fips":"32005","name":"Douglas County","state_id":"NV"},{"zip":"89449","fips":"32005","name":"Douglas County","state_id":"NV"},{"zip":"89450","fips":"32031","name":"Washoe County","state_id":"NV"},{"zip":"89451","fips":"32031","name":"Washoe County","state_id":"NV"},{"zip":"89460","fips":"32005","name":"Douglas County","state_id":"NV"},{"zip":"89496","fips":"32001","name":"Churchill County","state_id":"NV"}]
