[{"zip":"89501","fips":"32031","name":"Washoe County","state_id":"NV"},{"zip":"89502","fips":"32031","name":"Washoe County","state_id":"NV"},{"zip":"89503","fips":"32031","name":"Washoe County","state_id":"NV"},{"zip":"89504","fips":"32031","name":"Washoe County","state_id":"NV"},{"zip":"89505","fips":"32031","name":"Washoe County","state_id":"NV"},{"zip":"89506","fips":"32031","name":"Washoe County","state_id":"NV"},{"zip":"89507","fips":"32031","name":"Washoe County","state_id":"NV"},{"zip":"89508","fips":"32031","name":"Washoe County","state_id":"NV"},{"zip":"89508","fips":"32029","name":"Storey County","state_id":"NV"},{"zip":"89509","fips":"32031","name":"Washoe County","state_id":"NV"},{"zip":"89510","fips":"32031","name":"Washoe County","state_id":"NV"},{"zip":"89511","fips":"32031","name":"Washoe County","state_id":"NV"},{"zip":"89512","fips":"32031","name":"Washoe County","state_id":"NV"},{"zip":"89513","fips":"32031","name":"Washoe County","state_id":"NV"},{"zip":"89515","fips":"32031","name":"Washoe County","state_id":"NV"},{"zip":"89519","fips":"32031","name":"Washoe County","state_id":"NV"},{"zip":"89521","fips":"32029","name":"Storey County","state_id":"NV"},{"zip":"89521","fips":"32031","name":"Washoe County","state_id":"NV"},{"zip":"89523","fips":"32031","name":"Washoe County","state_id":"NV"},{"zip":"89533","fips":"32031","name":"Washoe County","state_id":"NV"},{"zip":"89557","fips":"32031","name":"Washoe County","state_id":"NV"},{"zip":"89570","fips":"32031","name":"Washoe County","state_id":"NV"},{"zip":"89595","fips":"32031","name":"Washoe County","state_id":"NV"},{"zip":"89599","fips":"32031","name":"Washoe County","state_id":"NV"}]
