[{"zip":"89701","fips":"32510","name":"Carson City","state_id":"NV"},{"zip":"89701","fips":"32005","name":"Douglas County","state_id":"NV"},{"zip":"89702","fips":"32510","name":"Carson City","state_id":"NV"},{"zip":"89703","fips":"32031","name":"Washoe County","state_id":"NV"},{"zip":"89703","fips":"32510","name":"Carson City","state_id":"NV"},{"zip":"89704","fips":"32031","name":"Washoe County","state_id":"NV"},{"zip":"89705","fips":"32510","name":"Carson City","state_id":"NV"},{"zip":"89705","fips":"32005","name":"Douglas County","state_id":"NV"},{"zip":"89706","fips":"32019","name":"Lyon County","state_id":"NV"},{"zip":"89706","fips":"32510","name":"Carson City","state_id":"NV"},{"zip":"89711","fips":"32510","name":"Carson City","state_id":"NV"},{"zip":"89712","fips":"32510","name":"Carson City","state_id":"NV"},{"zip":"89713","fips":"32510","name":"Carson City","state_id":"NV"},{"zip":"89714","fips":"32510","name":"Carson City","state_id":"NV"},{"zip":"89721","fips":"32510","name":"Carson City","state_id":"NV"}]
