[{"zip":"89801","fips":"32007","name":"Elko County","state_id":"NV"},{"zip":"89803","fips":"32007","name":"Elko County","state_id":"NV"},{"zip":"89815","fips":"32007","name":"Elko County","state_id":"NV"},{"zip":"89820","fips":"32015","name":"Lander County","state_id":"NV"},{"zip":"89820","fips":"32011","name":"Eureka County","state_id":"NV"},{"zip":"89821","fips":"32011","name":"Eureka County","state_id":"NV"},{"zip":"89822","fips":"32007","name":"Elko County","state_id":"NV"},{"zip":"89823","fips":"32007","name":"Elko County","state_id":"NV"},{"zip":"89825","fips":"32007","name":"Elko County","state_id":"NV"},{"zip":"89826","fips":"32007","name":"Elko County","state_id":"NV"},{"zip":"89828","fips":"32007","name":"Elko County","state_id":"NV"},{"zip":"89830","fips":"32007","name":"Elko County","state_id":"NV"},{"zip":"89831","fips":"32007","name":"Elko County","state_id":"NV"},{"zip":"89832","fips":"32007","name":"Elko County","state_id":"NV"},{"zip":"89833","fips":"32007","name":"Elko County","state_id":"NV"},{"zip":"89834","fips":"32007","name":"Elko County","state_id":"NV"},{"zip":"89835","fips":"32007","name":"Elko County","state_id":"NV"},{"zip":"89883","fips":"32007","name":"Elko County","state_id":"NV"}]
