[{"zip":"10203","fips":"36061","name":"New York County","state_id":"NY"},{"zip":"10211","fips":"36061","name":"New York County","state_id":"NY"},{"zip":"10212","fips":"36061","name":"New York County","state_id":"NY"},{"zip":"10213","fips":"36061","name":"New York County","state_id":"NY"},{"zip":"10258","fips":"36061","name":"New York County","state_id":"NY"},{"zip":"10268","fips":"36061","name":"New York County","state_id":"NY"},{"zip":"10269","fips":"36061","name":"New York County","state_id":"NY"},{"zip":"10271","fips":"36061","name":"New York County","state_id":"NY"},{"zip":"10272","fips":"36061","name":"New York County","state_id":"NY"},{"zip":"10274","fips":"36061","name":"New York County","state_id":"NY"},{"zip":"10275","fips":"36061","name":"New York County","state_id":"NY"},{"zip":"10276","fips":"36061","name":"New York County","state_id":"NY"},{"zip":"10277","fips":"36061","name":"New York County","state_id":"NY"},{"zip":"10278","fips":"36061","name":"New York County","state_id":"NY"},{"zip":"10279","fips":"36061","name":"New York County","state_id":"NY"},{"zip":"10280","fips":"36061","name":"New York County","state_id":"NY"},{"zip":"10281","fips":"36061","name":"New York County","state_id":"NY"},{"zip":"10282","fips":"36061","name":"New York County","state_id":"NY"},{"zip":"10285","fips":"36061","name":"New York County","state_id":"NY"}]
