[{"zip":"10451","fips":"36005","name":"Bronx County","state_id":"NY"},{"zip":"10452","fips":"36005","name":"Bronx County","state_id":"NY"},{"zip":"10453","fips":"36005","name":"Bronx County","state_id":"NY"},{"zip":"10454","fips":"36005","name":"Bronx County","state_id":"NY"},{"zip":"10455","fips":"36005","name":"Bronx County","state_id":"NY"},{"zip":"10456","fips":"36005","name":"Bronx County","state_id":"NY"},{"zip":"10457","fips":"36005","name":"Bronx County","state_id":"NY"},{"zip":"10458","fips":"36005","name":"Bronx County","state_id":"NY"},{"zip":"10459","fips":"36005","name":"Bronx County","state_id":"NY"},{"zip":"10460","fips":"36005","name":"Bronx County","state_id":"NY"},{"zip":"10461","fips":"36005","name":"Bronx County","state_id":"NY"},{"zip":"10462","fips":"36005","name":"Bronx County","state_id":"NY"},{"zip":"10463","fips":"36005","name":"Bronx County","state_id":"NY"},{"zip":"10463","fips":"36061","name":"New York County","state_id":"NY"},{"zip":"10464","fips":"36119","name":"Westchester County","state_id":"NY"},{"zip":"10464","fips":"36005","name":"Bronx County","state_id":"NY"},{"zip":"10465","fips":"36005","name":"Bronx County","state_id":"NY"},{"zip":"10466","fips":"36119","name":"Westchester County","state_id":"NY"},{"zip":"10466","fips":"36005","name":"Bronx County","state_id":"NY"},{"zip":"10467","fips":"36005","name":"Bronx County","state_id":"NY"},{"zip":"10468","fips":"36005","name":"Bronx County","state_id":"NY"},{"zip":"10469","fips":"36005","name":"Bronx County","state_id":"NY"},{"zip":"10470","fips":"36005","name":"Bronx County","state_id":"NY"},{"zip":"10470","fips":"36119","name":"Westchester County","state_id":"NY"},{"zip":"10471","fips":"36005","name":"Bronx County","state_id":"NY"},{"zip":"10472","fips":"36005","name":"Bronx County","state_id":"NY"},{"zip":"10473","fips":"36005","name":"Bronx County","state_id":"NY"},{"zip":"10474","fips":"36005","name":"Bronx County","state_id":"NY"},{"zip":"10475","fips":"36005","name":"Bronx County","state_id":"NY"},{"zip":"10475","fips":"36119","name":"Westchester County","state_id":"NY"}]
