[{"zip":"10501","fips":"36119","name":"Westchester County","state_id":"NY"},{"zip":"10502","fips":"36119","name":"Westchester County","state_id":"NY"},{"zip":"10503","fips":"36119","name":"Westchester County","state_id":"NY"},{"zip":"10504","fips":"36119","name":"Westchester County","state_id":"NY"},{"zip":"10505","fips":"36079","name":"Putnam County","state_id":"NY"},{"zip":"10505","fips":"36119","name":"Westchester County","state_id":"NY"},{"zip":"10506","fips":"36119","name":"Westchester County","state_id":"NY"},{"zip":"10507","fips":"36119","name":"Westchester County","state_id":"NY"},{"zip":"10509","fips":"36119","name":"Westchester County","state_id":"NY"},{"zip":"10509","fips":"36079","name":"Putnam County","state_id":"NY"},{"zip":"10510","fips":"36119","name":"Westchester County","state_id":"NY"},{"zip":"10511","fips":"36119","name":"Westchester County","state_id":"NY"},{"zip":"10512","fips":"36027","name":"Dutchess County","state_id":"NY"},{"zip":"10512","fips":"36079","name":"Putnam County","state_id":"NY"},{"zip":"10514","fips":"36119","name":"Westchester County","state_id":"NY"},{"zip":"10516","fips":"36079","name":"Putnam County","state_id":"NY"},{"zip":"10517","fips":"36119","name":"Westchester County","state_id":"NY"},{"zip":"10518","fips":"36119","name":"Westchester County","state_id":"NY"},{"zip":"10519","fips":"36119","name":"Westchester County","state_id":"NY"},{"zip":"10520","fips":"36119","name":"Westchester County","state_id":"NY"},{"zip":"10522","fips":"36119","name":"Westchester County","state_id":"NY"},{"zip":"10523","fips":"36119","name":"Westchester County","state_id":"NY"},{"zip":"10524","fips":"36079","name":"Putnam County","state_id":"NY"},{"zip":"10526","fips":"36119","name":"Westchester County","state_id":"NY"},{"zip":"10527","fips":"36119","name":"Westchester County","state_id":"NY"},{"zip":"10528","fips":"36119","name":"Westchester County","state_id":"NY"},{"zip":"10530","fips":"36119","name":"Westchester County","state_id":"NY"},{"zip":"10532","fips":"36119","name":"Westchester County","state_id":"NY"},{"zip":"10533","fips":"36119","name":"Westchester County","state_id":"NY"},{"zip":"10535","fips":"36119","name":"Westchester County","state_id":"NY"},{"zip":"10536","fips":"36119","name":"Westchester County","state_id":"NY"},{"zip":"10537","fips":"36119","name":"Westchester County","state_id":"NY"},{"zip":"10537","fips":"36079","name":"Putnam County","state_id":"NY"},{"zip":"10538","fips":"36119","name":"Westchester County","state_id":"NY"},{"zip":"10540","fips":"36119","name":"Westchester County","state_id":"NY"},{"zip":"10541","fips":"36079","name":"Putnam County","state_id":"NY"},{"zip":"10541","fips":"36119","name":"Westchester County","state_id":"NY"},{"zip":"10542","fips":"36079","name":"Putnam County","state_id":"NY"},{"zip":"10543","fips":"36119","name":"Westchester County","state_id":"NY"},{"zip":"10545","fips":"36119","name":"Westchester County","state_id":"NY"},{"zip":"10546","fips":"36119","name":"Westchester County","state_id":"NY"},{"zip":"10547","fips":"36119","name":"Westchester County","state_id":"NY"},{"zip":"10548","fips":"36119","name":"Westchester County","state_id":"NY"},{"zip":"10549","fips":"36119","name":"Westchester County","state_id":"NY"},{"zip":"10550","fips":"36005","name":"Bronx County","state_id":"NY"},{"zip":"10550","fips":"36119","name":"Westchester County","state_id":"NY"},{"zip":"10551","fips":"36119","name":"Westchester County","state_id":"NY"},{"zip":"10552","fips":"36119","name":"Westchester County","state_id":"NY"},{"zip":"10553","fips":"36119","name":"Westchester County","state_id":"NY"},{"zip":"10560","fips":"36119","name":"Westchester County","state_id":"NY"},{"zip":"10562","fips":"36119","name":"Westchester County","state_id":"NY"},{"zip":"10566","fips":"36119","name":"Westchester County","state_id":"NY"},{"zip":"10567","fips":"36079","name":"Putnam County","state_id":"NY"},{"zip":"10567","fips":"36119","name":"Westchester County","state_id":"NY"},{"zip":"10570","fips":"36119","name":"Westchester County","state_id":"NY"},{"zip":"10573","fips":"36119","name":"Westchester County","state_id":"NY"},{"zip":"10576","fips":"36119","name":"Westchester County","state_id":"NY"},{"zip":"10577","fips":"36119","name":"Westchester County","state_id":"NY"},{"zip":"10578","fips":"36119","name":"Westchester County","state_id":"NY"},{"zip":"10579","fips":"36079","name":"Putnam County","state_id":"NY"},{"zip":"10580","fips":"36119","name":"Westchester County","state_id":"NY"},{"zip":"10583","fips":"36119","name":"Westchester County","state_id":"NY"},{"zip":"10587","fips":"36119","name":"Westchester County","state_id":"NY"},{"zip":"10588","fips":"36079","name":"Putnam County","state_id":"NY"},{"zip":"10588","fips":"36119","name":"Westchester County","state_id":"NY"},{"zip":"10589","fips":"36119","name":"Westchester County","state_id":"NY"},{"zip":"10590","fips":"36119","name":"Westchester County","state_id":"NY"},{"zip":"10591","fips":"36119","name":"Westchester County","state_id":"NY"},{"zip":"10594","fips":"36119","name":"Westchester County","state_id":"NY"},{"zip":"10595","fips":"36119","name":"Westchester County","state_id":"NY"},{"zip":"10596","fips":"36119","name":"Westchester County","state_id":"NY"},{"zip":"10597","fips":"36119","name":"Westchester County","state_id":"NY"},{"zip":"10598","fips":"36079","name":"Putnam County","state_id":"NY"},{"zip":"10598","fips":"36119","name":"Westchester County","state_id":"NY"}]
