[{"zip":"10901","fips":"36087","name":"Rockland County","state_id":"NY"},{"zip":"10910","fips":"36071","name":"Orange County","state_id":"NY"},{"zip":"10911","fips":"36087","name":"Rockland County","state_id":"NY"},{"zip":"10912","fips":"36071","name":"Orange County","state_id":"NY"},{"zip":"10913","fips":"36087","name":"Rockland County","state_id":"NY"},{"zip":"10914","fips":"36071","name":"Orange County","state_id":"NY"},{"zip":"10915","fips":"36071","name":"Orange County","state_id":"NY"},{"zip":"10916","fips":"36071","name":"Orange County","state_id":"NY"},{"zip":"10917","fips":"36071","name":"Orange County","state_id":"NY"},{"zip":"10918","fips":"36071","name":"Orange County","state_id":"NY"},{"zip":"10919","fips":"36071","name":"Orange County","state_id":"NY"},{"zip":"10920","fips":"36087","name":"Rockland County","state_id":"NY"},{"zip":"10921","fips":"36071","name":"Orange County","state_id":"NY"},{"zip":"10922","fips":"36071","name":"Orange County","state_id":"NY"},{"zip":"10923","fips":"36087","name":"Rockland County","state_id":"NY"},{"zip":"10924","fips":"36071","name":"Orange County","state_id":"NY"},{"zip":"10925","fips":"36071","name":"Orange County","state_id":"NY"},{"zip":"10926","fips":"36071","name":"Orange County","state_id":"NY"},{"zip":"10927","fips":"36087","name":"Rockland County","state_id":"NY"},{"zip":"10928","fips":"36071","name":"Orange County","state_id":"NY"},{"zip":"10930","fips":"36071","name":"Orange County","state_id":"NY"},{"zip":"10931","fips":"36087","name":"Rockland County","state_id":"NY"},{"zip":"10932","fips":"36071","name":"Orange County","state_id":"NY"},{"zip":"10933","fips":"36071","name":"Orange County","state_id":"NY"},{"zip":"10940","fips":"36071","name":"Orange County","state_id":"NY"},{"zip":"10940","fips":"36105","name":"Sullivan County","state_id":"NY"},{"zip":"10941","fips":"36071","name":"Orange County","state_id":"NY"},{"zip":"10949","fips":"36071","name":"Orange County","state_id":"NY"},{"zip":"10950","fips":"36071","name":"Orange County","state_id":"NY"},{"zip":"10952","fips":"36087","name":"Rockland County","state_id":"NY"},{"zip":"10953","fips":"36071","name":"Orange County","state_id":"NY"},{"zip":"10954","fips":"36087","name":"Rockland County","state_id":"NY"},{"zip":"10956","fips":"36087","name":"Rockland County","state_id":"NY"},{"zip":"10958","fips":"36071","name":"Orange County","state_id":"NY"},{"zip":"10959","fips":"36071","name":"Orange County","state_id":"NY"},{"zip":"10960","fips":"36087","name":"Rockland County","state_id":"NY"},{"zip":"10962","fips":"36087","name":"Rockland County","state_id":"NY"},{"zip":"10963","fips":"36105","name":"Sullivan County","state_id":"NY"},{"zip":"10963","fips":"36071","name":"Orange County","state_id":"NY"},{"zip":"10964","fips":"36087","name":"Rockland County","state_id":"NY"},{"zip":"10965","fips":"36087","name":"Rockland County","state_id":"NY"},{"zip":"10968","fips":"36087","name":"Rockland County","state_id":"NY"},{"zip":"10969","fips":"36071","name":"Orange County","state_id":"NY"},{"zip":"10970","fips":"36087","name":"Rockland County","state_id":"NY"},{"zip":"10973","fips":"36071","name":"Orange County","state_id":"NY"},{"zip":"10974","fips":"36087","name":"Rockland County","state_id":"NY"},{"zip":"10975","fips":"36071","name":"Orange County","state_id":"NY"},{"zip":"10976","fips":"36087","name":"Rockland County","state_id":"NY"},{"zip":"10977","fips":"36087","name":"Rockland County","state_id":"NY"},{"zip":"10979","fips":"36071","name":"Orange County","state_id":"NY"},{"zip":"10980","fips":"36087","name":"Rockland County","state_id":"NY"},{"zip":"10981","fips":"36071","name":"Orange County","state_id":"NY"},{"zip":"10982","fips":"36087","name":"Rockland County","state_id":"NY"},{"zip":"10983","fips":"36087","name":"Rockland County","state_id":"NY"},{"zip":"10984","fips":"36087","name":"Rockland County","state_id":"NY"},{"zip":"10985","fips":"36071","name":"Orange County","state_id":"NY"},{"zip":"10986","fips":"36087","name":"Rockland County","state_id":"NY"},{"zip":"10987","fips":"36087","name":"Rockland County","state_id":"NY"},{"zip":"10987","fips":"36071","name":"Orange County","state_id":"NY"},{"zip":"10988","fips":"36071","name":"Orange County","state_id":"NY"},{"zip":"10989","fips":"36087","name":"Rockland County","state_id":"NY"},{"zip":"10990","fips":"36071","name":"Orange County","state_id":"NY"},{"zip":"10992","fips":"36071","name":"Orange County","state_id":"NY"},{"zip":"10993","fips":"36087","name":"Rockland County","state_id":"NY"},{"zip":"10994","fips":"36087","name":"Rockland County","state_id":"NY"},{"zip":"10996","fips":"36071","name":"Orange County","state_id":"NY"},{"zip":"10998","fips":"36071","name":"Orange County","state_id":"NY"}]
