[{"zip":"11351","fips":"36081","name":"Queens County","state_id":"NY"},{"zip":"11352","fips":"36081","name":"Queens County","state_id":"NY"},{"zip":"11354","fips":"36081","name":"Queens County","state_id":"NY"},{"zip":"11355","fips":"36081","name":"Queens County","state_id":"NY"},{"zip":"11356","fips":"36081","name":"Queens County","state_id":"NY"},{"zip":"11357","fips":"36081","name":"Queens County","state_id":"NY"},{"zip":"11358","fips":"36081","name":"Queens County","state_id":"NY"},{"zip":"11359","fips":"36081","name":"Queens County","state_id":"NY"},{"zip":"11360","fips":"36081","name":"Queens County","state_id":"NY"},{"zip":"11361","fips":"36081","name":"Queens County","state_id":"NY"},{"zip":"11362","fips":"36081","name":"Queens County","state_id":"NY"},{"zip":"11363","fips":"36081","name":"Queens County","state_id":"NY"},{"zip":"11364","fips":"36081","name":"Queens County","state_id":"NY"},{"zip":"11365","fips":"36081","name":"Queens County","state_id":"NY"},{"zip":"11366","fips":"36081","name":"Queens County","state_id":"NY"},{"zip":"11367","fips":"36081","name":"Queens County","state_id":"NY"},{"zip":"11368","fips":"36081","name":"Queens County","state_id":"NY"},{"zip":"11369","fips":"36081","name":"Queens County","state_id":"NY"},{"zip":"11370","fips":"36081","name":"Queens County","state_id":"NY"},{"zip":"11371","fips":"36081","name":"Queens County","state_id":"NY"},{"zip":"11372","fips":"36081","name":"Queens County","state_id":"NY"},{"zip":"11373","fips":"36081","name":"Queens County","state_id":"NY"},{"zip":"11374","fips":"36081","name":"Queens County","state_id":"NY"},{"zip":"11375","fips":"36081","name":"Queens County","state_id":"NY"},{"zip":"11377","fips":"36081","name":"Queens County","state_id":"NY"},{"zip":"11378","fips":"36081","name":"Queens County","state_id":"NY"},{"zip":"11379","fips":"36081","name":"Queens County","state_id":"NY"},{"zip":"11380","fips":"36081","name":"Queens County","state_id":"NY"},{"zip":"11381","fips":"36081","name":"Queens County","state_id":"NY"},{"zip":"11385","fips":"36081","name":"Queens County","state_id":"NY"},{"zip":"11386","fips":"36081","name":"Queens County","state_id":"NY"}]
