[{"zip":"11405","fips":"36081","name":"Queens County","state_id":"NY"},{"zip":"11411","fips":"36081","name":"Queens County","state_id":"NY"},{"zip":"11412","fips":"36081","name":"Queens County","state_id":"NY"},{"zip":"11413","fips":"36081","name":"Queens County","state_id":"NY"},{"zip":"11414","fips":"36047","name":"Kings County","state_id":"NY"},{"zip":"11414","fips":"36081","name":"Queens County","state_id":"NY"},{"zip":"11415","fips":"36081","name":"Queens County","state_id":"NY"},{"zip":"11416","fips":"36081","name":"Queens County","state_id":"NY"},{"zip":"11416","fips":"36047","name":"Kings County","state_id":"NY"},{"zip":"11417","fips":"36081","name":"Queens County","state_id":"NY"},{"zip":"11417","fips":"36047","name":"Kings County","state_id":"NY"},{"zip":"11418","fips":"36081","name":"Queens County","state_id":"NY"},{"zip":"11419","fips":"36081","name":"Queens County","state_id":"NY"},{"zip":"11420","fips":"36081","name":"Queens County","state_id":"NY"},{"zip":"11421","fips":"36081","name":"Queens County","state_id":"NY"},{"zip":"11421","fips":"36047","name":"Kings County","state_id":"NY"},{"zip":"11422","fips":"36059","name":"Nassau County","state_id":"NY"},{"zip":"11422","fips":"36081","name":"Queens County","state_id":"NY"},{"zip":"11423","fips":"36081","name":"Queens County","state_id":"NY"},{"zip":"11424","fips":"36081","name":"Queens County","state_id":"NY"},{"zip":"11425","fips":"36081","name":"Queens County","state_id":"NY"},{"zip":"11426","fips":"36081","name":"Queens County","state_id":"NY"},{"zip":"11427","fips":"36081","name":"Queens County","state_id":"NY"},{"zip":"11428","fips":"36081","name":"Queens County","state_id":"NY"},{"zip":"11429","fips":"36081","name":"Queens County","state_id":"NY"},{"zip":"11430","fips":"36081","name":"Queens County","state_id":"NY"},{"zip":"11431","fips":"36081","name":"Queens County","state_id":"NY"},{"zip":"11432","fips":"36081","name":"Queens County","state_id":"NY"},{"zip":"11433","fips":"36081","name":"Queens County","state_id":"NY"},{"zip":"11434","fips":"36081","name":"Queens County","state_id":"NY"},{"zip":"11435","fips":"36081","name":"Queens County","state_id":"NY"},{"zip":"11436","fips":"36081","name":"Queens County","state_id":"NY"},{"zip":"11437","fips":"36081","name":"Queens County","state_id":"NY"},{"zip":"11439","fips":"36081","name":"Queens County","state_id":"NY"},{"zip":"11451","fips":"36081","name":"Queens County","state_id":"NY"},{"zip":"11499","fips":"36081","name":"Queens County","state_id":"NY"}]
