[{"zip":"11501","fips":"36059","name":"Nassau County","state_id":"NY"},{"zip":"11507","fips":"36059","name":"Nassau County","state_id":"NY"},{"zip":"11509","fips":"36059","name":"Nassau County","state_id":"NY"},{"zip":"11510","fips":"36059","name":"Nassau County","state_id":"NY"},{"zip":"11514","fips":"36059","name":"Nassau County","state_id":"NY"},{"zip":"11516","fips":"36059","name":"Nassau County","state_id":"NY"},{"zip":"11518","fips":"36059","name":"Nassau County","state_id":"NY"},{"zip":"11520","fips":"36059","name":"Nassau County","state_id":"NY"},{"zip":"11530","fips":"36059","name":"Nassau County","state_id":"NY"},{"zip":"11531","fips":"36059","name":"Nassau County","state_id":"NY"},{"zip":"11542","fips":"36059","name":"Nassau County","state_id":"NY"},{"zip":"11545","fips":"36059","name":"Nassau County","state_id":"NY"},{"zip":"11547","fips":"36059","name":"Nassau County","state_id":"NY"},{"zip":"11548","fips":"36059","name":"Nassau County","state_id":"NY"},{"zip":"11549","fips":"36059","name":"Nassau County","state_id":"NY"},{"zip":"11550","fips":"36059","name":"Nassau County","state_id":"NY"},{"zip":"11551","fips":"36059","name":"Nassau County","state_id":"NY"},{"zip":"11552","fips":"36059","name":"Nassau County","state_id":"NY"},{"zip":"11553","fips":"36059","name":"Nassau County","state_id":"NY"},{"zip":"11554","fips":"36059","name":"Nassau County","state_id":"NY"},{"zip":"11556","fips":"36059","name":"Nassau County","state_id":"NY"},{"zip":"11557","fips":"36059","name":"Nassau County","state_id":"NY"},{"zip":"11558","fips":"36059","name":"Nassau County","state_id":"NY"},{"zip":"11559","fips":"36059","name":"Nassau County","state_id":"NY"},{"zip":"11559","fips":"36081","name":"Queens County","state_id":"NY"},{"zip":"11560","fips":"36059","name":"Nassau County","state_id":"NY"},{"zip":"11561","fips":"36059","name":"Nassau County","state_id":"NY"},{"zip":"11563","fips":"36059","name":"Nassau County","state_id":"NY"},{"zip":"11565","fips":"36059","name":"Nassau County","state_id":"NY"},{"zip":"11566","fips":"36059","name":"Nassau County","state_id":"NY"},{"zip":"11568","fips":"36059","name":"Nassau County","state_id":"NY"},{"zip":"11569","fips":"36059","name":"Nassau County","state_id":"NY"},{"zip":"11570","fips":"36059","name":"Nassau County","state_id":"NY"},{"zip":"11571","fips":"36059","name":"Nassau County","state_id":"NY"},{"zip":"11572","fips":"36059","name":"Nassau County","state_id":"NY"},{"zip":"11575","fips":"36059","name":"Nassau County","state_id":"NY"},{"zip":"11576","fips":"36059","name":"Nassau County","state_id":"NY"},{"zip":"11577","fips":"36059","name":"Nassau County","state_id":"NY"},{"zip":"11579","fips":"36059","name":"Nassau County","state_id":"NY"},{"zip":"11580","fips":"36081","name":"Queens County","state_id":"NY"},{"zip":"11580","fips":"36059","name":"Nassau County","state_id":"NY"},{"zip":"11581","fips":"36059","name":"Nassau County","state_id":"NY"},{"zip":"11582","fips":"36059","name":"Nassau County","state_id":"NY"},{"zip":"11590","fips":"36059","name":"Nassau County","state_id":"NY"},{"zip":"11596","fips":"36059","name":"Nassau County","state_id":"NY"},{"zip":"11598","fips":"36059","name":"Nassau County","state_id":"NY"},{"zip":"11599","fips":"36059","name":"Nassau County","state_id":"NY"}]
