[{"zip":"12007","fips":"36001","name":"Albany County","state_id":"NY"},{"zip":"12008","fips":"36093","name":"Schenectady County","state_id":"NY"},{"zip":"12009","fips":"36001","name":"Albany County","state_id":"NY"},{"zip":"12009","fips":"36093","name":"Schenectady County","state_id":"NY"},{"zip":"12010","fips":"36093","name":"Schenectady County","state_id":"NY"},{"zip":"12010","fips":"36057","name":"Montgomery County","state_id":"NY"},{"zip":"12010","fips":"36035","name":"Fulton County","state_id":"NY"},{"zip":"12010","fips":"36091","name":"Saratoga County","state_id":"NY"},{"zip":"12015","fips":"36039","name":"Greene County","state_id":"NY"},{"zip":"12017","fips":"36021","name":"Columbia County","state_id":"NY"},{"zip":"12018","fips":"36083","name":"Rensselaer County","state_id":"NY"},{"zip":"12019","fips":"36091","name":"Saratoga County","state_id":"NY"},{"zip":"12019","fips":"36093","name":"Schenectady County","state_id":"NY"},{"zip":"12020","fips":"36091","name":"Saratoga County","state_id":"NY"},{"zip":"12022","fips":"36083","name":"Rensselaer County","state_id":"NY"},{"zip":"12023","fips":"36095","name":"Schoharie County","state_id":"NY"},{"zip":"12023","fips":"36001","name":"Albany County","state_id":"NY"},{"zip":"12024","fips":"36083","name":"Rensselaer County","state_id":"NY"},{"zip":"12024","fips":"36021","name":"Columbia County","state_id":"NY"},{"zip":"12025","fips":"36091","name":"Saratoga County","state_id":"NY"},{"zip":"12025","fips":"36035","name":"Fulton County","state_id":"NY"},{"zip":"12027","fips":"36091","name":"Saratoga County","state_id":"NY"},{"zip":"12027","fips":"36093","name":"Schenectady County","state_id":"NY"},{"zip":"12028","fips":"36083","name":"Rensselaer County","state_id":"NY"},{"zip":"12028","fips":"36115","name":"Washington County","state_id":"NY"},{"zip":"12029","fips":"36021","name":"Columbia County","state_id":"NY"},{"zip":"12031","fips":"36095","name":"Schoharie County","state_id":"NY"},{"zip":"12032","fips":"36041","name":"Hamilton County","state_id":"NY"},{"zip":"12032","fips":"36035","name":"Fulton County","state_id":"NY"},{"zip":"12033","fips":"36083","name":"Rensselaer County","state_id":"NY"},{"zip":"12035","fips":"36095","name":"Schoharie County","state_id":"NY"},{"zip":"12036","fips":"36077","name":"Otsego County","state_id":"NY"},{"zip":"12036","fips":"36095","name":"Schoharie County","state_id":"NY"},{"zip":"12037","fips":"36021","name":"Columbia County","state_id":"NY"},{"zip":"12040","fips":"36083","name":"Rensselaer County","state_id":"NY"},{"zip":"12041","fips":"36001","name":"Albany County","state_id":"NY"},{"zip":"12042","fips":"36039","name":"Greene County","state_id":"NY"},{"zip":"12043","fips":"36077","name":"Otsego County","state_id":"NY"},{"zip":"12043","fips":"36095","name":"Schoharie County","state_id":"NY"},{"zip":"12045","fips":"36001","name":"Albany County","state_id":"NY"},{"zip":"12046","fips":"36001","name":"Albany County","state_id":"NY"},{"zip":"12046","fips":"36039","name":"Greene County","state_id":"NY"},{"zip":"12047","fips":"36001","name":"Albany County","state_id":"NY"},{"zip":"12050","fips":"36021","name":"Columbia County","state_id":"NY"},{"zip":"12051","fips":"36039","name":"Greene County","state_id":"NY"},{"zip":"12052","fips":"36083","name":"Rensselaer County","state_id":"NY"},{"zip":"12053","fips":"36093","name":"Schenectady County","state_id":"NY"},{"zip":"12053","fips":"36001","name":"Albany County","state_id":"NY"},{"zip":"12053","fips":"36095","name":"Schoharie County","state_id":"NY"},{"zip":"12053","fips":"36057","name":"Montgomery County","state_id":"NY"},{"zip":"12054","fips":"36001","name":"Albany County","state_id":"NY"},{"zip":"12055","fips":"36001","name":"Albany County","state_id":"NY"},{"zip":"12056","fips":"36093","name":"Schenectady County","state_id":"NY"},{"zip":"12057","fips":"36115","name":"Washington County","state_id":"NY"},{"zip":"12057","fips":"36083","name":"Rensselaer County","state_id":"NY"},{"zip":"12058","fips":"36039","name":"Greene County","state_id":"NY"},{"zip":"12059","fips":"36001","name":"Albany County","state_id":"NY"},{"zip":"12060","fips":"36021","name":"Columbia County","state_id":"NY"},{"zip":"12061","fips":"36083","name":"Rensselaer County","state_id":"NY"},{"zip":"12062","fips":"36021","name":"Columbia County","state_id":"NY"},{"zip":"12062","fips":"36083","name":"Rensselaer County","state_id":"NY"},{"zip":"12063","fips":"36083","name":"Rensselaer County","state_id":"NY"},{"zip":"12064","fips":"36077","name":"Otsego County","state_id":"NY"},{"zip":"12064","fips":"36095","name":"Schoharie County","state_id":"NY"},{"zip":"12065","fips":"36091","name":"Saratoga County","state_id":"NY"},{"zip":"12065","fips":"36001","name":"Albany County","state_id":"NY"},{"zip":"12066","fips":"36093","name":"Schenectady County","state_id":"NY"},{"zip":"12066","fips":"36057","name":"Montgomery County","state_id":"NY"},{"zip":"12066","fips":"36095","name":"Schoharie County","state_id":"NY"},{"zip":"12067","fips":"36001","name":"Albany County","state_id":"NY"},{"zip":"12068","fips":"36057","name":"Montgomery County","state_id":"NY"},{"zip":"12068","fips":"36035","name":"Fulton County","state_id":"NY"},{"zip":"12069","fips":"36057","name":"Montgomery County","state_id":"NY"},{"zip":"12070","fips":"36057","name":"Montgomery County","state_id":"NY"},{"zip":"12070","fips":"36035","name":"Fulton County","state_id":"NY"},{"zip":"12071","fips":"36095","name":"Schoharie County","state_id":"NY"},{"zip":"12072","fips":"36057","name":"Montgomery County","state_id":"NY"},{"zip":"12073","fips":"36095","name":"Schoharie County","state_id":"NY"},{"zip":"12074","fips":"36091","name":"Saratoga County","state_id":"NY"},{"zip":"12075","fips":"36021","name":"Columbia County","state_id":"NY"},{"zip":"12076","fips":"36095","name":"Schoharie County","state_id":"NY"},{"zip":"12077","fips":"36001","name":"Albany County","state_id":"NY"},{"zip":"12078","fips":"36035","name":"Fulton County","state_id":"NY"},{"zip":"12082","fips":"36083","name":"Rensselaer County","state_id":"NY"},{"zip":"12083","fips":"36039","name":"Greene County","state_id":"NY"},{"zip":"12083","fips":"36001","name":"Albany County","state_id":"NY"},{"zip":"12084","fips":"36001","name":"Albany County","state_id":"NY"},{"zip":"12085","fips":"36001","name":"Albany County","state_id":"NY"},{"zip":"12086","fips":"36091","name":"Saratoga County","state_id":"NY"},{"zip":"12086","fips":"36035","name":"Fulton County","state_id":"NY"},{"zip":"12086","fips":"36057","name":"Montgomery County","state_id":"NY"},{"zip":"12087","fips":"36039","name":"Greene County","state_id":"NY"},{"zip":"12087","fips":"36001","name":"Albany County","state_id":"NY"},{"zip":"12089","fips":"36083","name":"Rensselaer County","state_id":"NY"},{"zip":"12090","fips":"36083","name":"Rensselaer County","state_id":"NY"},{"zip":"12090","fips":"36115","name":"Washington County","state_id":"NY"},{"zip":"12092","fips":"36095","name":"Schoharie County","state_id":"NY"},{"zip":"12093","fips":"36025","name":"Delaware County","state_id":"NY"},{"zip":"12093","fips":"36095","name":"Schoharie County","state_id":"NY"},{"zip":"12094","fips":"36115","name":"Washington County","state_id":"NY"},{"zip":"12094","fips":"36083","name":"Rensselaer County","state_id":"NY"},{"zip":"12095","fips":"36057","name":"Montgomery County","state_id":"NY"},{"zip":"12095","fips":"36035","name":"Fulton County","state_id":"NY"}]
