[{"zip":"12106","fips":"36021","name":"Columbia County","state_id":"NY"},{"zip":"12107","fips":"36001","name":"Albany County","state_id":"NY"},{"zip":"12108","fips":"36041","name":"Hamilton County","state_id":"NY"},{"zip":"12110","fips":"36001","name":"Albany County","state_id":"NY"},{"zip":"12115","fips":"36021","name":"Columbia County","state_id":"NY"},{"zip":"12116","fips":"36077","name":"Otsego County","state_id":"NY"},{"zip":"12117","fips":"36035","name":"Fulton County","state_id":"NY"},{"zip":"12118","fips":"36091","name":"Saratoga County","state_id":"NY"},{"zip":"12118","fips":"36083","name":"Rensselaer County","state_id":"NY"},{"zip":"12120","fips":"36001","name":"Albany County","state_id":"NY"},{"zip":"12120","fips":"36039","name":"Greene County","state_id":"NY"},{"zip":"12121","fips":"36083","name":"Rensselaer County","state_id":"NY"},{"zip":"12122","fips":"36001","name":"Albany County","state_id":"NY"},{"zip":"12122","fips":"36095","name":"Schoharie County","state_id":"NY"},{"zip":"12123","fips":"36083","name":"Rensselaer County","state_id":"NY"},{"zip":"12123","fips":"36021","name":"Columbia County","state_id":"NY"},{"zip":"12124","fips":"36039","name":"Greene County","state_id":"NY"},{"zip":"12125","fips":"36021","name":"Columbia County","state_id":"NY"},{"zip":"12128","fips":"36001","name":"Albany County","state_id":"NY"},{"zip":"12130","fips":"36021","name":"Columbia County","state_id":"NY"},{"zip":"12131","fips":"36095","name":"Schoharie County","state_id":"NY"},{"zip":"12132","fips":"36021","name":"Columbia County","state_id":"NY"},{"zip":"12133","fips":"36083","name":"Rensselaer County","state_id":"NY"},{"zip":"12134","fips":"36035","name":"Fulton County","state_id":"NY"},{"zip":"12134","fips":"36041","name":"Hamilton County","state_id":"NY"},{"zip":"12134","fips":"36091","name":"Saratoga County","state_id":"NY"},{"zip":"12136","fips":"36021","name":"Columbia County","state_id":"NY"},{"zip":"12137","fips":"36093","name":"Schenectady County","state_id":"NY"},{"zip":"12137","fips":"36057","name":"Montgomery County","state_id":"NY"},{"zip":"12138","fips":"36083","name":"Rensselaer County","state_id":"NY"},{"zip":"12139","fips":"36041","name":"Hamilton County","state_id":"NY"},{"zip":"12140","fips":"36083","name":"Rensselaer County","state_id":"NY"},{"zip":"12141","fips":"36093","name":"Schenectady County","state_id":"NY"},{"zip":"12143","fips":"36039","name":"Greene County","state_id":"NY"},{"zip":"12143","fips":"36001","name":"Albany County","state_id":"NY"},{"zip":"12144","fips":"36083","name":"Rensselaer County","state_id":"NY"},{"zip":"12147","fips":"36001","name":"Albany County","state_id":"NY"},{"zip":"12148","fips":"36091","name":"Saratoga County","state_id":"NY"},{"zip":"12149","fips":"36077","name":"Otsego County","state_id":"NY"},{"zip":"12149","fips":"36095","name":"Schoharie County","state_id":"NY"},{"zip":"12150","fips":"36093","name":"Schenectady County","state_id":"NY"},{"zip":"12151","fips":"36091","name":"Saratoga County","state_id":"NY"},{"zip":"12153","fips":"36083","name":"Rensselaer County","state_id":"NY"},{"zip":"12154","fips":"36083","name":"Rensselaer County","state_id":"NY"},{"zip":"12154","fips":"36115","name":"Washington County","state_id":"NY"},{"zip":"12155","fips":"36025","name":"Delaware County","state_id":"NY"},{"zip":"12155","fips":"36077","name":"Otsego County","state_id":"NY"},{"zip":"12156","fips":"36083","name":"Rensselaer County","state_id":"NY"},{"zip":"12156","fips":"36021","name":"Columbia County","state_id":"NY"},{"zip":"12157","fips":"36095","name":"Schoharie County","state_id":"NY"},{"zip":"12157","fips":"36001","name":"Albany County","state_id":"NY"},{"zip":"12157","fips":"36093","name":"Schenectady County","state_id":"NY"},{"zip":"12158","fips":"36001","name":"Albany County","state_id":"NY"},{"zip":"12159","fips":"36001","name":"Albany County","state_id":"NY"},{"zip":"12160","fips":"36057","name":"Montgomery County","state_id":"NY"},{"zip":"12160","fips":"36095","name":"Schoharie County","state_id":"NY"},{"zip":"12161","fips":"36001","name":"Albany County","state_id":"NY"},{"zip":"12164","fips":"36041","name":"Hamilton County","state_id":"NY"},{"zip":"12165","fips":"36021","name":"Columbia County","state_id":"NY"},{"zip":"12166","fips":"36057","name":"Montgomery County","state_id":"NY"},{"zip":"12166","fips":"36095","name":"Schoharie County","state_id":"NY"},{"zip":"12167","fips":"36095","name":"Schoharie County","state_id":"NY"},{"zip":"12167","fips":"36025","name":"Delaware County","state_id":"NY"},{"zip":"12168","fips":"36021","name":"Columbia County","state_id":"NY"},{"zip":"12168","fips":"36083","name":"Rensselaer County","state_id":"NY"},{"zip":"12169","fips":"36083","name":"Rensselaer County","state_id":"NY"},{"zip":"12170","fips":"36091","name":"Saratoga County","state_id":"NY"},{"zip":"12172","fips":"36021","name":"Columbia County","state_id":"NY"},{"zip":"12173","fips":"36021","name":"Columbia County","state_id":"NY"},{"zip":"12174","fips":"36021","name":"Columbia County","state_id":"NY"},{"zip":"12175","fips":"36095","name":"Schoharie County","state_id":"NY"},{"zip":"12176","fips":"36039","name":"Greene County","state_id":"NY"},{"zip":"12177","fips":"36057","name":"Montgomery County","state_id":"NY"},{"zip":"12180","fips":"36083","name":"Rensselaer County","state_id":"NY"},{"zip":"12181","fips":"36083","name":"Rensselaer County","state_id":"NY"},{"zip":"12182","fips":"36083","name":"Rensselaer County","state_id":"NY"},{"zip":"12183","fips":"36001","name":"Albany County","state_id":"NY"},{"zip":"12184","fips":"36021","name":"Columbia County","state_id":"NY"},{"zip":"12184","fips":"36083","name":"Rensselaer County","state_id":"NY"},{"zip":"12185","fips":"36083","name":"Rensselaer County","state_id":"NY"},{"zip":"12185","fips":"36115","name":"Washington County","state_id":"NY"},{"zip":"12186","fips":"36001","name":"Albany County","state_id":"NY"},{"zip":"12187","fips":"36095","name":"Schoharie County","state_id":"NY"},{"zip":"12188","fips":"36091","name":"Saratoga County","state_id":"NY"},{"zip":"12189","fips":"36001","name":"Albany County","state_id":"NY"},{"zip":"12190","fips":"36041","name":"Hamilton County","state_id":"NY"},{"zip":"12192","fips":"36039","name":"Greene County","state_id":"NY"},{"zip":"12193","fips":"36001","name":"Albany County","state_id":"NY"},{"zip":"12194","fips":"36095","name":"Schoharie County","state_id":"NY"},{"zip":"12195","fips":"36021","name":"Columbia County","state_id":"NY"},{"zip":"12196","fips":"36083","name":"Rensselaer County","state_id":"NY"},{"zip":"12197","fips":"36077","name":"Otsego County","state_id":"NY"},{"zip":"12198","fips":"36083","name":"Rensselaer County","state_id":"NY"}]
