[{"zip":"12301","fips":"36093","name":"Schenectady County","state_id":"NY"},{"zip":"12302","fips":"36093","name":"Schenectady County","state_id":"NY"},{"zip":"12302","fips":"36091","name":"Saratoga County","state_id":"NY"},{"zip":"12303","fips":"36093","name":"Schenectady County","state_id":"NY"},{"zip":"12303","fips":"36001","name":"Albany County","state_id":"NY"},{"zip":"12304","fips":"36093","name":"Schenectady County","state_id":"NY"},{"zip":"12304","fips":"36001","name":"Albany County","state_id":"NY"},{"zip":"12305","fips":"36093","name":"Schenectady County","state_id":"NY"},{"zip":"12306","fips":"36001","name":"Albany County","state_id":"NY"},{"zip":"12306","fips":"36093","name":"Schenectady County","state_id":"NY"},{"zip":"12307","fips":"36093","name":"Schenectady County","state_id":"NY"},{"zip":"12308","fips":"36093","name":"Schenectady County","state_id":"NY"},{"zip":"12309","fips":"36001","name":"Albany County","state_id":"NY"},{"zip":"12309","fips":"36093","name":"Schenectady County","state_id":"NY"},{"zip":"12345","fips":"36093","name":"Schenectady County","state_id":"NY"}]
