[{"zip":"12401","fips":"36111","name":"Ulster County","state_id":"NY"},{"zip":"12402","fips":"36111","name":"Ulster County","state_id":"NY"},{"zip":"12404","fips":"36111","name":"Ulster County","state_id":"NY"},{"zip":"12405","fips":"36039","name":"Greene County","state_id":"NY"},{"zip":"12406","fips":"36111","name":"Ulster County","state_id":"NY"},{"zip":"12406","fips":"36025","name":"Delaware County","state_id":"NY"},{"zip":"12407","fips":"36039","name":"Greene County","state_id":"NY"},{"zip":"12409","fips":"36111","name":"Ulster County","state_id":"NY"},{"zip":"12410","fips":"36111","name":"Ulster County","state_id":"NY"},{"zip":"12411","fips":"36111","name":"Ulster County","state_id":"NY"},{"zip":"12412","fips":"36111","name":"Ulster County","state_id":"NY"},{"zip":"12413","fips":"36039","name":"Greene County","state_id":"NY"},{"zip":"12414","fips":"36039","name":"Greene County","state_id":"NY"},{"zip":"12416","fips":"36111","name":"Ulster County","state_id":"NY"},{"zip":"12417","fips":"36111","name":"Ulster County","state_id":"NY"},{"zip":"12418","fips":"36039","name":"Greene County","state_id":"NY"},{"zip":"12419","fips":"36111","name":"Ulster County","state_id":"NY"},{"zip":"12420","fips":"36111","name":"Ulster County","state_id":"NY"},{"zip":"12421","fips":"36025","name":"Delaware County","state_id":"NY"},{"zip":"12422","fips":"36039","name":"Greene County","state_id":"NY"},{"zip":"12423","fips":"36039","name":"Greene County","state_id":"NY"},{"zip":"12424","fips":"36039","name":"Greene County","state_id":"NY"},{"zip":"12427","fips":"36039","name":"Greene County","state_id":"NY"},{"zip":"12428","fips":"36111","name":"Ulster County","state_id":"NY"},{"zip":"12429","fips":"36111","name":"Ulster County","state_id":"NY"},{"zip":"12430","fips":"36039","name":"Greene County","state_id":"NY"},{"zip":"12430","fips":"36025","name":"Delaware County","state_id":"NY"},{"zip":"12431","fips":"36039","name":"Greene County","state_id":"NY"},{"zip":"12432","fips":"36111","name":"Ulster County","state_id":"NY"},{"zip":"12433","fips":"36111","name":"Ulster County","state_id":"NY"},{"zip":"12434","fips":"36025","name":"Delaware County","state_id":"NY"},{"zip":"12435","fips":"36105","name":"Sullivan County","state_id":"NY"},{"zip":"12435","fips":"36111","name":"Ulster County","state_id":"NY"},{"zip":"12436","fips":"36039","name":"Greene County","state_id":"NY"},{"zip":"12438","fips":"36025","name":"Delaware County","state_id":"NY"},{"zip":"12439","fips":"36039","name":"Greene County","state_id":"NY"},{"zip":"12440","fips":"36111","name":"Ulster County","state_id":"NY"},{"zip":"12441","fips":"36111","name":"Ulster County","state_id":"NY"},{"zip":"12442","fips":"36039","name":"Greene County","state_id":"NY"},{"zip":"12443","fips":"36111","name":"Ulster County","state_id":"NY"},{"zip":"12444","fips":"36039","name":"Greene County","state_id":"NY"},{"zip":"12446","fips":"36111","name":"Ulster County","state_id":"NY"},{"zip":"12448","fips":"36111","name":"Ulster County","state_id":"NY"},{"zip":"12449","fips":"36111","name":"Ulster County","state_id":"NY"},{"zip":"12450","fips":"36039","name":"Greene County","state_id":"NY"},{"zip":"12451","fips":"36039","name":"Greene County","state_id":"NY"},{"zip":"12452","fips":"36039","name":"Greene County","state_id":"NY"},{"zip":"12453","fips":"36111","name":"Ulster County","state_id":"NY"},{"zip":"12454","fips":"36039","name":"Greene County","state_id":"NY"},{"zip":"12455","fips":"36025","name":"Delaware County","state_id":"NY"},{"zip":"12455","fips":"36111","name":"Ulster County","state_id":"NY"},{"zip":"12456","fips":"36111","name":"Ulster County","state_id":"NY"},{"zip":"12457","fips":"36111","name":"Ulster County","state_id":"NY"},{"zip":"12458","fips":"36105","name":"Sullivan County","state_id":"NY"},{"zip":"12458","fips":"36111","name":"Ulster County","state_id":"NY"},{"zip":"12459","fips":"36025","name":"Delaware County","state_id":"NY"},{"zip":"12460","fips":"36001","name":"Albany County","state_id":"NY"},{"zip":"12460","fips":"36039","name":"Greene County","state_id":"NY"},{"zip":"12461","fips":"36111","name":"Ulster County","state_id":"NY"},{"zip":"12463","fips":"36039","name":"Greene County","state_id":"NY"},{"zip":"12463","fips":"36111","name":"Ulster County","state_id":"NY"},{"zip":"12464","fips":"36111","name":"Ulster County","state_id":"NY"},{"zip":"12465","fips":"36111","name":"Ulster County","state_id":"NY"},{"zip":"12465","fips":"36025","name":"Delaware County","state_id":"NY"},{"zip":"12466","fips":"36111","name":"Ulster County","state_id":"NY"},{"zip":"12468","fips":"36039","name":"Greene County","state_id":"NY"},{"zip":"12468","fips":"36025","name":"Delaware County","state_id":"NY"},{"zip":"12469","fips":"36039","name":"Greene County","state_id":"NY"},{"zip":"12469","fips":"36095","name":"Schoharie County","state_id":"NY"},{"zip":"12469","fips":"36001","name":"Albany County","state_id":"NY"},{"zip":"12470","fips":"36039","name":"Greene County","state_id":"NY"},{"zip":"12471","fips":"36111","name":"Ulster County","state_id":"NY"},{"zip":"12472","fips":"36111","name":"Ulster County","state_id":"NY"},{"zip":"12473","fips":"36039","name":"Greene County","state_id":"NY"},{"zip":"12474","fips":"36025","name":"Delaware County","state_id":"NY"},{"zip":"12475","fips":"36111","name":"Ulster County","state_id":"NY"},{"zip":"12477","fips":"36111","name":"Ulster County","state_id":"NY"},{"zip":"12480","fips":"36039","name":"Greene County","state_id":"NY"},{"zip":"12480","fips":"36111","name":"Ulster County","state_id":"NY"},{"zip":"12481","fips":"36111","name":"Ulster County","state_id":"NY"},{"zip":"12482","fips":"36039","name":"Greene County","state_id":"NY"},{"zip":"12483","fips":"36111","name":"Ulster County","state_id":"NY"},{"zip":"12484","fips":"36111","name":"Ulster County","state_id":"NY"},{"zip":"12485","fips":"36039","name":"Greene County","state_id":"NY"},{"zip":"12486","fips":"36111","name":"Ulster County","state_id":"NY"},{"zip":"12487","fips":"36111","name":"Ulster County","state_id":"NY"},{"zip":"12489","fips":"36111","name":"Ulster County","state_id":"NY"},{"zip":"12490","fips":"36111","name":"Ulster County","state_id":"NY"},{"zip":"12491","fips":"36111","name":"Ulster County","state_id":"NY"},{"zip":"12492","fips":"36039","name":"Greene County","state_id":"NY"},{"zip":"12493","fips":"36111","name":"Ulster County","state_id":"NY"},{"zip":"12494","fips":"36111","name":"Ulster County","state_id":"NY"},{"zip":"12495","fips":"36111","name":"Ulster County","state_id":"NY"},{"zip":"12496","fips":"36039","name":"Greene County","state_id":"NY"},{"zip":"12498","fips":"36111","name":"Ulster County","state_id":"NY"}]
