[{"zip":"12701","fips":"36105","name":"Sullivan County","state_id":"NY"},{"zip":"12719","fips":"36105","name":"Sullivan County","state_id":"NY"},{"zip":"12720","fips":"36105","name":"Sullivan County","state_id":"NY"},{"zip":"12721","fips":"36105","name":"Sullivan County","state_id":"NY"},{"zip":"12721","fips":"36071","name":"Orange County","state_id":"NY"},{"zip":"12722","fips":"36105","name":"Sullivan County","state_id":"NY"},{"zip":"12723","fips":"36105","name":"Sullivan County","state_id":"NY"},{"zip":"12724","fips":"36105","name":"Sullivan County","state_id":"NY"},{"zip":"12725","fips":"36105","name":"Sullivan County","state_id":"NY"},{"zip":"12725","fips":"36111","name":"Ulster County","state_id":"NY"},{"zip":"12726","fips":"36105","name":"Sullivan County","state_id":"NY"},{"zip":"12729","fips":"36071","name":"Orange County","state_id":"NY"},{"zip":"12729","fips":"36105","name":"Sullivan County","state_id":"NY"},{"zip":"12732","fips":"36105","name":"Sullivan County","state_id":"NY"},{"zip":"12733","fips":"36105","name":"Sullivan County","state_id":"NY"},{"zip":"12734","fips":"36105","name":"Sullivan County","state_id":"NY"},{"zip":"12736","fips":"36105","name":"Sullivan County","state_id":"NY"},{"zip":"12737","fips":"36105","name":"Sullivan County","state_id":"NY"},{"zip":"12738","fips":"36105","name":"Sullivan County","state_id":"NY"},{"zip":"12740","fips":"36105","name":"Sullivan County","state_id":"NY"},{"zip":"12740","fips":"36111","name":"Ulster County","state_id":"NY"},{"zip":"12741","fips":"36105","name":"Sullivan County","state_id":"NY"},{"zip":"12742","fips":"36105","name":"Sullivan County","state_id":"NY"},{"zip":"12743","fips":"36105","name":"Sullivan County","state_id":"NY"},{"zip":"12745","fips":"36105","name":"Sullivan County","state_id":"NY"},{"zip":"12746","fips":"36071","name":"Orange County","state_id":"NY"},{"zip":"12747","fips":"36105","name":"Sullivan County","state_id":"NY"},{"zip":"12748","fips":"36105","name":"Sullivan County","state_id":"NY"},{"zip":"12749","fips":"36105","name":"Sullivan County","state_id":"NY"},{"zip":"12750","fips":"36105","name":"Sullivan County","state_id":"NY"},{"zip":"12751","fips":"36105","name":"Sullivan County","state_id":"NY"},{"zip":"12752","fips":"36105","name":"Sullivan County","state_id":"NY"},{"zip":"12754","fips":"36105","name":"Sullivan County","state_id":"NY"},{"zip":"12754","fips":"36071","name":"Orange County","state_id":"NY"},{"zip":"12758","fips":"36111","name":"Ulster County","state_id":"NY"},{"zip":"12758","fips":"36025","name":"Delaware County","state_id":"NY"},{"zip":"12758","fips":"36105","name":"Sullivan County","state_id":"NY"},{"zip":"12759","fips":"36105","name":"Sullivan County","state_id":"NY"},{"zip":"12760","fips":"36105","name":"Sullivan County","state_id":"NY"},{"zip":"12760","fips":"36025","name":"Delaware County","state_id":"NY"},{"zip":"12762","fips":"36105","name":"Sullivan County","state_id":"NY"},{"zip":"12763","fips":"36105","name":"Sullivan County","state_id":"NY"},{"zip":"12763","fips":"36111","name":"Ulster County","state_id":"NY"},{"zip":"12764","fips":"36105","name":"Sullivan County","state_id":"NY"},{"zip":"12765","fips":"36105","name":"Sullivan County","state_id":"NY"},{"zip":"12766","fips":"36105","name":"Sullivan County","state_id":"NY"},{"zip":"12767","fips":"36105","name":"Sullivan County","state_id":"NY"},{"zip":"12768","fips":"36105","name":"Sullivan County","state_id":"NY"},{"zip":"12769","fips":"36105","name":"Sullivan County","state_id":"NY"},{"zip":"12770","fips":"36105","name":"Sullivan County","state_id":"NY"},{"zip":"12771","fips":"36071","name":"Orange County","state_id":"NY"},{"zip":"12775","fips":"36105","name":"Sullivan County","state_id":"NY"},{"zip":"12776","fips":"36025","name":"Delaware County","state_id":"NY"},{"zip":"12776","fips":"36105","name":"Sullivan County","state_id":"NY"},{"zip":"12777","fips":"36105","name":"Sullivan County","state_id":"NY"},{"zip":"12778","fips":"36105","name":"Sullivan County","state_id":"NY"},{"zip":"12779","fips":"36105","name":"Sullivan County","state_id":"NY"},{"zip":"12780","fips":"36105","name":"Sullivan County","state_id":"NY"},{"zip":"12780","fips":"36071","name":"Orange County","state_id":"NY"},{"zip":"12781","fips":"36105","name":"Sullivan County","state_id":"NY"},{"zip":"12783","fips":"36105","name":"Sullivan County","state_id":"NY"},{"zip":"12784","fips":"36105","name":"Sullivan County","state_id":"NY"},{"zip":"12785","fips":"36071","name":"Orange County","state_id":"NY"},{"zip":"12786","fips":"36105","name":"Sullivan County","state_id":"NY"},{"zip":"12787","fips":"36105","name":"Sullivan County","state_id":"NY"},{"zip":"12788","fips":"36105","name":"Sullivan County","state_id":"NY"},{"zip":"12789","fips":"36105","name":"Sullivan County","state_id":"NY"},{"zip":"12789","fips":"36111","name":"Ulster County","state_id":"NY"},{"zip":"12790","fips":"36105","name":"Sullivan County","state_id":"NY"},{"zip":"12791","fips":"36105","name":"Sullivan County","state_id":"NY"},{"zip":"12792","fips":"36105","name":"Sullivan County","state_id":"NY"}]
