[{"zip":"12801","fips":"36113","name":"Warren County","state_id":"NY"},{"zip":"12803","fips":"36115","name":"Washington County","state_id":"NY"},{"zip":"12803","fips":"36091","name":"Saratoga County","state_id":"NY"},{"zip":"12804","fips":"36115","name":"Washington County","state_id":"NY"},{"zip":"12804","fips":"36113","name":"Warren County","state_id":"NY"},{"zip":"12808","fips":"36113","name":"Warren County","state_id":"NY"},{"zip":"12809","fips":"36115","name":"Washington County","state_id":"NY"},{"zip":"12810","fips":"36113","name":"Warren County","state_id":"NY"},{"zip":"12811","fips":"36113","name":"Warren County","state_id":"NY"},{"zip":"12812","fips":"36041","name":"Hamilton County","state_id":"NY"},{"zip":"12814","fips":"36113","name":"Warren County","state_id":"NY"},{"zip":"12815","fips":"36113","name":"Warren County","state_id":"NY"},{"zip":"12816","fips":"36115","name":"Washington County","state_id":"NY"},{"zip":"12817","fips":"36113","name":"Warren County","state_id":"NY"},{"zip":"12819","fips":"36115","name":"Washington County","state_id":"NY"},{"zip":"12820","fips":"36113","name":"Warren County","state_id":"NY"},{"zip":"12821","fips":"36115","name":"Washington County","state_id":"NY"},{"zip":"12822","fips":"36091","name":"Saratoga County","state_id":"NY"},{"zip":"12823","fips":"36115","name":"Washington County","state_id":"NY"},{"zip":"12824","fips":"36113","name":"Warren County","state_id":"NY"},{"zip":"12827","fips":"36115","name":"Washington County","state_id":"NY"},{"zip":"12828","fips":"36091","name":"Saratoga County","state_id":"NY"},{"zip":"12828","fips":"36115","name":"Washington County","state_id":"NY"},{"zip":"12831","fips":"36091","name":"Saratoga County","state_id":"NY"},{"zip":"12832","fips":"36115","name":"Washington County","state_id":"NY"},{"zip":"12833","fips":"36091","name":"Saratoga County","state_id":"NY"},{"zip":"12834","fips":"36115","name":"Washington County","state_id":"NY"},{"zip":"12835","fips":"36091","name":"Saratoga County","state_id":"NY"},{"zip":"12836","fips":"36113","name":"Warren County","state_id":"NY"},{"zip":"12836","fips":"36031","name":"Essex County","state_id":"NY"},{"zip":"12837","fips":"36115","name":"Washington County","state_id":"NY"},{"zip":"12838","fips":"36115","name":"Washington County","state_id":"NY"},{"zip":"12839","fips":"36113","name":"Warren County","state_id":"NY"},{"zip":"12839","fips":"36115","name":"Washington County","state_id":"NY"},{"zip":"12841","fips":"36115","name":"Washington County","state_id":"NY"},{"zip":"12842","fips":"36041","name":"Hamilton County","state_id":"NY"},{"zip":"12843","fips":"36113","name":"Warren County","state_id":"NY"},{"zip":"12844","fips":"36113","name":"Warren County","state_id":"NY"},{"zip":"12844","fips":"36115","name":"Washington County","state_id":"NY"},{"zip":"12845","fips":"36113","name":"Warren County","state_id":"NY"},{"zip":"12846","fips":"36113","name":"Warren County","state_id":"NY"},{"zip":"12847","fips":"36041","name":"Hamilton County","state_id":"NY"},{"zip":"12848","fips":"36115","name":"Washington County","state_id":"NY"},{"zip":"12849","fips":"36115","name":"Washington County","state_id":"NY"},{"zip":"12850","fips":"36091","name":"Saratoga County","state_id":"NY"},{"zip":"12851","fips":"36031","name":"Essex County","state_id":"NY"},{"zip":"12852","fips":"36031","name":"Essex County","state_id":"NY"},{"zip":"12853","fips":"36113","name":"Warren County","state_id":"NY"},{"zip":"12853","fips":"36031","name":"Essex County","state_id":"NY"},{"zip":"12854","fips":"36115","name":"Washington County","state_id":"NY"},{"zip":"12855","fips":"36031","name":"Essex County","state_id":"NY"},{"zip":"12856","fips":"36113","name":"Warren County","state_id":"NY"},{"zip":"12857","fips":"36031","name":"Essex County","state_id":"NY"},{"zip":"12857","fips":"36113","name":"Warren County","state_id":"NY"},{"zip":"12858","fips":"36031","name":"Essex County","state_id":"NY"},{"zip":"12859","fips":"36091","name":"Saratoga County","state_id":"NY"},{"zip":"12860","fips":"36113","name":"Warren County","state_id":"NY"},{"zip":"12861","fips":"36115","name":"Washington County","state_id":"NY"},{"zip":"12861","fips":"36031","name":"Essex County","state_id":"NY"},{"zip":"12862","fips":"36113","name":"Warren County","state_id":"NY"},{"zip":"12863","fips":"36091","name":"Saratoga County","state_id":"NY"},{"zip":"12864","fips":"36041","name":"Hamilton County","state_id":"NY"},{"zip":"12865","fips":"36115","name":"Washington County","state_id":"NY"},{"zip":"12866","fips":"36091","name":"Saratoga County","state_id":"NY"},{"zip":"12870","fips":"36113","name":"Warren County","state_id":"NY"},{"zip":"12870","fips":"36031","name":"Essex County","state_id":"NY"},{"zip":"12871","fips":"36091","name":"Saratoga County","state_id":"NY"},{"zip":"12872","fips":"36031","name":"Essex County","state_id":"NY"},{"zip":"12873","fips":"36115","name":"Washington County","state_id":"NY"},{"zip":"12874","fips":"36113","name":"Warren County","state_id":"NY"},{"zip":"12878","fips":"36113","name":"Warren County","state_id":"NY"},{"zip":"12879","fips":"36031","name":"Essex County","state_id":"NY"},{"zip":"12883","fips":"36115","name":"Washington County","state_id":"NY"},{"zip":"12883","fips":"36031","name":"Essex County","state_id":"NY"},{"zip":"12884","fips":"36091","name":"Saratoga County","state_id":"NY"},{"zip":"12885","fips":"36113","name":"Warren County","state_id":"NY"},{"zip":"12886","fips":"36113","name":"Warren County","state_id":"NY"},{"zip":"12887","fips":"36115","name":"Washington County","state_id":"NY"}]
