[{"zip":"12901","fips":"36019","name":"Clinton County","state_id":"NY"},{"zip":"12903","fips":"36019","name":"Clinton County","state_id":"NY"},{"zip":"12910","fips":"36019","name":"Clinton County","state_id":"NY"},{"zip":"12911","fips":"36019","name":"Clinton County","state_id":"NY"},{"zip":"12911","fips":"36031","name":"Essex County","state_id":"NY"},{"zip":"12912","fips":"36033","name":"Franklin County","state_id":"NY"},{"zip":"12912","fips":"36019","name":"Clinton County","state_id":"NY"},{"zip":"12912","fips":"36031","name":"Essex County","state_id":"NY"},{"zip":"12913","fips":"36033","name":"Franklin County","state_id":"NY"},{"zip":"12913","fips":"36031","name":"Essex County","state_id":"NY"},{"zip":"12913","fips":"36019","name":"Clinton County","state_id":"NY"},{"zip":"12914","fips":"36033","name":"Franklin County","state_id":"NY"},{"zip":"12914","fips":"36089","name":"St. Lawrence County","state_id":"NY"},{"zip":"12915","fips":"36033","name":"Franklin County","state_id":"NY"},{"zip":"12916","fips":"36033","name":"Franklin County","state_id":"NY"},{"zip":"12917","fips":"36033","name":"Franklin County","state_id":"NY"},{"zip":"12918","fips":"36019","name":"Clinton County","state_id":"NY"},{"zip":"12919","fips":"36019","name":"Clinton County","state_id":"NY"},{"zip":"12920","fips":"36019","name":"Clinton County","state_id":"NY"},{"zip":"12920","fips":"36033","name":"Franklin County","state_id":"NY"},{"zip":"12921","fips":"36019","name":"Clinton County","state_id":"NY"},{"zip":"12922","fips":"36089","name":"St. Lawrence County","state_id":"NY"},{"zip":"12923","fips":"36019","name":"Clinton County","state_id":"NY"},{"zip":"12924","fips":"36019","name":"Clinton County","state_id":"NY"},{"zip":"12926","fips":"36033","name":"Franklin County","state_id":"NY"},{"zip":"12927","fips":"36089","name":"St. Lawrence County","state_id":"NY"},{"zip":"12928","fips":"36031","name":"Essex County","state_id":"NY"},{"zip":"12929","fips":"36019","name":"Clinton County","state_id":"NY"},{"zip":"12930","fips":"36033","name":"Franklin County","state_id":"NY"},{"zip":"12930","fips":"36089","name":"St. Lawrence County","state_id":"NY"},{"zip":"12932","fips":"36031","name":"Essex County","state_id":"NY"},{"zip":"12933","fips":"36019","name":"Clinton County","state_id":"NY"},{"zip":"12934","fips":"36019","name":"Clinton County","state_id":"NY"},{"zip":"12935","fips":"36019","name":"Clinton County","state_id":"NY"},{"zip":"12936","fips":"36031","name":"Essex County","state_id":"NY"},{"zip":"12937","fips":"36033","name":"Franklin County","state_id":"NY"},{"zip":"12939","fips":"36033","name":"Franklin County","state_id":"NY"},{"zip":"12941","fips":"36031","name":"Essex County","state_id":"NY"},{"zip":"12942","fips":"36031","name":"Essex County","state_id":"NY"},{"zip":"12943","fips":"36031","name":"Essex County","state_id":"NY"},{"zip":"12944","fips":"36019","name":"Clinton County","state_id":"NY"},{"zip":"12944","fips":"36031","name":"Essex County","state_id":"NY"},{"zip":"12945","fips":"36033","name":"Franklin County","state_id":"NY"},{"zip":"12946","fips":"36031","name":"Essex County","state_id":"NY"},{"zip":"12949","fips":"36089","name":"St. Lawrence County","state_id":"NY"},{"zip":"12950","fips":"36031","name":"Essex County","state_id":"NY"},{"zip":"12952","fips":"36019","name":"Clinton County","state_id":"NY"},{"zip":"12953","fips":"36033","name":"Franklin County","state_id":"NY"},{"zip":"12955","fips":"36033","name":"Franklin County","state_id":"NY"},{"zip":"12955","fips":"36019","name":"Clinton County","state_id":"NY"},{"zip":"12956","fips":"36031","name":"Essex County","state_id":"NY"},{"zip":"12957","fips":"36033","name":"Franklin County","state_id":"NY"},{"zip":"12958","fips":"36019","name":"Clinton County","state_id":"NY"},{"zip":"12959","fips":"36019","name":"Clinton County","state_id":"NY"},{"zip":"12960","fips":"36031","name":"Essex County","state_id":"NY"},{"zip":"12961","fips":"36031","name":"Essex County","state_id":"NY"},{"zip":"12962","fips":"36019","name":"Clinton County","state_id":"NY"},{"zip":"12964","fips":"36031","name":"Essex County","state_id":"NY"},{"zip":"12965","fips":"36089","name":"St. Lawrence County","state_id":"NY"},{"zip":"12966","fips":"36033","name":"Franklin County","state_id":"NY"},{"zip":"12967","fips":"36089","name":"St. Lawrence County","state_id":"NY"},{"zip":"12967","fips":"36033","name":"Franklin County","state_id":"NY"},{"zip":"12969","fips":"36033","name":"Franklin County","state_id":"NY"},{"zip":"12970","fips":"36033","name":"Franklin County","state_id":"NY"},{"zip":"12972","fips":"36031","name":"Essex County","state_id":"NY"},{"zip":"12972","fips":"36019","name":"Clinton County","state_id":"NY"},{"zip":"12973","fips":"36089","name":"St. Lawrence County","state_id":"NY"},{"zip":"12974","fips":"36031","name":"Essex County","state_id":"NY"},{"zip":"12975","fips":"36031","name":"Essex County","state_id":"NY"},{"zip":"12976","fips":"36033","name":"Franklin County","state_id":"NY"},{"zip":"12977","fips":"36031","name":"Essex County","state_id":"NY"},{"zip":"12978","fips":"36019","name":"Clinton County","state_id":"NY"},{"zip":"12979","fips":"36019","name":"Clinton County","state_id":"NY"},{"zip":"12980","fips":"36089","name":"St. Lawrence County","state_id":"NY"},{"zip":"12980","fips":"36033","name":"Franklin County","state_id":"NY"},{"zip":"12981","fips":"36033","name":"Franklin County","state_id":"NY"},{"zip":"12981","fips":"36019","name":"Clinton County","state_id":"NY"},{"zip":"12983","fips":"36033","name":"Franklin County","state_id":"NY"},{"zip":"12983","fips":"36031","name":"Essex County","state_id":"NY"},{"zip":"12985","fips":"36019","name":"Clinton County","state_id":"NY"},{"zip":"12986","fips":"36089","name":"St. Lawrence County","state_id":"NY"},{"zip":"12986","fips":"36033","name":"Franklin County","state_id":"NY"},{"zip":"12987","fips":"36031","name":"Essex County","state_id":"NY"},{"zip":"12989","fips":"36031","name":"Essex County","state_id":"NY"},{"zip":"12989","fips":"36033","name":"Franklin County","state_id":"NY"},{"zip":"12992","fips":"36019","name":"Clinton County","state_id":"NY"},{"zip":"12993","fips":"36031","name":"Essex County","state_id":"NY"},{"zip":"12995","fips":"36033","name":"Franklin County","state_id":"NY"},{"zip":"12996","fips":"36031","name":"Essex County","state_id":"NY"},{"zip":"12997","fips":"36031","name":"Essex County","state_id":"NY"},{"zip":"12997","fips":"36019","name":"Clinton County","state_id":"NY"},{"zip":"12998","fips":"36031","name":"Essex County","state_id":"NY"}]
