[{"zip":"13020","fips":"36067","name":"Onondaga County","state_id":"NY"},{"zip":"13021","fips":"36011","name":"Cayuga County","state_id":"NY"},{"zip":"13021","fips":"36067","name":"Onondaga County","state_id":"NY"},{"zip":"13022","fips":"36011","name":"Cayuga County","state_id":"NY"},{"zip":"13024","fips":"36011","name":"Cayuga County","state_id":"NY"},{"zip":"13026","fips":"36011","name":"Cayuga County","state_id":"NY"},{"zip":"13027","fips":"36067","name":"Onondaga County","state_id":"NY"},{"zip":"13027","fips":"36011","name":"Cayuga County","state_id":"NY"},{"zip":"13028","fips":"36075","name":"Oswego County","state_id":"NY"},{"zip":"13029","fips":"36067","name":"Onondaga County","state_id":"NY"},{"zip":"13030","fips":"36067","name":"Onondaga County","state_id":"NY"},{"zip":"13030","fips":"36053","name":"Madison County","state_id":"NY"},{"zip":"13031","fips":"36067","name":"Onondaga County","state_id":"NY"},{"zip":"13032","fips":"36053","name":"Madison County","state_id":"NY"},{"zip":"13032","fips":"36065","name":"Oneida County","state_id":"NY"},{"zip":"13033","fips":"36067","name":"Onondaga County","state_id":"NY"},{"zip":"13033","fips":"36011","name":"Cayuga County","state_id":"NY"},{"zip":"13033","fips":"36075","name":"Oswego County","state_id":"NY"},{"zip":"13034","fips":"36011","name":"Cayuga County","state_id":"NY"},{"zip":"13035","fips":"36053","name":"Madison County","state_id":"NY"},{"zip":"13035","fips":"36067","name":"Onondaga County","state_id":"NY"},{"zip":"13036","fips":"36075","name":"Oswego County","state_id":"NY"},{"zip":"13036","fips":"36067","name":"Onondaga County","state_id":"NY"},{"zip":"13037","fips":"36053","name":"Madison County","state_id":"NY"},{"zip":"13037","fips":"36067","name":"Onondaga County","state_id":"NY"},{"zip":"13039","fips":"36067","name":"Onondaga County","state_id":"NY"},{"zip":"13040","fips":"36023","name":"Cortland County","state_id":"NY"},{"zip":"13040","fips":"36017","name":"Chenango County","state_id":"NY"},{"zip":"13041","fips":"36067","name":"Onondaga County","state_id":"NY"},{"zip":"13042","fips":"36065","name":"Oneida County","state_id":"NY"},{"zip":"13042","fips":"36075","name":"Oswego County","state_id":"NY"},{"zip":"13043","fips":"36053","name":"Madison County","state_id":"NY"},{"zip":"13044","fips":"36075","name":"Oswego County","state_id":"NY"},{"zip":"13045","fips":"36011","name":"Cayuga County","state_id":"NY"},{"zip":"13045","fips":"36109","name":"Tompkins County","state_id":"NY"},{"zip":"13045","fips":"36023","name":"Cortland County","state_id":"NY"},{"zip":"13051","fips":"36067","name":"Onondaga County","state_id":"NY"},{"zip":"13052","fips":"36067","name":"Onondaga County","state_id":"NY"},{"zip":"13052","fips":"36053","name":"Madison County","state_id":"NY"},{"zip":"13052","fips":"36023","name":"Cortland County","state_id":"NY"},{"zip":"13052","fips":"36017","name":"Chenango County","state_id":"NY"},{"zip":"13053","fips":"36023","name":"Cortland County","state_id":"NY"},{"zip":"13053","fips":"36109","name":"Tompkins County","state_id":"NY"},{"zip":"13054","fips":"36065","name":"Oneida County","state_id":"NY"},{"zip":"13057","fips":"36067","name":"Onondaga County","state_id":"NY"},{"zip":"13060","fips":"36011","name":"Cayuga County","state_id":"NY"},{"zip":"13060","fips":"36067","name":"Onondaga County","state_id":"NY"},{"zip":"13061","fips":"36053","name":"Madison County","state_id":"NY"},{"zip":"13062","fips":"36109","name":"Tompkins County","state_id":"NY"},{"zip":"13063","fips":"36067","name":"Onondaga County","state_id":"NY"},{"zip":"13064","fips":"36011","name":"Cayuga County","state_id":"NY"},{"zip":"13065","fips":"36099","name":"Seneca County","state_id":"NY"},{"zip":"13066","fips":"36067","name":"Onondaga County","state_id":"NY"},{"zip":"13068","fips":"36109","name":"Tompkins County","state_id":"NY"},{"zip":"13069","fips":"36075","name":"Oswego County","state_id":"NY"},{"zip":"13069","fips":"36067","name":"Onondaga County","state_id":"NY"},{"zip":"13071","fips":"36011","name":"Cayuga County","state_id":"NY"},{"zip":"13072","fips":"36053","name":"Madison County","state_id":"NY"},{"zip":"13072","fips":"36017","name":"Chenango County","state_id":"NY"},{"zip":"13073","fips":"36109","name":"Tompkins County","state_id":"NY"},{"zip":"13073","fips":"36011","name":"Cayuga County","state_id":"NY"},{"zip":"13073","fips":"36023","name":"Cortland County","state_id":"NY"},{"zip":"13074","fips":"36011","name":"Cayuga County","state_id":"NY"},{"zip":"13074","fips":"36075","name":"Oswego County","state_id":"NY"},{"zip":"13076","fips":"36075","name":"Oswego County","state_id":"NY"},{"zip":"13077","fips":"36067","name":"Onondaga County","state_id":"NY"},{"zip":"13077","fips":"36023","name":"Cortland County","state_id":"NY"},{"zip":"13077","fips":"36011","name":"Cayuga County","state_id":"NY"},{"zip":"13078","fips":"36067","name":"Onondaga County","state_id":"NY"},{"zip":"13080","fips":"36011","name":"Cayuga County","state_id":"NY"},{"zip":"13080","fips":"36067","name":"Onondaga County","state_id":"NY"},{"zip":"13081","fips":"36109","name":"Tompkins County","state_id":"NY"},{"zip":"13081","fips":"36011","name":"Cayuga County","state_id":"NY"},{"zip":"13082","fips":"36053","name":"Madison County","state_id":"NY"},{"zip":"13082","fips":"36067","name":"Onondaga County","state_id":"NY"},{"zip":"13083","fips":"36075","name":"Oswego County","state_id":"NY"},{"zip":"13083","fips":"36045","name":"Jefferson County","state_id":"NY"},{"zip":"13084","fips":"36067","name":"Onondaga County","state_id":"NY"},{"zip":"13087","fips":"36023","name":"Cortland County","state_id":"NY"},{"zip":"13088","fips":"36067","name":"Onondaga County","state_id":"NY"},{"zip":"13089","fips":"36067","name":"Onondaga County","state_id":"NY"},{"zip":"13090","fips":"36067","name":"Onondaga County","state_id":"NY"},{"zip":"13092","fips":"36109","name":"Tompkins County","state_id":"NY"},{"zip":"13092","fips":"36011","name":"Cayuga County","state_id":"NY"},{"zip":"13093","fips":"36075","name":"Oswego County","state_id":"NY"}]
