[{"zip":"13101","fips":"36023","name":"Cortland County","state_id":"NY"},{"zip":"13102","fips":"36109","name":"Tompkins County","state_id":"NY"},{"zip":"13103","fips":"36075","name":"Oswego County","state_id":"NY"},{"zip":"13104","fips":"36067","name":"Onondaga County","state_id":"NY"},{"zip":"13104","fips":"36053","name":"Madison County","state_id":"NY"},{"zip":"13108","fips":"36067","name":"Onondaga County","state_id":"NY"},{"zip":"13110","fips":"36067","name":"Onondaga County","state_id":"NY"},{"zip":"13111","fips":"36075","name":"Oswego County","state_id":"NY"},{"zip":"13111","fips":"36011","name":"Cayuga County","state_id":"NY"},{"zip":"13112","fips":"36067","name":"Onondaga County","state_id":"NY"},{"zip":"13113","fips":"36011","name":"Cayuga County","state_id":"NY"},{"zip":"13114","fips":"36075","name":"Oswego County","state_id":"NY"},{"zip":"13115","fips":"36075","name":"Oswego County","state_id":"NY"},{"zip":"13116","fips":"36067","name":"Onondaga County","state_id":"NY"},{"zip":"13117","fips":"36011","name":"Cayuga County","state_id":"NY"},{"zip":"13118","fips":"36011","name":"Cayuga County","state_id":"NY"},{"zip":"13119","fips":"36067","name":"Onondaga County","state_id":"NY"},{"zip":"13120","fips":"36067","name":"Onondaga County","state_id":"NY"},{"zip":"13121","fips":"36075","name":"Oswego County","state_id":"NY"},{"zip":"13122","fips":"36067","name":"Onondaga County","state_id":"NY"},{"zip":"13122","fips":"36053","name":"Madison County","state_id":"NY"},{"zip":"13123","fips":"36065","name":"Oneida County","state_id":"NY"},{"zip":"13124","fips":"36017","name":"Chenango County","state_id":"NY"},{"zip":"13126","fips":"36075","name":"Oswego County","state_id":"NY"},{"zip":"13126","fips":"36011","name":"Cayuga County","state_id":"NY"},{"zip":"13131","fips":"36075","name":"Oswego County","state_id":"NY"},{"zip":"13132","fips":"36075","name":"Oswego County","state_id":"NY"},{"zip":"13134","fips":"36053","name":"Madison County","state_id":"NY"},{"zip":"13135","fips":"36075","name":"Oswego County","state_id":"NY"},{"zip":"13135","fips":"36067","name":"Onondaga County","state_id":"NY"},{"zip":"13136","fips":"36017","name":"Chenango County","state_id":"NY"},{"zip":"13137","fips":"36067","name":"Onondaga County","state_id":"NY"},{"zip":"13138","fips":"36067","name":"Onondaga County","state_id":"NY"},{"zip":"13139","fips":"36011","name":"Cayuga County","state_id":"NY"},{"zip":"13140","fips":"36011","name":"Cayuga County","state_id":"NY"},{"zip":"13141","fips":"36067","name":"Onondaga County","state_id":"NY"},{"zip":"13141","fips":"36023","name":"Cortland County","state_id":"NY"},{"zip":"13142","fips":"36075","name":"Oswego County","state_id":"NY"},{"zip":"13143","fips":"36011","name":"Cayuga County","state_id":"NY"},{"zip":"13143","fips":"36117","name":"Wayne County","state_id":"NY"},{"zip":"13144","fips":"36075","name":"Oswego County","state_id":"NY"},{"zip":"13145","fips":"36045","name":"Jefferson County","state_id":"NY"},{"zip":"13145","fips":"36075","name":"Oswego County","state_id":"NY"},{"zip":"13146","fips":"36099","name":"Seneca County","state_id":"NY"},{"zip":"13146","fips":"36117","name":"Wayne County","state_id":"NY"},{"zip":"13146","fips":"36011","name":"Cayuga County","state_id":"NY"},{"zip":"13147","fips":"36011","name":"Cayuga County","state_id":"NY"},{"zip":"13148","fips":"36099","name":"Seneca County","state_id":"NY"},{"zip":"13148","fips":"36117","name":"Wayne County","state_id":"NY"},{"zip":"13152","fips":"36067","name":"Onondaga County","state_id":"NY"},{"zip":"13152","fips":"36011","name":"Cayuga County","state_id":"NY"},{"zip":"13153","fips":"36067","name":"Onondaga County","state_id":"NY"},{"zip":"13154","fips":"36117","name":"Wayne County","state_id":"NY"},{"zip":"13155","fips":"36017","name":"Chenango County","state_id":"NY"},{"zip":"13156","fips":"36075","name":"Oswego County","state_id":"NY"},{"zip":"13156","fips":"36011","name":"Cayuga County","state_id":"NY"},{"zip":"13156","fips":"36117","name":"Wayne County","state_id":"NY"},{"zip":"13157","fips":"36065","name":"Oneida County","state_id":"NY"},{"zip":"13158","fips":"36023","name":"Cortland County","state_id":"NY"},{"zip":"13158","fips":"36067","name":"Onondaga County","state_id":"NY"},{"zip":"13159","fips":"36023","name":"Cortland County","state_id":"NY"},{"zip":"13159","fips":"36067","name":"Onondaga County","state_id":"NY"},{"zip":"13160","fips":"36011","name":"Cayuga County","state_id":"NY"},{"zip":"13162","fips":"36065","name":"Oneida County","state_id":"NY"},{"zip":"13163","fips":"36053","name":"Madison County","state_id":"NY"},{"zip":"13164","fips":"36067","name":"Onondaga County","state_id":"NY"},{"zip":"13165","fips":"36117","name":"Wayne County","state_id":"NY"},{"zip":"13165","fips":"36099","name":"Seneca County","state_id":"NY"},{"zip":"13166","fips":"36067","name":"Onondaga County","state_id":"NY"},{"zip":"13166","fips":"36011","name":"Cayuga County","state_id":"NY"},{"zip":"13167","fips":"36075","name":"Oswego County","state_id":"NY"}]
