[{"zip":"13301","fips":"36065","name":"Oneida County","state_id":"NY"},{"zip":"13302","fips":"36075","name":"Oswego County","state_id":"NY"},{"zip":"13303","fips":"36065","name":"Oneida County","state_id":"NY"},{"zip":"13304","fips":"36043","name":"Herkimer County","state_id":"NY"},{"zip":"13304","fips":"36065","name":"Oneida County","state_id":"NY"},{"zip":"13305","fips":"36049","name":"Lewis County","state_id":"NY"},{"zip":"13308","fips":"36065","name":"Oneida County","state_id":"NY"},{"zip":"13309","fips":"36065","name":"Oneida County","state_id":"NY"},{"zip":"13309","fips":"36049","name":"Lewis County","state_id":"NY"},{"zip":"13310","fips":"36053","name":"Madison County","state_id":"NY"},{"zip":"13312","fips":"36049","name":"Lewis County","state_id":"NY"},{"zip":"13313","fips":"36065","name":"Oneida County","state_id":"NY"},{"zip":"13314","fips":"36053","name":"Madison County","state_id":"NY"},{"zip":"13315","fips":"36077","name":"Otsego County","state_id":"NY"},{"zip":"13316","fips":"36075","name":"Oswego County","state_id":"NY"},{"zip":"13316","fips":"36049","name":"Lewis County","state_id":"NY"},{"zip":"13316","fips":"36065","name":"Oneida County","state_id":"NY"},{"zip":"13317","fips":"36077","name":"Otsego County","state_id":"NY"},{"zip":"13317","fips":"36057","name":"Montgomery County","state_id":"NY"},{"zip":"13318","fips":"36065","name":"Oneida County","state_id":"NY"},{"zip":"13319","fips":"36065","name":"Oneida County","state_id":"NY"},{"zip":"13320","fips":"36077","name":"Otsego County","state_id":"NY"},{"zip":"13320","fips":"36095","name":"Schoharie County","state_id":"NY"},{"zip":"13320","fips":"36057","name":"Montgomery County","state_id":"NY"},{"zip":"13321","fips":"36065","name":"Oneida County","state_id":"NY"},{"zip":"13322","fips":"36043","name":"Herkimer County","state_id":"NY"},{"zip":"13322","fips":"36065","name":"Oneida County","state_id":"NY"},{"zip":"13323","fips":"36065","name":"Oneida County","state_id":"NY"},{"zip":"13324","fips":"36043","name":"Herkimer County","state_id":"NY"},{"zip":"13325","fips":"36049","name":"Lewis County","state_id":"NY"},{"zip":"13326","fips":"36077","name":"Otsego County","state_id":"NY"},{"zip":"13327","fips":"36049","name":"Lewis County","state_id":"NY"},{"zip":"13328","fips":"36065","name":"Oneida County","state_id":"NY"},{"zip":"13329","fips":"36035","name":"Fulton County","state_id":"NY"},{"zip":"13329","fips":"36043","name":"Herkimer County","state_id":"NY"},{"zip":"13331","fips":"36041","name":"Hamilton County","state_id":"NY"},{"zip":"13331","fips":"36043","name":"Herkimer County","state_id":"NY"},{"zip":"13332","fips":"36053","name":"Madison County","state_id":"NY"},{"zip":"13332","fips":"36017","name":"Chenango County","state_id":"NY"},{"zip":"13333","fips":"36077","name":"Otsego County","state_id":"NY"},{"zip":"13334","fips":"36053","name":"Madison County","state_id":"NY"},{"zip":"13335","fips":"36077","name":"Otsego County","state_id":"NY"},{"zip":"13337","fips":"36077","name":"Otsego County","state_id":"NY"},{"zip":"13338","fips":"36065","name":"Oneida County","state_id":"NY"},{"zip":"13338","fips":"36043","name":"Herkimer County","state_id":"NY"},{"zip":"13339","fips":"36043","name":"Herkimer County","state_id":"NY"},{"zip":"13339","fips":"36035","name":"Fulton County","state_id":"NY"},{"zip":"13339","fips":"36057","name":"Montgomery County","state_id":"NY"},{"zip":"13340","fips":"36043","name":"Herkimer County","state_id":"NY"},{"zip":"13341","fips":"36065","name":"Oneida County","state_id":"NY"},{"zip":"13342","fips":"36077","name":"Otsego County","state_id":"NY"},{"zip":"13343","fips":"36049","name":"Lewis County","state_id":"NY"},{"zip":"13345","fips":"36049","name":"Lewis County","state_id":"NY"},{"zip":"13346","fips":"36053","name":"Madison County","state_id":"NY"},{"zip":"13348","fips":"36077","name":"Otsego County","state_id":"NY"},{"zip":"13350","fips":"36043","name":"Herkimer County","state_id":"NY"},{"zip":"13352","fips":"36065","name":"Oneida County","state_id":"NY"},{"zip":"13353","fips":"36041","name":"Hamilton County","state_id":"NY"},{"zip":"13354","fips":"36065","name":"Oneida County","state_id":"NY"},{"zip":"13355","fips":"36053","name":"Madison County","state_id":"NY"},{"zip":"13357","fips":"36043","name":"Herkimer County","state_id":"NY"},{"zip":"13360","fips":"36041","name":"Hamilton County","state_id":"NY"},{"zip":"13360","fips":"36043","name":"Herkimer County","state_id":"NY"},{"zip":"13361","fips":"36077","name":"Otsego County","state_id":"NY"},{"zip":"13361","fips":"36043","name":"Herkimer County","state_id":"NY"},{"zip":"13362","fips":"36065","name":"Oneida County","state_id":"NY"},{"zip":"13363","fips":"36065","name":"Oneida County","state_id":"NY"},{"zip":"13364","fips":"36053","name":"Madison County","state_id":"NY"},{"zip":"13365","fips":"36043","name":"Herkimer County","state_id":"NY"},{"zip":"13367","fips":"36049","name":"Lewis County","state_id":"NY"},{"zip":"13367","fips":"36043","name":"Herkimer County","state_id":"NY"},{"zip":"13368","fips":"36049","name":"Lewis County","state_id":"NY"}]
