[{"zip":"13601","fips":"36045","name":"Jefferson County","state_id":"NY"},{"zip":"13601","fips":"36049","name":"Lewis County","state_id":"NY"},{"zip":"13602","fips":"36045","name":"Jefferson County","state_id":"NY"},{"zip":"13603","fips":"36045","name":"Jefferson County","state_id":"NY"},{"zip":"13605","fips":"36045","name":"Jefferson County","state_id":"NY"},{"zip":"13606","fips":"36045","name":"Jefferson County","state_id":"NY"},{"zip":"13607","fips":"36045","name":"Jefferson County","state_id":"NY"},{"zip":"13608","fips":"36045","name":"Jefferson County","state_id":"NY"},{"zip":"13608","fips":"36089","name":"St. Lawrence County","state_id":"NY"},{"zip":"13611","fips":"36045","name":"Jefferson County","state_id":"NY"},{"zip":"13612","fips":"36045","name":"Jefferson County","state_id":"NY"},{"zip":"13613","fips":"36089","name":"St. Lawrence County","state_id":"NY"},{"zip":"13614","fips":"36089","name":"St. Lawrence County","state_id":"NY"},{"zip":"13615","fips":"36045","name":"Jefferson County","state_id":"NY"},{"zip":"13616","fips":"36045","name":"Jefferson County","state_id":"NY"},{"zip":"13617","fips":"36089","name":"St. Lawrence County","state_id":"NY"},{"zip":"13618","fips":"36045","name":"Jefferson County","state_id":"NY"},{"zip":"13619","fips":"36049","name":"Lewis County","state_id":"NY"},{"zip":"13619","fips":"36045","name":"Jefferson County","state_id":"NY"},{"zip":"13620","fips":"36049","name":"Lewis County","state_id":"NY"},{"zip":"13621","fips":"36089","name":"St. Lawrence County","state_id":"NY"},{"zip":"13622","fips":"36045","name":"Jefferson County","state_id":"NY"},{"zip":"13623","fips":"36089","name":"St. Lawrence County","state_id":"NY"},{"zip":"13624","fips":"36045","name":"Jefferson County","state_id":"NY"},{"zip":"13625","fips":"36089","name":"St. Lawrence County","state_id":"NY"},{"zip":"13626","fips":"36049","name":"Lewis County","state_id":"NY"},{"zip":"13626","fips":"36045","name":"Jefferson County","state_id":"NY"},{"zip":"13628","fips":"36045","name":"Jefferson County","state_id":"NY"},{"zip":"13630","fips":"36089","name":"St. Lawrence County","state_id":"NY"},{"zip":"13631","fips":"36045","name":"Jefferson County","state_id":"NY"},{"zip":"13632","fips":"36045","name":"Jefferson County","state_id":"NY"},{"zip":"13633","fips":"36089","name":"St. Lawrence County","state_id":"NY"},{"zip":"13634","fips":"36045","name":"Jefferson County","state_id":"NY"},{"zip":"13635","fips":"36089","name":"St. Lawrence County","state_id":"NY"},{"zip":"13636","fips":"36045","name":"Jefferson County","state_id":"NY"},{"zip":"13637","fips":"36045","name":"Jefferson County","state_id":"NY"},{"zip":"13638","fips":"36045","name":"Jefferson County","state_id":"NY"},{"zip":"13639","fips":"36089","name":"St. Lawrence County","state_id":"NY"},{"zip":"13640","fips":"36045","name":"Jefferson County","state_id":"NY"},{"zip":"13641","fips":"36045","name":"Jefferson County","state_id":"NY"},{"zip":"13642","fips":"36089","name":"St. Lawrence County","state_id":"NY"},{"zip":"13642","fips":"36045","name":"Jefferson County","state_id":"NY"},{"zip":"13643","fips":"36045","name":"Jefferson County","state_id":"NY"},{"zip":"13645","fips":"36089","name":"St. Lawrence County","state_id":"NY"},{"zip":"13646","fips":"36089","name":"St. Lawrence County","state_id":"NY"},{"zip":"13646","fips":"36045","name":"Jefferson County","state_id":"NY"},{"zip":"13647","fips":"36089","name":"St. Lawrence County","state_id":"NY"},{"zip":"13648","fips":"36049","name":"Lewis County","state_id":"NY"},{"zip":"13648","fips":"36089","name":"St. Lawrence County","state_id":"NY"},{"zip":"13649","fips":"36089","name":"St. Lawrence County","state_id":"NY"},{"zip":"13650","fips":"36045","name":"Jefferson County","state_id":"NY"},{"zip":"13651","fips":"36045","name":"Jefferson County","state_id":"NY"},{"zip":"13652","fips":"36089","name":"St. Lawrence County","state_id":"NY"},{"zip":"13654","fips":"36089","name":"St. Lawrence County","state_id":"NY"},{"zip":"13655","fips":"36033","name":"Franklin County","state_id":"NY"},{"zip":"13656","fips":"36045","name":"Jefferson County","state_id":"NY"},{"zip":"13658","fips":"36089","name":"St. Lawrence County","state_id":"NY"},{"zip":"13659","fips":"36045","name":"Jefferson County","state_id":"NY"},{"zip":"13660","fips":"36089","name":"St. Lawrence County","state_id":"NY"},{"zip":"13661","fips":"36075","name":"Oswego County","state_id":"NY"},{"zip":"13661","fips":"36045","name":"Jefferson County","state_id":"NY"},{"zip":"13662","fips":"36089","name":"St. Lawrence County","state_id":"NY"},{"zip":"13664","fips":"36089","name":"St. Lawrence County","state_id":"NY"},{"zip":"13665","fips":"36049","name":"Lewis County","state_id":"NY"},{"zip":"13665","fips":"36045","name":"Jefferson County","state_id":"NY"},{"zip":"13666","fips":"36089","name":"St. Lawrence County","state_id":"NY"},{"zip":"13667","fips":"36089","name":"St. Lawrence County","state_id":"NY"},{"zip":"13668","fips":"36089","name":"St. Lawrence County","state_id":"NY"},{"zip":"13669","fips":"36089","name":"St. Lawrence County","state_id":"NY"},{"zip":"13670","fips":"36089","name":"St. Lawrence County","state_id":"NY"},{"zip":"13671","fips":"36045","name":"Jefferson County","state_id":"NY"},{"zip":"13672","fips":"36089","name":"St. Lawrence County","state_id":"NY"},{"zip":"13673","fips":"36045","name":"Jefferson County","state_id":"NY"},{"zip":"13674","fips":"36045","name":"Jefferson County","state_id":"NY"},{"zip":"13675","fips":"36045","name":"Jefferson County","state_id":"NY"},{"zip":"13676","fips":"36089","name":"St. Lawrence County","state_id":"NY"},{"zip":"13677","fips":"36089","name":"St. Lawrence County","state_id":"NY"},{"zip":"13678","fips":"36089","name":"St. Lawrence County","state_id":"NY"},{"zip":"13679","fips":"36089","name":"St. Lawrence County","state_id":"NY"},{"zip":"13679","fips":"36045","name":"Jefferson County","state_id":"NY"},{"zip":"13680","fips":"36089","name":"St. Lawrence County","state_id":"NY"},{"zip":"13681","fips":"36089","name":"St. Lawrence County","state_id":"NY"},{"zip":"13682","fips":"36045","name":"Jefferson County","state_id":"NY"},{"zip":"13682","fips":"36049","name":"Lewis County","state_id":"NY"},{"zip":"13683","fips":"36033","name":"Franklin County","state_id":"NY"},{"zip":"13684","fips":"36089","name":"St. Lawrence County","state_id":"NY"},{"zip":"13685","fips":"36045","name":"Jefferson County","state_id":"NY"},{"zip":"13687","fips":"36089","name":"St. Lawrence County","state_id":"NY"},{"zip":"13690","fips":"36089","name":"St. Lawrence County","state_id":"NY"},{"zip":"13691","fips":"36089","name":"St. Lawrence County","state_id":"NY"},{"zip":"13691","fips":"36045","name":"Jefferson County","state_id":"NY"},{"zip":"13692","fips":"36045","name":"Jefferson County","state_id":"NY"},{"zip":"13693","fips":"36045","name":"Jefferson County","state_id":"NY"},{"zip":"13694","fips":"36089","name":"St. Lawrence County","state_id":"NY"},{"zip":"13695","fips":"36089","name":"St. Lawrence County","state_id":"NY"},{"zip":"13696","fips":"36089","name":"St. Lawrence County","state_id":"NY"},{"zip":"13697","fips":"36089","name":"St. Lawrence County","state_id":"NY"},{"zip":"13699","fips":"36089","name":"St. Lawrence County","state_id":"NY"}]
