[{"zip":"13730","fips":"36017","name":"Chenango County","state_id":"NY"},{"zip":"13730","fips":"36007","name":"Broome County","state_id":"NY"},{"zip":"13731","fips":"36025","name":"Delaware County","state_id":"NY"},{"zip":"13731","fips":"36111","name":"Ulster County","state_id":"NY"},{"zip":"13732","fips":"36007","name":"Broome County","state_id":"NY"},{"zip":"13732","fips":"36107","name":"Tioga County","state_id":"NY"},{"zip":"13733","fips":"36077","name":"Otsego County","state_id":"NY"},{"zip":"13733","fips":"36025","name":"Delaware County","state_id":"NY"},{"zip":"13733","fips":"36017","name":"Chenango County","state_id":"NY"},{"zip":"13734","fips":"36107","name":"Tioga County","state_id":"NY"},{"zip":"13736","fips":"36107","name":"Tioga County","state_id":"NY"},{"zip":"13736","fips":"36109","name":"Tompkins County","state_id":"NY"},{"zip":"13736","fips":"36007","name":"Broome County","state_id":"NY"},{"zip":"13737","fips":"36007","name":"Broome County","state_id":"NY"},{"zip":"13738","fips":"36023","name":"Cortland County","state_id":"NY"},{"zip":"13739","fips":"36025","name":"Delaware County","state_id":"NY"},{"zip":"13740","fips":"36025","name":"Delaware County","state_id":"NY"},{"zip":"13743","fips":"36107","name":"Tioga County","state_id":"NY"},{"zip":"13744","fips":"36007","name":"Broome County","state_id":"NY"},{"zip":"13745","fips":"36007","name":"Broome County","state_id":"NY"},{"zip":"13746","fips":"36017","name":"Chenango County","state_id":"NY"},{"zip":"13746","fips":"36007","name":"Broome County","state_id":"NY"},{"zip":"13747","fips":"36077","name":"Otsego County","state_id":"NY"},{"zip":"13748","fips":"36007","name":"Broome County","state_id":"NY"},{"zip":"13749","fips":"36007","name":"Broome County","state_id":"NY"},{"zip":"13750","fips":"36025","name":"Delaware County","state_id":"NY"},{"zip":"13750","fips":"36077","name":"Otsego County","state_id":"NY"},{"zip":"13751","fips":"36025","name":"Delaware County","state_id":"NY"},{"zip":"13752","fips":"36025","name":"Delaware County","state_id":"NY"},{"zip":"13753","fips":"36025","name":"Delaware County","state_id":"NY"},{"zip":"13754","fips":"36025","name":"Delaware County","state_id":"NY"},{"zip":"13754","fips":"36007","name":"Broome County","state_id":"NY"},{"zip":"13755","fips":"36025","name":"Delaware County","state_id":"NY"},{"zip":"13756","fips":"36025","name":"Delaware County","state_id":"NY"},{"zip":"13757","fips":"36025","name":"Delaware County","state_id":"NY"},{"zip":"13758","fips":"36017","name":"Chenango County","state_id":"NY"},{"zip":"13760","fips":"36107","name":"Tioga County","state_id":"NY"},{"zip":"13760","fips":"36007","name":"Broome County","state_id":"NY"},{"zip":"13761","fips":"36007","name":"Broome County","state_id":"NY"},{"zip":"13762","fips":"36007","name":"Broome County","state_id":"NY"},{"zip":"13774","fips":"36025","name":"Delaware County","state_id":"NY"},{"zip":"13775","fips":"36025","name":"Delaware County","state_id":"NY"},{"zip":"13775","fips":"36077","name":"Otsego County","state_id":"NY"},{"zip":"13776","fips":"36077","name":"Otsego County","state_id":"NY"},{"zip":"13777","fips":"36007","name":"Broome County","state_id":"NY"},{"zip":"13778","fips":"36007","name":"Broome County","state_id":"NY"},{"zip":"13778","fips":"36017","name":"Chenango County","state_id":"NY"},{"zip":"13780","fips":"36017","name":"Chenango County","state_id":"NY"},{"zip":"13782","fips":"36025","name":"Delaware County","state_id":"NY"},{"zip":"13783","fips":"36025","name":"Delaware County","state_id":"NY"},{"zip":"13783","fips":"36007","name":"Broome County","state_id":"NY"},{"zip":"13784","fips":"36023","name":"Cortland County","state_id":"NY"},{"zip":"13786","fips":"36025","name":"Delaware County","state_id":"NY"},{"zip":"13787","fips":"36007","name":"Broome County","state_id":"NY"},{"zip":"13787","fips":"36017","name":"Chenango County","state_id":"NY"},{"zip":"13788","fips":"36025","name":"Delaware County","state_id":"NY"},{"zip":"13790","fips":"36007","name":"Broome County","state_id":"NY"},{"zip":"13794","fips":"36007","name":"Broome County","state_id":"NY"},{"zip":"13795","fips":"36007","name":"Broome County","state_id":"NY"},{"zip":"13796","fips":"36077","name":"Otsego County","state_id":"NY"},{"zip":"13797","fips":"36007","name":"Broome County","state_id":"NY"}]
