[{"zip":"13801","fips":"36017","name":"Chenango County","state_id":"NY"},{"zip":"13802","fips":"36007","name":"Broome County","state_id":"NY"},{"zip":"13803","fips":"36007","name":"Broome County","state_id":"NY"},{"zip":"13803","fips":"36023","name":"Cortland County","state_id":"NY"},{"zip":"13804","fips":"36025","name":"Delaware County","state_id":"NY"},{"zip":"13806","fips":"36025","name":"Delaware County","state_id":"NY"},{"zip":"13807","fips":"36077","name":"Otsego County","state_id":"NY"},{"zip":"13808","fips":"36077","name":"Otsego County","state_id":"NY"},{"zip":"13809","fips":"36077","name":"Otsego County","state_id":"NY"},{"zip":"13809","fips":"36017","name":"Chenango County","state_id":"NY"},{"zip":"13810","fips":"36077","name":"Otsego County","state_id":"NY"},{"zip":"13811","fips":"36007","name":"Broome County","state_id":"NY"},{"zip":"13811","fips":"36107","name":"Tioga County","state_id":"NY"},{"zip":"13812","fips":"36107","name":"Tioga County","state_id":"NY"},{"zip":"13813","fips":"36007","name":"Broome County","state_id":"NY"},{"zip":"13813","fips":"36017","name":"Chenango County","state_id":"NY"},{"zip":"13814","fips":"36017","name":"Chenango County","state_id":"NY"},{"zip":"13815","fips":"36017","name":"Chenango County","state_id":"NY"},{"zip":"13820","fips":"36025","name":"Delaware County","state_id":"NY"},{"zip":"13820","fips":"36077","name":"Otsego County","state_id":"NY"},{"zip":"13825","fips":"36025","name":"Delaware County","state_id":"NY"},{"zip":"13825","fips":"36077","name":"Otsego County","state_id":"NY"},{"zip":"13826","fips":"36007","name":"Broome County","state_id":"NY"},{"zip":"13827","fips":"36107","name":"Tioga County","state_id":"NY"},{"zip":"13830","fips":"36017","name":"Chenango County","state_id":"NY"},{"zip":"13832","fips":"36017","name":"Chenango County","state_id":"NY"},{"zip":"13833","fips":"36007","name":"Broome County","state_id":"NY"},{"zip":"13834","fips":"36077","name":"Otsego County","state_id":"NY"},{"zip":"13835","fips":"36107","name":"Tioga County","state_id":"NY"},{"zip":"13835","fips":"36023","name":"Cortland County","state_id":"NY"},{"zip":"13835","fips":"36007","name":"Broome County","state_id":"NY"},{"zip":"13838","fips":"36025","name":"Delaware County","state_id":"NY"},{"zip":"13838","fips":"36077","name":"Otsego County","state_id":"NY"},{"zip":"13838","fips":"36017","name":"Chenango County","state_id":"NY"},{"zip":"13839","fips":"36025","name":"Delaware County","state_id":"NY"},{"zip":"13840","fips":"36107","name":"Tioga County","state_id":"NY"},{"zip":"13841","fips":"36017","name":"Chenango County","state_id":"NY"},{"zip":"13841","fips":"36023","name":"Cortland County","state_id":"NY"},{"zip":"13842","fips":"36025","name":"Delaware County","state_id":"NY"},{"zip":"13843","fips":"36017","name":"Chenango County","state_id":"NY"},{"zip":"13843","fips":"36077","name":"Otsego County","state_id":"NY"},{"zip":"13844","fips":"36017","name":"Chenango County","state_id":"NY"},{"zip":"13845","fips":"36107","name":"Tioga County","state_id":"NY"},{"zip":"13846","fips":"36025","name":"Delaware County","state_id":"NY"},{"zip":"13847","fips":"36025","name":"Delaware County","state_id":"NY"},{"zip":"13848","fips":"36007","name":"Broome County","state_id":"NY"},{"zip":"13849","fips":"36077","name":"Otsego County","state_id":"NY"},{"zip":"13849","fips":"36025","name":"Delaware County","state_id":"NY"},{"zip":"13850","fips":"36107","name":"Tioga County","state_id":"NY"},{"zip":"13850","fips":"36007","name":"Broome County","state_id":"NY"},{"zip":"13851","fips":"36007","name":"Broome County","state_id":"NY"},{"zip":"13856","fips":"36025","name":"Delaware County","state_id":"NY"},{"zip":"13859","fips":"36077","name":"Otsego County","state_id":"NY"},{"zip":"13860","fips":"36025","name":"Delaware County","state_id":"NY"},{"zip":"13861","fips":"36077","name":"Otsego County","state_id":"NY"},{"zip":"13862","fips":"36023","name":"Cortland County","state_id":"NY"},{"zip":"13862","fips":"36007","name":"Broome County","state_id":"NY"},{"zip":"13863","fips":"36023","name":"Cortland County","state_id":"NY"},{"zip":"13863","fips":"36007","name":"Broome County","state_id":"NY"},{"zip":"13864","fips":"36109","name":"Tompkins County","state_id":"NY"},{"zip":"13864","fips":"36107","name":"Tioga County","state_id":"NY"},{"zip":"13865","fips":"36007","name":"Broome County","state_id":"NY"}]
