[{"zip":"14001","fips":"36063","name":"Niagara County","state_id":"NY"},{"zip":"14001","fips":"36029","name":"Erie County","state_id":"NY"},{"zip":"14001","fips":"36037","name":"Genesee County","state_id":"NY"},{"zip":"14004","fips":"36037","name":"Genesee County","state_id":"NY"},{"zip":"14004","fips":"36029","name":"Erie County","state_id":"NY"},{"zip":"14004","fips":"36121","name":"Wyoming County","state_id":"NY"},{"zip":"14005","fips":"36037","name":"Genesee County","state_id":"NY"},{"zip":"14006","fips":"36029","name":"Erie County","state_id":"NY"},{"zip":"14008","fips":"36063","name":"Niagara County","state_id":"NY"},{"zip":"14009","fips":"36029","name":"Erie County","state_id":"NY"},{"zip":"14009","fips":"36009","name":"Cattaraugus County","state_id":"NY"},{"zip":"14009","fips":"36121","name":"Wyoming County","state_id":"NY"},{"zip":"14010","fips":"36029","name":"Erie County","state_id":"NY"},{"zip":"14011","fips":"36037","name":"Genesee County","state_id":"NY"},{"zip":"14011","fips":"36121","name":"Wyoming County","state_id":"NY"},{"zip":"14012","fips":"36073","name":"Orleans County","state_id":"NY"},{"zip":"14012","fips":"36063","name":"Niagara County","state_id":"NY"},{"zip":"14013","fips":"36037","name":"Genesee County","state_id":"NY"},{"zip":"14013","fips":"36029","name":"Erie County","state_id":"NY"},{"zip":"14020","fips":"36037","name":"Genesee County","state_id":"NY"},{"zip":"14021","fips":"36037","name":"Genesee County","state_id":"NY"},{"zip":"14024","fips":"36121","name":"Wyoming County","state_id":"NY"},{"zip":"14024","fips":"36003","name":"Allegany County","state_id":"NY"},{"zip":"14025","fips":"36029","name":"Erie County","state_id":"NY"},{"zip":"14026","fips":"36029","name":"Erie County","state_id":"NY"},{"zip":"14027","fips":"36029","name":"Erie County","state_id":"NY"},{"zip":"14028","fips":"36063","name":"Niagara County","state_id":"NY"},{"zip":"14029","fips":"36003","name":"Allegany County","state_id":"NY"},{"zip":"14030","fips":"36029","name":"Erie County","state_id":"NY"},{"zip":"14030","fips":"36009","name":"Cattaraugus County","state_id":"NY"},{"zip":"14030","fips":"36121","name":"Wyoming County","state_id":"NY"},{"zip":"14031","fips":"36029","name":"Erie County","state_id":"NY"},{"zip":"14032","fips":"36063","name":"Niagara County","state_id":"NY"},{"zip":"14032","fips":"36029","name":"Erie County","state_id":"NY"},{"zip":"14033","fips":"36029","name":"Erie County","state_id":"NY"},{"zip":"14034","fips":"36029","name":"Erie County","state_id":"NY"},{"zip":"14035","fips":"36029","name":"Erie County","state_id":"NY"},{"zip":"14036","fips":"36029","name":"Erie County","state_id":"NY"},{"zip":"14036","fips":"36037","name":"Genesee County","state_id":"NY"},{"zip":"14037","fips":"36029","name":"Erie County","state_id":"NY"},{"zip":"14037","fips":"36121","name":"Wyoming County","state_id":"NY"},{"zip":"14038","fips":"36029","name":"Erie County","state_id":"NY"},{"zip":"14039","fips":"36121","name":"Wyoming County","state_id":"NY"},{"zip":"14040","fips":"36121","name":"Wyoming County","state_id":"NY"},{"zip":"14040","fips":"36037","name":"Genesee County","state_id":"NY"},{"zip":"14041","fips":"36009","name":"Cattaraugus County","state_id":"NY"},{"zip":"14042","fips":"36009","name":"Cattaraugus County","state_id":"NY"},{"zip":"14043","fips":"36029","name":"Erie County","state_id":"NY"},{"zip":"14047","fips":"36029","name":"Erie County","state_id":"NY"},{"zip":"14048","fips":"36013","name":"Chautauqua County","state_id":"NY"},{"zip":"14051","fips":"36029","name":"Erie County","state_id":"NY"},{"zip":"14052","fips":"36029","name":"Erie County","state_id":"NY"},{"zip":"14054","fips":"36037","name":"Genesee County","state_id":"NY"},{"zip":"14054","fips":"36121","name":"Wyoming County","state_id":"NY"},{"zip":"14055","fips":"36029","name":"Erie County","state_id":"NY"},{"zip":"14056","fips":"36037","name":"Genesee County","state_id":"NY"},{"zip":"14057","fips":"36029","name":"Erie County","state_id":"NY"},{"zip":"14058","fips":"36037","name":"Genesee County","state_id":"NY"},{"zip":"14058","fips":"36073","name":"Orleans County","state_id":"NY"},{"zip":"14059","fips":"36029","name":"Erie County","state_id":"NY"},{"zip":"14060","fips":"36009","name":"Cattaraugus County","state_id":"NY"},{"zip":"14060","fips":"36003","name":"Allegany County","state_id":"NY"},{"zip":"14061","fips":"36029","name":"Erie County","state_id":"NY"},{"zip":"14062","fips":"36009","name":"Cattaraugus County","state_id":"NY"},{"zip":"14062","fips":"36013","name":"Chautauqua County","state_id":"NY"},{"zip":"14063","fips":"36013","name":"Chautauqua County","state_id":"NY"},{"zip":"14065","fips":"36003","name":"Allegany County","state_id":"NY"},{"zip":"14065","fips":"36009","name":"Cattaraugus County","state_id":"NY"},{"zip":"14066","fips":"36121","name":"Wyoming County","state_id":"NY"},{"zip":"14067","fips":"36063","name":"Niagara County","state_id":"NY"},{"zip":"14068","fips":"36029","name":"Erie County","state_id":"NY"},{"zip":"14069","fips":"36029","name":"Erie County","state_id":"NY"},{"zip":"14070","fips":"36029","name":"Erie County","state_id":"NY"},{"zip":"14070","fips":"36009","name":"Cattaraugus County","state_id":"NY"},{"zip":"14072","fips":"36029","name":"Erie County","state_id":"NY"},{"zip":"14075","fips":"36029","name":"Erie County","state_id":"NY"},{"zip":"14080","fips":"36029","name":"Erie County","state_id":"NY"},{"zip":"14081","fips":"36029","name":"Erie County","state_id":"NY"},{"zip":"14081","fips":"36009","name":"Cattaraugus County","state_id":"NY"},{"zip":"14081","fips":"36013","name":"Chautauqua County","state_id":"NY"},{"zip":"14082","fips":"36121","name":"Wyoming County","state_id":"NY"},{"zip":"14083","fips":"36121","name":"Wyoming County","state_id":"NY"},{"zip":"14085","fips":"36029","name":"Erie County","state_id":"NY"},{"zip":"14086","fips":"36029","name":"Erie County","state_id":"NY"},{"zip":"14091","fips":"36029","name":"Erie County","state_id":"NY"},{"zip":"14092","fips":"36063","name":"Niagara County","state_id":"NY"},{"zip":"14094","fips":"36063","name":"Niagara County","state_id":"NY"},{"zip":"14095","fips":"36063","name":"Niagara County","state_id":"NY"},{"zip":"14098","fips":"36063","name":"Niagara County","state_id":"NY"},{"zip":"14098","fips":"36073","name":"Orleans County","state_id":"NY"}]
