[{"zip":"14101","fips":"36009","name":"Cattaraugus County","state_id":"NY"},{"zip":"14102","fips":"36029","name":"Erie County","state_id":"NY"},{"zip":"14103","fips":"36037","name":"Genesee County","state_id":"NY"},{"zip":"14103","fips":"36073","name":"Orleans County","state_id":"NY"},{"zip":"14103","fips":"36063","name":"Niagara County","state_id":"NY"},{"zip":"14105","fips":"36063","name":"Niagara County","state_id":"NY"},{"zip":"14105","fips":"36073","name":"Orleans County","state_id":"NY"},{"zip":"14105","fips":"36037","name":"Genesee County","state_id":"NY"},{"zip":"14107","fips":"36063","name":"Niagara County","state_id":"NY"},{"zip":"14108","fips":"36063","name":"Niagara County","state_id":"NY"},{"zip":"14109","fips":"36063","name":"Niagara County","state_id":"NY"},{"zip":"14110","fips":"36029","name":"Erie County","state_id":"NY"},{"zip":"14111","fips":"36029","name":"Erie County","state_id":"NY"},{"zip":"14112","fips":"36029","name":"Erie County","state_id":"NY"},{"zip":"14113","fips":"36121","name":"Wyoming County","state_id":"NY"},{"zip":"14120","fips":"36063","name":"Niagara County","state_id":"NY"},{"zip":"14125","fips":"36037","name":"Genesee County","state_id":"NY"},{"zip":"14125","fips":"36073","name":"Orleans County","state_id":"NY"},{"zip":"14126","fips":"36063","name":"Niagara County","state_id":"NY"},{"zip":"14127","fips":"36029","name":"Erie County","state_id":"NY"},{"zip":"14129","fips":"36009","name":"Cattaraugus County","state_id":"NY"},{"zip":"14130","fips":"36121","name":"Wyoming County","state_id":"NY"},{"zip":"14131","fips":"36063","name":"Niagara County","state_id":"NY"},{"zip":"14132","fips":"36063","name":"Niagara County","state_id":"NY"},{"zip":"14134","fips":"36009","name":"Cattaraugus County","state_id":"NY"},{"zip":"14134","fips":"36029","name":"Erie County","state_id":"NY"},{"zip":"14135","fips":"36013","name":"Chautauqua County","state_id":"NY"},{"zip":"14136","fips":"36013","name":"Chautauqua County","state_id":"NY"},{"zip":"14138","fips":"36009","name":"Cattaraugus County","state_id":"NY"},{"zip":"14138","fips":"36013","name":"Chautauqua County","state_id":"NY"},{"zip":"14139","fips":"36029","name":"Erie County","state_id":"NY"},{"zip":"14140","fips":"36029","name":"Erie County","state_id":"NY"},{"zip":"14141","fips":"36029","name":"Erie County","state_id":"NY"},{"zip":"14141","fips":"36009","name":"Cattaraugus County","state_id":"NY"},{"zip":"14143","fips":"36037","name":"Genesee County","state_id":"NY"},{"zip":"14144","fips":"36063","name":"Niagara County","state_id":"NY"},{"zip":"14145","fips":"36029","name":"Erie County","state_id":"NY"},{"zip":"14145","fips":"36121","name":"Wyoming County","state_id":"NY"},{"zip":"14150","fips":"36029","name":"Erie County","state_id":"NY"},{"zip":"14151","fips":"36029","name":"Erie County","state_id":"NY"},{"zip":"14166","fips":"36013","name":"Chautauqua County","state_id":"NY"},{"zip":"14167","fips":"36121","name":"Wyoming County","state_id":"NY"},{"zip":"14168","fips":"36009","name":"Cattaraugus County","state_id":"NY"},{"zip":"14169","fips":"36029","name":"Erie County","state_id":"NY"},{"zip":"14170","fips":"36029","name":"Erie County","state_id":"NY"},{"zip":"14171","fips":"36009","name":"Cattaraugus County","state_id":"NY"},{"zip":"14172","fips":"36063","name":"Niagara County","state_id":"NY"},{"zip":"14173","fips":"36009","name":"Cattaraugus County","state_id":"NY"},{"zip":"14174","fips":"36063","name":"Niagara County","state_id":"NY"}]
