[{"zip":"14410","fips":"36055","name":"Monroe County","state_id":"NY"},{"zip":"14411","fips":"36073","name":"Orleans County","state_id":"NY"},{"zip":"14413","fips":"36117","name":"Wayne County","state_id":"NY"},{"zip":"14414","fips":"36055","name":"Monroe County","state_id":"NY"},{"zip":"14414","fips":"36051","name":"Livingston County","state_id":"NY"},{"zip":"14415","fips":"36123","name":"Yates County","state_id":"NY"},{"zip":"14416","fips":"36037","name":"Genesee County","state_id":"NY"},{"zip":"14416","fips":"36055","name":"Monroe County","state_id":"NY"},{"zip":"14416","fips":"36073","name":"Orleans County","state_id":"NY"},{"zip":"14418","fips":"36123","name":"Yates County","state_id":"NY"},{"zip":"14418","fips":"36101","name":"Steuben County","state_id":"NY"},{"zip":"14420","fips":"36073","name":"Orleans County","state_id":"NY"},{"zip":"14420","fips":"36055","name":"Monroe County","state_id":"NY"},{"zip":"14422","fips":"36073","name":"Orleans County","state_id":"NY"},{"zip":"14422","fips":"36037","name":"Genesee County","state_id":"NY"},{"zip":"14423","fips":"36055","name":"Monroe County","state_id":"NY"},{"zip":"14423","fips":"36051","name":"Livingston County","state_id":"NY"},{"zip":"14424","fips":"36123","name":"Yates County","state_id":"NY"},{"zip":"14424","fips":"36069","name":"Ontario County","state_id":"NY"},{"zip":"14425","fips":"36069","name":"Ontario County","state_id":"NY"},{"zip":"14427","fips":"36121","name":"Wyoming County","state_id":"NY"},{"zip":"14428","fips":"36037","name":"Genesee County","state_id":"NY"},{"zip":"14428","fips":"36055","name":"Monroe County","state_id":"NY"},{"zip":"14429","fips":"36073","name":"Orleans County","state_id":"NY"},{"zip":"14430","fips":"36055","name":"Monroe County","state_id":"NY"},{"zip":"14432","fips":"36069","name":"Ontario County","state_id":"NY"},{"zip":"14432","fips":"36117","name":"Wayne County","state_id":"NY"},{"zip":"14433","fips":"36117","name":"Wayne County","state_id":"NY"},{"zip":"14433","fips":"36099","name":"Seneca County","state_id":"NY"},{"zip":"14435","fips":"36051","name":"Livingston County","state_id":"NY"},{"zip":"14437","fips":"36101","name":"Steuben County","state_id":"NY"},{"zip":"14437","fips":"36003","name":"Allegany County","state_id":"NY"},{"zip":"14437","fips":"36051","name":"Livingston County","state_id":"NY"},{"zip":"14441","fips":"36123","name":"Yates County","state_id":"NY"},{"zip":"14445","fips":"36055","name":"Monroe County","state_id":"NY"},{"zip":"14449","fips":"36117","name":"Wayne County","state_id":"NY"},{"zip":"14450","fips":"36055","name":"Monroe County","state_id":"NY"},{"zip":"14450","fips":"36117","name":"Wayne County","state_id":"NY"},{"zip":"14452","fips":"36073","name":"Orleans County","state_id":"NY"},{"zip":"14453","fips":"36069","name":"Ontario County","state_id":"NY"},{"zip":"14454","fips":"36051","name":"Livingston County","state_id":"NY"},{"zip":"14456","fips":"36099","name":"Seneca County","state_id":"NY"},{"zip":"14456","fips":"36123","name":"Yates County","state_id":"NY"},{"zip":"14456","fips":"36069","name":"Ontario County","state_id":"NY"},{"zip":"14461","fips":"36069","name":"Ontario County","state_id":"NY"},{"zip":"14462","fips":"36051","name":"Livingston County","state_id":"NY"},{"zip":"14463","fips":"36069","name":"Ontario County","state_id":"NY"},{"zip":"14464","fips":"36055","name":"Monroe County","state_id":"NY"},{"zip":"14464","fips":"36073","name":"Orleans County","state_id":"NY"},{"zip":"14466","fips":"36069","name":"Ontario County","state_id":"NY"},{"zip":"14466","fips":"36051","name":"Livingston County","state_id":"NY"},{"zip":"14467","fips":"36055","name":"Monroe County","state_id":"NY"},{"zip":"14468","fips":"36055","name":"Monroe County","state_id":"NY"},{"zip":"14469","fips":"36069","name":"Ontario County","state_id":"NY"},{"zip":"14470","fips":"36073","name":"Orleans County","state_id":"NY"},{"zip":"14470","fips":"36055","name":"Monroe County","state_id":"NY"},{"zip":"14471","fips":"36069","name":"Ontario County","state_id":"NY"},{"zip":"14471","fips":"36051","name":"Livingston County","state_id":"NY"},{"zip":"14472","fips":"36055","name":"Monroe County","state_id":"NY"},{"zip":"14472","fips":"36051","name":"Livingston County","state_id":"NY"},{"zip":"14472","fips":"36069","name":"Ontario County","state_id":"NY"},{"zip":"14475","fips":"36069","name":"Ontario County","state_id":"NY"},{"zip":"14475","fips":"36055","name":"Monroe County","state_id":"NY"},{"zip":"14476","fips":"36073","name":"Orleans County","state_id":"NY"},{"zip":"14476","fips":"36055","name":"Monroe County","state_id":"NY"},{"zip":"14477","fips":"36073","name":"Orleans County","state_id":"NY"},{"zip":"14478","fips":"36123","name":"Yates County","state_id":"NY"},{"zip":"14479","fips":"36073","name":"Orleans County","state_id":"NY"},{"zip":"14480","fips":"36051","name":"Livingston County","state_id":"NY"},{"zip":"14481","fips":"36121","name":"Wyoming County","state_id":"NY"},{"zip":"14481","fips":"36051","name":"Livingston County","state_id":"NY"},{"zip":"14482","fips":"36055","name":"Monroe County","state_id":"NY"},{"zip":"14482","fips":"36037","name":"Genesee County","state_id":"NY"},{"zip":"14482","fips":"36051","name":"Livingston County","state_id":"NY"},{"zip":"14485","fips":"36069","name":"Ontario County","state_id":"NY"},{"zip":"14485","fips":"36051","name":"Livingston County","state_id":"NY"},{"zip":"14486","fips":"36051","name":"Livingston County","state_id":"NY"},{"zip":"14487","fips":"36051","name":"Livingston County","state_id":"NY"},{"zip":"14487","fips":"36069","name":"Ontario County","state_id":"NY"},{"zip":"14488","fips":"36051","name":"Livingston County","state_id":"NY"},{"zip":"14489","fips":"36099","name":"Seneca County","state_id":"NY"},{"zip":"14489","fips":"36069","name":"Ontario County","state_id":"NY"},{"zip":"14489","fips":"36117","name":"Wayne County","state_id":"NY"}]
