[{"zip":"14502","fips":"36055","name":"Monroe County","state_id":"NY"},{"zip":"14502","fips":"36117","name":"Wayne County","state_id":"NY"},{"zip":"14504","fips":"36069","name":"Ontario County","state_id":"NY"},{"zip":"14505","fips":"36117","name":"Wayne County","state_id":"NY"},{"zip":"14506","fips":"36055","name":"Monroe County","state_id":"NY"},{"zip":"14507","fips":"36123","name":"Yates County","state_id":"NY"},{"zip":"14508","fips":"36055","name":"Monroe County","state_id":"NY"},{"zip":"14510","fips":"36051","name":"Livingston County","state_id":"NY"},{"zip":"14511","fips":"36055","name":"Monroe County","state_id":"NY"},{"zip":"14512","fips":"36051","name":"Livingston County","state_id":"NY"},{"zip":"14512","fips":"36123","name":"Yates County","state_id":"NY"},{"zip":"14512","fips":"36069","name":"Ontario County","state_id":"NY"},{"zip":"14512","fips":"36101","name":"Steuben County","state_id":"NY"},{"zip":"14513","fips":"36117","name":"Wayne County","state_id":"NY"},{"zip":"14513","fips":"36069","name":"Ontario County","state_id":"NY"},{"zip":"14514","fips":"36055","name":"Monroe County","state_id":"NY"},{"zip":"14515","fips":"36055","name":"Monroe County","state_id":"NY"},{"zip":"14516","fips":"36117","name":"Wayne County","state_id":"NY"},{"zip":"14517","fips":"36051","name":"Livingston County","state_id":"NY"},{"zip":"14518","fips":"36069","name":"Ontario County","state_id":"NY"},{"zip":"14519","fips":"36117","name":"Wayne County","state_id":"NY"},{"zip":"14519","fips":"36055","name":"Monroe County","state_id":"NY"},{"zip":"14520","fips":"36117","name":"Wayne County","state_id":"NY"},{"zip":"14521","fips":"36099","name":"Seneca County","state_id":"NY"},{"zip":"14522","fips":"36117","name":"Wayne County","state_id":"NY"},{"zip":"14522","fips":"36069","name":"Ontario County","state_id":"NY"},{"zip":"14525","fips":"36037","name":"Genesee County","state_id":"NY"},{"zip":"14525","fips":"36051","name":"Livingston County","state_id":"NY"},{"zip":"14525","fips":"36121","name":"Wyoming County","state_id":"NY"},{"zip":"14526","fips":"36055","name":"Monroe County","state_id":"NY"},{"zip":"14527","fips":"36123","name":"Yates County","state_id":"NY"},{"zip":"14529","fips":"36101","name":"Steuben County","state_id":"NY"},{"zip":"14530","fips":"36051","name":"Livingston County","state_id":"NY"},{"zip":"14530","fips":"36121","name":"Wyoming County","state_id":"NY"},{"zip":"14532","fips":"36117","name":"Wayne County","state_id":"NY"},{"zip":"14532","fips":"36069","name":"Ontario County","state_id":"NY"},{"zip":"14532","fips":"36099","name":"Seneca County","state_id":"NY"},{"zip":"14533","fips":"36051","name":"Livingston County","state_id":"NY"},{"zip":"14533","fips":"36121","name":"Wyoming County","state_id":"NY"},{"zip":"14534","fips":"36055","name":"Monroe County","state_id":"NY"},{"zip":"14534","fips":"36069","name":"Ontario County","state_id":"NY"},{"zip":"14536","fips":"36121","name":"Wyoming County","state_id":"NY"},{"zip":"14536","fips":"36003","name":"Allegany County","state_id":"NY"},{"zip":"14537","fips":"36069","name":"Ontario County","state_id":"NY"},{"zip":"14538","fips":"36117","name":"Wayne County","state_id":"NY"},{"zip":"14539","fips":"36051","name":"Livingston County","state_id":"NY"},{"zip":"14541","fips":"36099","name":"Seneca County","state_id":"NY"},{"zip":"14542","fips":"36117","name":"Wayne County","state_id":"NY"},{"zip":"14543","fips":"36055","name":"Monroe County","state_id":"NY"},{"zip":"14544","fips":"36123","name":"Yates County","state_id":"NY"},{"zip":"14544","fips":"36069","name":"Ontario County","state_id":"NY"},{"zip":"14545","fips":"36051","name":"Livingston County","state_id":"NY"},{"zip":"14546","fips":"36055","name":"Monroe County","state_id":"NY"},{"zip":"14546","fips":"36051","name":"Livingston County","state_id":"NY"},{"zip":"14547","fips":"36069","name":"Ontario County","state_id":"NY"},{"zip":"14548","fips":"36069","name":"Ontario County","state_id":"NY"},{"zip":"14549","fips":"36121","name":"Wyoming County","state_id":"NY"},{"zip":"14550","fips":"36121","name":"Wyoming County","state_id":"NY"},{"zip":"14551","fips":"36117","name":"Wayne County","state_id":"NY"},{"zip":"14555","fips":"36117","name":"Wayne County","state_id":"NY"},{"zip":"14556","fips":"36051","name":"Livingston County","state_id":"NY"},{"zip":"14557","fips":"36037","name":"Genesee County","state_id":"NY"},{"zip":"14558","fips":"36051","name":"Livingston County","state_id":"NY"},{"zip":"14559","fips":"36055","name":"Monroe County","state_id":"NY"},{"zip":"14560","fips":"36051","name":"Livingston County","state_id":"NY"},{"zip":"14560","fips":"36069","name":"Ontario County","state_id":"NY"},{"zip":"14561","fips":"36123","name":"Yates County","state_id":"NY"},{"zip":"14561","fips":"36069","name":"Ontario County","state_id":"NY"},{"zip":"14563","fips":"36117","name":"Wayne County","state_id":"NY"},{"zip":"14564","fips":"36069","name":"Ontario County","state_id":"NY"},{"zip":"14564","fips":"36055","name":"Monroe County","state_id":"NY"},{"zip":"14568","fips":"36117","name":"Wayne County","state_id":"NY"},{"zip":"14569","fips":"36121","name":"Wyoming County","state_id":"NY"},{"zip":"14571","fips":"36073","name":"Orleans County","state_id":"NY"},{"zip":"14572","fips":"36101","name":"Steuben County","state_id":"NY"},{"zip":"14572","fips":"36051","name":"Livingston County","state_id":"NY"},{"zip":"14580","fips":"36117","name":"Wayne County","state_id":"NY"},{"zip":"14580","fips":"36055","name":"Monroe County","state_id":"NY"},{"zip":"14585","fips":"36069","name":"Ontario County","state_id":"NY"},{"zip":"14586","fips":"36055","name":"Monroe County","state_id":"NY"},{"zip":"14588","fips":"36099","name":"Seneca County","state_id":"NY"},{"zip":"14589","fips":"36117","name":"Wayne County","state_id":"NY"},{"zip":"14590","fips":"36117","name":"Wayne County","state_id":"NY"},{"zip":"14591","fips":"36121","name":"Wyoming County","state_id":"NY"},{"zip":"14591","fips":"36037","name":"Genesee County","state_id":"NY"},{"zip":"14592","fips":"36051","name":"Livingston County","state_id":"NY"}]
