[{"zip":"14701","fips":"36013","name":"Chautauqua County","state_id":"NY"},{"zip":"14702","fips":"36013","name":"Chautauqua County","state_id":"NY"},{"zip":"14706","fips":"36009","name":"Cattaraugus County","state_id":"NY"},{"zip":"14707","fips":"36003","name":"Allegany County","state_id":"NY"},{"zip":"14708","fips":"36003","name":"Allegany County","state_id":"NY"},{"zip":"14709","fips":"36003","name":"Allegany County","state_id":"NY"},{"zip":"14710","fips":"36013","name":"Chautauqua County","state_id":"NY"},{"zip":"14711","fips":"36003","name":"Allegany County","state_id":"NY"},{"zip":"14712","fips":"36013","name":"Chautauqua County","state_id":"NY"},{"zip":"14714","fips":"36003","name":"Allegany County","state_id":"NY"},{"zip":"14715","fips":"36003","name":"Allegany County","state_id":"NY"},{"zip":"14716","fips":"36013","name":"Chautauqua County","state_id":"NY"},{"zip":"14717","fips":"36003","name":"Allegany County","state_id":"NY"},{"zip":"14718","fips":"36013","name":"Chautauqua County","state_id":"NY"},{"zip":"14719","fips":"36009","name":"Cattaraugus County","state_id":"NY"},{"zip":"14720","fips":"36013","name":"Chautauqua County","state_id":"NY"},{"zip":"14721","fips":"36003","name":"Allegany County","state_id":"NY"},{"zip":"14722","fips":"36013","name":"Chautauqua County","state_id":"NY"},{"zip":"14723","fips":"36013","name":"Chautauqua County","state_id":"NY"},{"zip":"14724","fips":"36013","name":"Chautauqua County","state_id":"NY"},{"zip":"14726","fips":"36009","name":"Cattaraugus County","state_id":"NY"},{"zip":"14726","fips":"36013","name":"Chautauqua County","state_id":"NY"},{"zip":"14727","fips":"36009","name":"Cattaraugus County","state_id":"NY"},{"zip":"14727","fips":"36003","name":"Allegany County","state_id":"NY"},{"zip":"14728","fips":"36013","name":"Chautauqua County","state_id":"NY"},{"zip":"14729","fips":"36009","name":"Cattaraugus County","state_id":"NY"},{"zip":"14730","fips":"36009","name":"Cattaraugus County","state_id":"NY"},{"zip":"14731","fips":"36009","name":"Cattaraugus County","state_id":"NY"},{"zip":"14732","fips":"36013","name":"Chautauqua County","state_id":"NY"},{"zip":"14733","fips":"36013","name":"Chautauqua County","state_id":"NY"},{"zip":"14735","fips":"36121","name":"Wyoming County","state_id":"NY"},{"zip":"14735","fips":"36003","name":"Allegany County","state_id":"NY"},{"zip":"14736","fips":"36013","name":"Chautauqua County","state_id":"NY"},{"zip":"14737","fips":"36003","name":"Allegany County","state_id":"NY"},{"zip":"14737","fips":"36009","name":"Cattaraugus County","state_id":"NY"},{"zip":"14738","fips":"36013","name":"Chautauqua County","state_id":"NY"},{"zip":"14738","fips":"36009","name":"Cattaraugus County","state_id":"NY"},{"zip":"14739","fips":"36003","name":"Allegany County","state_id":"NY"},{"zip":"14740","fips":"36013","name":"Chautauqua County","state_id":"NY"},{"zip":"14741","fips":"36009","name":"Cattaraugus County","state_id":"NY"},{"zip":"14742","fips":"36013","name":"Chautauqua County","state_id":"NY"},{"zip":"14743","fips":"36009","name":"Cattaraugus County","state_id":"NY"},{"zip":"14744","fips":"36003","name":"Allegany County","state_id":"NY"},{"zip":"14745","fips":"36003","name":"Allegany County","state_id":"NY"},{"zip":"14747","fips":"36013","name":"Chautauqua County","state_id":"NY"},{"zip":"14747","fips":"36009","name":"Cattaraugus County","state_id":"NY"},{"zip":"14748","fips":"36009","name":"Cattaraugus County","state_id":"NY"},{"zip":"14750","fips":"36013","name":"Chautauqua County","state_id":"NY"},{"zip":"14751","fips":"36009","name":"Cattaraugus County","state_id":"NY"},{"zip":"14752","fips":"36013","name":"Chautauqua County","state_id":"NY"},{"zip":"14753","fips":"36009","name":"Cattaraugus County","state_id":"NY"},{"zip":"14754","fips":"36003","name":"Allegany County","state_id":"NY"},{"zip":"14755","fips":"36009","name":"Cattaraugus County","state_id":"NY"},{"zip":"14757","fips":"36013","name":"Chautauqua County","state_id":"NY"},{"zip":"14758","fips":"36013","name":"Chautauqua County","state_id":"NY"},{"zip":"14760","fips":"36009","name":"Cattaraugus County","state_id":"NY"},{"zip":"14766","fips":"36009","name":"Cattaraugus County","state_id":"NY"},{"zip":"14767","fips":"36013","name":"Chautauqua County","state_id":"NY"},{"zip":"14769","fips":"36013","name":"Chautauqua County","state_id":"NY"},{"zip":"14770","fips":"36009","name":"Cattaraugus County","state_id":"NY"},{"zip":"14770","fips":"36003","name":"Allegany County","state_id":"NY"},{"zip":"14772","fips":"36009","name":"Cattaraugus County","state_id":"NY"},{"zip":"14774","fips":"36003","name":"Allegany County","state_id":"NY"},{"zip":"14775","fips":"36013","name":"Chautauqua County","state_id":"NY"},{"zip":"14777","fips":"36003","name":"Allegany County","state_id":"NY"},{"zip":"14778","fips":"36009","name":"Cattaraugus County","state_id":"NY"},{"zip":"14779","fips":"36009","name":"Cattaraugus County","state_id":"NY"},{"zip":"14781","fips":"36013","name":"Chautauqua County","state_id":"NY"},{"zip":"14782","fips":"36013","name":"Chautauqua County","state_id":"NY"},{"zip":"14783","fips":"36009","name":"Cattaraugus County","state_id":"NY"},{"zip":"14784","fips":"36013","name":"Chautauqua County","state_id":"NY"},{"zip":"14785","fips":"36013","name":"Chautauqua County","state_id":"NY"},{"zip":"14786","fips":"36003","name":"Allegany County","state_id":"NY"},{"zip":"14787","fips":"36013","name":"Chautauqua County","state_id":"NY"},{"zip":"14788","fips":"36009","name":"Cattaraugus County","state_id":"NY"}]
