[{"zip":"14801","fips":"36101","name":"Steuben County","state_id":"NY"},{"zip":"14802","fips":"36003","name":"Allegany County","state_id":"NY"},{"zip":"14803","fips":"36003","name":"Allegany County","state_id":"NY"},{"zip":"14803","fips":"36101","name":"Steuben County","state_id":"NY"},{"zip":"14804","fips":"36003","name":"Allegany County","state_id":"NY"},{"zip":"14804","fips":"36101","name":"Steuben County","state_id":"NY"},{"zip":"14805","fips":"36097","name":"Schuyler County","state_id":"NY"},{"zip":"14805","fips":"36015","name":"Chemung County","state_id":"NY"},{"zip":"14806","fips":"36101","name":"Steuben County","state_id":"NY"},{"zip":"14806","fips":"36003","name":"Allegany County","state_id":"NY"},{"zip":"14807","fips":"36101","name":"Steuben County","state_id":"NY"},{"zip":"14807","fips":"36003","name":"Allegany County","state_id":"NY"},{"zip":"14808","fips":"36101","name":"Steuben County","state_id":"NY"},{"zip":"14809","fips":"36101","name":"Steuben County","state_id":"NY"},{"zip":"14810","fips":"36101","name":"Steuben County","state_id":"NY"},{"zip":"14812","fips":"36097","name":"Schuyler County","state_id":"NY"},{"zip":"14812","fips":"36101","name":"Steuben County","state_id":"NY"},{"zip":"14812","fips":"36015","name":"Chemung County","state_id":"NY"},{"zip":"14813","fips":"36003","name":"Allegany County","state_id":"NY"},{"zip":"14814","fips":"36101","name":"Steuben County","state_id":"NY"},{"zip":"14814","fips":"36015","name":"Chemung County","state_id":"NY"},{"zip":"14815","fips":"36101","name":"Steuben County","state_id":"NY"},{"zip":"14815","fips":"36097","name":"Schuyler County","state_id":"NY"},{"zip":"14816","fips":"36015","name":"Chemung County","state_id":"NY"},{"zip":"14817","fips":"36107","name":"Tioga County","state_id":"NY"},{"zip":"14817","fips":"36109","name":"Tompkins County","state_id":"NY"},{"zip":"14818","fips":"36097","name":"Schuyler County","state_id":"NY"},{"zip":"14819","fips":"36101","name":"Steuben County","state_id":"NY"},{"zip":"14820","fips":"36101","name":"Steuben County","state_id":"NY"},{"zip":"14821","fips":"36101","name":"Steuben County","state_id":"NY"},{"zip":"14822","fips":"36003","name":"Allegany County","state_id":"NY"},{"zip":"14822","fips":"36051","name":"Livingston County","state_id":"NY"},{"zip":"14823","fips":"36101","name":"Steuben County","state_id":"NY"},{"zip":"14824","fips":"36015","name":"Chemung County","state_id":"NY"},{"zip":"14824","fips":"36097","name":"Schuyler County","state_id":"NY"},{"zip":"14825","fips":"36015","name":"Chemung County","state_id":"NY"},{"zip":"14826","fips":"36101","name":"Steuben County","state_id":"NY"},{"zip":"14827","fips":"36101","name":"Steuben County","state_id":"NY"},{"zip":"14830","fips":"36015","name":"Chemung County","state_id":"NY"},{"zip":"14830","fips":"36101","name":"Steuben County","state_id":"NY"},{"zip":"14831","fips":"36101","name":"Steuben County","state_id":"NY"},{"zip":"14836","fips":"36003","name":"Allegany County","state_id":"NY"},{"zip":"14836","fips":"36051","name":"Livingston County","state_id":"NY"},{"zip":"14837","fips":"36101","name":"Steuben County","state_id":"NY"},{"zip":"14837","fips":"36123","name":"Yates County","state_id":"NY"},{"zip":"14837","fips":"36097","name":"Schuyler County","state_id":"NY"},{"zip":"14838","fips":"36015","name":"Chemung County","state_id":"NY"},{"zip":"14838","fips":"36097","name":"Schuyler County","state_id":"NY"},{"zip":"14839","fips":"36101","name":"Steuben County","state_id":"NY"},{"zip":"14840","fips":"36097","name":"Schuyler County","state_id":"NY"},{"zip":"14840","fips":"36101","name":"Steuben County","state_id":"NY"},{"zip":"14841","fips":"36097","name":"Schuyler County","state_id":"NY"},{"zip":"14841","fips":"36099","name":"Seneca County","state_id":"NY"},{"zip":"14842","fips":"36123","name":"Yates County","state_id":"NY"},{"zip":"14843","fips":"36101","name":"Steuben County","state_id":"NY"},{"zip":"14843","fips":"36003","name":"Allegany County","state_id":"NY"},{"zip":"14845","fips":"36015","name":"Chemung County","state_id":"NY"},{"zip":"14845","fips":"36097","name":"Schuyler County","state_id":"NY"},{"zip":"14846","fips":"36003","name":"Allegany County","state_id":"NY"},{"zip":"14846","fips":"36051","name":"Livingston County","state_id":"NY"},{"zip":"14847","fips":"36099","name":"Seneca County","state_id":"NY"},{"zip":"14850","fips":"36109","name":"Tompkins County","state_id":"NY"},{"zip":"14851","fips":"36109","name":"Tompkins County","state_id":"NY"},{"zip":"14852","fips":"36109","name":"Tompkins County","state_id":"NY"},{"zip":"14853","fips":"36109","name":"Tompkins County","state_id":"NY"},{"zip":"14854","fips":"36109","name":"Tompkins County","state_id":"NY"},{"zip":"14855","fips":"36101","name":"Steuben County","state_id":"NY"},{"zip":"14856","fips":"36101","name":"Steuben County","state_id":"NY"},{"zip":"14857","fips":"36123","name":"Yates County","state_id":"NY"},{"zip":"14858","fips":"36101","name":"Steuben County","state_id":"NY"},{"zip":"14859","fips":"36107","name":"Tioga County","state_id":"NY"},{"zip":"14859","fips":"36015","name":"Chemung County","state_id":"NY"},{"zip":"14860","fips":"36099","name":"Seneca County","state_id":"NY"},{"zip":"14861","fips":"36015","name":"Chemung County","state_id":"NY"},{"zip":"14863","fips":"36097","name":"Schuyler County","state_id":"NY"},{"zip":"14864","fips":"36097","name":"Schuyler County","state_id":"NY"},{"zip":"14864","fips":"36015","name":"Chemung County","state_id":"NY"},{"zip":"14865","fips":"36097","name":"Schuyler County","state_id":"NY"},{"zip":"14867","fips":"36015","name":"Chemung County","state_id":"NY"},{"zip":"14867","fips":"36109","name":"Tompkins County","state_id":"NY"},{"zip":"14867","fips":"36097","name":"Schuyler County","state_id":"NY"},{"zip":"14869","fips":"36097","name":"Schuyler County","state_id":"NY"},{"zip":"14870","fips":"36101","name":"Steuben County","state_id":"NY"},{"zip":"14870","fips":"36097","name":"Schuyler County","state_id":"NY"},{"zip":"14871","fips":"36015","name":"Chemung County","state_id":"NY"},{"zip":"14871","fips":"36101","name":"Steuben County","state_id":"NY"},{"zip":"14872","fips":"36015","name":"Chemung County","state_id":"NY"},{"zip":"14873","fips":"36123","name":"Yates County","state_id":"NY"},{"zip":"14873","fips":"36101","name":"Steuben County","state_id":"NY"},{"zip":"14874","fips":"36101","name":"Steuben County","state_id":"NY"},{"zip":"14876","fips":"36097","name":"Schuyler County","state_id":"NY"},{"zip":"14877","fips":"36101","name":"Steuben County","state_id":"NY"},{"zip":"14878","fips":"36097","name":"Schuyler County","state_id":"NY"},{"zip":"14878","fips":"36123","name":"Yates County","state_id":"NY"},{"zip":"14879","fips":"36101","name":"Steuben County","state_id":"NY"},{"zip":"14880","fips":"36003","name":"Allegany County","state_id":"NY"},{"zip":"14881","fips":"36109","name":"Tompkins County","state_id":"NY"},{"zip":"14882","fips":"36109","name":"Tompkins County","state_id":"NY"},{"zip":"14882","fips":"36011","name":"Cayuga County","state_id":"NY"},{"zip":"14883","fips":"36015","name":"Chemung County","state_id":"NY"},{"zip":"14883","fips":"36109","name":"Tompkins County","state_id":"NY"},{"zip":"14883","fips":"36107","name":"Tioga County","state_id":"NY"},{"zip":"14884","fips":"36003","name":"Allegany County","state_id":"NY"},{"zip":"14884","fips":"36051","name":"Livingston County","state_id":"NY"},{"zip":"14885","fips":"36101","name":"Steuben County","state_id":"NY"},{"zip":"14886","fips":"36097","name":"Schuyler County","state_id":"NY"},{"zip":"14886","fips":"36109","name":"Tompkins County","state_id":"NY"},{"zip":"14886","fips":"36099","name":"Seneca County","state_id":"NY"},{"zip":"14887","fips":"36097","name":"Schuyler County","state_id":"NY"},{"zip":"14889","fips":"36015","name":"Chemung County","state_id":"NY"},{"zip":"14889","fips":"36107","name":"Tioga County","state_id":"NY"},{"zip":"14889","fips":"36097","name":"Schuyler County","state_id":"NY"},{"zip":"14891","fips":"36097","name":"Schuyler County","state_id":"NY"},{"zip":"14892","fips":"36015","name":"Chemung County","state_id":"NY"},{"zip":"14892","fips":"36107","name":"Tioga County","state_id":"NY"},{"zip":"14893","fips":"36097","name":"Schuyler County","state_id":"NY"},{"zip":"14894","fips":"36015","name":"Chemung County","state_id":"NY"},{"zip":"14895","fips":"36003","name":"Allegany County","state_id":"NY"},{"zip":"14897","fips":"36003","name":"Allegany County","state_id":"NY"},{"zip":"14897","fips":"36101","name":"Steuben County","state_id":"NY"},{"zip":"14898","fips":"36101","name":"Steuben County","state_id":"NY"}]
