[{"zip":"15001","fips":"42007","name":"Beaver County","state_id":"PA"},{"zip":"15001","fips":"42003","name":"Allegheny County","state_id":"PA"},{"zip":"15003","fips":"42003","name":"Allegheny County","state_id":"PA"},{"zip":"15003","fips":"42007","name":"Beaver County","state_id":"PA"},{"zip":"15004","fips":"42125","name":"Washington County","state_id":"PA"},{"zip":"15005","fips":"42007","name":"Beaver County","state_id":"PA"},{"zip":"15005","fips":"42003","name":"Allegheny County","state_id":"PA"},{"zip":"15006","fips":"42003","name":"Allegheny County","state_id":"PA"},{"zip":"15007","fips":"42003","name":"Allegheny County","state_id":"PA"},{"zip":"15009","fips":"42007","name":"Beaver County","state_id":"PA"},{"zip":"15010","fips":"42007","name":"Beaver County","state_id":"PA"},{"zip":"15012","fips":"42003","name":"Allegheny County","state_id":"PA"},{"zip":"15012","fips":"42125","name":"Washington County","state_id":"PA"},{"zip":"15012","fips":"42129","name":"Westmoreland County","state_id":"PA"},{"zip":"15012","fips":"42051","name":"Fayette County","state_id":"PA"},{"zip":"15014","fips":"42003","name":"Allegheny County","state_id":"PA"},{"zip":"15015","fips":"42003","name":"Allegheny County","state_id":"PA"},{"zip":"15017","fips":"42125","name":"Washington County","state_id":"PA"},{"zip":"15017","fips":"42003","name":"Allegheny County","state_id":"PA"},{"zip":"15018","fips":"42003","name":"Allegheny County","state_id":"PA"},{"zip":"15019","fips":"42007","name":"Beaver County","state_id":"PA"},{"zip":"15019","fips":"42125","name":"Washington County","state_id":"PA"},{"zip":"15020","fips":"42003","name":"Allegheny County","state_id":"PA"},{"zip":"15021","fips":"42125","name":"Washington County","state_id":"PA"},{"zip":"15021","fips":"42007","name":"Beaver County","state_id":"PA"},{"zip":"15022","fips":"42125","name":"Washington County","state_id":"PA"},{"zip":"15024","fips":"42003","name":"Allegheny County","state_id":"PA"},{"zip":"15025","fips":"42003","name":"Allegheny County","state_id":"PA"},{"zip":"15026","fips":"42007","name":"Beaver County","state_id":"PA"},{"zip":"15026","fips":"42125","name":"Washington County","state_id":"PA"},{"zip":"15026","fips":"42003","name":"Allegheny County","state_id":"PA"},{"zip":"15027","fips":"42007","name":"Beaver County","state_id":"PA"},{"zip":"15028","fips":"42003","name":"Allegheny County","state_id":"PA"},{"zip":"15030","fips":"42003","name":"Allegheny County","state_id":"PA"},{"zip":"15031","fips":"42003","name":"Allegheny County","state_id":"PA"},{"zip":"15032","fips":"42003","name":"Allegheny County","state_id":"PA"},{"zip":"15033","fips":"42125","name":"Washington County","state_id":"PA"},{"zip":"15034","fips":"42003","name":"Allegheny County","state_id":"PA"},{"zip":"15035","fips":"42003","name":"Allegheny County","state_id":"PA"},{"zip":"15037","fips":"42003","name":"Allegheny County","state_id":"PA"},{"zip":"15038","fips":"42003","name":"Allegheny County","state_id":"PA"},{"zip":"15042","fips":"42007","name":"Beaver County","state_id":"PA"},{"zip":"15043","fips":"42007","name":"Beaver County","state_id":"PA"},{"zip":"15044","fips":"42019","name":"Butler County","state_id":"PA"},{"zip":"15044","fips":"42003","name":"Allegheny County","state_id":"PA"},{"zip":"15045","fips":"42003","name":"Allegheny County","state_id":"PA"},{"zip":"15046","fips":"42003","name":"Allegheny County","state_id":"PA"},{"zip":"15047","fips":"42003","name":"Allegheny County","state_id":"PA"},{"zip":"15049","fips":"42003","name":"Allegheny County","state_id":"PA"},{"zip":"15050","fips":"42007","name":"Beaver County","state_id":"PA"},{"zip":"15051","fips":"42003","name":"Allegheny County","state_id":"PA"},{"zip":"15052","fips":"42007","name":"Beaver County","state_id":"PA"},{"zip":"15053","fips":"42125","name":"Washington County","state_id":"PA"},{"zip":"15054","fips":"42125","name":"Washington County","state_id":"PA"},{"zip":"15055","fips":"42125","name":"Washington County","state_id":"PA"},{"zip":"15056","fips":"42003","name":"Allegheny County","state_id":"PA"},{"zip":"15057","fips":"42003","name":"Allegheny County","state_id":"PA"},{"zip":"15057","fips":"42125","name":"Washington County","state_id":"PA"},{"zip":"15059","fips":"42007","name":"Beaver County","state_id":"PA"},{"zip":"15060","fips":"42125","name":"Washington County","state_id":"PA"},{"zip":"15061","fips":"42007","name":"Beaver County","state_id":"PA"},{"zip":"15062","fips":"42129","name":"Westmoreland County","state_id":"PA"},{"zip":"15063","fips":"42003","name":"Allegheny County","state_id":"PA"},{"zip":"15063","fips":"42125","name":"Washington County","state_id":"PA"},{"zip":"15064","fips":"42003","name":"Allegheny County","state_id":"PA"},{"zip":"15065","fips":"42003","name":"Allegheny County","state_id":"PA"},{"zip":"15065","fips":"42019","name":"Butler County","state_id":"PA"},{"zip":"15066","fips":"42007","name":"Beaver County","state_id":"PA"},{"zip":"15067","fips":"42125","name":"Washington County","state_id":"PA"},{"zip":"15068","fips":"42003","name":"Allegheny County","state_id":"PA"},{"zip":"15068","fips":"42129","name":"Westmoreland County","state_id":"PA"},{"zip":"15071","fips":"42003","name":"Allegheny County","state_id":"PA"},{"zip":"15072","fips":"42129","name":"Westmoreland County","state_id":"PA"},{"zip":"15074","fips":"42007","name":"Beaver County","state_id":"PA"},{"zip":"15075","fips":"42003","name":"Allegheny County","state_id":"PA"},{"zip":"15076","fips":"42003","name":"Allegheny County","state_id":"PA"},{"zip":"15077","fips":"42007","name":"Beaver County","state_id":"PA"},{"zip":"15078","fips":"42125","name":"Washington County","state_id":"PA"},{"zip":"15081","fips":"42007","name":"Beaver County","state_id":"PA"},{"zip":"15082","fips":"42003","name":"Allegheny County","state_id":"PA"},{"zip":"15083","fips":"42003","name":"Allegheny County","state_id":"PA"},{"zip":"15083","fips":"42129","name":"Westmoreland County","state_id":"PA"},{"zip":"15084","fips":"42003","name":"Allegheny County","state_id":"PA"},{"zip":"15085","fips":"42129","name":"Westmoreland County","state_id":"PA"},{"zip":"15085","fips":"42003","name":"Allegheny County","state_id":"PA"},{"zip":"15086","fips":"42003","name":"Allegheny County","state_id":"PA"},{"zip":"15086","fips":"42019","name":"Butler County","state_id":"PA"},{"zip":"15087","fips":"42129","name":"Westmoreland County","state_id":"PA"},{"zip":"15088","fips":"42003","name":"Allegheny County","state_id":"PA"},{"zip":"15089","fips":"42003","name":"Allegheny County","state_id":"PA"},{"zip":"15089","fips":"42129","name":"Westmoreland County","state_id":"PA"},{"zip":"15090","fips":"42003","name":"Allegheny County","state_id":"PA"},{"zip":"15091","fips":"42003","name":"Allegheny County","state_id":"PA"},{"zip":"15095","fips":"42003","name":"Allegheny County","state_id":"PA"},{"zip":"15096","fips":"42003","name":"Allegheny County","state_id":"PA"}]
