[{"zip":"15201","fips":"42003","name":"Allegheny County","state_id":"PA"},{"zip":"15202","fips":"42003","name":"Allegheny County","state_id":"PA"},{"zip":"15203","fips":"42003","name":"Allegheny County","state_id":"PA"},{"zip":"15204","fips":"42003","name":"Allegheny County","state_id":"PA"},{"zip":"15205","fips":"42003","name":"Allegheny County","state_id":"PA"},{"zip":"15206","fips":"42003","name":"Allegheny County","state_id":"PA"},{"zip":"15207","fips":"42003","name":"Allegheny County","state_id":"PA"},{"zip":"15208","fips":"42003","name":"Allegheny County","state_id":"PA"},{"zip":"15209","fips":"42003","name":"Allegheny County","state_id":"PA"},{"zip":"15210","fips":"42003","name":"Allegheny County","state_id":"PA"},{"zip":"15211","fips":"42003","name":"Allegheny County","state_id":"PA"},{"zip":"15212","fips":"42003","name":"Allegheny County","state_id":"PA"},{"zip":"15213","fips":"42003","name":"Allegheny County","state_id":"PA"},{"zip":"15214","fips":"42003","name":"Allegheny County","state_id":"PA"},{"zip":"15215","fips":"42003","name":"Allegheny County","state_id":"PA"},{"zip":"15216","fips":"42003","name":"Allegheny County","state_id":"PA"},{"zip":"15217","fips":"42003","name":"Allegheny County","state_id":"PA"},{"zip":"15218","fips":"42003","name":"Allegheny County","state_id":"PA"},{"zip":"15219","fips":"42003","name":"Allegheny County","state_id":"PA"},{"zip":"15220","fips":"42003","name":"Allegheny County","state_id":"PA"},{"zip":"15221","fips":"42003","name":"Allegheny County","state_id":"PA"},{"zip":"15222","fips":"42003","name":"Allegheny County","state_id":"PA"},{"zip":"15223","fips":"42003","name":"Allegheny County","state_id":"PA"},{"zip":"15224","fips":"42003","name":"Allegheny County","state_id":"PA"},{"zip":"15225","fips":"42003","name":"Allegheny County","state_id":"PA"},{"zip":"15226","fips":"42003","name":"Allegheny County","state_id":"PA"},{"zip":"15227","fips":"42003","name":"Allegheny County","state_id":"PA"},{"zip":"15228","fips":"42003","name":"Allegheny County","state_id":"PA"},{"zip":"15229","fips":"42003","name":"Allegheny County","state_id":"PA"},{"zip":"15230","fips":"42003","name":"Allegheny County","state_id":"PA"},{"zip":"15231","fips":"42003","name":"Allegheny County","state_id":"PA"},{"zip":"15232","fips":"42003","name":"Allegheny County","state_id":"PA"},{"zip":"15233","fips":"42003","name":"Allegheny County","state_id":"PA"},{"zip":"15234","fips":"42003","name":"Allegheny County","state_id":"PA"},{"zip":"15235","fips":"42003","name":"Allegheny County","state_id":"PA"},{"zip":"15236","fips":"42003","name":"Allegheny County","state_id":"PA"},{"zip":"15237","fips":"42003","name":"Allegheny County","state_id":"PA"},{"zip":"15238","fips":"42003","name":"Allegheny County","state_id":"PA"},{"zip":"15239","fips":"42003","name":"Allegheny County","state_id":"PA"},{"zip":"15239","fips":"42129","name":"Westmoreland County","state_id":"PA"},{"zip":"15240","fips":"42003","name":"Allegheny County","state_id":"PA"},{"zip":"15241","fips":"42003","name":"Allegheny County","state_id":"PA"},{"zip":"15241","fips":"42125","name":"Washington County","state_id":"PA"},{"zip":"15243","fips":"42003","name":"Allegheny County","state_id":"PA"},{"zip":"15244","fips":"42003","name":"Allegheny County","state_id":"PA"},{"zip":"15253","fips":"42003","name":"Allegheny County","state_id":"PA"},{"zip":"15258","fips":"42003","name":"Allegheny County","state_id":"PA"},{"zip":"15259","fips":"42003","name":"Allegheny County","state_id":"PA"},{"zip":"15260","fips":"42003","name":"Allegheny County","state_id":"PA"},{"zip":"15261","fips":"42003","name":"Allegheny County","state_id":"PA"},{"zip":"15262","fips":"42003","name":"Allegheny County","state_id":"PA"},{"zip":"15265","fips":"42003","name":"Allegheny County","state_id":"PA"},{"zip":"15267","fips":"42003","name":"Allegheny County","state_id":"PA"},{"zip":"15272","fips":"42003","name":"Allegheny County","state_id":"PA"},{"zip":"15275","fips":"42003","name":"Allegheny County","state_id":"PA"},{"zip":"15276","fips":"42003","name":"Allegheny County","state_id":"PA"},{"zip":"15277","fips":"42003","name":"Allegheny County","state_id":"PA"},{"zip":"15282","fips":"42003","name":"Allegheny County","state_id":"PA"},{"zip":"15289","fips":"42003","name":"Allegheny County","state_id":"PA"},{"zip":"15290","fips":"42003","name":"Allegheny County","state_id":"PA"},{"zip":"15295","fips":"42003","name":"Allegheny County","state_id":"PA"}]
