[{"zip":"15301","fips":"42125","name":"Washington County","state_id":"PA"},{"zip":"15310","fips":"42059","name":"Greene County","state_id":"PA"},{"zip":"15311","fips":"42125","name":"Washington County","state_id":"PA"},{"zip":"15312","fips":"42125","name":"Washington County","state_id":"PA"},{"zip":"15313","fips":"42125","name":"Washington County","state_id":"PA"},{"zip":"15314","fips":"42125","name":"Washington County","state_id":"PA"},{"zip":"15315","fips":"42059","name":"Greene County","state_id":"PA"},{"zip":"15316","fips":"42059","name":"Greene County","state_id":"PA"},{"zip":"15317","fips":"42125","name":"Washington County","state_id":"PA"},{"zip":"15317","fips":"42003","name":"Allegheny County","state_id":"PA"},{"zip":"15320","fips":"42059","name":"Greene County","state_id":"PA"},{"zip":"15321","fips":"42125","name":"Washington County","state_id":"PA"},{"zip":"15321","fips":"42003","name":"Allegheny County","state_id":"PA"},{"zip":"15322","fips":"42125","name":"Washington County","state_id":"PA"},{"zip":"15322","fips":"42059","name":"Greene County","state_id":"PA"},{"zip":"15323","fips":"42125","name":"Washington County","state_id":"PA"},{"zip":"15324","fips":"42125","name":"Washington County","state_id":"PA"},{"zip":"15325","fips":"42059","name":"Greene County","state_id":"PA"},{"zip":"15327","fips":"42059","name":"Greene County","state_id":"PA"},{"zip":"15329","fips":"42125","name":"Washington County","state_id":"PA"},{"zip":"15329","fips":"42059","name":"Greene County","state_id":"PA"},{"zip":"15330","fips":"42125","name":"Washington County","state_id":"PA"},{"zip":"15331","fips":"42125","name":"Washington County","state_id":"PA"},{"zip":"15332","fips":"42003","name":"Allegheny County","state_id":"PA"},{"zip":"15332","fips":"42125","name":"Washington County","state_id":"PA"},{"zip":"15333","fips":"42125","name":"Washington County","state_id":"PA"},{"zip":"15334","fips":"42059","name":"Greene County","state_id":"PA"},{"zip":"15336","fips":"42125","name":"Washington County","state_id":"PA"},{"zip":"15337","fips":"42059","name":"Greene County","state_id":"PA"},{"zip":"15338","fips":"42059","name":"Greene County","state_id":"PA"},{"zip":"15339","fips":"42125","name":"Washington County","state_id":"PA"},{"zip":"15340","fips":"42125","name":"Washington County","state_id":"PA"},{"zip":"15341","fips":"42059","name":"Greene County","state_id":"PA"},{"zip":"15342","fips":"42125","name":"Washington County","state_id":"PA"},{"zip":"15344","fips":"42059","name":"Greene County","state_id":"PA"},{"zip":"15345","fips":"42125","name":"Washington County","state_id":"PA"},{"zip":"15345","fips":"42059","name":"Greene County","state_id":"PA"},{"zip":"15346","fips":"42059","name":"Greene County","state_id":"PA"},{"zip":"15347","fips":"42125","name":"Washington County","state_id":"PA"},{"zip":"15348","fips":"42125","name":"Washington County","state_id":"PA"},{"zip":"15349","fips":"42059","name":"Greene County","state_id":"PA"},{"zip":"15350","fips":"42125","name":"Washington County","state_id":"PA"},{"zip":"15351","fips":"42059","name":"Greene County","state_id":"PA"},{"zip":"15352","fips":"42059","name":"Greene County","state_id":"PA"},{"zip":"15353","fips":"42059","name":"Greene County","state_id":"PA"},{"zip":"15357","fips":"42125","name":"Washington County","state_id":"PA"},{"zip":"15357","fips":"42059","name":"Greene County","state_id":"PA"},{"zip":"15358","fips":"42125","name":"Washington County","state_id":"PA"},{"zip":"15359","fips":"42059","name":"Greene County","state_id":"PA"},{"zip":"15360","fips":"42125","name":"Washington County","state_id":"PA"},{"zip":"15361","fips":"42125","name":"Washington County","state_id":"PA"},{"zip":"15362","fips":"42059","name":"Greene County","state_id":"PA"},{"zip":"15363","fips":"42125","name":"Washington County","state_id":"PA"},{"zip":"15364","fips":"42059","name":"Greene County","state_id":"PA"},{"zip":"15365","fips":"42125","name":"Washington County","state_id":"PA"},{"zip":"15366","fips":"42125","name":"Washington County","state_id":"PA"},{"zip":"15367","fips":"42125","name":"Washington County","state_id":"PA"},{"zip":"15368","fips":"42125","name":"Washington County","state_id":"PA"},{"zip":"15370","fips":"42125","name":"Washington County","state_id":"PA"},{"zip":"15370","fips":"42059","name":"Greene County","state_id":"PA"},{"zip":"15376","fips":"42125","name":"Washington County","state_id":"PA"},{"zip":"15377","fips":"42059","name":"Greene County","state_id":"PA"},{"zip":"15377","fips":"42125","name":"Washington County","state_id":"PA"},{"zip":"15378","fips":"42125","name":"Washington County","state_id":"PA"},{"zip":"15379","fips":"42125","name":"Washington County","state_id":"PA"},{"zip":"15380","fips":"42059","name":"Greene County","state_id":"PA"}]
