[{"zip":"15401","fips":"42051","name":"Fayette County","state_id":"PA"},{"zip":"15410","fips":"42051","name":"Fayette County","state_id":"PA"},{"zip":"15411","fips":"42111","name":"Somerset County","state_id":"PA"},{"zip":"15412","fips":"42125","name":"Washington County","state_id":"PA"},{"zip":"15413","fips":"42051","name":"Fayette County","state_id":"PA"},{"zip":"15415","fips":"42051","name":"Fayette County","state_id":"PA"},{"zip":"15416","fips":"42051","name":"Fayette County","state_id":"PA"},{"zip":"15417","fips":"42125","name":"Washington County","state_id":"PA"},{"zip":"15417","fips":"42051","name":"Fayette County","state_id":"PA"},{"zip":"15419","fips":"42125","name":"Washington County","state_id":"PA"},{"zip":"15420","fips":"42051","name":"Fayette County","state_id":"PA"},{"zip":"15421","fips":"42051","name":"Fayette County","state_id":"PA"},{"zip":"15422","fips":"42051","name":"Fayette County","state_id":"PA"},{"zip":"15423","fips":"42125","name":"Washington County","state_id":"PA"},{"zip":"15424","fips":"42111","name":"Somerset County","state_id":"PA"},{"zip":"15424","fips":"42051","name":"Fayette County","state_id":"PA"},{"zip":"15425","fips":"42051","name":"Fayette County","state_id":"PA"},{"zip":"15427","fips":"42125","name":"Washington County","state_id":"PA"},{"zip":"15428","fips":"42051","name":"Fayette County","state_id":"PA"},{"zip":"15429","fips":"42125","name":"Washington County","state_id":"PA"},{"zip":"15430","fips":"42051","name":"Fayette County","state_id":"PA"},{"zip":"15431","fips":"42051","name":"Fayette County","state_id":"PA"},{"zip":"15432","fips":"42125","name":"Washington County","state_id":"PA"},{"zip":"15433","fips":"42051","name":"Fayette County","state_id":"PA"},{"zip":"15434","fips":"42125","name":"Washington County","state_id":"PA"},{"zip":"15435","fips":"42051","name":"Fayette County","state_id":"PA"},{"zip":"15436","fips":"42051","name":"Fayette County","state_id":"PA"},{"zip":"15437","fips":"42051","name":"Fayette County","state_id":"PA"},{"zip":"15438","fips":"42051","name":"Fayette County","state_id":"PA"},{"zip":"15439","fips":"42051","name":"Fayette County","state_id":"PA"},{"zip":"15440","fips":"42051","name":"Fayette County","state_id":"PA"},{"zip":"15442","fips":"42051","name":"Fayette County","state_id":"PA"},{"zip":"15443","fips":"42051","name":"Fayette County","state_id":"PA"},{"zip":"15444","fips":"42051","name":"Fayette County","state_id":"PA"},{"zip":"15445","fips":"42051","name":"Fayette County","state_id":"PA"},{"zip":"15446","fips":"42051","name":"Fayette County","state_id":"PA"},{"zip":"15447","fips":"42051","name":"Fayette County","state_id":"PA"},{"zip":"15448","fips":"42129","name":"Westmoreland County","state_id":"PA"},{"zip":"15449","fips":"42051","name":"Fayette County","state_id":"PA"},{"zip":"15450","fips":"42051","name":"Fayette County","state_id":"PA"},{"zip":"15451","fips":"42051","name":"Fayette County","state_id":"PA"},{"zip":"15454","fips":"42051","name":"Fayette County","state_id":"PA"},{"zip":"15455","fips":"42051","name":"Fayette County","state_id":"PA"},{"zip":"15456","fips":"42051","name":"Fayette County","state_id":"PA"},{"zip":"15458","fips":"42051","name":"Fayette County","state_id":"PA"},{"zip":"15459","fips":"42051","name":"Fayette County","state_id":"PA"},{"zip":"15460","fips":"42051","name":"Fayette County","state_id":"PA"},{"zip":"15461","fips":"42059","name":"Greene County","state_id":"PA"},{"zip":"15461","fips":"42051","name":"Fayette County","state_id":"PA"},{"zip":"15462","fips":"42051","name":"Fayette County","state_id":"PA"},{"zip":"15463","fips":"42051","name":"Fayette County","state_id":"PA"},{"zip":"15464","fips":"42051","name":"Fayette County","state_id":"PA"},{"zip":"15465","fips":"42051","name":"Fayette County","state_id":"PA"},{"zip":"15466","fips":"42051","name":"Fayette County","state_id":"PA"},{"zip":"15467","fips":"42051","name":"Fayette County","state_id":"PA"},{"zip":"15468","fips":"42051","name":"Fayette County","state_id":"PA"},{"zip":"15469","fips":"42051","name":"Fayette County","state_id":"PA"},{"zip":"15470","fips":"42051","name":"Fayette County","state_id":"PA"},{"zip":"15472","fips":"42051","name":"Fayette County","state_id":"PA"},{"zip":"15473","fips":"42051","name":"Fayette County","state_id":"PA"},{"zip":"15474","fips":"42051","name":"Fayette County","state_id":"PA"},{"zip":"15475","fips":"42051","name":"Fayette County","state_id":"PA"},{"zip":"15476","fips":"42051","name":"Fayette County","state_id":"PA"},{"zip":"15477","fips":"42125","name":"Washington County","state_id":"PA"},{"zip":"15478","fips":"42051","name":"Fayette County","state_id":"PA"},{"zip":"15479","fips":"42129","name":"Westmoreland County","state_id":"PA"},{"zip":"15480","fips":"42051","name":"Fayette County","state_id":"PA"},{"zip":"15482","fips":"42051","name":"Fayette County","state_id":"PA"},{"zip":"15483","fips":"42125","name":"Washington County","state_id":"PA"},{"zip":"15484","fips":"42051","name":"Fayette County","state_id":"PA"},{"zip":"15485","fips":"42111","name":"Somerset County","state_id":"PA"},{"zip":"15486","fips":"42051","name":"Fayette County","state_id":"PA"},{"zip":"15488","fips":"42051","name":"Fayette County","state_id":"PA"},{"zip":"15489","fips":"42051","name":"Fayette County","state_id":"PA"},{"zip":"15490","fips":"42051","name":"Fayette County","state_id":"PA"},{"zip":"15492","fips":"42051","name":"Fayette County","state_id":"PA"}]
