[{"zip":"15501","fips":"42129","name":"Westmoreland County","state_id":"PA"},{"zip":"15501","fips":"42111","name":"Somerset County","state_id":"PA"},{"zip":"15502","fips":"42111","name":"Somerset County","state_id":"PA"},{"zip":"15510","fips":"42111","name":"Somerset County","state_id":"PA"},{"zip":"15520","fips":"42111","name":"Somerset County","state_id":"PA"},{"zip":"15521","fips":"42009","name":"Bedford County","state_id":"PA"},{"zip":"15522","fips":"42009","name":"Bedford County","state_id":"PA"},{"zip":"15530","fips":"42111","name":"Somerset County","state_id":"PA"},{"zip":"15530","fips":"42009","name":"Bedford County","state_id":"PA"},{"zip":"15531","fips":"42129","name":"Westmoreland County","state_id":"PA"},{"zip":"15531","fips":"42111","name":"Somerset County","state_id":"PA"},{"zip":"15532","fips":"42111","name":"Somerset County","state_id":"PA"},{"zip":"15533","fips":"42057","name":"Fulton County","state_id":"PA"},{"zip":"15533","fips":"42009","name":"Bedford County","state_id":"PA"},{"zip":"15534","fips":"42111","name":"Somerset County","state_id":"PA"},{"zip":"15534","fips":"42009","name":"Bedford County","state_id":"PA"},{"zip":"15535","fips":"42009","name":"Bedford County","state_id":"PA"},{"zip":"15536","fips":"42057","name":"Fulton County","state_id":"PA"},{"zip":"15537","fips":"42009","name":"Bedford County","state_id":"PA"},{"zip":"15538","fips":"42111","name":"Somerset County","state_id":"PA"},{"zip":"15539","fips":"42009","name":"Bedford County","state_id":"PA"},{"zip":"15540","fips":"42111","name":"Somerset County","state_id":"PA"},{"zip":"15541","fips":"42111","name":"Somerset County","state_id":"PA"},{"zip":"15542","fips":"42111","name":"Somerset County","state_id":"PA"},{"zip":"15544","fips":"42111","name":"Somerset County","state_id":"PA"},{"zip":"15545","fips":"42111","name":"Somerset County","state_id":"PA"},{"zip":"15545","fips":"42009","name":"Bedford County","state_id":"PA"},{"zip":"15546","fips":"42111","name":"Somerset County","state_id":"PA"},{"zip":"15547","fips":"42111","name":"Somerset County","state_id":"PA"},{"zip":"15548","fips":"42111","name":"Somerset County","state_id":"PA"},{"zip":"15549","fips":"42111","name":"Somerset County","state_id":"PA"},{"zip":"15550","fips":"42009","name":"Bedford County","state_id":"PA"},{"zip":"15550","fips":"42111","name":"Somerset County","state_id":"PA"},{"zip":"15551","fips":"42111","name":"Somerset County","state_id":"PA"},{"zip":"15552","fips":"42111","name":"Somerset County","state_id":"PA"},{"zip":"15553","fips":"42111","name":"Somerset County","state_id":"PA"},{"zip":"15554","fips":"42009","name":"Bedford County","state_id":"PA"},{"zip":"15555","fips":"42111","name":"Somerset County","state_id":"PA"},{"zip":"15557","fips":"42111","name":"Somerset County","state_id":"PA"},{"zip":"15557","fips":"42051","name":"Fayette County","state_id":"PA"},{"zip":"15558","fips":"42111","name":"Somerset County","state_id":"PA"},{"zip":"15559","fips":"42009","name":"Bedford County","state_id":"PA"},{"zip":"15559","fips":"42111","name":"Somerset County","state_id":"PA"},{"zip":"15560","fips":"42111","name":"Somerset County","state_id":"PA"},{"zip":"15561","fips":"42111","name":"Somerset County","state_id":"PA"},{"zip":"15562","fips":"42111","name":"Somerset County","state_id":"PA"},{"zip":"15563","fips":"42111","name":"Somerset County","state_id":"PA"},{"zip":"15564","fips":"42111","name":"Somerset County","state_id":"PA"},{"zip":"15565","fips":"42111","name":"Somerset County","state_id":"PA"}]
