[{"zip":"15601","fips":"42129","name":"Westmoreland County","state_id":"PA"},{"zip":"15606","fips":"42129","name":"Westmoreland County","state_id":"PA"},{"zip":"15610","fips":"42129","name":"Westmoreland County","state_id":"PA"},{"zip":"15610","fips":"42051","name":"Fayette County","state_id":"PA"},{"zip":"15611","fips":"42129","name":"Westmoreland County","state_id":"PA"},{"zip":"15612","fips":"42129","name":"Westmoreland County","state_id":"PA"},{"zip":"15613","fips":"42005","name":"Armstrong County","state_id":"PA"},{"zip":"15613","fips":"42129","name":"Westmoreland County","state_id":"PA"},{"zip":"15615","fips":"42129","name":"Westmoreland County","state_id":"PA"},{"zip":"15616","fips":"42129","name":"Westmoreland County","state_id":"PA"},{"zip":"15617","fips":"42129","name":"Westmoreland County","state_id":"PA"},{"zip":"15618","fips":"42129","name":"Westmoreland County","state_id":"PA"},{"zip":"15618","fips":"42063","name":"Indiana County","state_id":"PA"},{"zip":"15618","fips":"42005","name":"Armstrong County","state_id":"PA"},{"zip":"15619","fips":"42129","name":"Westmoreland County","state_id":"PA"},{"zip":"15620","fips":"42129","name":"Westmoreland County","state_id":"PA"},{"zip":"15621","fips":"42129","name":"Westmoreland County","state_id":"PA"},{"zip":"15622","fips":"42111","name":"Somerset County","state_id":"PA"},{"zip":"15622","fips":"42129","name":"Westmoreland County","state_id":"PA"},{"zip":"15622","fips":"42051","name":"Fayette County","state_id":"PA"},{"zip":"15623","fips":"42129","name":"Westmoreland County","state_id":"PA"},{"zip":"15624","fips":"42129","name":"Westmoreland County","state_id":"PA"},{"zip":"15625","fips":"42129","name":"Westmoreland County","state_id":"PA"},{"zip":"15626","fips":"42129","name":"Westmoreland County","state_id":"PA"},{"zip":"15627","fips":"42129","name":"Westmoreland County","state_id":"PA"},{"zip":"15628","fips":"42129","name":"Westmoreland County","state_id":"PA"},{"zip":"15629","fips":"42129","name":"Westmoreland County","state_id":"PA"},{"zip":"15631","fips":"42051","name":"Fayette County","state_id":"PA"},{"zip":"15632","fips":"42129","name":"Westmoreland County","state_id":"PA"},{"zip":"15633","fips":"42129","name":"Westmoreland County","state_id":"PA"},{"zip":"15634","fips":"42129","name":"Westmoreland County","state_id":"PA"},{"zip":"15635","fips":"42129","name":"Westmoreland County","state_id":"PA"},{"zip":"15636","fips":"42129","name":"Westmoreland County","state_id":"PA"},{"zip":"15637","fips":"42129","name":"Westmoreland County","state_id":"PA"},{"zip":"15638","fips":"42129","name":"Westmoreland County","state_id":"PA"},{"zip":"15639","fips":"42129","name":"Westmoreland County","state_id":"PA"},{"zip":"15640","fips":"42129","name":"Westmoreland County","state_id":"PA"},{"zip":"15641","fips":"42129","name":"Westmoreland County","state_id":"PA"},{"zip":"15642","fips":"42003","name":"Allegheny County","state_id":"PA"},{"zip":"15642","fips":"42129","name":"Westmoreland County","state_id":"PA"},{"zip":"15644","fips":"42129","name":"Westmoreland County","state_id":"PA"},{"zip":"15646","fips":"42129","name":"Westmoreland County","state_id":"PA"},{"zip":"15647","fips":"42129","name":"Westmoreland County","state_id":"PA"},{"zip":"15650","fips":"42129","name":"Westmoreland County","state_id":"PA"},{"zip":"15655","fips":"42129","name":"Westmoreland County","state_id":"PA"},{"zip":"15656","fips":"42005","name":"Armstrong County","state_id":"PA"},{"zip":"15656","fips":"42129","name":"Westmoreland County","state_id":"PA"},{"zip":"15658","fips":"42129","name":"Westmoreland County","state_id":"PA"},{"zip":"15660","fips":"42129","name":"Westmoreland County","state_id":"PA"},{"zip":"15661","fips":"42129","name":"Westmoreland County","state_id":"PA"},{"zip":"15662","fips":"42129","name":"Westmoreland County","state_id":"PA"},{"zip":"15663","fips":"42129","name":"Westmoreland County","state_id":"PA"},{"zip":"15664","fips":"42129","name":"Westmoreland County","state_id":"PA"},{"zip":"15665","fips":"42129","name":"Westmoreland County","state_id":"PA"},{"zip":"15666","fips":"42129","name":"Westmoreland County","state_id":"PA"},{"zip":"15666","fips":"42051","name":"Fayette County","state_id":"PA"},{"zip":"15668","fips":"42129","name":"Westmoreland County","state_id":"PA"},{"zip":"15670","fips":"42129","name":"Westmoreland County","state_id":"PA"},{"zip":"15671","fips":"42129","name":"Westmoreland County","state_id":"PA"},{"zip":"15672","fips":"42129","name":"Westmoreland County","state_id":"PA"},{"zip":"15673","fips":"42005","name":"Armstrong County","state_id":"PA"},{"zip":"15674","fips":"42129","name":"Westmoreland County","state_id":"PA"},{"zip":"15675","fips":"42129","name":"Westmoreland County","state_id":"PA"},{"zip":"15676","fips":"42129","name":"Westmoreland County","state_id":"PA"},{"zip":"15677","fips":"42129","name":"Westmoreland County","state_id":"PA"},{"zip":"15678","fips":"42129","name":"Westmoreland County","state_id":"PA"},{"zip":"15679","fips":"42129","name":"Westmoreland County","state_id":"PA"},{"zip":"15680","fips":"42129","name":"Westmoreland County","state_id":"PA"},{"zip":"15681","fips":"42005","name":"Armstrong County","state_id":"PA"},{"zip":"15681","fips":"42063","name":"Indiana County","state_id":"PA"},{"zip":"15681","fips":"42129","name":"Westmoreland County","state_id":"PA"},{"zip":"15682","fips":"42005","name":"Armstrong County","state_id":"PA"},{"zip":"15683","fips":"42051","name":"Fayette County","state_id":"PA"},{"zip":"15683","fips":"42129","name":"Westmoreland County","state_id":"PA"},{"zip":"15684","fips":"42129","name":"Westmoreland County","state_id":"PA"},{"zip":"15685","fips":"42129","name":"Westmoreland County","state_id":"PA"},{"zip":"15686","fips":"42005","name":"Armstrong County","state_id":"PA"},{"zip":"15687","fips":"42129","name":"Westmoreland County","state_id":"PA"},{"zip":"15688","fips":"42129","name":"Westmoreland County","state_id":"PA"},{"zip":"15689","fips":"42129","name":"Westmoreland County","state_id":"PA"},{"zip":"15690","fips":"42005","name":"Armstrong County","state_id":"PA"},{"zip":"15690","fips":"42129","name":"Westmoreland County","state_id":"PA"},{"zip":"15691","fips":"42129","name":"Westmoreland County","state_id":"PA"},{"zip":"15692","fips":"42129","name":"Westmoreland County","state_id":"PA"},{"zip":"15693","fips":"42129","name":"Westmoreland County","state_id":"PA"},{"zip":"15695","fips":"42129","name":"Westmoreland County","state_id":"PA"},{"zip":"15696","fips":"42129","name":"Westmoreland County","state_id":"PA"},{"zip":"15697","fips":"42129","name":"Westmoreland County","state_id":"PA"},{"zip":"15698","fips":"42129","name":"Westmoreland County","state_id":"PA"}]
