[{"zip":"15701","fips":"42063","name":"Indiana County","state_id":"PA"},{"zip":"15705","fips":"42063","name":"Indiana County","state_id":"PA"},{"zip":"15710","fips":"42063","name":"Indiana County","state_id":"PA"},{"zip":"15711","fips":"42065","name":"Jefferson County","state_id":"PA"},{"zip":"15712","fips":"42063","name":"Indiana County","state_id":"PA"},{"zip":"15713","fips":"42063","name":"Indiana County","state_id":"PA"},{"zip":"15714","fips":"42063","name":"Indiana County","state_id":"PA"},{"zip":"15714","fips":"42021","name":"Cambria County","state_id":"PA"},{"zip":"15715","fips":"42065","name":"Jefferson County","state_id":"PA"},{"zip":"15716","fips":"42063","name":"Indiana County","state_id":"PA"},{"zip":"15717","fips":"42129","name":"Westmoreland County","state_id":"PA"},{"zip":"15717","fips":"42063","name":"Indiana County","state_id":"PA"},{"zip":"15720","fips":"42063","name":"Indiana County","state_id":"PA"},{"zip":"15721","fips":"42033","name":"Clearfield County","state_id":"PA"},{"zip":"15722","fips":"42021","name":"Cambria County","state_id":"PA"},{"zip":"15723","fips":"42063","name":"Indiana County","state_id":"PA"},{"zip":"15724","fips":"42033","name":"Clearfield County","state_id":"PA"},{"zip":"15724","fips":"42063","name":"Indiana County","state_id":"PA"},{"zip":"15724","fips":"42021","name":"Cambria County","state_id":"PA"},{"zip":"15725","fips":"42063","name":"Indiana County","state_id":"PA"},{"zip":"15727","fips":"42063","name":"Indiana County","state_id":"PA"},{"zip":"15728","fips":"42063","name":"Indiana County","state_id":"PA"},{"zip":"15729","fips":"42063","name":"Indiana County","state_id":"PA"},{"zip":"15730","fips":"42065","name":"Jefferson County","state_id":"PA"},{"zip":"15731","fips":"42063","name":"Indiana County","state_id":"PA"},{"zip":"15732","fips":"42063","name":"Indiana County","state_id":"PA"},{"zip":"15732","fips":"42005","name":"Armstrong County","state_id":"PA"},{"zip":"15733","fips":"42065","name":"Jefferson County","state_id":"PA"},{"zip":"15734","fips":"42063","name":"Indiana County","state_id":"PA"},{"zip":"15736","fips":"42005","name":"Armstrong County","state_id":"PA"},{"zip":"15737","fips":"42021","name":"Cambria County","state_id":"PA"},{"zip":"15738","fips":"42021","name":"Cambria County","state_id":"PA"},{"zip":"15739","fips":"42063","name":"Indiana County","state_id":"PA"},{"zip":"15741","fips":"42063","name":"Indiana County","state_id":"PA"},{"zip":"15742","fips":"42063","name":"Indiana County","state_id":"PA"},{"zip":"15742","fips":"42033","name":"Clearfield County","state_id":"PA"},{"zip":"15744","fips":"42065","name":"Jefferson County","state_id":"PA"},{"zip":"15745","fips":"42063","name":"Indiana County","state_id":"PA"},{"zip":"15746","fips":"42063","name":"Indiana County","state_id":"PA"},{"zip":"15747","fips":"42063","name":"Indiana County","state_id":"PA"},{"zip":"15748","fips":"42063","name":"Indiana County","state_id":"PA"},{"zip":"15750","fips":"42063","name":"Indiana County","state_id":"PA"},{"zip":"15752","fips":"42063","name":"Indiana County","state_id":"PA"},{"zip":"15753","fips":"42033","name":"Clearfield County","state_id":"PA"},{"zip":"15754","fips":"42063","name":"Indiana County","state_id":"PA"},{"zip":"15756","fips":"42063","name":"Indiana County","state_id":"PA"},{"zip":"15757","fips":"42033","name":"Clearfield County","state_id":"PA"},{"zip":"15757","fips":"42063","name":"Indiana County","state_id":"PA"},{"zip":"15758","fips":"42063","name":"Indiana County","state_id":"PA"},{"zip":"15759","fips":"42063","name":"Indiana County","state_id":"PA"},{"zip":"15760","fips":"42021","name":"Cambria County","state_id":"PA"},{"zip":"15761","fips":"42063","name":"Indiana County","state_id":"PA"},{"zip":"15762","fips":"42021","name":"Cambria County","state_id":"PA"},{"zip":"15763","fips":"42065","name":"Jefferson County","state_id":"PA"},{"zip":"15763","fips":"42063","name":"Indiana County","state_id":"PA"},{"zip":"15764","fips":"42065","name":"Jefferson County","state_id":"PA"},{"zip":"15765","fips":"42063","name":"Indiana County","state_id":"PA"},{"zip":"15767","fips":"42063","name":"Indiana County","state_id":"PA"},{"zip":"15767","fips":"42065","name":"Jefferson County","state_id":"PA"},{"zip":"15767","fips":"42033","name":"Clearfield County","state_id":"PA"},{"zip":"15770","fips":"42065","name":"Jefferson County","state_id":"PA"},{"zip":"15771","fips":"42063","name":"Indiana County","state_id":"PA"},{"zip":"15772","fips":"42065","name":"Jefferson County","state_id":"PA"},{"zip":"15772","fips":"42063","name":"Indiana County","state_id":"PA"},{"zip":"15773","fips":"42021","name":"Cambria County","state_id":"PA"},{"zip":"15774","fips":"42063","name":"Indiana County","state_id":"PA"},{"zip":"15774","fips":"42005","name":"Armstrong County","state_id":"PA"},{"zip":"15775","fips":"42021","name":"Cambria County","state_id":"PA"},{"zip":"15776","fips":"42065","name":"Jefferson County","state_id":"PA"},{"zip":"15777","fips":"42063","name":"Indiana County","state_id":"PA"},{"zip":"15778","fips":"42065","name":"Jefferson County","state_id":"PA"},{"zip":"15779","fips":"42129","name":"Westmoreland County","state_id":"PA"},{"zip":"15780","fips":"42065","name":"Jefferson County","state_id":"PA"},{"zip":"15781","fips":"42065","name":"Jefferson County","state_id":"PA"},{"zip":"15783","fips":"42063","name":"Indiana County","state_id":"PA"},{"zip":"15784","fips":"42065","name":"Jefferson County","state_id":"PA"}]
