[{"zip":"15801","fips":"42033","name":"Clearfield County","state_id":"PA"},{"zip":"15801","fips":"42065","name":"Jefferson County","state_id":"PA"},{"zip":"15821","fips":"42047","name":"Elk County","state_id":"PA"},{"zip":"15822","fips":"42047","name":"Elk County","state_id":"PA"},{"zip":"15823","fips":"42033","name":"Clearfield County","state_id":"PA"},{"zip":"15823","fips":"42047","name":"Elk County","state_id":"PA"},{"zip":"15823","fips":"42065","name":"Jefferson County","state_id":"PA"},{"zip":"15824","fips":"42065","name":"Jefferson County","state_id":"PA"},{"zip":"15824","fips":"42033","name":"Clearfield County","state_id":"PA"},{"zip":"15824","fips":"42047","name":"Elk County","state_id":"PA"},{"zip":"15825","fips":"42065","name":"Jefferson County","state_id":"PA"},{"zip":"15827","fips":"42047","name":"Elk County","state_id":"PA"},{"zip":"15828","fips":"42065","name":"Jefferson County","state_id":"PA"},{"zip":"15828","fips":"42047","name":"Elk County","state_id":"PA"},{"zip":"15828","fips":"42053","name":"Forest County","state_id":"PA"},{"zip":"15829","fips":"42031","name":"Clarion County","state_id":"PA"},{"zip":"15829","fips":"42065","name":"Jefferson County","state_id":"PA"},{"zip":"15831","fips":"42047","name":"Elk County","state_id":"PA"},{"zip":"15832","fips":"42023","name":"Cameron County","state_id":"PA"},{"zip":"15832","fips":"42047","name":"Elk County","state_id":"PA"},{"zip":"15834","fips":"42047","name":"Elk County","state_id":"PA"},{"zip":"15834","fips":"42023","name":"Cameron County","state_id":"PA"},{"zip":"15840","fips":"42033","name":"Clearfield County","state_id":"PA"},{"zip":"15840","fips":"42065","name":"Jefferson County","state_id":"PA"},{"zip":"15841","fips":"42047","name":"Elk County","state_id":"PA"},{"zip":"15845","fips":"42047","name":"Elk County","state_id":"PA"},{"zip":"15846","fips":"42047","name":"Elk County","state_id":"PA"},{"zip":"15847","fips":"42065","name":"Jefferson County","state_id":"PA"},{"zip":"15848","fips":"42033","name":"Clearfield County","state_id":"PA"},{"zip":"15849","fips":"42033","name":"Clearfield County","state_id":"PA"},{"zip":"15851","fips":"42065","name":"Jefferson County","state_id":"PA"},{"zip":"15851","fips":"42033","name":"Clearfield County","state_id":"PA"},{"zip":"15853","fips":"42047","name":"Elk County","state_id":"PA"},{"zip":"15853","fips":"42065","name":"Jefferson County","state_id":"PA"},{"zip":"15856","fips":"42033","name":"Clearfield County","state_id":"PA"},{"zip":"15857","fips":"42047","name":"Elk County","state_id":"PA"},{"zip":"15860","fips":"42031","name":"Clarion County","state_id":"PA"},{"zip":"15860","fips":"42047","name":"Elk County","state_id":"PA"},{"zip":"15860","fips":"42065","name":"Jefferson County","state_id":"PA"},{"zip":"15861","fips":"42023","name":"Cameron County","state_id":"PA"},{"zip":"15863","fips":"42065","name":"Jefferson County","state_id":"PA"},{"zip":"15864","fips":"42031","name":"Clarion County","state_id":"PA"},{"zip":"15864","fips":"42065","name":"Jefferson County","state_id":"PA"},{"zip":"15865","fips":"42033","name":"Clearfield County","state_id":"PA"},{"zip":"15865","fips":"42065","name":"Jefferson County","state_id":"PA"},{"zip":"15866","fips":"42033","name":"Clearfield County","state_id":"PA"},{"zip":"15868","fips":"42047","name":"Elk County","state_id":"PA"},{"zip":"15870","fips":"42047","name":"Elk County","state_id":"PA"},{"zip":"15870","fips":"42083","name":"McKean County","state_id":"PA"}]
