[{"zip":"15901","fips":"42021","name":"Cambria County","state_id":"PA"},{"zip":"15902","fips":"42021","name":"Cambria County","state_id":"PA"},{"zip":"15904","fips":"42111","name":"Somerset County","state_id":"PA"},{"zip":"15904","fips":"42021","name":"Cambria County","state_id":"PA"},{"zip":"15905","fips":"42021","name":"Cambria County","state_id":"PA"},{"zip":"15905","fips":"42111","name":"Somerset County","state_id":"PA"},{"zip":"15906","fips":"42021","name":"Cambria County","state_id":"PA"},{"zip":"15907","fips":"42021","name":"Cambria County","state_id":"PA"},{"zip":"15909","fips":"42021","name":"Cambria County","state_id":"PA"},{"zip":"15915","fips":"42021","name":"Cambria County","state_id":"PA"},{"zip":"15920","fips":"42063","name":"Indiana County","state_id":"PA"},{"zip":"15921","fips":"42021","name":"Cambria County","state_id":"PA"},{"zip":"15922","fips":"42021","name":"Cambria County","state_id":"PA"},{"zip":"15923","fips":"42129","name":"Westmoreland County","state_id":"PA"},{"zip":"15924","fips":"42111","name":"Somerset County","state_id":"PA"},{"zip":"15925","fips":"42021","name":"Cambria County","state_id":"PA"},{"zip":"15926","fips":"42111","name":"Somerset County","state_id":"PA"},{"zip":"15926","fips":"42009","name":"Bedford County","state_id":"PA"},{"zip":"15927","fips":"42021","name":"Cambria County","state_id":"PA"},{"zip":"15928","fips":"42111","name":"Somerset County","state_id":"PA"},{"zip":"15929","fips":"42063","name":"Indiana County","state_id":"PA"},{"zip":"15930","fips":"42021","name":"Cambria County","state_id":"PA"},{"zip":"15931","fips":"42021","name":"Cambria County","state_id":"PA"},{"zip":"15934","fips":"42021","name":"Cambria County","state_id":"PA"},{"zip":"15935","fips":"42111","name":"Somerset County","state_id":"PA"},{"zip":"15936","fips":"42111","name":"Somerset County","state_id":"PA"},{"zip":"15937","fips":"42111","name":"Somerset County","state_id":"PA"},{"zip":"15938","fips":"42021","name":"Cambria County","state_id":"PA"},{"zip":"15940","fips":"42021","name":"Cambria County","state_id":"PA"},{"zip":"15942","fips":"42021","name":"Cambria County","state_id":"PA"},{"zip":"15943","fips":"42021","name":"Cambria County","state_id":"PA"},{"zip":"15944","fips":"42063","name":"Indiana County","state_id":"PA"},{"zip":"15944","fips":"42129","name":"Westmoreland County","state_id":"PA"},{"zip":"15945","fips":"42021","name":"Cambria County","state_id":"PA"},{"zip":"15946","fips":"42009","name":"Bedford County","state_id":"PA"},{"zip":"15946","fips":"42021","name":"Cambria County","state_id":"PA"},{"zip":"15946","fips":"42013","name":"Blair County","state_id":"PA"},{"zip":"15948","fips":"42021","name":"Cambria County","state_id":"PA"},{"zip":"15949","fips":"42063","name":"Indiana County","state_id":"PA"},{"zip":"15951","fips":"42021","name":"Cambria County","state_id":"PA"},{"zip":"15952","fips":"42021","name":"Cambria County","state_id":"PA"},{"zip":"15953","fips":"42111","name":"Somerset County","state_id":"PA"},{"zip":"15954","fips":"42063","name":"Indiana County","state_id":"PA"},{"zip":"15954","fips":"42129","name":"Westmoreland County","state_id":"PA"},{"zip":"15955","fips":"42021","name":"Cambria County","state_id":"PA"},{"zip":"15956","fips":"42021","name":"Cambria County","state_id":"PA"},{"zip":"15957","fips":"42021","name":"Cambria County","state_id":"PA"},{"zip":"15957","fips":"42063","name":"Indiana County","state_id":"PA"},{"zip":"15958","fips":"42021","name":"Cambria County","state_id":"PA"},{"zip":"15959","fips":"42021","name":"Cambria County","state_id":"PA"},{"zip":"15960","fips":"42021","name":"Cambria County","state_id":"PA"},{"zip":"15961","fips":"42021","name":"Cambria County","state_id":"PA"},{"zip":"15961","fips":"42063","name":"Indiana County","state_id":"PA"},{"zip":"15962","fips":"42021","name":"Cambria County","state_id":"PA"},{"zip":"15963","fips":"42021","name":"Cambria County","state_id":"PA"},{"zip":"15963","fips":"42111","name":"Somerset County","state_id":"PA"},{"zip":"15963","fips":"42009","name":"Bedford County","state_id":"PA"}]
