[{"zip":"16001","fips":"42019","name":"Butler County","state_id":"PA"},{"zip":"16002","fips":"42019","name":"Butler County","state_id":"PA"},{"zip":"16003","fips":"42019","name":"Butler County","state_id":"PA"},{"zip":"16020","fips":"42019","name":"Butler County","state_id":"PA"},{"zip":"16022","fips":"42019","name":"Butler County","state_id":"PA"},{"zip":"16023","fips":"42019","name":"Butler County","state_id":"PA"},{"zip":"16024","fips":"42019","name":"Butler County","state_id":"PA"},{"zip":"16025","fips":"42005","name":"Armstrong County","state_id":"PA"},{"zip":"16025","fips":"42019","name":"Butler County","state_id":"PA"},{"zip":"16027","fips":"42019","name":"Butler County","state_id":"PA"},{"zip":"16028","fips":"42005","name":"Armstrong County","state_id":"PA"},{"zip":"16028","fips":"42031","name":"Clarion County","state_id":"PA"},{"zip":"16029","fips":"42019","name":"Butler County","state_id":"PA"},{"zip":"16030","fips":"42019","name":"Butler County","state_id":"PA"},{"zip":"16033","fips":"42019","name":"Butler County","state_id":"PA"},{"zip":"16034","fips":"42019","name":"Butler County","state_id":"PA"},{"zip":"16035","fips":"42019","name":"Butler County","state_id":"PA"},{"zip":"16036","fips":"42031","name":"Clarion County","state_id":"PA"},{"zip":"16037","fips":"42007","name":"Beaver County","state_id":"PA"},{"zip":"16037","fips":"42073","name":"Lawrence County","state_id":"PA"},{"zip":"16037","fips":"42019","name":"Butler County","state_id":"PA"},{"zip":"16038","fips":"42085","name":"Mercer County","state_id":"PA"},{"zip":"16038","fips":"42019","name":"Butler County","state_id":"PA"},{"zip":"16038","fips":"42121","name":"Venango County","state_id":"PA"},{"zip":"16039","fips":"42019","name":"Butler County","state_id":"PA"},{"zip":"16040","fips":"42019","name":"Butler County","state_id":"PA"},{"zip":"16041","fips":"42019","name":"Butler County","state_id":"PA"},{"zip":"16041","fips":"42005","name":"Armstrong County","state_id":"PA"},{"zip":"16045","fips":"42019","name":"Butler County","state_id":"PA"},{"zip":"16046","fips":"42003","name":"Allegheny County","state_id":"PA"},{"zip":"16046","fips":"42019","name":"Butler County","state_id":"PA"},{"zip":"16048","fips":"42019","name":"Butler County","state_id":"PA"},{"zip":"16049","fips":"42019","name":"Butler County","state_id":"PA"},{"zip":"16049","fips":"42005","name":"Armstrong County","state_id":"PA"},{"zip":"16049","fips":"42031","name":"Clarion County","state_id":"PA"},{"zip":"16050","fips":"42019","name":"Butler County","state_id":"PA"},{"zip":"16051","fips":"42019","name":"Butler County","state_id":"PA"},{"zip":"16051","fips":"42073","name":"Lawrence County","state_id":"PA"},{"zip":"16052","fips":"42019","name":"Butler County","state_id":"PA"},{"zip":"16053","fips":"42019","name":"Butler County","state_id":"PA"},{"zip":"16054","fips":"42031","name":"Clarion County","state_id":"PA"},{"zip":"16055","fips":"42005","name":"Armstrong County","state_id":"PA"},{"zip":"16055","fips":"42003","name":"Allegheny County","state_id":"PA"},{"zip":"16055","fips":"42019","name":"Butler County","state_id":"PA"},{"zip":"16056","fips":"42019","name":"Butler County","state_id":"PA"},{"zip":"16057","fips":"42073","name":"Lawrence County","state_id":"PA"},{"zip":"16057","fips":"42019","name":"Butler County","state_id":"PA"},{"zip":"16057","fips":"42085","name":"Mercer County","state_id":"PA"},{"zip":"16058","fips":"42031","name":"Clarion County","state_id":"PA"},{"zip":"16059","fips":"42003","name":"Allegheny County","state_id":"PA"},{"zip":"16059","fips":"42019","name":"Butler County","state_id":"PA"},{"zip":"16061","fips":"42019","name":"Butler County","state_id":"PA"},{"zip":"16063","fips":"42019","name":"Butler County","state_id":"PA"},{"zip":"16063","fips":"42007","name":"Beaver County","state_id":"PA"},{"zip":"16066","fips":"42019","name":"Butler County","state_id":"PA"}]
