[{"zip":"16101","fips":"42073","name":"Lawrence County","state_id":"PA"},{"zip":"16102","fips":"42073","name":"Lawrence County","state_id":"PA"},{"zip":"16105","fips":"42073","name":"Lawrence County","state_id":"PA"},{"zip":"16108","fips":"42073","name":"Lawrence County","state_id":"PA"},{"zip":"16110","fips":"42085","name":"Mercer County","state_id":"PA"},{"zip":"16110","fips":"42039","name":"Crawford County","state_id":"PA"},{"zip":"16111","fips":"42039","name":"Crawford County","state_id":"PA"},{"zip":"16112","fips":"42073","name":"Lawrence County","state_id":"PA"},{"zip":"16113","fips":"42085","name":"Mercer County","state_id":"PA"},{"zip":"16114","fips":"42085","name":"Mercer County","state_id":"PA"},{"zip":"16115","fips":"42007","name":"Beaver County","state_id":"PA"},{"zip":"16116","fips":"42073","name":"Lawrence County","state_id":"PA"},{"zip":"16117","fips":"42073","name":"Lawrence County","state_id":"PA"},{"zip":"16117","fips":"42007","name":"Beaver County","state_id":"PA"},{"zip":"16120","fips":"42007","name":"Beaver County","state_id":"PA"},{"zip":"16120","fips":"42073","name":"Lawrence County","state_id":"PA"},{"zip":"16121","fips":"42085","name":"Mercer County","state_id":"PA"},{"zip":"16123","fips":"42007","name":"Beaver County","state_id":"PA"},{"zip":"16123","fips":"42073","name":"Lawrence County","state_id":"PA"},{"zip":"16124","fips":"42085","name":"Mercer County","state_id":"PA"},{"zip":"16125","fips":"42039","name":"Crawford County","state_id":"PA"},{"zip":"16125","fips":"42085","name":"Mercer County","state_id":"PA"},{"zip":"16127","fips":"42085","name":"Mercer County","state_id":"PA"},{"zip":"16127","fips":"42121","name":"Venango County","state_id":"PA"},{"zip":"16127","fips":"42073","name":"Lawrence County","state_id":"PA"},{"zip":"16127","fips":"42019","name":"Butler County","state_id":"PA"},{"zip":"16130","fips":"42085","name":"Mercer County","state_id":"PA"},{"zip":"16131","fips":"42039","name":"Crawford County","state_id":"PA"},{"zip":"16132","fips":"42073","name":"Lawrence County","state_id":"PA"},{"zip":"16133","fips":"42085","name":"Mercer County","state_id":"PA"},{"zip":"16134","fips":"42085","name":"Mercer County","state_id":"PA"},{"zip":"16134","fips":"42039","name":"Crawford County","state_id":"PA"},{"zip":"16136","fips":"42007","name":"Beaver County","state_id":"PA"},{"zip":"16137","fips":"42085","name":"Mercer County","state_id":"PA"},{"zip":"16140","fips":"42073","name":"Lawrence County","state_id":"PA"},{"zip":"16141","fips":"42007","name":"Beaver County","state_id":"PA"},{"zip":"16141","fips":"42073","name":"Lawrence County","state_id":"PA"},{"zip":"16142","fips":"42085","name":"Mercer County","state_id":"PA"},{"zip":"16142","fips":"42073","name":"Lawrence County","state_id":"PA"},{"zip":"16143","fips":"42085","name":"Mercer County","state_id":"PA"},{"zip":"16143","fips":"42073","name":"Lawrence County","state_id":"PA"},{"zip":"16145","fips":"42085","name":"Mercer County","state_id":"PA"},{"zip":"16146","fips":"42085","name":"Mercer County","state_id":"PA"},{"zip":"16148","fips":"42085","name":"Mercer County","state_id":"PA"},{"zip":"16150","fips":"42085","name":"Mercer County","state_id":"PA"},{"zip":"16151","fips":"42085","name":"Mercer County","state_id":"PA"},{"zip":"16153","fips":"42121","name":"Venango County","state_id":"PA"},{"zip":"16153","fips":"42085","name":"Mercer County","state_id":"PA"},{"zip":"16154","fips":"42085","name":"Mercer County","state_id":"PA"},{"zip":"16155","fips":"42073","name":"Lawrence County","state_id":"PA"},{"zip":"16156","fips":"42085","name":"Mercer County","state_id":"PA"},{"zip":"16156","fips":"42073","name":"Lawrence County","state_id":"PA"},{"zip":"16157","fips":"42007","name":"Beaver County","state_id":"PA"},{"zip":"16157","fips":"42073","name":"Lawrence County","state_id":"PA"},{"zip":"16159","fips":"42085","name":"Mercer County","state_id":"PA"},{"zip":"16159","fips":"42073","name":"Lawrence County","state_id":"PA"},{"zip":"16160","fips":"42073","name":"Lawrence County","state_id":"PA"},{"zip":"16161","fips":"42085","name":"Mercer County","state_id":"PA"},{"zip":"16172","fips":"42073","name":"Lawrence County","state_id":"PA"}]
