[{"zip":"16201","fips":"42005","name":"Armstrong County","state_id":"PA"},{"zip":"16210","fips":"42005","name":"Armstrong County","state_id":"PA"},{"zip":"16211","fips":"42063","name":"Indiana County","state_id":"PA"},{"zip":"16212","fips":"42005","name":"Armstrong County","state_id":"PA"},{"zip":"16213","fips":"42031","name":"Clarion County","state_id":"PA"},{"zip":"16214","fips":"42031","name":"Clarion County","state_id":"PA"},{"zip":"16217","fips":"42053","name":"Forest County","state_id":"PA"},{"zip":"16217","fips":"42031","name":"Clarion County","state_id":"PA"},{"zip":"16218","fips":"42005","name":"Armstrong County","state_id":"PA"},{"zip":"16220","fips":"42031","name":"Clarion County","state_id":"PA"},{"zip":"16221","fips":"42031","name":"Clarion County","state_id":"PA"},{"zip":"16222","fips":"42063","name":"Indiana County","state_id":"PA"},{"zip":"16222","fips":"42065","name":"Jefferson County","state_id":"PA"},{"zip":"16222","fips":"42005","name":"Armstrong County","state_id":"PA"},{"zip":"16223","fips":"42031","name":"Clarion County","state_id":"PA"},{"zip":"16224","fips":"42031","name":"Clarion County","state_id":"PA"},{"zip":"16224","fips":"42005","name":"Armstrong County","state_id":"PA"},{"zip":"16225","fips":"42031","name":"Clarion County","state_id":"PA"},{"zip":"16226","fips":"42005","name":"Armstrong County","state_id":"PA"},{"zip":"16228","fips":"42005","name":"Armstrong County","state_id":"PA"},{"zip":"16229","fips":"42019","name":"Butler County","state_id":"PA"},{"zip":"16229","fips":"42005","name":"Armstrong County","state_id":"PA"},{"zip":"16229","fips":"42003","name":"Allegheny County","state_id":"PA"},{"zip":"16229","fips":"42129","name":"Westmoreland County","state_id":"PA"},{"zip":"16230","fips":"42031","name":"Clarion County","state_id":"PA"},{"zip":"16232","fips":"42121","name":"Venango County","state_id":"PA"},{"zip":"16232","fips":"42031","name":"Clarion County","state_id":"PA"},{"zip":"16233","fips":"42031","name":"Clarion County","state_id":"PA"},{"zip":"16234","fips":"42031","name":"Clarion County","state_id":"PA"},{"zip":"16235","fips":"42031","name":"Clarion County","state_id":"PA"},{"zip":"16236","fips":"42005","name":"Armstrong County","state_id":"PA"},{"zip":"16238","fips":"42005","name":"Armstrong County","state_id":"PA"},{"zip":"16239","fips":"42053","name":"Forest County","state_id":"PA"},{"zip":"16239","fips":"42031","name":"Clarion County","state_id":"PA"},{"zip":"16240","fips":"42031","name":"Clarion County","state_id":"PA"},{"zip":"16240","fips":"42005","name":"Armstrong County","state_id":"PA"},{"zip":"16240","fips":"42065","name":"Jefferson County","state_id":"PA"},{"zip":"16242","fips":"42031","name":"Clarion County","state_id":"PA"},{"zip":"16242","fips":"42005","name":"Armstrong County","state_id":"PA"},{"zip":"16244","fips":"42005","name":"Armstrong County","state_id":"PA"},{"zip":"16245","fips":"42005","name":"Armstrong County","state_id":"PA"},{"zip":"16246","fips":"42063","name":"Indiana County","state_id":"PA"},{"zip":"16248","fips":"42031","name":"Clarion County","state_id":"PA"},{"zip":"16249","fips":"42005","name":"Armstrong County","state_id":"PA"},{"zip":"16250","fips":"42005","name":"Armstrong County","state_id":"PA"},{"zip":"16253","fips":"42005","name":"Armstrong County","state_id":"PA"},{"zip":"16254","fips":"42031","name":"Clarion County","state_id":"PA"},{"zip":"16255","fips":"42031","name":"Clarion County","state_id":"PA"},{"zip":"16256","fips":"42063","name":"Indiana County","state_id":"PA"},{"zip":"16258","fips":"42031","name":"Clarion County","state_id":"PA"},{"zip":"16258","fips":"42065","name":"Jefferson County","state_id":"PA"},{"zip":"16259","fips":"42005","name":"Armstrong County","state_id":"PA"},{"zip":"16260","fips":"42053","name":"Forest County","state_id":"PA"},{"zip":"16260","fips":"42031","name":"Clarion County","state_id":"PA"},{"zip":"16261","fips":"42005","name":"Armstrong County","state_id":"PA"},{"zip":"16262","fips":"42005","name":"Armstrong County","state_id":"PA"},{"zip":"16263","fips":"42005","name":"Armstrong County","state_id":"PA"}]
