[{"zip":"16301","fips":"42121","name":"Venango County","state_id":"PA"},{"zip":"16311","fips":"42085","name":"Mercer County","state_id":"PA"},{"zip":"16311","fips":"42121","name":"Venango County","state_id":"PA"},{"zip":"16312","fips":"42123","name":"Warren County","state_id":"PA"},{"zip":"16313","fips":"42123","name":"Warren County","state_id":"PA"},{"zip":"16314","fips":"42121","name":"Venango County","state_id":"PA"},{"zip":"16314","fips":"42039","name":"Crawford County","state_id":"PA"},{"zip":"16314","fips":"42085","name":"Mercer County","state_id":"PA"},{"zip":"16316","fips":"42039","name":"Crawford County","state_id":"PA"},{"zip":"16317","fips":"42039","name":"Crawford County","state_id":"PA"},{"zip":"16317","fips":"42121","name":"Venango County","state_id":"PA"},{"zip":"16319","fips":"42031","name":"Clarion County","state_id":"PA"},{"zip":"16319","fips":"42121","name":"Venango County","state_id":"PA"},{"zip":"16321","fips":"42053","name":"Forest County","state_id":"PA"},{"zip":"16322","fips":"42053","name":"Forest County","state_id":"PA"},{"zip":"16323","fips":"42121","name":"Venango County","state_id":"PA"},{"zip":"16326","fips":"42031","name":"Clarion County","state_id":"PA"},{"zip":"16327","fips":"42121","name":"Venango County","state_id":"PA"},{"zip":"16327","fips":"42039","name":"Crawford County","state_id":"PA"},{"zip":"16328","fips":"42039","name":"Crawford County","state_id":"PA"},{"zip":"16329","fips":"42123","name":"Warren County","state_id":"PA"},{"zip":"16331","fips":"42031","name":"Clarion County","state_id":"PA"},{"zip":"16332","fips":"42031","name":"Clarion County","state_id":"PA"},{"zip":"16333","fips":"42083","name":"McKean County","state_id":"PA"},{"zip":"16334","fips":"42031","name":"Clarion County","state_id":"PA"},{"zip":"16335","fips":"42039","name":"Crawford County","state_id":"PA"},{"zip":"16340","fips":"42123","name":"Warren County","state_id":"PA"},{"zip":"16341","fips":"42121","name":"Venango County","state_id":"PA"},{"zip":"16341","fips":"42053","name":"Forest County","state_id":"PA"},{"zip":"16342","fips":"42121","name":"Venango County","state_id":"PA"},{"zip":"16342","fips":"42085","name":"Mercer County","state_id":"PA"},{"zip":"16343","fips":"42121","name":"Venango County","state_id":"PA"},{"zip":"16344","fips":"42121","name":"Venango County","state_id":"PA"},{"zip":"16345","fips":"42123","name":"Warren County","state_id":"PA"},{"zip":"16346","fips":"42121","name":"Venango County","state_id":"PA"},{"zip":"16347","fips":"42053","name":"Forest County","state_id":"PA"},{"zip":"16347","fips":"42123","name":"Warren County","state_id":"PA"},{"zip":"16350","fips":"42123","name":"Warren County","state_id":"PA"},{"zip":"16351","fips":"42053","name":"Forest County","state_id":"PA"},{"zip":"16351","fips":"42123","name":"Warren County","state_id":"PA"},{"zip":"16352","fips":"42123","name":"Warren County","state_id":"PA"},{"zip":"16353","fips":"42053","name":"Forest County","state_id":"PA"},{"zip":"16353","fips":"42121","name":"Venango County","state_id":"PA"},{"zip":"16353","fips":"42031","name":"Clarion County","state_id":"PA"},{"zip":"16354","fips":"42121","name":"Venango County","state_id":"PA"},{"zip":"16354","fips":"42123","name":"Warren County","state_id":"PA"},{"zip":"16354","fips":"42039","name":"Crawford County","state_id":"PA"},{"zip":"16360","fips":"42039","name":"Crawford County","state_id":"PA"},{"zip":"16361","fips":"42031","name":"Clarion County","state_id":"PA"},{"zip":"16362","fips":"42085","name":"Mercer County","state_id":"PA"},{"zip":"16362","fips":"42121","name":"Venango County","state_id":"PA"},{"zip":"16362","fips":"42039","name":"Crawford County","state_id":"PA"},{"zip":"16364","fips":"42121","name":"Venango County","state_id":"PA"},{"zip":"16364","fips":"42031","name":"Clarion County","state_id":"PA"},{"zip":"16364","fips":"42053","name":"Forest County","state_id":"PA"},{"zip":"16365","fips":"42123","name":"Warren County","state_id":"PA"},{"zip":"16366","fips":"42123","name":"Warren County","state_id":"PA"},{"zip":"16367","fips":"42123","name":"Warren County","state_id":"PA"},{"zip":"16368","fips":"42123","name":"Warren County","state_id":"PA"},{"zip":"16369","fips":"42123","name":"Warren County","state_id":"PA"},{"zip":"16370","fips":"42053","name":"Forest County","state_id":"PA"},{"zip":"16371","fips":"42123","name":"Warren County","state_id":"PA"},{"zip":"16372","fips":"42121","name":"Venango County","state_id":"PA"},{"zip":"16373","fips":"42031","name":"Clarion County","state_id":"PA"},{"zip":"16373","fips":"42121","name":"Venango County","state_id":"PA"},{"zip":"16373","fips":"42019","name":"Butler County","state_id":"PA"},{"zip":"16374","fips":"42121","name":"Venango County","state_id":"PA"},{"zip":"16375","fips":"42031","name":"Clarion County","state_id":"PA"},{"zip":"16388","fips":"42039","name":"Crawford County","state_id":"PA"}]
