[{"zip":"16401","fips":"42039","name":"Crawford County","state_id":"PA"},{"zip":"16401","fips":"42049","name":"Erie County","state_id":"PA"},{"zip":"16402","fips":"42123","name":"Warren County","state_id":"PA"},{"zip":"16403","fips":"42039","name":"Crawford County","state_id":"PA"},{"zip":"16403","fips":"42049","name":"Erie County","state_id":"PA"},{"zip":"16404","fips":"42039","name":"Crawford County","state_id":"PA"},{"zip":"16405","fips":"42123","name":"Warren County","state_id":"PA"},{"zip":"16406","fips":"42039","name":"Crawford County","state_id":"PA"},{"zip":"16407","fips":"42123","name":"Warren County","state_id":"PA"},{"zip":"16407","fips":"42039","name":"Crawford County","state_id":"PA"},{"zip":"16407","fips":"42049","name":"Erie County","state_id":"PA"},{"zip":"16410","fips":"42049","name":"Erie County","state_id":"PA"},{"zip":"16411","fips":"42049","name":"Erie County","state_id":"PA"},{"zip":"16412","fips":"42049","name":"Erie County","state_id":"PA"},{"zip":"16412","fips":"42039","name":"Crawford County","state_id":"PA"},{"zip":"16413","fips":"42049","name":"Erie County","state_id":"PA"},{"zip":"16415","fips":"42049","name":"Erie County","state_id":"PA"},{"zip":"16416","fips":"42123","name":"Warren County","state_id":"PA"},{"zip":"16417","fips":"42049","name":"Erie County","state_id":"PA"},{"zip":"16420","fips":"42039","name":"Crawford County","state_id":"PA"},{"zip":"16420","fips":"42123","name":"Warren County","state_id":"PA"},{"zip":"16421","fips":"42049","name":"Erie County","state_id":"PA"},{"zip":"16422","fips":"42039","name":"Crawford County","state_id":"PA"},{"zip":"16423","fips":"42049","name":"Erie County","state_id":"PA"},{"zip":"16424","fips":"42039","name":"Crawford County","state_id":"PA"},{"zip":"16426","fips":"42049","name":"Erie County","state_id":"PA"},{"zip":"16427","fips":"42049","name":"Erie County","state_id":"PA"},{"zip":"16428","fips":"42049","name":"Erie County","state_id":"PA"},{"zip":"16430","fips":"42049","name":"Erie County","state_id":"PA"},{"zip":"16433","fips":"42039","name":"Crawford County","state_id":"PA"},{"zip":"16434","fips":"42049","name":"Erie County","state_id":"PA"},{"zip":"16434","fips":"42123","name":"Warren County","state_id":"PA"},{"zip":"16434","fips":"42039","name":"Crawford County","state_id":"PA"},{"zip":"16435","fips":"42039","name":"Crawford County","state_id":"PA"},{"zip":"16435","fips":"42049","name":"Erie County","state_id":"PA"},{"zip":"16436","fips":"42123","name":"Warren County","state_id":"PA"},{"zip":"16438","fips":"42039","name":"Crawford County","state_id":"PA"},{"zip":"16438","fips":"42049","name":"Erie County","state_id":"PA"},{"zip":"16440","fips":"42039","name":"Crawford County","state_id":"PA"},{"zip":"16441","fips":"42049","name":"Erie County","state_id":"PA"},{"zip":"16441","fips":"42039","name":"Crawford County","state_id":"PA"},{"zip":"16442","fips":"42049","name":"Erie County","state_id":"PA"},{"zip":"16443","fips":"42049","name":"Erie County","state_id":"PA"},{"zip":"16444","fips":"42049","name":"Erie County","state_id":"PA"},{"zip":"16475","fips":"42049","name":"Erie County","state_id":"PA"}]
