[{"zip":"16601","fips":"42021","name":"Cambria County","state_id":"PA"},{"zip":"16601","fips":"42013","name":"Blair County","state_id":"PA"},{"zip":"16602","fips":"42013","name":"Blair County","state_id":"PA"},{"zip":"16603","fips":"42013","name":"Blair County","state_id":"PA"},{"zip":"16611","fips":"42061","name":"Huntingdon County","state_id":"PA"},{"zip":"16611","fips":"42013","name":"Blair County","state_id":"PA"},{"zip":"16613","fips":"42021","name":"Cambria County","state_id":"PA"},{"zip":"16613","fips":"42013","name":"Blair County","state_id":"PA"},{"zip":"16616","fips":"42033","name":"Clearfield County","state_id":"PA"},{"zip":"16617","fips":"42013","name":"Blair County","state_id":"PA"},{"zip":"16619","fips":"42021","name":"Cambria County","state_id":"PA"},{"zip":"16620","fips":"42033","name":"Clearfield County","state_id":"PA"},{"zip":"16621","fips":"42061","name":"Huntingdon County","state_id":"PA"},{"zip":"16622","fips":"42061","name":"Huntingdon County","state_id":"PA"},{"zip":"16623","fips":"42061","name":"Huntingdon County","state_id":"PA"},{"zip":"16624","fips":"42021","name":"Cambria County","state_id":"PA"},{"zip":"16625","fips":"42013","name":"Blair County","state_id":"PA"},{"zip":"16625","fips":"42009","name":"Bedford County","state_id":"PA"},{"zip":"16627","fips":"42033","name":"Clearfield County","state_id":"PA"},{"zip":"16627","fips":"42021","name":"Cambria County","state_id":"PA"},{"zip":"16629","fips":"42013","name":"Blair County","state_id":"PA"},{"zip":"16629","fips":"42021","name":"Cambria County","state_id":"PA"},{"zip":"16630","fips":"42021","name":"Cambria County","state_id":"PA"},{"zip":"16631","fips":"42013","name":"Blair County","state_id":"PA"},{"zip":"16633","fips":"42009","name":"Bedford County","state_id":"PA"},{"zip":"16634","fips":"42061","name":"Huntingdon County","state_id":"PA"},{"zip":"16635","fips":"42013","name":"Blair County","state_id":"PA"},{"zip":"16635","fips":"42021","name":"Cambria County","state_id":"PA"},{"zip":"16636","fips":"42021","name":"Cambria County","state_id":"PA"},{"zip":"16636","fips":"42013","name":"Blair County","state_id":"PA"},{"zip":"16637","fips":"42013","name":"Blair County","state_id":"PA"},{"zip":"16638","fips":"42061","name":"Huntingdon County","state_id":"PA"},{"zip":"16639","fips":"42021","name":"Cambria County","state_id":"PA"},{"zip":"16639","fips":"42033","name":"Clearfield County","state_id":"PA"},{"zip":"16640","fips":"42033","name":"Clearfield County","state_id":"PA"},{"zip":"16640","fips":"42021","name":"Cambria County","state_id":"PA"},{"zip":"16641","fips":"42013","name":"Blair County","state_id":"PA"},{"zip":"16641","fips":"42021","name":"Cambria County","state_id":"PA"},{"zip":"16644","fips":"42021","name":"Cambria County","state_id":"PA"},{"zip":"16645","fips":"42033","name":"Clearfield County","state_id":"PA"},{"zip":"16646","fips":"42033","name":"Clearfield County","state_id":"PA"},{"zip":"16646","fips":"42021","name":"Cambria County","state_id":"PA"},{"zip":"16647","fips":"42061","name":"Huntingdon County","state_id":"PA"},{"zip":"16648","fips":"42013","name":"Blair County","state_id":"PA"},{"zip":"16650","fips":"42009","name":"Bedford County","state_id":"PA"},{"zip":"16651","fips":"42033","name":"Clearfield County","state_id":"PA"},{"zip":"16652","fips":"42061","name":"Huntingdon County","state_id":"PA"},{"zip":"16652","fips":"42027","name":"Centre County","state_id":"PA"},{"zip":"16654","fips":"42061","name":"Huntingdon County","state_id":"PA"},{"zip":"16655","fips":"42013","name":"Blair County","state_id":"PA"},{"zip":"16655","fips":"42009","name":"Bedford County","state_id":"PA"},{"zip":"16656","fips":"42033","name":"Clearfield County","state_id":"PA"},{"zip":"16657","fips":"42009","name":"Bedford County","state_id":"PA"},{"zip":"16657","fips":"42061","name":"Huntingdon County","state_id":"PA"},{"zip":"16659","fips":"42009","name":"Bedford County","state_id":"PA"},{"zip":"16660","fips":"42061","name":"Huntingdon County","state_id":"PA"},{"zip":"16661","fips":"42033","name":"Clearfield County","state_id":"PA"},{"zip":"16662","fips":"42009","name":"Bedford County","state_id":"PA"},{"zip":"16662","fips":"42013","name":"Blair County","state_id":"PA"},{"zip":"16663","fips":"42033","name":"Clearfield County","state_id":"PA"},{"zip":"16664","fips":"42009","name":"Bedford County","state_id":"PA"},{"zip":"16665","fips":"42013","name":"Blair County","state_id":"PA"},{"zip":"16666","fips":"42027","name":"Centre County","state_id":"PA"},{"zip":"16666","fips":"42033","name":"Clearfield County","state_id":"PA"},{"zip":"16667","fips":"42009","name":"Bedford County","state_id":"PA"},{"zip":"16668","fips":"42021","name":"Cambria County","state_id":"PA"},{"zip":"16669","fips":"42061","name":"Huntingdon County","state_id":"PA"},{"zip":"16670","fips":"42009","name":"Bedford County","state_id":"PA"},{"zip":"16671","fips":"42033","name":"Clearfield County","state_id":"PA"},{"zip":"16672","fips":"42009","name":"Bedford County","state_id":"PA"},{"zip":"16673","fips":"42009","name":"Bedford County","state_id":"PA"},{"zip":"16673","fips":"42013","name":"Blair County","state_id":"PA"},{"zip":"16674","fips":"42057","name":"Fulton County","state_id":"PA"},{"zip":"16674","fips":"42061","name":"Huntingdon County","state_id":"PA"},{"zip":"16675","fips":"42021","name":"Cambria County","state_id":"PA"},{"zip":"16677","fips":"42027","name":"Centre County","state_id":"PA"},{"zip":"16678","fips":"42061","name":"Huntingdon County","state_id":"PA"},{"zip":"16678","fips":"42009","name":"Bedford County","state_id":"PA"},{"zip":"16679","fips":"42009","name":"Bedford County","state_id":"PA"},{"zip":"16680","fips":"42033","name":"Clearfield County","state_id":"PA"},{"zip":"16681","fips":"42033","name":"Clearfield County","state_id":"PA"},{"zip":"16682","fips":"42013","name":"Blair County","state_id":"PA"},{"zip":"16683","fips":"42061","name":"Huntingdon County","state_id":"PA"},{"zip":"16684","fips":"42013","name":"Blair County","state_id":"PA"},{"zip":"16685","fips":"42061","name":"Huntingdon County","state_id":"PA"},{"zip":"16686","fips":"42061","name":"Huntingdon County","state_id":"PA"},{"zip":"16686","fips":"42027","name":"Centre County","state_id":"PA"},{"zip":"16686","fips":"42013","name":"Blair County","state_id":"PA"},{"zip":"16689","fips":"42057","name":"Fulton County","state_id":"PA"},{"zip":"16689","fips":"42061","name":"Huntingdon County","state_id":"PA"},{"zip":"16691","fips":"42057","name":"Fulton County","state_id":"PA"},{"zip":"16692","fips":"42033","name":"Clearfield County","state_id":"PA"},{"zip":"16693","fips":"42061","name":"Huntingdon County","state_id":"PA"},{"zip":"16693","fips":"42013","name":"Blair County","state_id":"PA"},{"zip":"16694","fips":"42061","name":"Huntingdon County","state_id":"PA"},{"zip":"16695","fips":"42009","name":"Bedford County","state_id":"PA"}]
