[{"zip":"16701","fips":"42083","name":"McKean County","state_id":"PA"},{"zip":"16720","fips":"42105","name":"Potter County","state_id":"PA"},{"zip":"16720","fips":"42023","name":"Cameron County","state_id":"PA"},{"zip":"16724","fips":"42083","name":"McKean County","state_id":"PA"},{"zip":"16725","fips":"42083","name":"McKean County","state_id":"PA"},{"zip":"16726","fips":"42083","name":"McKean County","state_id":"PA"},{"zip":"16727","fips":"42083","name":"McKean County","state_id":"PA"},{"zip":"16729","fips":"42083","name":"McKean County","state_id":"PA"},{"zip":"16730","fips":"42083","name":"McKean County","state_id":"PA"},{"zip":"16731","fips":"42083","name":"McKean County","state_id":"PA"},{"zip":"16732","fips":"42083","name":"McKean County","state_id":"PA"},{"zip":"16733","fips":"42083","name":"McKean County","state_id":"PA"},{"zip":"16734","fips":"42047","name":"Elk County","state_id":"PA"},{"zip":"16735","fips":"42047","name":"Elk County","state_id":"PA"},{"zip":"16735","fips":"42083","name":"McKean County","state_id":"PA"},{"zip":"16738","fips":"42083","name":"McKean County","state_id":"PA"},{"zip":"16740","fips":"42083","name":"McKean County","state_id":"PA"},{"zip":"16743","fips":"42083","name":"McKean County","state_id":"PA"},{"zip":"16743","fips":"42105","name":"Potter County","state_id":"PA"},{"zip":"16744","fips":"42083","name":"McKean County","state_id":"PA"},{"zip":"16745","fips":"42083","name":"McKean County","state_id":"PA"},{"zip":"16746","fips":"42105","name":"Potter County","state_id":"PA"},{"zip":"16748","fips":"42083","name":"McKean County","state_id":"PA"},{"zip":"16748","fips":"42105","name":"Potter County","state_id":"PA"},{"zip":"16749","fips":"42083","name":"McKean County","state_id":"PA"},{"zip":"16750","fips":"42083","name":"McKean County","state_id":"PA"}]
