[{"zip":"16801","fips":"42027","name":"Centre County","state_id":"PA"},{"zip":"16802","fips":"42027","name":"Centre County","state_id":"PA"},{"zip":"16803","fips":"42027","name":"Centre County","state_id":"PA"},{"zip":"16804","fips":"42027","name":"Centre County","state_id":"PA"},{"zip":"16820","fips":"42027","name":"Centre County","state_id":"PA"},{"zip":"16821","fips":"42033","name":"Clearfield County","state_id":"PA"},{"zip":"16822","fips":"42035","name":"Clinton County","state_id":"PA"},{"zip":"16822","fips":"42027","name":"Centre County","state_id":"PA"},{"zip":"16823","fips":"42027","name":"Centre County","state_id":"PA"},{"zip":"16825","fips":"42033","name":"Clearfield County","state_id":"PA"},{"zip":"16826","fips":"42027","name":"Centre County","state_id":"PA"},{"zip":"16827","fips":"42027","name":"Centre County","state_id":"PA"},{"zip":"16828","fips":"42027","name":"Centre County","state_id":"PA"},{"zip":"16829","fips":"42027","name":"Centre County","state_id":"PA"},{"zip":"16830","fips":"42033","name":"Clearfield County","state_id":"PA"},{"zip":"16832","fips":"42027","name":"Centre County","state_id":"PA"},{"zip":"16833","fips":"42033","name":"Clearfield County","state_id":"PA"},{"zip":"16834","fips":"42033","name":"Clearfield County","state_id":"PA"},{"zip":"16835","fips":"42027","name":"Centre County","state_id":"PA"},{"zip":"16836","fips":"42033","name":"Clearfield County","state_id":"PA"},{"zip":"16837","fips":"42033","name":"Clearfield County","state_id":"PA"},{"zip":"16838","fips":"42033","name":"Clearfield County","state_id":"PA"},{"zip":"16839","fips":"42033","name":"Clearfield County","state_id":"PA"},{"zip":"16840","fips":"42033","name":"Clearfield County","state_id":"PA"},{"zip":"16841","fips":"42027","name":"Centre County","state_id":"PA"},{"zip":"16841","fips":"42035","name":"Clinton County","state_id":"PA"},{"zip":"16843","fips":"42033","name":"Clearfield County","state_id":"PA"},{"zip":"16844","fips":"42027","name":"Centre County","state_id":"PA"},{"zip":"16845","fips":"42033","name":"Clearfield County","state_id":"PA"},{"zip":"16845","fips":"42027","name":"Centre County","state_id":"PA"},{"zip":"16845","fips":"42035","name":"Clinton County","state_id":"PA"},{"zip":"16847","fips":"42033","name":"Clearfield County","state_id":"PA"},{"zip":"16848","fips":"42035","name":"Clinton County","state_id":"PA"},{"zip":"16849","fips":"42033","name":"Clearfield County","state_id":"PA"},{"zip":"16850","fips":"42033","name":"Clearfield County","state_id":"PA"},{"zip":"16851","fips":"42027","name":"Centre County","state_id":"PA"},{"zip":"16852","fips":"42027","name":"Centre County","state_id":"PA"},{"zip":"16853","fips":"42027","name":"Centre County","state_id":"PA"},{"zip":"16854","fips":"42027","name":"Centre County","state_id":"PA"},{"zip":"16855","fips":"42033","name":"Clearfield County","state_id":"PA"},{"zip":"16856","fips":"42027","name":"Centre County","state_id":"PA"},{"zip":"16858","fips":"42033","name":"Clearfield County","state_id":"PA"},{"zip":"16859","fips":"42027","name":"Centre County","state_id":"PA"},{"zip":"16860","fips":"42027","name":"Centre County","state_id":"PA"},{"zip":"16860","fips":"42033","name":"Clearfield County","state_id":"PA"},{"zip":"16861","fips":"42033","name":"Clearfield County","state_id":"PA"},{"zip":"16863","fips":"42033","name":"Clearfield County","state_id":"PA"},{"zip":"16864","fips":"42027","name":"Centre County","state_id":"PA"},{"zip":"16865","fips":"42027","name":"Centre County","state_id":"PA"},{"zip":"16865","fips":"42061","name":"Huntingdon County","state_id":"PA"},{"zip":"16866","fips":"42033","name":"Clearfield County","state_id":"PA"},{"zip":"16866","fips":"42027","name":"Centre County","state_id":"PA"},{"zip":"16868","fips":"42027","name":"Centre County","state_id":"PA"},{"zip":"16870","fips":"42013","name":"Blair County","state_id":"PA"},{"zip":"16870","fips":"42027","name":"Centre County","state_id":"PA"},{"zip":"16871","fips":"42035","name":"Clinton County","state_id":"PA"},{"zip":"16871","fips":"42033","name":"Clearfield County","state_id":"PA"},{"zip":"16872","fips":"42027","name":"Centre County","state_id":"PA"},{"zip":"16873","fips":"42033","name":"Clearfield County","state_id":"PA"},{"zip":"16874","fips":"42027","name":"Centre County","state_id":"PA"},{"zip":"16875","fips":"42027","name":"Centre County","state_id":"PA"},{"zip":"16876","fips":"42033","name":"Clearfield County","state_id":"PA"},{"zip":"16877","fips":"42061","name":"Huntingdon County","state_id":"PA"},{"zip":"16877","fips":"42027","name":"Centre County","state_id":"PA"},{"zip":"16878","fips":"42033","name":"Clearfield County","state_id":"PA"},{"zip":"16879","fips":"42033","name":"Clearfield County","state_id":"PA"},{"zip":"16881","fips":"42033","name":"Clearfield County","state_id":"PA"},{"zip":"16882","fips":"42027","name":"Centre County","state_id":"PA"}]
