[{"zip":"16901","fips":"42117","name":"Tioga County","state_id":"PA"},{"zip":"16910","fips":"42015","name":"Bradford County","state_id":"PA"},{"zip":"16911","fips":"42117","name":"Tioga County","state_id":"PA"},{"zip":"16912","fips":"42117","name":"Tioga County","state_id":"PA"},{"zip":"16914","fips":"42117","name":"Tioga County","state_id":"PA"},{"zip":"16914","fips":"42015","name":"Bradford County","state_id":"PA"},{"zip":"16915","fips":"42105","name":"Potter County","state_id":"PA"},{"zip":"16917","fips":"42117","name":"Tioga County","state_id":"PA"},{"zip":"16920","fips":"42117","name":"Tioga County","state_id":"PA"},{"zip":"16921","fips":"42105","name":"Potter County","state_id":"PA"},{"zip":"16921","fips":"42117","name":"Tioga County","state_id":"PA"},{"zip":"16922","fips":"42117","name":"Tioga County","state_id":"PA"},{"zip":"16922","fips":"42105","name":"Potter County","state_id":"PA"},{"zip":"16923","fips":"42105","name":"Potter County","state_id":"PA"},{"zip":"16925","fips":"42015","name":"Bradford County","state_id":"PA"},{"zip":"16926","fips":"42015","name":"Bradford County","state_id":"PA"},{"zip":"16927","fips":"42105","name":"Potter County","state_id":"PA"},{"zip":"16927","fips":"42117","name":"Tioga County","state_id":"PA"},{"zip":"16928","fips":"42117","name":"Tioga County","state_id":"PA"},{"zip":"16929","fips":"42117","name":"Tioga County","state_id":"PA"},{"zip":"16930","fips":"42081","name":"Lycoming County","state_id":"PA"},{"zip":"16930","fips":"42117","name":"Tioga County","state_id":"PA"},{"zip":"16932","fips":"42117","name":"Tioga County","state_id":"PA"},{"zip":"16933","fips":"42117","name":"Tioga County","state_id":"PA"},{"zip":"16935","fips":"42117","name":"Tioga County","state_id":"PA"},{"zip":"16936","fips":"42015","name":"Bradford County","state_id":"PA"},{"zip":"16936","fips":"42117","name":"Tioga County","state_id":"PA"},{"zip":"16937","fips":"42105","name":"Potter County","state_id":"PA"},{"zip":"16938","fips":"42081","name":"Lycoming County","state_id":"PA"},{"zip":"16938","fips":"42117","name":"Tioga County","state_id":"PA"},{"zip":"16939","fips":"42117","name":"Tioga County","state_id":"PA"},{"zip":"16940","fips":"42117","name":"Tioga County","state_id":"PA"},{"zip":"16941","fips":"42105","name":"Potter County","state_id":"PA"},{"zip":"16942","fips":"42117","name":"Tioga County","state_id":"PA"},{"zip":"16943","fips":"42105","name":"Potter County","state_id":"PA"},{"zip":"16943","fips":"42117","name":"Tioga County","state_id":"PA"},{"zip":"16945","fips":"42015","name":"Bradford County","state_id":"PA"},{"zip":"16946","fips":"42117","name":"Tioga County","state_id":"PA"},{"zip":"16947","fips":"42117","name":"Tioga County","state_id":"PA"},{"zip":"16947","fips":"42015","name":"Bradford County","state_id":"PA"},{"zip":"16948","fips":"42105","name":"Potter County","state_id":"PA"},{"zip":"16950","fips":"42117","name":"Tioga County","state_id":"PA"},{"zip":"16950","fips":"42105","name":"Potter County","state_id":"PA"}]
