[{"zip":"17001","fips":"42041","name":"Cumberland County","state_id":"PA"},{"zip":"17002","fips":"42061","name":"Huntingdon County","state_id":"PA"},{"zip":"17002","fips":"42087","name":"Mifflin County","state_id":"PA"},{"zip":"17003","fips":"42075","name":"Lebanon County","state_id":"PA"},{"zip":"17004","fips":"42087","name":"Mifflin County","state_id":"PA"},{"zip":"17005","fips":"42043","name":"Dauphin County","state_id":"PA"},{"zip":"17006","fips":"42099","name":"Perry County","state_id":"PA"},{"zip":"17007","fips":"42041","name":"Cumberland County","state_id":"PA"},{"zip":"17009","fips":"42087","name":"Mifflin County","state_id":"PA"},{"zip":"17010","fips":"42075","name":"Lebanon County","state_id":"PA"},{"zip":"17011","fips":"42041","name":"Cumberland County","state_id":"PA"},{"zip":"17011","fips":"42133","name":"York County","state_id":"PA"},{"zip":"17013","fips":"42041","name":"Cumberland County","state_id":"PA"},{"zip":"17014","fips":"42067","name":"Juniata County","state_id":"PA"},{"zip":"17015","fips":"42041","name":"Cumberland County","state_id":"PA"},{"zip":"17016","fips":"42075","name":"Lebanon County","state_id":"PA"},{"zip":"17017","fips":"42043","name":"Dauphin County","state_id":"PA"},{"zip":"17017","fips":"42097","name":"Northumberland County","state_id":"PA"},{"zip":"17018","fips":"42043","name":"Dauphin County","state_id":"PA"},{"zip":"17019","fips":"42133","name":"York County","state_id":"PA"},{"zip":"17019","fips":"42001","name":"Adams County","state_id":"PA"},{"zip":"17019","fips":"42041","name":"Cumberland County","state_id":"PA"},{"zip":"17020","fips":"42043","name":"Dauphin County","state_id":"PA"},{"zip":"17020","fips":"42099","name":"Perry County","state_id":"PA"},{"zip":"17021","fips":"42055","name":"Franklin County","state_id":"PA"},{"zip":"17021","fips":"42061","name":"Huntingdon County","state_id":"PA"},{"zip":"17021","fips":"42067","name":"Juniata County","state_id":"PA"},{"zip":"17021","fips":"42099","name":"Perry County","state_id":"PA"},{"zip":"17022","fips":"42071","name":"Lancaster County","state_id":"PA"},{"zip":"17022","fips":"42043","name":"Dauphin County","state_id":"PA"},{"zip":"17023","fips":"42043","name":"Dauphin County","state_id":"PA"},{"zip":"17024","fips":"42099","name":"Perry County","state_id":"PA"},{"zip":"17025","fips":"42041","name":"Cumberland County","state_id":"PA"},{"zip":"17026","fips":"42075","name":"Lebanon County","state_id":"PA"},{"zip":"17026","fips":"42011","name":"Berks County","state_id":"PA"},{"zip":"17027","fips":"42041","name":"Cumberland County","state_id":"PA"},{"zip":"17028","fips":"42043","name":"Dauphin County","state_id":"PA"},{"zip":"17028","fips":"42075","name":"Lebanon County","state_id":"PA"},{"zip":"17029","fips":"42087","name":"Mifflin County","state_id":"PA"},{"zip":"17030","fips":"42043","name":"Dauphin County","state_id":"PA"},{"zip":"17032","fips":"42043","name":"Dauphin County","state_id":"PA"},{"zip":"17033","fips":"42043","name":"Dauphin County","state_id":"PA"},{"zip":"17033","fips":"42071","name":"Lancaster County","state_id":"PA"},{"zip":"17033","fips":"42075","name":"Lebanon County","state_id":"PA"},{"zip":"17034","fips":"42043","name":"Dauphin County","state_id":"PA"},{"zip":"17035","fips":"42067","name":"Juniata County","state_id":"PA"},{"zip":"17035","fips":"42099","name":"Perry County","state_id":"PA"},{"zip":"17036","fips":"42043","name":"Dauphin County","state_id":"PA"},{"zip":"17037","fips":"42099","name":"Perry County","state_id":"PA"},{"zip":"17038","fips":"42075","name":"Lebanon County","state_id":"PA"},{"zip":"17039","fips":"42075","name":"Lebanon County","state_id":"PA"},{"zip":"17040","fips":"42099","name":"Perry County","state_id":"PA"},{"zip":"17041","fips":"42075","name":"Lebanon County","state_id":"PA"},{"zip":"17042","fips":"42071","name":"Lancaster County","state_id":"PA"},{"zip":"17042","fips":"42075","name":"Lebanon County","state_id":"PA"},{"zip":"17043","fips":"42041","name":"Cumberland County","state_id":"PA"},{"zip":"17044","fips":"42087","name":"Mifflin County","state_id":"PA"},{"zip":"17045","fips":"42109","name":"Snyder County","state_id":"PA"},{"zip":"17045","fips":"42099","name":"Perry County","state_id":"PA"},{"zip":"17045","fips":"42067","name":"Juniata County","state_id":"PA"},{"zip":"17046","fips":"42075","name":"Lebanon County","state_id":"PA"},{"zip":"17047","fips":"42099","name":"Perry County","state_id":"PA"},{"zip":"17048","fips":"42043","name":"Dauphin County","state_id":"PA"},{"zip":"17049","fips":"42067","name":"Juniata County","state_id":"PA"},{"zip":"17050","fips":"42041","name":"Cumberland County","state_id":"PA"},{"zip":"17051","fips":"42087","name":"Mifflin County","state_id":"PA"},{"zip":"17051","fips":"42061","name":"Huntingdon County","state_id":"PA"},{"zip":"17052","fips":"42061","name":"Huntingdon County","state_id":"PA"},{"zip":"17053","fips":"42041","name":"Cumberland County","state_id":"PA"},{"zip":"17053","fips":"42099","name":"Perry County","state_id":"PA"},{"zip":"17054","fips":"42087","name":"Mifflin County","state_id":"PA"},{"zip":"17055","fips":"42041","name":"Cumberland County","state_id":"PA"},{"zip":"17055","fips":"42133","name":"York County","state_id":"PA"},{"zip":"17056","fips":"42067","name":"Juniata County","state_id":"PA"},{"zip":"17057","fips":"42043","name":"Dauphin County","state_id":"PA"},{"zip":"17058","fips":"42067","name":"Juniata County","state_id":"PA"},{"zip":"17059","fips":"42067","name":"Juniata County","state_id":"PA"},{"zip":"17059","fips":"42087","name":"Mifflin County","state_id":"PA"},{"zip":"17060","fips":"42061","name":"Huntingdon County","state_id":"PA"},{"zip":"17060","fips":"42087","name":"Mifflin County","state_id":"PA"},{"zip":"17061","fips":"42043","name":"Dauphin County","state_id":"PA"},{"zip":"17062","fips":"42067","name":"Juniata County","state_id":"PA"},{"zip":"17062","fips":"42099","name":"Perry County","state_id":"PA"},{"zip":"17063","fips":"42087","name":"Mifflin County","state_id":"PA"},{"zip":"17063","fips":"42109","name":"Snyder County","state_id":"PA"},{"zip":"17064","fips":"42075","name":"Lebanon County","state_id":"PA"},{"zip":"17065","fips":"42041","name":"Cumberland County","state_id":"PA"},{"zip":"17066","fips":"42061","name":"Huntingdon County","state_id":"PA"},{"zip":"17066","fips":"42087","name":"Mifflin County","state_id":"PA"},{"zip":"17067","fips":"42075","name":"Lebanon County","state_id":"PA"},{"zip":"17067","fips":"42011","name":"Berks County","state_id":"PA"},{"zip":"17068","fips":"42099","name":"Perry County","state_id":"PA"},{"zip":"17069","fips":"42099","name":"Perry County","state_id":"PA"},{"zip":"17070","fips":"42133","name":"York County","state_id":"PA"},{"zip":"17070","fips":"42041","name":"Cumberland County","state_id":"PA"},{"zip":"17071","fips":"42099","name":"Perry County","state_id":"PA"},{"zip":"17072","fips":"42041","name":"Cumberland County","state_id":"PA"},{"zip":"17073","fips":"42011","name":"Berks County","state_id":"PA"},{"zip":"17073","fips":"42075","name":"Lebanon County","state_id":"PA"},{"zip":"17073","fips":"42071","name":"Lancaster County","state_id":"PA"},{"zip":"17074","fips":"42099","name":"Perry County","state_id":"PA"},{"zip":"17075","fips":"42087","name":"Mifflin County","state_id":"PA"},{"zip":"17076","fips":"42067","name":"Juniata County","state_id":"PA"},{"zip":"17077","fips":"42075","name":"Lebanon County","state_id":"PA"},{"zip":"17078","fips":"42043","name":"Dauphin County","state_id":"PA"},{"zip":"17078","fips":"42075","name":"Lebanon County","state_id":"PA"},{"zip":"17080","fips":"42043","name":"Dauphin County","state_id":"PA"},{"zip":"17081","fips":"42041","name":"Cumberland County","state_id":"PA"},{"zip":"17082","fips":"42067","name":"Juniata County","state_id":"PA"},{"zip":"17083","fips":"42075","name":"Lebanon County","state_id":"PA"},{"zip":"17084","fips":"42087","name":"Mifflin County","state_id":"PA"},{"zip":"17085","fips":"42075","name":"Lebanon County","state_id":"PA"},{"zip":"17086","fips":"42067","name":"Juniata County","state_id":"PA"},{"zip":"17086","fips":"42109","name":"Snyder County","state_id":"PA"},{"zip":"17087","fips":"42011","name":"Berks County","state_id":"PA"},{"zip":"17087","fips":"42075","name":"Lebanon County","state_id":"PA"},{"zip":"17088","fips":"42075","name":"Lebanon County","state_id":"PA"},{"zip":"17089","fips":"42041","name":"Cumberland County","state_id":"PA"},{"zip":"17090","fips":"42099","name":"Perry County","state_id":"PA"},{"zip":"17090","fips":"42041","name":"Cumberland County","state_id":"PA"},{"zip":"17093","fips":"42041","name":"Cumberland County","state_id":"PA"},{"zip":"17094","fips":"42067","name":"Juniata County","state_id":"PA"},{"zip":"17097","fips":"42043","name":"Dauphin County","state_id":"PA"},{"zip":"17098","fips":"42043","name":"Dauphin County","state_id":"PA"},{"zip":"17099","fips":"42087","name":"Mifflin County","state_id":"PA"}]
