[{"zip":"17201","fips":"42055","name":"Franklin County","state_id":"PA"},{"zip":"17202","fips":"42055","name":"Franklin County","state_id":"PA"},{"zip":"17210","fips":"42055","name":"Franklin County","state_id":"PA"},{"zip":"17211","fips":"42009","name":"Bedford County","state_id":"PA"},{"zip":"17211","fips":"42057","name":"Fulton County","state_id":"PA"},{"zip":"17212","fips":"42057","name":"Fulton County","state_id":"PA"},{"zip":"17213","fips":"42061","name":"Huntingdon County","state_id":"PA"},{"zip":"17214","fips":"42055","name":"Franklin County","state_id":"PA"},{"zip":"17215","fips":"42061","name":"Huntingdon County","state_id":"PA"},{"zip":"17215","fips":"42057","name":"Fulton County","state_id":"PA"},{"zip":"17217","fips":"42055","name":"Franklin County","state_id":"PA"},{"zip":"17219","fips":"42055","name":"Franklin County","state_id":"PA"},{"zip":"17220","fips":"42055","name":"Franklin County","state_id":"PA"},{"zip":"17221","fips":"42055","name":"Franklin County","state_id":"PA"},{"zip":"17222","fips":"42055","name":"Franklin County","state_id":"PA"},{"zip":"17222","fips":"42001","name":"Adams County","state_id":"PA"},{"zip":"17223","fips":"42057","name":"Fulton County","state_id":"PA"},{"zip":"17224","fips":"42057","name":"Fulton County","state_id":"PA"},{"zip":"17224","fips":"42055","name":"Franklin County","state_id":"PA"},{"zip":"17225","fips":"42055","name":"Franklin County","state_id":"PA"},{"zip":"17228","fips":"42057","name":"Fulton County","state_id":"PA"},{"zip":"17229","fips":"42057","name":"Fulton County","state_id":"PA"},{"zip":"17229","fips":"42061","name":"Huntingdon County","state_id":"PA"},{"zip":"17231","fips":"42055","name":"Franklin County","state_id":"PA"},{"zip":"17232","fips":"42055","name":"Franklin County","state_id":"PA"},{"zip":"17233","fips":"42057","name":"Fulton County","state_id":"PA"},{"zip":"17233","fips":"42055","name":"Franklin County","state_id":"PA"},{"zip":"17235","fips":"42055","name":"Franklin County","state_id":"PA"},{"zip":"17236","fips":"42055","name":"Franklin County","state_id":"PA"},{"zip":"17236","fips":"42057","name":"Fulton County","state_id":"PA"},{"zip":"17237","fips":"42055","name":"Franklin County","state_id":"PA"},{"zip":"17238","fips":"42057","name":"Fulton County","state_id":"PA"},{"zip":"17239","fips":"42061","name":"Huntingdon County","state_id":"PA"},{"zip":"17240","fips":"42041","name":"Cumberland County","state_id":"PA"},{"zip":"17240","fips":"42055","name":"Franklin County","state_id":"PA"},{"zip":"17241","fips":"42041","name":"Cumberland County","state_id":"PA"},{"zip":"17243","fips":"42061","name":"Huntingdon County","state_id":"PA"},{"zip":"17243","fips":"42067","name":"Juniata County","state_id":"PA"},{"zip":"17244","fips":"42055","name":"Franklin County","state_id":"PA"},{"zip":"17246","fips":"42055","name":"Franklin County","state_id":"PA"},{"zip":"17247","fips":"42055","name":"Franklin County","state_id":"PA"},{"zip":"17249","fips":"42061","name":"Huntingdon County","state_id":"PA"},{"zip":"17250","fips":"42055","name":"Franklin County","state_id":"PA"},{"zip":"17251","fips":"42055","name":"Franklin County","state_id":"PA"},{"zip":"17252","fips":"42055","name":"Franklin County","state_id":"PA"},{"zip":"17253","fips":"42061","name":"Huntingdon County","state_id":"PA"},{"zip":"17254","fips":"42055","name":"Franklin County","state_id":"PA"},{"zip":"17255","fips":"42057","name":"Fulton County","state_id":"PA"},{"zip":"17255","fips":"42061","name":"Huntingdon County","state_id":"PA"},{"zip":"17256","fips":"42055","name":"Franklin County","state_id":"PA"},{"zip":"17257","fips":"42055","name":"Franklin County","state_id":"PA"},{"zip":"17257","fips":"42041","name":"Cumberland County","state_id":"PA"},{"zip":"17260","fips":"42061","name":"Huntingdon County","state_id":"PA"},{"zip":"17261","fips":"42055","name":"Franklin County","state_id":"PA"},{"zip":"17262","fips":"42055","name":"Franklin County","state_id":"PA"},{"zip":"17263","fips":"42055","name":"Franklin County","state_id":"PA"},{"zip":"17264","fips":"42061","name":"Huntingdon County","state_id":"PA"},{"zip":"17264","fips":"42057","name":"Fulton County","state_id":"PA"},{"zip":"17265","fips":"42055","name":"Franklin County","state_id":"PA"},{"zip":"17266","fips":"42041","name":"Cumberland County","state_id":"PA"},{"zip":"17267","fips":"42057","name":"Fulton County","state_id":"PA"},{"zip":"17268","fips":"42055","name":"Franklin County","state_id":"PA"},{"zip":"17271","fips":"42055","name":"Franklin County","state_id":"PA"},{"zip":"17272","fips":"42055","name":"Franklin County","state_id":"PA"}]
