[{"zip":"17501","fips":"42071","name":"Lancaster County","state_id":"PA"},{"zip":"17502","fips":"42071","name":"Lancaster County","state_id":"PA"},{"zip":"17503","fips":"42071","name":"Lancaster County","state_id":"PA"},{"zip":"17504","fips":"42071","name":"Lancaster County","state_id":"PA"},{"zip":"17505","fips":"42071","name":"Lancaster County","state_id":"PA"},{"zip":"17506","fips":"42071","name":"Lancaster County","state_id":"PA"},{"zip":"17507","fips":"42071","name":"Lancaster County","state_id":"PA"},{"zip":"17508","fips":"42071","name":"Lancaster County","state_id":"PA"},{"zip":"17509","fips":"42071","name":"Lancaster County","state_id":"PA"},{"zip":"17512","fips":"42071","name":"Lancaster County","state_id":"PA"},{"zip":"17516","fips":"42071","name":"Lancaster County","state_id":"PA"},{"zip":"17517","fips":"42071","name":"Lancaster County","state_id":"PA"},{"zip":"17518","fips":"42071","name":"Lancaster County","state_id":"PA"},{"zip":"17519","fips":"42071","name":"Lancaster County","state_id":"PA"},{"zip":"17520","fips":"42071","name":"Lancaster County","state_id":"PA"},{"zip":"17521","fips":"42071","name":"Lancaster County","state_id":"PA"},{"zip":"17522","fips":"42071","name":"Lancaster County","state_id":"PA"},{"zip":"17527","fips":"42071","name":"Lancaster County","state_id":"PA"},{"zip":"17527","fips":"42029","name":"Chester County","state_id":"PA"},{"zip":"17528","fips":"42071","name":"Lancaster County","state_id":"PA"},{"zip":"17529","fips":"42071","name":"Lancaster County","state_id":"PA"},{"zip":"17532","fips":"42071","name":"Lancaster County","state_id":"PA"},{"zip":"17533","fips":"42071","name":"Lancaster County","state_id":"PA"},{"zip":"17534","fips":"42071","name":"Lancaster County","state_id":"PA"},{"zip":"17535","fips":"42071","name":"Lancaster County","state_id":"PA"},{"zip":"17536","fips":"42029","name":"Chester County","state_id":"PA"},{"zip":"17536","fips":"42071","name":"Lancaster County","state_id":"PA"},{"zip":"17537","fips":"42071","name":"Lancaster County","state_id":"PA"},{"zip":"17538","fips":"42071","name":"Lancaster County","state_id":"PA"},{"zip":"17540","fips":"42071","name":"Lancaster County","state_id":"PA"},{"zip":"17543","fips":"42071","name":"Lancaster County","state_id":"PA"},{"zip":"17545","fips":"42071","name":"Lancaster County","state_id":"PA"},{"zip":"17545","fips":"42075","name":"Lebanon County","state_id":"PA"},{"zip":"17547","fips":"42071","name":"Lancaster County","state_id":"PA"},{"zip":"17550","fips":"42071","name":"Lancaster County","state_id":"PA"},{"zip":"17551","fips":"42071","name":"Lancaster County","state_id":"PA"},{"zip":"17552","fips":"42071","name":"Lancaster County","state_id":"PA"},{"zip":"17554","fips":"42071","name":"Lancaster County","state_id":"PA"},{"zip":"17555","fips":"42011","name":"Berks County","state_id":"PA"},{"zip":"17555","fips":"42071","name":"Lancaster County","state_id":"PA"},{"zip":"17555","fips":"42029","name":"Chester County","state_id":"PA"},{"zip":"17557","fips":"42071","name":"Lancaster County","state_id":"PA"},{"zip":"17560","fips":"42071","name":"Lancaster County","state_id":"PA"},{"zip":"17562","fips":"42071","name":"Lancaster County","state_id":"PA"},{"zip":"17563","fips":"42071","name":"Lancaster County","state_id":"PA"},{"zip":"17564","fips":"42071","name":"Lancaster County","state_id":"PA"},{"zip":"17565","fips":"42071","name":"Lancaster County","state_id":"PA"},{"zip":"17566","fips":"42071","name":"Lancaster County","state_id":"PA"},{"zip":"17567","fips":"42071","name":"Lancaster County","state_id":"PA"},{"zip":"17568","fips":"42071","name":"Lancaster County","state_id":"PA"},{"zip":"17569","fips":"42011","name":"Berks County","state_id":"PA"},{"zip":"17569","fips":"42071","name":"Lancaster County","state_id":"PA"},{"zip":"17570","fips":"42071","name":"Lancaster County","state_id":"PA"},{"zip":"17572","fips":"42071","name":"Lancaster County","state_id":"PA"},{"zip":"17575","fips":"42071","name":"Lancaster County","state_id":"PA"},{"zip":"17576","fips":"42071","name":"Lancaster County","state_id":"PA"},{"zip":"17578","fips":"42071","name":"Lancaster County","state_id":"PA"},{"zip":"17579","fips":"42071","name":"Lancaster County","state_id":"PA"},{"zip":"17580","fips":"42071","name":"Lancaster County","state_id":"PA"},{"zip":"17581","fips":"42071","name":"Lancaster County","state_id":"PA"},{"zip":"17582","fips":"42071","name":"Lancaster County","state_id":"PA"},{"zip":"17584","fips":"42071","name":"Lancaster County","state_id":"PA"},{"zip":"17585","fips":"42071","name":"Lancaster County","state_id":"PA"}]
