[{"zip":"17701","fips":"42113","name":"Sullivan County","state_id":"PA"},{"zip":"17701","fips":"42081","name":"Lycoming County","state_id":"PA"},{"zip":"17702","fips":"42081","name":"Lycoming County","state_id":"PA"},{"zip":"17703","fips":"42081","name":"Lycoming County","state_id":"PA"},{"zip":"17705","fips":"42081","name":"Lycoming County","state_id":"PA"},{"zip":"17720","fips":"42081","name":"Lycoming County","state_id":"PA"},{"zip":"17721","fips":"42081","name":"Lycoming County","state_id":"PA"},{"zip":"17721","fips":"42035","name":"Clinton County","state_id":"PA"},{"zip":"17723","fips":"42081","name":"Lycoming County","state_id":"PA"},{"zip":"17724","fips":"42081","name":"Lycoming County","state_id":"PA"},{"zip":"17724","fips":"42117","name":"Tioga County","state_id":"PA"},{"zip":"17724","fips":"42015","name":"Bradford County","state_id":"PA"},{"zip":"17726","fips":"42035","name":"Clinton County","state_id":"PA"},{"zip":"17727","fips":"42081","name":"Lycoming County","state_id":"PA"},{"zip":"17727","fips":"42117","name":"Tioga County","state_id":"PA"},{"zip":"17728","fips":"42081","name":"Lycoming County","state_id":"PA"},{"zip":"17729","fips":"42035","name":"Clinton County","state_id":"PA"},{"zip":"17729","fips":"42105","name":"Potter County","state_id":"PA"},{"zip":"17730","fips":"42097","name":"Northumberland County","state_id":"PA"},{"zip":"17731","fips":"42113","name":"Sullivan County","state_id":"PA"},{"zip":"17735","fips":"42015","name":"Bradford County","state_id":"PA"},{"zip":"17737","fips":"42081","name":"Lycoming County","state_id":"PA"},{"zip":"17739","fips":"42081","name":"Lycoming County","state_id":"PA"},{"zip":"17740","fips":"42035","name":"Clinton County","state_id":"PA"},{"zip":"17740","fips":"42081","name":"Lycoming County","state_id":"PA"},{"zip":"17742","fips":"42081","name":"Lycoming County","state_id":"PA"},{"zip":"17744","fips":"42081","name":"Lycoming County","state_id":"PA"},{"zip":"17745","fips":"42081","name":"Lycoming County","state_id":"PA"},{"zip":"17745","fips":"42035","name":"Clinton County","state_id":"PA"},{"zip":"17747","fips":"42081","name":"Lycoming County","state_id":"PA"},{"zip":"17747","fips":"42035","name":"Clinton County","state_id":"PA"},{"zip":"17748","fips":"42035","name":"Clinton County","state_id":"PA"},{"zip":"17749","fips":"42097","name":"Northumberland County","state_id":"PA"},{"zip":"17750","fips":"42035","name":"Clinton County","state_id":"PA"},{"zip":"17751","fips":"42035","name":"Clinton County","state_id":"PA"},{"zip":"17752","fips":"42081","name":"Lycoming County","state_id":"PA"},{"zip":"17754","fips":"42081","name":"Lycoming County","state_id":"PA"},{"zip":"17756","fips":"42093","name":"Montour County","state_id":"PA"},{"zip":"17756","fips":"42037","name":"Columbia County","state_id":"PA"},{"zip":"17756","fips":"42081","name":"Lycoming County","state_id":"PA"},{"zip":"17756","fips":"42097","name":"Northumberland County","state_id":"PA"},{"zip":"17758","fips":"42081","name":"Lycoming County","state_id":"PA"},{"zip":"17758","fips":"42113","name":"Sullivan County","state_id":"PA"},{"zip":"17760","fips":"42035","name":"Clinton County","state_id":"PA"},{"zip":"17762","fips":"42081","name":"Lycoming County","state_id":"PA"},{"zip":"17763","fips":"42081","name":"Lycoming County","state_id":"PA"},{"zip":"17764","fips":"42035","name":"Clinton County","state_id":"PA"},{"zip":"17765","fips":"42117","name":"Tioga County","state_id":"PA"},{"zip":"17765","fips":"42081","name":"Lycoming County","state_id":"PA"},{"zip":"17765","fips":"42015","name":"Bradford County","state_id":"PA"},{"zip":"17768","fips":"42113","name":"Sullivan County","state_id":"PA"},{"zip":"17769","fips":"42081","name":"Lycoming County","state_id":"PA"},{"zip":"17771","fips":"42081","name":"Lycoming County","state_id":"PA"},{"zip":"17772","fips":"42097","name":"Northumberland County","state_id":"PA"},{"zip":"17772","fips":"42081","name":"Lycoming County","state_id":"PA"},{"zip":"17772","fips":"42093","name":"Montour County","state_id":"PA"},{"zip":"17774","fips":"42081","name":"Lycoming County","state_id":"PA"},{"zip":"17774","fips":"42037","name":"Columbia County","state_id":"PA"},{"zip":"17776","fips":"42081","name":"Lycoming County","state_id":"PA"},{"zip":"17777","fips":"42097","name":"Northumberland County","state_id":"PA"},{"zip":"17777","fips":"42093","name":"Montour County","state_id":"PA"},{"zip":"17778","fips":"42035","name":"Clinton County","state_id":"PA"},{"zip":"17779","fips":"42035","name":"Clinton County","state_id":"PA"}]
