[{"zip":"17801","fips":"42097","name":"Northumberland County","state_id":"PA"},{"zip":"17810","fips":"42119","name":"Union County","state_id":"PA"},{"zip":"17810","fips":"42081","name":"Lycoming County","state_id":"PA"},{"zip":"17812","fips":"42109","name":"Snyder County","state_id":"PA"},{"zip":"17813","fips":"42109","name":"Snyder County","state_id":"PA"},{"zip":"17814","fips":"42113","name":"Sullivan County","state_id":"PA"},{"zip":"17814","fips":"42079","name":"Luzerne County","state_id":"PA"},{"zip":"17814","fips":"42037","name":"Columbia County","state_id":"PA"},{"zip":"17814","fips":"42081","name":"Lycoming County","state_id":"PA"},{"zip":"17815","fips":"42093","name":"Montour County","state_id":"PA"},{"zip":"17815","fips":"42079","name":"Luzerne County","state_id":"PA"},{"zip":"17815","fips":"42037","name":"Columbia County","state_id":"PA"},{"zip":"17820","fips":"42037","name":"Columbia County","state_id":"PA"},{"zip":"17820","fips":"42093","name":"Montour County","state_id":"PA"},{"zip":"17820","fips":"42097","name":"Northumberland County","state_id":"PA"},{"zip":"17821","fips":"42093","name":"Montour County","state_id":"PA"},{"zip":"17821","fips":"42097","name":"Northumberland County","state_id":"PA"},{"zip":"17821","fips":"42037","name":"Columbia County","state_id":"PA"},{"zip":"17822","fips":"42093","name":"Montour County","state_id":"PA"},{"zip":"17823","fips":"42097","name":"Northumberland County","state_id":"PA"},{"zip":"17823","fips":"42107","name":"Schuylkill County","state_id":"PA"},{"zip":"17824","fips":"42037","name":"Columbia County","state_id":"PA"},{"zip":"17824","fips":"42093","name":"Montour County","state_id":"PA"},{"zip":"17824","fips":"42097","name":"Northumberland County","state_id":"PA"},{"zip":"17827","fips":"42109","name":"Snyder County","state_id":"PA"},{"zip":"17829","fips":"42119","name":"Union County","state_id":"PA"},{"zip":"17830","fips":"42097","name":"Northumberland County","state_id":"PA"},{"zip":"17831","fips":"42109","name":"Snyder County","state_id":"PA"},{"zip":"17832","fips":"42097","name":"Northumberland County","state_id":"PA"},{"zip":"17833","fips":"42109","name":"Snyder County","state_id":"PA"},{"zip":"17834","fips":"42097","name":"Northumberland County","state_id":"PA"},{"zip":"17835","fips":"42119","name":"Union County","state_id":"PA"},{"zip":"17836","fips":"42097","name":"Northumberland County","state_id":"PA"},{"zip":"17837","fips":"42119","name":"Union County","state_id":"PA"},{"zip":"17840","fips":"42097","name":"Northumberland County","state_id":"PA"},{"zip":"17841","fips":"42109","name":"Snyder County","state_id":"PA"},{"zip":"17841","fips":"42087","name":"Mifflin County","state_id":"PA"},{"zip":"17841","fips":"42119","name":"Union County","state_id":"PA"},{"zip":"17842","fips":"42109","name":"Snyder County","state_id":"PA"},{"zip":"17843","fips":"42109","name":"Snyder County","state_id":"PA"},{"zip":"17844","fips":"42119","name":"Union County","state_id":"PA"},{"zip":"17844","fips":"42109","name":"Snyder County","state_id":"PA"},{"zip":"17845","fips":"42119","name":"Union County","state_id":"PA"},{"zip":"17846","fips":"42037","name":"Columbia County","state_id":"PA"},{"zip":"17846","fips":"42081","name":"Lycoming County","state_id":"PA"},{"zip":"17847","fips":"42037","name":"Columbia County","state_id":"PA"},{"zip":"17847","fips":"42093","name":"Montour County","state_id":"PA"},{"zip":"17847","fips":"42097","name":"Northumberland County","state_id":"PA"},{"zip":"17850","fips":"42097","name":"Northumberland County","state_id":"PA"},{"zip":"17851","fips":"42097","name":"Northumberland County","state_id":"PA"},{"zip":"17853","fips":"42067","name":"Juniata County","state_id":"PA"},{"zip":"17853","fips":"42109","name":"Snyder County","state_id":"PA"},{"zip":"17855","fips":"42119","name":"Union County","state_id":"PA"},{"zip":"17856","fips":"42119","name":"Union County","state_id":"PA"},{"zip":"17857","fips":"42097","name":"Northumberland County","state_id":"PA"},{"zip":"17858","fips":"42037","name":"Columbia County","state_id":"PA"},{"zip":"17859","fips":"42037","name":"Columbia County","state_id":"PA"},{"zip":"17860","fips":"42097","name":"Northumberland County","state_id":"PA"},{"zip":"17861","fips":"42109","name":"Snyder County","state_id":"PA"},{"zip":"17862","fips":"42109","name":"Snyder County","state_id":"PA"},{"zip":"17864","fips":"42109","name":"Snyder County","state_id":"PA"},{"zip":"17865","fips":"42097","name":"Northumberland County","state_id":"PA"},{"zip":"17866","fips":"42097","name":"Northumberland County","state_id":"PA"},{"zip":"17867","fips":"42097","name":"Northumberland County","state_id":"PA"},{"zip":"17868","fips":"42097","name":"Northumberland County","state_id":"PA"},{"zip":"17870","fips":"42109","name":"Snyder County","state_id":"PA"},{"zip":"17870","fips":"42119","name":"Union County","state_id":"PA"},{"zip":"17872","fips":"42097","name":"Northumberland County","state_id":"PA"},{"zip":"17876","fips":"42109","name":"Snyder County","state_id":"PA"},{"zip":"17877","fips":"42097","name":"Northumberland County","state_id":"PA"},{"zip":"17878","fips":"42037","name":"Columbia County","state_id":"PA"},{"zip":"17878","fips":"42079","name":"Luzerne County","state_id":"PA"},{"zip":"17880","fips":"42119","name":"Union County","state_id":"PA"},{"zip":"17881","fips":"42097","name":"Northumberland County","state_id":"PA"},{"zip":"17882","fips":"42109","name":"Snyder County","state_id":"PA"},{"zip":"17884","fips":"42093","name":"Montour County","state_id":"PA"},{"zip":"17885","fips":"42119","name":"Union County","state_id":"PA"},{"zip":"17886","fips":"42119","name":"Union County","state_id":"PA"},{"zip":"17887","fips":"42119","name":"Union County","state_id":"PA"},{"zip":"17888","fips":"42037","name":"Columbia County","state_id":"PA"},{"zip":"17889","fips":"42109","name":"Snyder County","state_id":"PA"},{"zip":"17889","fips":"42119","name":"Union County","state_id":"PA"}]
