[{"zip":"17901","fips":"42107","name":"Schuylkill County","state_id":"PA"},{"zip":"17920","fips":"42037","name":"Columbia County","state_id":"PA"},{"zip":"17921","fips":"42107","name":"Schuylkill County","state_id":"PA"},{"zip":"17921","fips":"42037","name":"Columbia County","state_id":"PA"},{"zip":"17922","fips":"42107","name":"Schuylkill County","state_id":"PA"},{"zip":"17923","fips":"42107","name":"Schuylkill County","state_id":"PA"},{"zip":"17925","fips":"42107","name":"Schuylkill County","state_id":"PA"},{"zip":"17929","fips":"42107","name":"Schuylkill County","state_id":"PA"},{"zip":"17930","fips":"42107","name":"Schuylkill County","state_id":"PA"},{"zip":"17931","fips":"42107","name":"Schuylkill County","state_id":"PA"},{"zip":"17932","fips":"42107","name":"Schuylkill County","state_id":"PA"},{"zip":"17933","fips":"42107","name":"Schuylkill County","state_id":"PA"},{"zip":"17934","fips":"42107","name":"Schuylkill County","state_id":"PA"},{"zip":"17935","fips":"42107","name":"Schuylkill County","state_id":"PA"},{"zip":"17936","fips":"42107","name":"Schuylkill County","state_id":"PA"},{"zip":"17938","fips":"42107","name":"Schuylkill County","state_id":"PA"},{"zip":"17941","fips":"42107","name":"Schuylkill County","state_id":"PA"},{"zip":"17941","fips":"42097","name":"Northumberland County","state_id":"PA"},{"zip":"17943","fips":"42107","name":"Schuylkill County","state_id":"PA"},{"zip":"17944","fips":"42107","name":"Schuylkill County","state_id":"PA"},{"zip":"17945","fips":"42107","name":"Schuylkill County","state_id":"PA"},{"zip":"17946","fips":"42107","name":"Schuylkill County","state_id":"PA"},{"zip":"17948","fips":"42107","name":"Schuylkill County","state_id":"PA"},{"zip":"17949","fips":"42107","name":"Schuylkill County","state_id":"PA"},{"zip":"17951","fips":"42107","name":"Schuylkill County","state_id":"PA"},{"zip":"17952","fips":"42107","name":"Schuylkill County","state_id":"PA"},{"zip":"17953","fips":"42107","name":"Schuylkill County","state_id":"PA"},{"zip":"17954","fips":"42107","name":"Schuylkill County","state_id":"PA"},{"zip":"17957","fips":"42107","name":"Schuylkill County","state_id":"PA"},{"zip":"17959","fips":"42107","name":"Schuylkill County","state_id":"PA"},{"zip":"17960","fips":"42107","name":"Schuylkill County","state_id":"PA"},{"zip":"17961","fips":"42107","name":"Schuylkill County","state_id":"PA"},{"zip":"17963","fips":"42107","name":"Schuylkill County","state_id":"PA"},{"zip":"17963","fips":"42075","name":"Lebanon County","state_id":"PA"},{"zip":"17964","fips":"42097","name":"Northumberland County","state_id":"PA"},{"zip":"17964","fips":"42107","name":"Schuylkill County","state_id":"PA"},{"zip":"17965","fips":"42107","name":"Schuylkill County","state_id":"PA"},{"zip":"17966","fips":"42107","name":"Schuylkill County","state_id":"PA"},{"zip":"17967","fips":"42037","name":"Columbia County","state_id":"PA"},{"zip":"17967","fips":"42107","name":"Schuylkill County","state_id":"PA"},{"zip":"17968","fips":"42107","name":"Schuylkill County","state_id":"PA"},{"zip":"17970","fips":"42107","name":"Schuylkill County","state_id":"PA"},{"zip":"17972","fips":"42107","name":"Schuylkill County","state_id":"PA"},{"zip":"17974","fips":"42107","name":"Schuylkill County","state_id":"PA"},{"zip":"17976","fips":"42107","name":"Schuylkill County","state_id":"PA"},{"zip":"17978","fips":"42107","name":"Schuylkill County","state_id":"PA"},{"zip":"17978","fips":"42043","name":"Dauphin County","state_id":"PA"},{"zip":"17979","fips":"42107","name":"Schuylkill County","state_id":"PA"},{"zip":"17980","fips":"42043","name":"Dauphin County","state_id":"PA"},{"zip":"17980","fips":"42107","name":"Schuylkill County","state_id":"PA"},{"zip":"17981","fips":"42107","name":"Schuylkill County","state_id":"PA"},{"zip":"17982","fips":"42107","name":"Schuylkill County","state_id":"PA"},{"zip":"17983","fips":"42107","name":"Schuylkill County","state_id":"PA"},{"zip":"17985","fips":"42037","name":"Columbia County","state_id":"PA"},{"zip":"17985","fips":"42107","name":"Schuylkill County","state_id":"PA"}]
