[{"zip":"18002","fips":"42095","name":"Northampton County","state_id":"PA"},{"zip":"18011","fips":"42011","name":"Berks County","state_id":"PA"},{"zip":"18011","fips":"42077","name":"Lehigh County","state_id":"PA"},{"zip":"18012","fips":"42025","name":"Carbon County","state_id":"PA"},{"zip":"18013","fips":"42095","name":"Northampton County","state_id":"PA"},{"zip":"18014","fips":"42095","name":"Northampton County","state_id":"PA"},{"zip":"18015","fips":"42095","name":"Northampton County","state_id":"PA"},{"zip":"18015","fips":"42077","name":"Lehigh County","state_id":"PA"},{"zip":"18016","fips":"42095","name":"Northampton County","state_id":"PA"},{"zip":"18017","fips":"42095","name":"Northampton County","state_id":"PA"},{"zip":"18017","fips":"42077","name":"Lehigh County","state_id":"PA"},{"zip":"18018","fips":"42077","name":"Lehigh County","state_id":"PA"},{"zip":"18018","fips":"42095","name":"Northampton County","state_id":"PA"},{"zip":"18020","fips":"42095","name":"Northampton County","state_id":"PA"},{"zip":"18030","fips":"42025","name":"Carbon County","state_id":"PA"},{"zip":"18031","fips":"42077","name":"Lehigh County","state_id":"PA"},{"zip":"18031","fips":"42011","name":"Berks County","state_id":"PA"},{"zip":"18032","fips":"42095","name":"Northampton County","state_id":"PA"},{"zip":"18032","fips":"42077","name":"Lehigh County","state_id":"PA"},{"zip":"18034","fips":"42077","name":"Lehigh County","state_id":"PA"},{"zip":"18035","fips":"42095","name":"Northampton County","state_id":"PA"},{"zip":"18036","fips":"42077","name":"Lehigh County","state_id":"PA"},{"zip":"18036","fips":"42017","name":"Bucks County","state_id":"PA"},{"zip":"18037","fips":"42077","name":"Lehigh County","state_id":"PA"},{"zip":"18038","fips":"42095","name":"Northampton County","state_id":"PA"},{"zip":"18039","fips":"42017","name":"Bucks County","state_id":"PA"},{"zip":"18040","fips":"42095","name":"Northampton County","state_id":"PA"},{"zip":"18041","fips":"42077","name":"Lehigh County","state_id":"PA"},{"zip":"18041","fips":"42011","name":"Berks County","state_id":"PA"},{"zip":"18041","fips":"42091","name":"Montgomery County","state_id":"PA"},{"zip":"18041","fips":"42017","name":"Bucks County","state_id":"PA"},{"zip":"18042","fips":"42017","name":"Bucks County","state_id":"PA"},{"zip":"18042","fips":"42095","name":"Northampton County","state_id":"PA"},{"zip":"18043","fips":"42095","name":"Northampton County","state_id":"PA"},{"zip":"18044","fips":"42095","name":"Northampton County","state_id":"PA"},{"zip":"18045","fips":"42095","name":"Northampton County","state_id":"PA"},{"zip":"18046","fips":"42077","name":"Lehigh County","state_id":"PA"},{"zip":"18049","fips":"42077","name":"Lehigh County","state_id":"PA"},{"zip":"18051","fips":"42077","name":"Lehigh County","state_id":"PA"},{"zip":"18052","fips":"42077","name":"Lehigh County","state_id":"PA"},{"zip":"18053","fips":"42025","name":"Carbon County","state_id":"PA"},{"zip":"18053","fips":"42077","name":"Lehigh County","state_id":"PA"},{"zip":"18054","fips":"42091","name":"Montgomery County","state_id":"PA"},{"zip":"18054","fips":"42017","name":"Bucks County","state_id":"PA"},{"zip":"18055","fips":"42017","name":"Bucks County","state_id":"PA"},{"zip":"18055","fips":"42095","name":"Northampton County","state_id":"PA"},{"zip":"18056","fips":"42011","name":"Berks County","state_id":"PA"},{"zip":"18058","fips":"42095","name":"Northampton County","state_id":"PA"},{"zip":"18058","fips":"42025","name":"Carbon County","state_id":"PA"},{"zip":"18058","fips":"42089","name":"Monroe County","state_id":"PA"},{"zip":"18059","fips":"42077","name":"Lehigh County","state_id":"PA"},{"zip":"18060","fips":"42077","name":"Lehigh County","state_id":"PA"},{"zip":"18062","fips":"42011","name":"Berks County","state_id":"PA"},{"zip":"18062","fips":"42077","name":"Lehigh County","state_id":"PA"},{"zip":"18063","fips":"42095","name":"Northampton County","state_id":"PA"},{"zip":"18064","fips":"42095","name":"Northampton County","state_id":"PA"},{"zip":"18065","fips":"42077","name":"Lehigh County","state_id":"PA"},{"zip":"18066","fips":"42077","name":"Lehigh County","state_id":"PA"},{"zip":"18067","fips":"42095","name":"Northampton County","state_id":"PA"},{"zip":"18067","fips":"42077","name":"Lehigh County","state_id":"PA"},{"zip":"18068","fips":"42077","name":"Lehigh County","state_id":"PA"},{"zip":"18069","fips":"42077","name":"Lehigh County","state_id":"PA"},{"zip":"18070","fips":"42091","name":"Montgomery County","state_id":"PA"},{"zip":"18070","fips":"42011","name":"Berks County","state_id":"PA"},{"zip":"18071","fips":"42025","name":"Carbon County","state_id":"PA"},{"zip":"18071","fips":"42089","name":"Monroe County","state_id":"PA"},{"zip":"18072","fips":"42095","name":"Northampton County","state_id":"PA"},{"zip":"18073","fips":"42091","name":"Montgomery County","state_id":"PA"},{"zip":"18073","fips":"42017","name":"Bucks County","state_id":"PA"},{"zip":"18074","fips":"42091","name":"Montgomery County","state_id":"PA"},{"zip":"18076","fips":"42091","name":"Montgomery County","state_id":"PA"},{"zip":"18077","fips":"42095","name":"Northampton County","state_id":"PA"},{"zip":"18077","fips":"42017","name":"Bucks County","state_id":"PA"},{"zip":"18078","fips":"42077","name":"Lehigh County","state_id":"PA"},{"zip":"18079","fips":"42077","name":"Lehigh County","state_id":"PA"},{"zip":"18080","fips":"42077","name":"Lehigh County","state_id":"PA"},{"zip":"18081","fips":"42017","name":"Bucks County","state_id":"PA"},{"zip":"18083","fips":"42095","name":"Northampton County","state_id":"PA"},{"zip":"18084","fips":"42091","name":"Montgomery County","state_id":"PA"},{"zip":"18085","fips":"42095","name":"Northampton County","state_id":"PA"},{"zip":"18086","fips":"42095","name":"Northampton County","state_id":"PA"},{"zip":"18087","fips":"42077","name":"Lehigh County","state_id":"PA"},{"zip":"18088","fips":"42095","name":"Northampton County","state_id":"PA"},{"zip":"18091","fips":"42095","name":"Northampton County","state_id":"PA"},{"zip":"18092","fips":"42077","name":"Lehigh County","state_id":"PA"},{"zip":"18092","fips":"42011","name":"Berks County","state_id":"PA"}]
