[{"zip":"18301","fips":"42089","name":"Monroe County","state_id":"PA"},{"zip":"18302","fips":"42089","name":"Monroe County","state_id":"PA"},{"zip":"18302","fips":"42103","name":"Pike County","state_id":"PA"},{"zip":"18320","fips":"42089","name":"Monroe County","state_id":"PA"},{"zip":"18321","fips":"42089","name":"Monroe County","state_id":"PA"},{"zip":"18322","fips":"42089","name":"Monroe County","state_id":"PA"},{"zip":"18323","fips":"42089","name":"Monroe County","state_id":"PA"},{"zip":"18324","fips":"42103","name":"Pike County","state_id":"PA"},{"zip":"18324","fips":"42089","name":"Monroe County","state_id":"PA"},{"zip":"18325","fips":"42089","name":"Monroe County","state_id":"PA"},{"zip":"18325","fips":"42103","name":"Pike County","state_id":"PA"},{"zip":"18326","fips":"42089","name":"Monroe County","state_id":"PA"},{"zip":"18326","fips":"42103","name":"Pike County","state_id":"PA"},{"zip":"18327","fips":"42089","name":"Monroe County","state_id":"PA"},{"zip":"18328","fips":"42089","name":"Monroe County","state_id":"PA"},{"zip":"18328","fips":"42103","name":"Pike County","state_id":"PA"},{"zip":"18330","fips":"42089","name":"Monroe County","state_id":"PA"},{"zip":"18331","fips":"42089","name":"Monroe County","state_id":"PA"},{"zip":"18332","fips":"42089","name":"Monroe County","state_id":"PA"},{"zip":"18333","fips":"42025","name":"Carbon County","state_id":"PA"},{"zip":"18333","fips":"42089","name":"Monroe County","state_id":"PA"},{"zip":"18334","fips":"42089","name":"Monroe County","state_id":"PA"},{"zip":"18335","fips":"42089","name":"Monroe County","state_id":"PA"},{"zip":"18336","fips":"42103","name":"Pike County","state_id":"PA"},{"zip":"18337","fips":"42103","name":"Pike County","state_id":"PA"},{"zip":"18340","fips":"42103","name":"Pike County","state_id":"PA"},{"zip":"18341","fips":"42089","name":"Monroe County","state_id":"PA"},{"zip":"18342","fips":"42089","name":"Monroe County","state_id":"PA"},{"zip":"18343","fips":"42095","name":"Northampton County","state_id":"PA"},{"zip":"18344","fips":"42089","name":"Monroe County","state_id":"PA"},{"zip":"18346","fips":"42089","name":"Monroe County","state_id":"PA"},{"zip":"18347","fips":"42089","name":"Monroe County","state_id":"PA"},{"zip":"18348","fips":"42089","name":"Monroe County","state_id":"PA"},{"zip":"18349","fips":"42089","name":"Monroe County","state_id":"PA"},{"zip":"18350","fips":"42089","name":"Monroe County","state_id":"PA"},{"zip":"18351","fips":"42095","name":"Northampton County","state_id":"PA"},{"zip":"18352","fips":"42089","name":"Monroe County","state_id":"PA"},{"zip":"18353","fips":"42089","name":"Monroe County","state_id":"PA"},{"zip":"18354","fips":"42089","name":"Monroe County","state_id":"PA"},{"zip":"18355","fips":"42089","name":"Monroe County","state_id":"PA"},{"zip":"18356","fips":"42089","name":"Monroe County","state_id":"PA"},{"zip":"18357","fips":"42089","name":"Monroe County","state_id":"PA"},{"zip":"18360","fips":"42089","name":"Monroe County","state_id":"PA"},{"zip":"18370","fips":"42089","name":"Monroe County","state_id":"PA"},{"zip":"18371","fips":"42103","name":"Pike County","state_id":"PA"},{"zip":"18372","fips":"42089","name":"Monroe County","state_id":"PA"}]
