[{"zip":"18403","fips":"42069","name":"Lackawanna County","state_id":"PA"},{"zip":"18405","fips":"42127","name":"Wayne County","state_id":"PA"},{"zip":"18405","fips":"42103","name":"Pike County","state_id":"PA"},{"zip":"18407","fips":"42115","name":"Susquehanna County","state_id":"PA"},{"zip":"18407","fips":"42069","name":"Lackawanna County","state_id":"PA"},{"zip":"18410","fips":"42069","name":"Lackawanna County","state_id":"PA"},{"zip":"18411","fips":"42069","name":"Lackawanna County","state_id":"PA"},{"zip":"18413","fips":"42115","name":"Susquehanna County","state_id":"PA"},{"zip":"18414","fips":"42069","name":"Lackawanna County","state_id":"PA"},{"zip":"18414","fips":"42131","name":"Wyoming County","state_id":"PA"},{"zip":"18415","fips":"42127","name":"Wayne County","state_id":"PA"},{"zip":"18416","fips":"42069","name":"Lackawanna County","state_id":"PA"},{"zip":"18417","fips":"42127","name":"Wayne County","state_id":"PA"},{"zip":"18419","fips":"42115","name":"Susquehanna County","state_id":"PA"},{"zip":"18419","fips":"42069","name":"Lackawanna County","state_id":"PA"},{"zip":"18419","fips":"42131","name":"Wyoming County","state_id":"PA"},{"zip":"18420","fips":"42069","name":"Lackawanna County","state_id":"PA"},{"zip":"18421","fips":"42127","name":"Wayne County","state_id":"PA"},{"zip":"18421","fips":"42115","name":"Susquehanna County","state_id":"PA"},{"zip":"18421","fips":"42069","name":"Lackawanna County","state_id":"PA"},{"zip":"18424","fips":"42127","name":"Wayne County","state_id":"PA"},{"zip":"18424","fips":"42089","name":"Monroe County","state_id":"PA"},{"zip":"18424","fips":"42079","name":"Luzerne County","state_id":"PA"},{"zip":"18424","fips":"42069","name":"Lackawanna County","state_id":"PA"},{"zip":"18425","fips":"42103","name":"Pike County","state_id":"PA"},{"zip":"18426","fips":"42103","name":"Pike County","state_id":"PA"},{"zip":"18426","fips":"42127","name":"Wayne County","state_id":"PA"},{"zip":"18427","fips":"42127","name":"Wayne County","state_id":"PA"},{"zip":"18428","fips":"42127","name":"Wayne County","state_id":"PA"},{"zip":"18428","fips":"42103","name":"Pike County","state_id":"PA"},{"zip":"18430","fips":"42115","name":"Susquehanna County","state_id":"PA"},{"zip":"18430","fips":"42127","name":"Wayne County","state_id":"PA"},{"zip":"18431","fips":"42127","name":"Wayne County","state_id":"PA"},{"zip":"18433","fips":"42069","name":"Lackawanna County","state_id":"PA"},{"zip":"18434","fips":"42127","name":"Wayne County","state_id":"PA"},{"zip":"18434","fips":"42069","name":"Lackawanna County","state_id":"PA"},{"zip":"18435","fips":"42103","name":"Pike County","state_id":"PA"},{"zip":"18436","fips":"42127","name":"Wayne County","state_id":"PA"},{"zip":"18436","fips":"42069","name":"Lackawanna County","state_id":"PA"},{"zip":"18437","fips":"42127","name":"Wayne County","state_id":"PA"},{"zip":"18438","fips":"42127","name":"Wayne County","state_id":"PA"},{"zip":"18439","fips":"42127","name":"Wayne County","state_id":"PA"},{"zip":"18440","fips":"42069","name":"Lackawanna County","state_id":"PA"},{"zip":"18441","fips":"42115","name":"Susquehanna County","state_id":"PA"},{"zip":"18443","fips":"42127","name":"Wayne County","state_id":"PA"},{"zip":"18444","fips":"42069","name":"Lackawanna County","state_id":"PA"},{"zip":"18444","fips":"42079","name":"Luzerne County","state_id":"PA"},{"zip":"18444","fips":"42127","name":"Wayne County","state_id":"PA"},{"zip":"18445","fips":"42127","name":"Wayne County","state_id":"PA"},{"zip":"18445","fips":"42103","name":"Pike County","state_id":"PA"},{"zip":"18446","fips":"42131","name":"Wyoming County","state_id":"PA"},{"zip":"18446","fips":"42069","name":"Lackawanna County","state_id":"PA"},{"zip":"18446","fips":"42115","name":"Susquehanna County","state_id":"PA"},{"zip":"18447","fips":"42069","name":"Lackawanna County","state_id":"PA"},{"zip":"18448","fips":"42069","name":"Lackawanna County","state_id":"PA"},{"zip":"18449","fips":"42127","name":"Wayne County","state_id":"PA"},{"zip":"18451","fips":"42103","name":"Pike County","state_id":"PA"},{"zip":"18452","fips":"42069","name":"Lackawanna County","state_id":"PA"},{"zip":"18453","fips":"42127","name":"Wayne County","state_id":"PA"},{"zip":"18454","fips":"42127","name":"Wayne County","state_id":"PA"},{"zip":"18455","fips":"42127","name":"Wayne County","state_id":"PA"},{"zip":"18456","fips":"42127","name":"Wayne County","state_id":"PA"},{"zip":"18457","fips":"42103","name":"Pike County","state_id":"PA"},{"zip":"18458","fips":"42103","name":"Pike County","state_id":"PA"},{"zip":"18459","fips":"42127","name":"Wayne County","state_id":"PA"},{"zip":"18460","fips":"42127","name":"Wayne County","state_id":"PA"},{"zip":"18461","fips":"42127","name":"Wayne County","state_id":"PA"},{"zip":"18462","fips":"42115","name":"Susquehanna County","state_id":"PA"},{"zip":"18462","fips":"42127","name":"Wayne County","state_id":"PA"},{"zip":"18463","fips":"42127","name":"Wayne County","state_id":"PA"},{"zip":"18464","fips":"42103","name":"Pike County","state_id":"PA"},{"zip":"18465","fips":"42127","name":"Wayne County","state_id":"PA"},{"zip":"18465","fips":"42115","name":"Susquehanna County","state_id":"PA"},{"zip":"18466","fips":"42127","name":"Wayne County","state_id":"PA"},{"zip":"18466","fips":"42089","name":"Monroe County","state_id":"PA"},{"zip":"18469","fips":"42127","name":"Wayne County","state_id":"PA"},{"zip":"18470","fips":"42127","name":"Wayne County","state_id":"PA"},{"zip":"18470","fips":"42115","name":"Susquehanna County","state_id":"PA"},{"zip":"18471","fips":"42069","name":"Lackawanna County","state_id":"PA"},{"zip":"18472","fips":"42127","name":"Wayne County","state_id":"PA"},{"zip":"18472","fips":"42069","name":"Lackawanna County","state_id":"PA"},{"zip":"18473","fips":"42127","name":"Wayne County","state_id":"PA"}]
