[{"zip":"18601","fips":"42079","name":"Luzerne County","state_id":"PA"},{"zip":"18602","fips":"42079","name":"Luzerne County","state_id":"PA"},{"zip":"18603","fips":"42079","name":"Luzerne County","state_id":"PA"},{"zip":"18603","fips":"42037","name":"Columbia County","state_id":"PA"},{"zip":"18610","fips":"42079","name":"Luzerne County","state_id":"PA"},{"zip":"18610","fips":"42089","name":"Monroe County","state_id":"PA"},{"zip":"18611","fips":"42079","name":"Luzerne County","state_id":"PA"},{"zip":"18612","fips":"42131","name":"Wyoming County","state_id":"PA"},{"zip":"18612","fips":"42079","name":"Luzerne County","state_id":"PA"},{"zip":"18614","fips":"42113","name":"Sullivan County","state_id":"PA"},{"zip":"18614","fips":"42015","name":"Bradford County","state_id":"PA"},{"zip":"18614","fips":"42131","name":"Wyoming County","state_id":"PA"},{"zip":"18615","fips":"42079","name":"Luzerne County","state_id":"PA"},{"zip":"18615","fips":"42131","name":"Wyoming County","state_id":"PA"},{"zip":"18616","fips":"42015","name":"Bradford County","state_id":"PA"},{"zip":"18616","fips":"42113","name":"Sullivan County","state_id":"PA"},{"zip":"18617","fips":"42079","name":"Luzerne County","state_id":"PA"},{"zip":"18618","fips":"42079","name":"Luzerne County","state_id":"PA"},{"zip":"18618","fips":"42131","name":"Wyoming County","state_id":"PA"},{"zip":"18619","fips":"42113","name":"Sullivan County","state_id":"PA"},{"zip":"18621","fips":"42079","name":"Luzerne County","state_id":"PA"},{"zip":"18622","fips":"42079","name":"Luzerne County","state_id":"PA"},{"zip":"18623","fips":"42131","name":"Wyoming County","state_id":"PA"},{"zip":"18623","fips":"42115","name":"Susquehanna County","state_id":"PA"},{"zip":"18623","fips":"42015","name":"Bradford County","state_id":"PA"},{"zip":"18624","fips":"42025","name":"Carbon County","state_id":"PA"},{"zip":"18625","fips":"42131","name":"Wyoming County","state_id":"PA"},{"zip":"18626","fips":"42113","name":"Sullivan County","state_id":"PA"},{"zip":"18627","fips":"42079","name":"Luzerne County","state_id":"PA"},{"zip":"18628","fips":"42113","name":"Sullivan County","state_id":"PA"},{"zip":"18629","fips":"42131","name":"Wyoming County","state_id":"PA"},{"zip":"18629","fips":"42113","name":"Sullivan County","state_id":"PA"},{"zip":"18630","fips":"42115","name":"Susquehanna County","state_id":"PA"},{"zip":"18630","fips":"42131","name":"Wyoming County","state_id":"PA"},{"zip":"18631","fips":"42037","name":"Columbia County","state_id":"PA"},{"zip":"18632","fips":"42113","name":"Sullivan County","state_id":"PA"},{"zip":"18634","fips":"42079","name":"Luzerne County","state_id":"PA"},{"zip":"18635","fips":"42037","name":"Columbia County","state_id":"PA"},{"zip":"18635","fips":"42079","name":"Luzerne County","state_id":"PA"},{"zip":"18636","fips":"42079","name":"Luzerne County","state_id":"PA"},{"zip":"18636","fips":"42131","name":"Wyoming County","state_id":"PA"},{"zip":"18640","fips":"42069","name":"Lackawanna County","state_id":"PA"},{"zip":"18640","fips":"42079","name":"Luzerne County","state_id":"PA"},{"zip":"18641","fips":"42069","name":"Lackawanna County","state_id":"PA"},{"zip":"18641","fips":"42079","name":"Luzerne County","state_id":"PA"},{"zip":"18642","fips":"42079","name":"Luzerne County","state_id":"PA"},{"zip":"18643","fips":"42079","name":"Luzerne County","state_id":"PA"},{"zip":"18644","fips":"42079","name":"Luzerne County","state_id":"PA"},{"zip":"18651","fips":"42079","name":"Luzerne County","state_id":"PA"},{"zip":"18653","fips":"42069","name":"Lackawanna County","state_id":"PA"},{"zip":"18654","fips":"42079","name":"Luzerne County","state_id":"PA"},{"zip":"18655","fips":"42037","name":"Columbia County","state_id":"PA"},{"zip":"18655","fips":"42079","name":"Luzerne County","state_id":"PA"},{"zip":"18656","fips":"42079","name":"Luzerne County","state_id":"PA"},{"zip":"18657","fips":"42131","name":"Wyoming County","state_id":"PA"},{"zip":"18657","fips":"42079","name":"Luzerne County","state_id":"PA"},{"zip":"18660","fips":"42079","name":"Luzerne County","state_id":"PA"},{"zip":"18661","fips":"42025","name":"Carbon County","state_id":"PA"},{"zip":"18661","fips":"42079","name":"Luzerne County","state_id":"PA"}]
