[{"zip":"18701","fips":"42079","name":"Luzerne County","state_id":"PA"},{"zip":"18702","fips":"42079","name":"Luzerne County","state_id":"PA"},{"zip":"18703","fips":"42079","name":"Luzerne County","state_id":"PA"},{"zip":"18704","fips":"42079","name":"Luzerne County","state_id":"PA"},{"zip":"18705","fips":"42079","name":"Luzerne County","state_id":"PA"},{"zip":"18706","fips":"42079","name":"Luzerne County","state_id":"PA"},{"zip":"18707","fips":"42079","name":"Luzerne County","state_id":"PA"},{"zip":"18708","fips":"42079","name":"Luzerne County","state_id":"PA"},{"zip":"18709","fips":"42079","name":"Luzerne County","state_id":"PA"},{"zip":"18710","fips":"42079","name":"Luzerne County","state_id":"PA"},{"zip":"18711","fips":"42079","name":"Luzerne County","state_id":"PA"},{"zip":"18762","fips":"42079","name":"Luzerne County","state_id":"PA"},{"zip":"18764","fips":"42079","name":"Luzerne County","state_id":"PA"},{"zip":"18765","fips":"42079","name":"Luzerne County","state_id":"PA"},{"zip":"18766","fips":"42079","name":"Luzerne County","state_id":"PA"},{"zip":"18769","fips":"42079","name":"Luzerne County","state_id":"PA"}]
