[{"zip":"18801","fips":"42115","name":"Susquehanna County","state_id":"PA"},{"zip":"18810","fips":"42015","name":"Bradford County","state_id":"PA"},{"zip":"18812","fips":"42115","name":"Susquehanna County","state_id":"PA"},{"zip":"18813","fips":"42115","name":"Susquehanna County","state_id":"PA"},{"zip":"18814","fips":"42015","name":"Bradford County","state_id":"PA"},{"zip":"18816","fips":"42115","name":"Susquehanna County","state_id":"PA"},{"zip":"18817","fips":"42015","name":"Bradford County","state_id":"PA"},{"zip":"18818","fips":"42115","name":"Susquehanna County","state_id":"PA"},{"zip":"18818","fips":"42015","name":"Bradford County","state_id":"PA"},{"zip":"18820","fips":"42115","name":"Susquehanna County","state_id":"PA"},{"zip":"18821","fips":"42115","name":"Susquehanna County","state_id":"PA"},{"zip":"18822","fips":"42115","name":"Susquehanna County","state_id":"PA"},{"zip":"18823","fips":"42115","name":"Susquehanna County","state_id":"PA"},{"zip":"18824","fips":"42115","name":"Susquehanna County","state_id":"PA"},{"zip":"18825","fips":"42115","name":"Susquehanna County","state_id":"PA"},{"zip":"18826","fips":"42115","name":"Susquehanna County","state_id":"PA"},{"zip":"18827","fips":"42115","name":"Susquehanna County","state_id":"PA"},{"zip":"18828","fips":"42115","name":"Susquehanna County","state_id":"PA"},{"zip":"18829","fips":"42115","name":"Susquehanna County","state_id":"PA"},{"zip":"18829","fips":"42015","name":"Bradford County","state_id":"PA"},{"zip":"18830","fips":"42015","name":"Bradford County","state_id":"PA"},{"zip":"18830","fips":"42115","name":"Susquehanna County","state_id":"PA"},{"zip":"18831","fips":"42015","name":"Bradford County","state_id":"PA"},{"zip":"18832","fips":"42015","name":"Bradford County","state_id":"PA"},{"zip":"18833","fips":"42015","name":"Bradford County","state_id":"PA"},{"zip":"18833","fips":"42113","name":"Sullivan County","state_id":"PA"},{"zip":"18834","fips":"42115","name":"Susquehanna County","state_id":"PA"},{"zip":"18837","fips":"42015","name":"Bradford County","state_id":"PA"},{"zip":"18840","fips":"42015","name":"Bradford County","state_id":"PA"},{"zip":"18842","fips":"42115","name":"Susquehanna County","state_id":"PA"},{"zip":"18843","fips":"42115","name":"Susquehanna County","state_id":"PA"},{"zip":"18844","fips":"42115","name":"Susquehanna County","state_id":"PA"},{"zip":"18844","fips":"42131","name":"Wyoming County","state_id":"PA"},{"zip":"18845","fips":"42015","name":"Bradford County","state_id":"PA"},{"zip":"18846","fips":"42015","name":"Bradford County","state_id":"PA"},{"zip":"18847","fips":"42127","name":"Wayne County","state_id":"PA"},{"zip":"18847","fips":"42115","name":"Susquehanna County","state_id":"PA"},{"zip":"18848","fips":"42015","name":"Bradford County","state_id":"PA"},{"zip":"18850","fips":"42015","name":"Bradford County","state_id":"PA"},{"zip":"18851","fips":"42015","name":"Bradford County","state_id":"PA"},{"zip":"18853","fips":"42015","name":"Bradford County","state_id":"PA"},{"zip":"18854","fips":"42015","name":"Bradford County","state_id":"PA"}]
