[{"zip":"18901","fips":"42017","name":"Bucks County","state_id":"PA"},{"zip":"18902","fips":"42017","name":"Bucks County","state_id":"PA"},{"zip":"18910","fips":"42017","name":"Bucks County","state_id":"PA"},{"zip":"18911","fips":"42017","name":"Bucks County","state_id":"PA"},{"zip":"18912","fips":"42017","name":"Bucks County","state_id":"PA"},{"zip":"18913","fips":"42017","name":"Bucks County","state_id":"PA"},{"zip":"18914","fips":"42017","name":"Bucks County","state_id":"PA"},{"zip":"18914","fips":"42091","name":"Montgomery County","state_id":"PA"},{"zip":"18915","fips":"42091","name":"Montgomery County","state_id":"PA"},{"zip":"18916","fips":"42017","name":"Bucks County","state_id":"PA"},{"zip":"18917","fips":"42017","name":"Bucks County","state_id":"PA"},{"zip":"18918","fips":"42091","name":"Montgomery County","state_id":"PA"},{"zip":"18920","fips":"42017","name":"Bucks County","state_id":"PA"},{"zip":"18921","fips":"42017","name":"Bucks County","state_id":"PA"},{"zip":"18922","fips":"42017","name":"Bucks County","state_id":"PA"},{"zip":"18923","fips":"42017","name":"Bucks County","state_id":"PA"},{"zip":"18925","fips":"42017","name":"Bucks County","state_id":"PA"},{"zip":"18927","fips":"42017","name":"Bucks County","state_id":"PA"},{"zip":"18928","fips":"42017","name":"Bucks County","state_id":"PA"},{"zip":"18929","fips":"42017","name":"Bucks County","state_id":"PA"},{"zip":"18930","fips":"42017","name":"Bucks County","state_id":"PA"},{"zip":"18931","fips":"42017","name":"Bucks County","state_id":"PA"},{"zip":"18932","fips":"42091","name":"Montgomery County","state_id":"PA"},{"zip":"18932","fips":"42017","name":"Bucks County","state_id":"PA"},{"zip":"18933","fips":"42017","name":"Bucks County","state_id":"PA"},{"zip":"18934","fips":"42017","name":"Bucks County","state_id":"PA"},{"zip":"18935","fips":"42017","name":"Bucks County","state_id":"PA"},{"zip":"18936","fips":"42091","name":"Montgomery County","state_id":"PA"},{"zip":"18938","fips":"42017","name":"Bucks County","state_id":"PA"},{"zip":"18940","fips":"42017","name":"Bucks County","state_id":"PA"},{"zip":"18942","fips":"42017","name":"Bucks County","state_id":"PA"},{"zip":"18943","fips":"42017","name":"Bucks County","state_id":"PA"},{"zip":"18944","fips":"42017","name":"Bucks County","state_id":"PA"},{"zip":"18946","fips":"42017","name":"Bucks County","state_id":"PA"},{"zip":"18947","fips":"42017","name":"Bucks County","state_id":"PA"},{"zip":"18949","fips":"42017","name":"Bucks County","state_id":"PA"},{"zip":"18950","fips":"42017","name":"Bucks County","state_id":"PA"},{"zip":"18951","fips":"42077","name":"Lehigh County","state_id":"PA"},{"zip":"18951","fips":"42017","name":"Bucks County","state_id":"PA"},{"zip":"18953","fips":"42017","name":"Bucks County","state_id":"PA"},{"zip":"18954","fips":"42017","name":"Bucks County","state_id":"PA"},{"zip":"18955","fips":"42017","name":"Bucks County","state_id":"PA"},{"zip":"18956","fips":"42017","name":"Bucks County","state_id":"PA"},{"zip":"18957","fips":"42091","name":"Montgomery County","state_id":"PA"},{"zip":"18958","fips":"42091","name":"Montgomery County","state_id":"PA"},{"zip":"18960","fips":"42017","name":"Bucks County","state_id":"PA"},{"zip":"18962","fips":"42017","name":"Bucks County","state_id":"PA"},{"zip":"18963","fips":"42017","name":"Bucks County","state_id":"PA"},{"zip":"18964","fips":"42091","name":"Montgomery County","state_id":"PA"},{"zip":"18964","fips":"42017","name":"Bucks County","state_id":"PA"},{"zip":"18966","fips":"42017","name":"Bucks County","state_id":"PA"},{"zip":"18968","fips":"42017","name":"Bucks County","state_id":"PA"},{"zip":"18969","fips":"42017","name":"Bucks County","state_id":"PA"},{"zip":"18969","fips":"42091","name":"Montgomery County","state_id":"PA"},{"zip":"18970","fips":"42017","name":"Bucks County","state_id":"PA"},{"zip":"18971","fips":"42091","name":"Montgomery County","state_id":"PA"},{"zip":"18972","fips":"42017","name":"Bucks County","state_id":"PA"},{"zip":"18974","fips":"42017","name":"Bucks County","state_id":"PA"},{"zip":"18974","fips":"42091","name":"Montgomery County","state_id":"PA"},{"zip":"18976","fips":"42017","name":"Bucks County","state_id":"PA"},{"zip":"18977","fips":"42017","name":"Bucks County","state_id":"PA"},{"zip":"18979","fips":"42091","name":"Montgomery County","state_id":"PA"},{"zip":"18980","fips":"42017","name":"Bucks County","state_id":"PA"},{"zip":"18981","fips":"42017","name":"Bucks County","state_id":"PA"}]
