[{"zip":"19001","fips":"42091","name":"Montgomery County","state_id":"PA"},{"zip":"19002","fips":"42091","name":"Montgomery County","state_id":"PA"},{"zip":"19003","fips":"42091","name":"Montgomery County","state_id":"PA"},{"zip":"19003","fips":"42045","name":"Delaware County","state_id":"PA"},{"zip":"19004","fips":"42091","name":"Montgomery County","state_id":"PA"},{"zip":"19006","fips":"42091","name":"Montgomery County","state_id":"PA"},{"zip":"19006","fips":"42017","name":"Bucks County","state_id":"PA"},{"zip":"19007","fips":"42017","name":"Bucks County","state_id":"PA"},{"zip":"19008","fips":"42045","name":"Delaware County","state_id":"PA"},{"zip":"19009","fips":"42091","name":"Montgomery County","state_id":"PA"},{"zip":"19010","fips":"42091","name":"Montgomery County","state_id":"PA"},{"zip":"19010","fips":"42045","name":"Delaware County","state_id":"PA"},{"zip":"19012","fips":"42091","name":"Montgomery County","state_id":"PA"},{"zip":"19013","fips":"42045","name":"Delaware County","state_id":"PA"},{"zip":"19014","fips":"42045","name":"Delaware County","state_id":"PA"},{"zip":"19015","fips":"42045","name":"Delaware County","state_id":"PA"},{"zip":"19016","fips":"42045","name":"Delaware County","state_id":"PA"},{"zip":"19017","fips":"42045","name":"Delaware County","state_id":"PA"},{"zip":"19018","fips":"42045","name":"Delaware County","state_id":"PA"},{"zip":"19020","fips":"42017","name":"Bucks County","state_id":"PA"},{"zip":"19021","fips":"42017","name":"Bucks County","state_id":"PA"},{"zip":"19022","fips":"42045","name":"Delaware County","state_id":"PA"},{"zip":"19023","fips":"42045","name":"Delaware County","state_id":"PA"},{"zip":"19025","fips":"42091","name":"Montgomery County","state_id":"PA"},{"zip":"19026","fips":"42045","name":"Delaware County","state_id":"PA"},{"zip":"19027","fips":"42091","name":"Montgomery County","state_id":"PA"},{"zip":"19028","fips":"42045","name":"Delaware County","state_id":"PA"},{"zip":"19029","fips":"42045","name":"Delaware County","state_id":"PA"},{"zip":"19030","fips":"42017","name":"Bucks County","state_id":"PA"},{"zip":"19031","fips":"42091","name":"Montgomery County","state_id":"PA"},{"zip":"19032","fips":"42045","name":"Delaware County","state_id":"PA"},{"zip":"19033","fips":"42045","name":"Delaware County","state_id":"PA"},{"zip":"19034","fips":"42091","name":"Montgomery County","state_id":"PA"},{"zip":"19035","fips":"42091","name":"Montgomery County","state_id":"PA"},{"zip":"19036","fips":"42045","name":"Delaware County","state_id":"PA"},{"zip":"19038","fips":"42091","name":"Montgomery County","state_id":"PA"},{"zip":"19039","fips":"42045","name":"Delaware County","state_id":"PA"},{"zip":"19040","fips":"42091","name":"Montgomery County","state_id":"PA"},{"zip":"19040","fips":"42017","name":"Bucks County","state_id":"PA"},{"zip":"19041","fips":"42091","name":"Montgomery County","state_id":"PA"},{"zip":"19041","fips":"42045","name":"Delaware County","state_id":"PA"},{"zip":"19043","fips":"42045","name":"Delaware County","state_id":"PA"},{"zip":"19044","fips":"42017","name":"Bucks County","state_id":"PA"},{"zip":"19044","fips":"42091","name":"Montgomery County","state_id":"PA"},{"zip":"19046","fips":"42091","name":"Montgomery County","state_id":"PA"},{"zip":"19046","fips":"42101","name":"Philadelphia County","state_id":"PA"},{"zip":"19047","fips":"42017","name":"Bucks County","state_id":"PA"},{"zip":"19050","fips":"42045","name":"Delaware County","state_id":"PA"},{"zip":"19052","fips":"42045","name":"Delaware County","state_id":"PA"},{"zip":"19053","fips":"42017","name":"Bucks County","state_id":"PA"},{"zip":"19054","fips":"42017","name":"Bucks County","state_id":"PA"},{"zip":"19055","fips":"42017","name":"Bucks County","state_id":"PA"},{"zip":"19056","fips":"42017","name":"Bucks County","state_id":"PA"},{"zip":"19057","fips":"42017","name":"Bucks County","state_id":"PA"},{"zip":"19058","fips":"42017","name":"Bucks County","state_id":"PA"},{"zip":"19060","fips":"42045","name":"Delaware County","state_id":"PA"},{"zip":"19061","fips":"42045","name":"Delaware County","state_id":"PA"},{"zip":"19063","fips":"42045","name":"Delaware County","state_id":"PA"},{"zip":"19064","fips":"42045","name":"Delaware County","state_id":"PA"},{"zip":"19066","fips":"42091","name":"Montgomery County","state_id":"PA"},{"zip":"19067","fips":"42017","name":"Bucks County","state_id":"PA"},{"zip":"19070","fips":"42045","name":"Delaware County","state_id":"PA"},{"zip":"19072","fips":"42091","name":"Montgomery County","state_id":"PA"},{"zip":"19073","fips":"42045","name":"Delaware County","state_id":"PA"},{"zip":"19073","fips":"42029","name":"Chester County","state_id":"PA"},{"zip":"19074","fips":"42045","name":"Delaware County","state_id":"PA"},{"zip":"19075","fips":"42091","name":"Montgomery County","state_id":"PA"},{"zip":"19076","fips":"42045","name":"Delaware County","state_id":"PA"},{"zip":"19078","fips":"42045","name":"Delaware County","state_id":"PA"},{"zip":"19079","fips":"42045","name":"Delaware County","state_id":"PA"},{"zip":"19081","fips":"42045","name":"Delaware County","state_id":"PA"},{"zip":"19082","fips":"42045","name":"Delaware County","state_id":"PA"},{"zip":"19083","fips":"42091","name":"Montgomery County","state_id":"PA"},{"zip":"19083","fips":"42045","name":"Delaware County","state_id":"PA"},{"zip":"19085","fips":"42091","name":"Montgomery County","state_id":"PA"},{"zip":"19085","fips":"42045","name":"Delaware County","state_id":"PA"},{"zip":"19086","fips":"42045","name":"Delaware County","state_id":"PA"},{"zip":"19087","fips":"42029","name":"Chester County","state_id":"PA"},{"zip":"19087","fips":"42045","name":"Delaware County","state_id":"PA"},{"zip":"19087","fips":"42091","name":"Montgomery County","state_id":"PA"},{"zip":"19090","fips":"42091","name":"Montgomery County","state_id":"PA"},{"zip":"19091","fips":"42045","name":"Delaware County","state_id":"PA"},{"zip":"19094","fips":"42045","name":"Delaware County","state_id":"PA"},{"zip":"19095","fips":"42101","name":"Philadelphia County","state_id":"PA"},{"zip":"19095","fips":"42091","name":"Montgomery County","state_id":"PA"},{"zip":"19096","fips":"42045","name":"Delaware County","state_id":"PA"},{"zip":"19096","fips":"42091","name":"Montgomery County","state_id":"PA"}]
