[{"zip":"19101","fips":"42101","name":"Philadelphia County","state_id":"PA"},{"zip":"19102","fips":"42101","name":"Philadelphia County","state_id":"PA"},{"zip":"19103","fips":"42101","name":"Philadelphia County","state_id":"PA"},{"zip":"19104","fips":"42101","name":"Philadelphia County","state_id":"PA"},{"zip":"19105","fips":"42101","name":"Philadelphia County","state_id":"PA"},{"zip":"19106","fips":"42101","name":"Philadelphia County","state_id":"PA"},{"zip":"19107","fips":"42101","name":"Philadelphia County","state_id":"PA"},{"zip":"19108","fips":"42101","name":"Philadelphia County","state_id":"PA"},{"zip":"19109","fips":"42101","name":"Philadelphia County","state_id":"PA"},{"zip":"19110","fips":"42101","name":"Philadelphia County","state_id":"PA"},{"zip":"19111","fips":"42101","name":"Philadelphia County","state_id":"PA"},{"zip":"19112","fips":"42101","name":"Philadelphia County","state_id":"PA"},{"zip":"19113","fips":"42045","name":"Delaware County","state_id":"PA"},{"zip":"19114","fips":"42101","name":"Philadelphia County","state_id":"PA"},{"zip":"19115","fips":"42091","name":"Montgomery County","state_id":"PA"},{"zip":"19115","fips":"42101","name":"Philadelphia County","state_id":"PA"},{"zip":"19116","fips":"42017","name":"Bucks County","state_id":"PA"},{"zip":"19116","fips":"42101","name":"Philadelphia County","state_id":"PA"},{"zip":"19118","fips":"42101","name":"Philadelphia County","state_id":"PA"},{"zip":"19118","fips":"42091","name":"Montgomery County","state_id":"PA"},{"zip":"19119","fips":"42101","name":"Philadelphia County","state_id":"PA"},{"zip":"19120","fips":"42101","name":"Philadelphia County","state_id":"PA"},{"zip":"19121","fips":"42101","name":"Philadelphia County","state_id":"PA"},{"zip":"19122","fips":"42101","name":"Philadelphia County","state_id":"PA"},{"zip":"19123","fips":"42101","name":"Philadelphia County","state_id":"PA"},{"zip":"19124","fips":"42101","name":"Philadelphia County","state_id":"PA"},{"zip":"19125","fips":"42101","name":"Philadelphia County","state_id":"PA"},{"zip":"19126","fips":"42101","name":"Philadelphia County","state_id":"PA"},{"zip":"19127","fips":"42101","name":"Philadelphia County","state_id":"PA"},{"zip":"19128","fips":"42091","name":"Montgomery County","state_id":"PA"},{"zip":"19128","fips":"42101","name":"Philadelphia County","state_id":"PA"},{"zip":"19129","fips":"42101","name":"Philadelphia County","state_id":"PA"},{"zip":"19130","fips":"42101","name":"Philadelphia County","state_id":"PA"},{"zip":"19131","fips":"42101","name":"Philadelphia County","state_id":"PA"},{"zip":"19132","fips":"42101","name":"Philadelphia County","state_id":"PA"},{"zip":"19133","fips":"42101","name":"Philadelphia County","state_id":"PA"},{"zip":"19134","fips":"42101","name":"Philadelphia County","state_id":"PA"},{"zip":"19135","fips":"42101","name":"Philadelphia County","state_id":"PA"},{"zip":"19136","fips":"42101","name":"Philadelphia County","state_id":"PA"},{"zip":"19137","fips":"42101","name":"Philadelphia County","state_id":"PA"},{"zip":"19138","fips":"42101","name":"Philadelphia County","state_id":"PA"},{"zip":"19139","fips":"42101","name":"Philadelphia County","state_id":"PA"},{"zip":"19140","fips":"42101","name":"Philadelphia County","state_id":"PA"},{"zip":"19141","fips":"42101","name":"Philadelphia County","state_id":"PA"},{"zip":"19142","fips":"42101","name":"Philadelphia County","state_id":"PA"},{"zip":"19143","fips":"42101","name":"Philadelphia County","state_id":"PA"},{"zip":"19144","fips":"42101","name":"Philadelphia County","state_id":"PA"},{"zip":"19145","fips":"42101","name":"Philadelphia County","state_id":"PA"},{"zip":"19146","fips":"42101","name":"Philadelphia County","state_id":"PA"},{"zip":"19147","fips":"42101","name":"Philadelphia County","state_id":"PA"},{"zip":"19148","fips":"42101","name":"Philadelphia County","state_id":"PA"},{"zip":"19149","fips":"42101","name":"Philadelphia County","state_id":"PA"},{"zip":"19150","fips":"42101","name":"Philadelphia County","state_id":"PA"},{"zip":"19150","fips":"42091","name":"Montgomery County","state_id":"PA"},{"zip":"19151","fips":"42101","name":"Philadelphia County","state_id":"PA"},{"zip":"19152","fips":"42101","name":"Philadelphia County","state_id":"PA"},{"zip":"19153","fips":"42045","name":"Delaware County","state_id":"PA"},{"zip":"19153","fips":"42101","name":"Philadelphia County","state_id":"PA"},{"zip":"19154","fips":"42101","name":"Philadelphia County","state_id":"PA"},{"zip":"19160","fips":"42101","name":"Philadelphia County","state_id":"PA"},{"zip":"19172","fips":"42101","name":"Philadelphia County","state_id":"PA"},{"zip":"19176","fips":"42101","name":"Philadelphia County","state_id":"PA"},{"zip":"19181","fips":"42101","name":"Philadelphia County","state_id":"PA"},{"zip":"19190","fips":"42101","name":"Philadelphia County","state_id":"PA"},{"zip":"19192","fips":"42101","name":"Philadelphia County","state_id":"PA"}]
