[{"zip":"19301","fips":"42029","name":"Chester County","state_id":"PA"},{"zip":"19310","fips":"42029","name":"Chester County","state_id":"PA"},{"zip":"19310","fips":"42071","name":"Lancaster County","state_id":"PA"},{"zip":"19311","fips":"42029","name":"Chester County","state_id":"PA"},{"zip":"19312","fips":"42029","name":"Chester County","state_id":"PA"},{"zip":"19312","fips":"42045","name":"Delaware County","state_id":"PA"},{"zip":"19316","fips":"42029","name":"Chester County","state_id":"PA"},{"zip":"19317","fips":"42029","name":"Chester County","state_id":"PA"},{"zip":"19317","fips":"42045","name":"Delaware County","state_id":"PA"},{"zip":"19318","fips":"42029","name":"Chester County","state_id":"PA"},{"zip":"19319","fips":"42029","name":"Chester County","state_id":"PA"},{"zip":"19319","fips":"42045","name":"Delaware County","state_id":"PA"},{"zip":"19320","fips":"42029","name":"Chester County","state_id":"PA"},{"zip":"19330","fips":"42029","name":"Chester County","state_id":"PA"},{"zip":"19331","fips":"42045","name":"Delaware County","state_id":"PA"},{"zip":"19333","fips":"42029","name":"Chester County","state_id":"PA"},{"zip":"19333","fips":"42045","name":"Delaware County","state_id":"PA"},{"zip":"19335","fips":"42029","name":"Chester County","state_id":"PA"},{"zip":"19339","fips":"42045","name":"Delaware County","state_id":"PA"},{"zip":"19341","fips":"42029","name":"Chester County","state_id":"PA"},{"zip":"19342","fips":"42045","name":"Delaware County","state_id":"PA"},{"zip":"19342","fips":"42029","name":"Chester County","state_id":"PA"},{"zip":"19343","fips":"42029","name":"Chester County","state_id":"PA"},{"zip":"19344","fips":"42029","name":"Chester County","state_id":"PA"},{"zip":"19344","fips":"42071","name":"Lancaster County","state_id":"PA"},{"zip":"19345","fips":"42029","name":"Chester County","state_id":"PA"},{"zip":"19346","fips":"42029","name":"Chester County","state_id":"PA"},{"zip":"19347","fips":"42029","name":"Chester County","state_id":"PA"},{"zip":"19348","fips":"42029","name":"Chester County","state_id":"PA"},{"zip":"19350","fips":"42029","name":"Chester County","state_id":"PA"},{"zip":"19351","fips":"42029","name":"Chester County","state_id":"PA"},{"zip":"19352","fips":"42029","name":"Chester County","state_id":"PA"},{"zip":"19354","fips":"42029","name":"Chester County","state_id":"PA"},{"zip":"19355","fips":"42029","name":"Chester County","state_id":"PA"},{"zip":"19357","fips":"42029","name":"Chester County","state_id":"PA"},{"zip":"19358","fips":"42029","name":"Chester County","state_id":"PA"},{"zip":"19360","fips":"42029","name":"Chester County","state_id":"PA"},{"zip":"19362","fips":"42029","name":"Chester County","state_id":"PA"},{"zip":"19362","fips":"42071","name":"Lancaster County","state_id":"PA"},{"zip":"19363","fips":"42029","name":"Chester County","state_id":"PA"},{"zip":"19363","fips":"42071","name":"Lancaster County","state_id":"PA"},{"zip":"19365","fips":"42029","name":"Chester County","state_id":"PA"},{"zip":"19366","fips":"42029","name":"Chester County","state_id":"PA"},{"zip":"19367","fips":"42029","name":"Chester County","state_id":"PA"},{"zip":"19369","fips":"42029","name":"Chester County","state_id":"PA"},{"zip":"19371","fips":"42029","name":"Chester County","state_id":"PA"},{"zip":"19372","fips":"42029","name":"Chester County","state_id":"PA"},{"zip":"19373","fips":"42045","name":"Delaware County","state_id":"PA"},{"zip":"19373","fips":"42029","name":"Chester County","state_id":"PA"},{"zip":"19374","fips":"42029","name":"Chester County","state_id":"PA"},{"zip":"19375","fips":"42029","name":"Chester County","state_id":"PA"},{"zip":"19376","fips":"42029","name":"Chester County","state_id":"PA"},{"zip":"19380","fips":"42029","name":"Chester County","state_id":"PA"},{"zip":"19381","fips":"42029","name":"Chester County","state_id":"PA"},{"zip":"19382","fips":"42029","name":"Chester County","state_id":"PA"},{"zip":"19382","fips":"42045","name":"Delaware County","state_id":"PA"},{"zip":"19383","fips":"42029","name":"Chester County","state_id":"PA"},{"zip":"19390","fips":"42029","name":"Chester County","state_id":"PA"},{"zip":"19395","fips":"42029","name":"Chester County","state_id":"PA"},{"zip":"19399","fips":"42029","name":"Chester County","state_id":"PA"}]
