[{"zip":"19401","fips":"42091","name":"Montgomery County","state_id":"PA"},{"zip":"19403","fips":"42091","name":"Montgomery County","state_id":"PA"},{"zip":"19404","fips":"42091","name":"Montgomery County","state_id":"PA"},{"zip":"19405","fips":"42043","name":"Dauphin County","state_id":"PA"},{"zip":"19405","fips":"42091","name":"Montgomery County","state_id":"PA"},{"zip":"19406","fips":"42091","name":"Montgomery County","state_id":"PA"},{"zip":"19406","fips":"42029","name":"Chester County","state_id":"PA"},{"zip":"19407","fips":"42091","name":"Montgomery County","state_id":"PA"},{"zip":"19408","fips":"42091","name":"Montgomery County","state_id":"PA"},{"zip":"19409","fips":"42091","name":"Montgomery County","state_id":"PA"},{"zip":"19421","fips":"42029","name":"Chester County","state_id":"PA"},{"zip":"19422","fips":"42091","name":"Montgomery County","state_id":"PA"},{"zip":"19423","fips":"42091","name":"Montgomery County","state_id":"PA"},{"zip":"19425","fips":"42029","name":"Chester County","state_id":"PA"},{"zip":"19426","fips":"42091","name":"Montgomery County","state_id":"PA"},{"zip":"19428","fips":"42091","name":"Montgomery County","state_id":"PA"},{"zip":"19430","fips":"42091","name":"Montgomery County","state_id":"PA"},{"zip":"19432","fips":"42029","name":"Chester County","state_id":"PA"},{"zip":"19435","fips":"42091","name":"Montgomery County","state_id":"PA"},{"zip":"19436","fips":"42091","name":"Montgomery County","state_id":"PA"},{"zip":"19437","fips":"42091","name":"Montgomery County","state_id":"PA"},{"zip":"19438","fips":"42091","name":"Montgomery County","state_id":"PA"},{"zip":"19440","fips":"42091","name":"Montgomery County","state_id":"PA"},{"zip":"19440","fips":"42017","name":"Bucks County","state_id":"PA"},{"zip":"19442","fips":"42029","name":"Chester County","state_id":"PA"},{"zip":"19443","fips":"42091","name":"Montgomery County","state_id":"PA"},{"zip":"19444","fips":"42091","name":"Montgomery County","state_id":"PA"},{"zip":"19446","fips":"42091","name":"Montgomery County","state_id":"PA"},{"zip":"19450","fips":"42091","name":"Montgomery County","state_id":"PA"},{"zip":"19451","fips":"42091","name":"Montgomery County","state_id":"PA"},{"zip":"19453","fips":"42091","name":"Montgomery County","state_id":"PA"},{"zip":"19454","fips":"42017","name":"Bucks County","state_id":"PA"},{"zip":"19454","fips":"42091","name":"Montgomery County","state_id":"PA"},{"zip":"19456","fips":"42091","name":"Montgomery County","state_id":"PA"},{"zip":"19457","fips":"42029","name":"Chester County","state_id":"PA"},{"zip":"19460","fips":"42091","name":"Montgomery County","state_id":"PA"},{"zip":"19460","fips":"42029","name":"Chester County","state_id":"PA"},{"zip":"19462","fips":"42091","name":"Montgomery County","state_id":"PA"},{"zip":"19464","fips":"42011","name":"Berks County","state_id":"PA"},{"zip":"19464","fips":"42029","name":"Chester County","state_id":"PA"},{"zip":"19464","fips":"42091","name":"Montgomery County","state_id":"PA"},{"zip":"19465","fips":"42029","name":"Chester County","state_id":"PA"},{"zip":"19468","fips":"42091","name":"Montgomery County","state_id":"PA"},{"zip":"19470","fips":"42029","name":"Chester County","state_id":"PA"},{"zip":"19472","fips":"42091","name":"Montgomery County","state_id":"PA"},{"zip":"19473","fips":"42091","name":"Montgomery County","state_id":"PA"},{"zip":"19474","fips":"42091","name":"Montgomery County","state_id":"PA"},{"zip":"19475","fips":"42029","name":"Chester County","state_id":"PA"},{"zip":"19477","fips":"42091","name":"Montgomery County","state_id":"PA"},{"zip":"19480","fips":"42029","name":"Chester County","state_id":"PA"},{"zip":"19481","fips":"42029","name":"Chester County","state_id":"PA"},{"zip":"19482","fips":"42029","name":"Chester County","state_id":"PA"},{"zip":"19484","fips":"42091","name":"Montgomery County","state_id":"PA"},{"zip":"19486","fips":"42091","name":"Montgomery County","state_id":"PA"},{"zip":"19490","fips":"42091","name":"Montgomery County","state_id":"PA"},{"zip":"19492","fips":"42091","name":"Montgomery County","state_id":"PA"}]
