[{"zip":"19501","fips":"42011","name":"Berks County","state_id":"PA"},{"zip":"19501","fips":"42071","name":"Lancaster County","state_id":"PA"},{"zip":"19503","fips":"42011","name":"Berks County","state_id":"PA"},{"zip":"19504","fips":"42091","name":"Montgomery County","state_id":"PA"},{"zip":"19504","fips":"42011","name":"Berks County","state_id":"PA"},{"zip":"19505","fips":"42091","name":"Montgomery County","state_id":"PA"},{"zip":"19505","fips":"42011","name":"Berks County","state_id":"PA"},{"zip":"19506","fips":"42011","name":"Berks County","state_id":"PA"},{"zip":"19507","fips":"42011","name":"Berks County","state_id":"PA"},{"zip":"19508","fips":"42011","name":"Berks County","state_id":"PA"},{"zip":"19510","fips":"42011","name":"Berks County","state_id":"PA"},{"zip":"19511","fips":"42011","name":"Berks County","state_id":"PA"},{"zip":"19512","fips":"42091","name":"Montgomery County","state_id":"PA"},{"zip":"19512","fips":"42011","name":"Berks County","state_id":"PA"},{"zip":"19516","fips":"42011","name":"Berks County","state_id":"PA"},{"zip":"19518","fips":"42011","name":"Berks County","state_id":"PA"},{"zip":"19519","fips":"42011","name":"Berks County","state_id":"PA"},{"zip":"19520","fips":"42011","name":"Berks County","state_id":"PA"},{"zip":"19520","fips":"42029","name":"Chester County","state_id":"PA"},{"zip":"19522","fips":"42011","name":"Berks County","state_id":"PA"},{"zip":"19523","fips":"42011","name":"Berks County","state_id":"PA"},{"zip":"19525","fips":"42011","name":"Berks County","state_id":"PA"},{"zip":"19525","fips":"42091","name":"Montgomery County","state_id":"PA"},{"zip":"19526","fips":"42011","name":"Berks County","state_id":"PA"},{"zip":"19529","fips":"42077","name":"Lehigh County","state_id":"PA"},{"zip":"19529","fips":"42011","name":"Berks County","state_id":"PA"},{"zip":"19530","fips":"42011","name":"Berks County","state_id":"PA"},{"zip":"19530","fips":"42077","name":"Lehigh County","state_id":"PA"},{"zip":"19533","fips":"42011","name":"Berks County","state_id":"PA"},{"zip":"19534","fips":"42011","name":"Berks County","state_id":"PA"},{"zip":"19535","fips":"42011","name":"Berks County","state_id":"PA"},{"zip":"19536","fips":"42011","name":"Berks County","state_id":"PA"},{"zip":"19538","fips":"42011","name":"Berks County","state_id":"PA"},{"zip":"19539","fips":"42011","name":"Berks County","state_id":"PA"},{"zip":"19539","fips":"42077","name":"Lehigh County","state_id":"PA"},{"zip":"19540","fips":"42071","name":"Lancaster County","state_id":"PA"},{"zip":"19540","fips":"42011","name":"Berks County","state_id":"PA"},{"zip":"19541","fips":"42011","name":"Berks County","state_id":"PA"},{"zip":"19543","fips":"42011","name":"Berks County","state_id":"PA"},{"zip":"19543","fips":"42029","name":"Chester County","state_id":"PA"},{"zip":"19543","fips":"42071","name":"Lancaster County","state_id":"PA"},{"zip":"19544","fips":"42011","name":"Berks County","state_id":"PA"},{"zip":"19545","fips":"42011","name":"Berks County","state_id":"PA"},{"zip":"19547","fips":"42011","name":"Berks County","state_id":"PA"},{"zip":"19548","fips":"42011","name":"Berks County","state_id":"PA"},{"zip":"19549","fips":"42107","name":"Schuylkill County","state_id":"PA"},{"zip":"19550","fips":"42011","name":"Berks County","state_id":"PA"},{"zip":"19551","fips":"42011","name":"Berks County","state_id":"PA"},{"zip":"19551","fips":"42071","name":"Lancaster County","state_id":"PA"},{"zip":"19551","fips":"42075","name":"Lebanon County","state_id":"PA"},{"zip":"19554","fips":"42011","name":"Berks County","state_id":"PA"},{"zip":"19555","fips":"42011","name":"Berks County","state_id":"PA"},{"zip":"19559","fips":"42011","name":"Berks County","state_id":"PA"},{"zip":"19560","fips":"42011","name":"Berks County","state_id":"PA"},{"zip":"19562","fips":"42011","name":"Berks County","state_id":"PA"},{"zip":"19564","fips":"42011","name":"Berks County","state_id":"PA"},{"zip":"19565","fips":"42011","name":"Berks County","state_id":"PA"},{"zip":"19567","fips":"42011","name":"Berks County","state_id":"PA"},{"zip":"19567","fips":"42075","name":"Lebanon County","state_id":"PA"}]
