[{"zip":"19701","fips":"10003","name":"New Castle County","state_id":"DE"},{"zip":"19702","fips":"10003","name":"New Castle County","state_id":"DE"},{"zip":"19703","fips":"10003","name":"New Castle County","state_id":"DE"},{"zip":"19706","fips":"10003","name":"New Castle County","state_id":"DE"},{"zip":"19707","fips":"10003","name":"New Castle County","state_id":"DE"},{"zip":"19708","fips":"10003","name":"New Castle County","state_id":"DE"},{"zip":"19709","fips":"10003","name":"New Castle County","state_id":"DE"},{"zip":"19710","fips":"10003","name":"New Castle County","state_id":"DE"},{"zip":"19711","fips":"10003","name":"New Castle County","state_id":"DE"},{"zip":"19712","fips":"10003","name":"New Castle County","state_id":"DE"},{"zip":"19713","fips":"10003","name":"New Castle County","state_id":"DE"},{"zip":"19714","fips":"10003","name":"New Castle County","state_id":"DE"},{"zip":"19715","fips":"10003","name":"New Castle County","state_id":"DE"},{"zip":"19716","fips":"10003","name":"New Castle County","state_id":"DE"},{"zip":"19717","fips":"10003","name":"New Castle County","state_id":"DE"},{"zip":"19718","fips":"10003","name":"New Castle County","state_id":"DE"},{"zip":"19720","fips":"10003","name":"New Castle County","state_id":"DE"},{"zip":"19721","fips":"10003","name":"New Castle County","state_id":"DE"},{"zip":"19726","fips":"10003","name":"New Castle County","state_id":"DE"},{"zip":"19730","fips":"10003","name":"New Castle County","state_id":"DE"},{"zip":"19731","fips":"10003","name":"New Castle County","state_id":"DE"},{"zip":"19732","fips":"10003","name":"New Castle County","state_id":"DE"},{"zip":"19733","fips":"10003","name":"New Castle County","state_id":"DE"},{"zip":"19734","fips":"10003","name":"New Castle County","state_id":"DE"},{"zip":"19735","fips":"10003","name":"New Castle County","state_id":"DE"},{"zip":"19736","fips":"10003","name":"New Castle County","state_id":"DE"}]
