[{"zip":"19901","fips":"10001","name":"Kent County","state_id":"DE"},{"zip":"19902","fips":"10001","name":"Kent County","state_id":"DE"},{"zip":"19903","fips":"10001","name":"Kent County","state_id":"DE"},{"zip":"19904","fips":"10001","name":"Kent County","state_id":"DE"},{"zip":"19930","fips":"10005","name":"Sussex County","state_id":"DE"},{"zip":"19931","fips":"10005","name":"Sussex County","state_id":"DE"},{"zip":"19933","fips":"10005","name":"Sussex County","state_id":"DE"},{"zip":"19934","fips":"10001","name":"Kent County","state_id":"DE"},{"zip":"19936","fips":"10001","name":"Kent County","state_id":"DE"},{"zip":"19938","fips":"10001","name":"Kent County","state_id":"DE"},{"zip":"19938","fips":"10003","name":"New Castle County","state_id":"DE"},{"zip":"19939","fips":"10005","name":"Sussex County","state_id":"DE"},{"zip":"19940","fips":"10005","name":"Sussex County","state_id":"DE"},{"zip":"19941","fips":"10005","name":"Sussex County","state_id":"DE"},{"zip":"19943","fips":"10001","name":"Kent County","state_id":"DE"},{"zip":"19944","fips":"10005","name":"Sussex County","state_id":"DE"},{"zip":"19945","fips":"10005","name":"Sussex County","state_id":"DE"},{"zip":"19946","fips":"10001","name":"Kent County","state_id":"DE"},{"zip":"19947","fips":"10005","name":"Sussex County","state_id":"DE"},{"zip":"19950","fips":"10001","name":"Kent County","state_id":"DE"},{"zip":"19950","fips":"10005","name":"Sussex County","state_id":"DE"},{"zip":"19951","fips":"10005","name":"Sussex County","state_id":"DE"},{"zip":"19952","fips":"10001","name":"Kent County","state_id":"DE"},{"zip":"19952","fips":"10005","name":"Sussex County","state_id":"DE"},{"zip":"19953","fips":"10001","name":"Kent County","state_id":"DE"},{"zip":"19954","fips":"10001","name":"Kent County","state_id":"DE"},{"zip":"19955","fips":"10001","name":"Kent County","state_id":"DE"},{"zip":"19956","fips":"10005","name":"Sussex County","state_id":"DE"},{"zip":"19958","fips":"10005","name":"Sussex County","state_id":"DE"},{"zip":"19960","fips":"10005","name":"Sussex County","state_id":"DE"},{"zip":"19961","fips":"10001","name":"Kent County","state_id":"DE"},{"zip":"19962","fips":"10001","name":"Kent County","state_id":"DE"},{"zip":"19963","fips":"10001","name":"Kent County","state_id":"DE"},{"zip":"19963","fips":"10005","name":"Sussex County","state_id":"DE"},{"zip":"19964","fips":"10001","name":"Kent County","state_id":"DE"},{"zip":"19966","fips":"10005","name":"Sussex County","state_id":"DE"},{"zip":"19967","fips":"10005","name":"Sussex County","state_id":"DE"},{"zip":"19968","fips":"10005","name":"Sussex County","state_id":"DE"},{"zip":"19969","fips":"10005","name":"Sussex County","state_id":"DE"},{"zip":"19970","fips":"10005","name":"Sussex County","state_id":"DE"},{"zip":"19971","fips":"10005","name":"Sussex County","state_id":"DE"},{"zip":"19973","fips":"10005","name":"Sussex County","state_id":"DE"},{"zip":"19975","fips":"10005","name":"Sussex County","state_id":"DE"},{"zip":"19977","fips":"10001","name":"Kent County","state_id":"DE"},{"zip":"19977","fips":"10003","name":"New Castle County","state_id":"DE"},{"zip":"19979","fips":"10001","name":"Kent County","state_id":"DE"},{"zip":"19980","fips":"10001","name":"Kent County","state_id":"DE"}]
